{"type": "Feature", "properties": {"district_name": "2nd Suffolk District", "chamber": "house", "vintage": "2022-present"}, "geometry": {"type": "Polygon", "coordinates": [[[-71.107213, 42.347049000000005], [-71.106894, 42.348588], [-71.106001, 42.348404000000016], [-71.105067, 42.34669599999999], [-71.103352, 42.347156000000005], [-71.10282, 42.346187999999984], [-71.099905, 42.347528], [-71.099802, 42.34765099999998], [-71.101143, 42.347758], [-71.100564, 42.347918], [-71.100995, 42.34797], [-71.100764, 42.348101], [-71.100555, 42.349357000000005], [-71.103624, 42.349733], [-71.103032, 42.352514], [-71.09789, 42.35311999999999], [-71.098817, 42.355342], [-71.096564, 42.35609000000001], [-71.096886, 42.356627], [-71.095092, 42.357236999999984], [-71.095244, 42.357475], [-71.093138, 42.358222999999995], [-71.093254, 42.358443000000015], [-71.093845, 42.358309999999996], [-71.094065, 42.358699], [-71.093489, 42.35888100000002], [-71.094107, 42.35960899999999], [-71.094852, 42.36016600000001], [-71.090227, 42.362452], [-71.090021, 42.362691000000005], [-71.084675, 42.362298999999986], [-71.084389, 42.362713], [-71.089432, 42.36478999999999], [-71.088941, 42.366054], [-71.087914, 42.366357999999984], [-71.084472, 42.365959], [-71.084285, 42.36668900000003], [-71.079725, 42.36612], [-71.078618, 42.370862999999986], [-71.075569, 42.37036099999999], [-71.07606, 42.370713000000016], [-71.075372, 42.372567], [-71.074946, 42.372917999999984], [-71.074353, 42.37255], [-71.074001, 42.37254900000001], [-71.072689, 42.37322199999999], [-71.075657, 42.380196000000005], [-71.080701, 42.381039], [-71.080971, 42.38232300000001], [-71.079713, 42.38292100000003], [-71.073496, 42.391795999999985], [-71.072696, 42.390796], [-71.069322, 42.39402200000001], [-71.069037, 42.39388500000001], [-71.067367, 42.395296], [-71.066858, 42.394979], [-71.066944, 42.39475500000001], [-71.061838, 42.40030399999999], [-71.060573, 42.40122300000001], [-71.05986, 42.40213500000001], [-71.059751, 42.402546], [-71.058464, 42.402973], [-71.057081, 42.403195], [-71.052758, 42.403152], [-71.041435, 42.401795999999976], [-71.040568, 42.401982], [-71.048145, 42.396633999999985], [-71.050018, 42.39757], [-71.051076, 42.397781], [-71.051945, 42.397619], [-71.052858, 42.396945], [-71.053297, 42.396178], [-71.053301, 42.395392], [-71.052521, 42.39487500000001], [-71.05069, 42.394576000000015], [-71.050131, 42.393980000000006], [-71.050229, 42.393776], [-71.050002, 42.39347099999999], [-71.050695, 42.391996000000006], [-71.055295, 42.38709700000002], [-71.048186, 42.385685999999986], [-71.047284, 42.38528399999999], [-71.044298, 42.383209], [-71.045195, 42.37709699999999], [-71.046995, 42.372597000000006], [-71.049095, 42.371197], [-71.050895, 42.370697], [-71.054995, 42.370697], [-71.057141, 42.369982], [-71.059795, 42.368767], [-71.062994, 42.36839100000001], [-71.063921, 42.369016000000016], [-71.069478, 42.36904599999999], [-71.073721, 42.365056], [-71.074792, 42.363773000000016], [-71.076092, 42.36038], [-71.077334, 42.35908399999999], [-71.077952, 42.35873500000001], [-71.091235, 42.354338], [-71.089757, 42.35136299999999], [-71.09165, 42.350801], [-71.091618, 42.34919300000001], [-71.091933, 42.349180000000004], [-71.091939, 42.348856000000005], [-71.091768, 42.34885700000002], [-71.09204400000002, 42.34685000000002], [-71.09227, 42.34711100000002], [-71.093295, 42.346511], [-71.094303, 42.345577], [-71.094768, 42.344443000000005], [-71.099554, 42.34311000000001], [-71.09854, 42.34091], [-71.096885, 42.339026], [-71.097289, 42.338783], [-71.097741, 42.338698], [-71.098383, 42.33882400000001], [-71.10023500000001, 42.33989900000003], [-71.103275, 42.342741], [-71.10304, 42.342948], [-71.104619, 42.34438799999999], [-71.105516, 42.343812], [-71.107213, 42.347049000000005]]]}}