{"type": "Feature", "properties": {"district_name": "7th Essex District", "chamber": "house", "vintage": "2022-present"}, "geometry": {"type": "MultiPolygon", "coordinates": [[[[-70.798847, 42.544533], [-70.798545, 42.54499700000001], [-70.79781, 42.545512], [-70.796548, 42.545725999999995], [-70.79614, 42.54553899999999], [-70.796202, 42.545069999999996], [-70.796705, 42.54460300000001], [-70.797486, 42.544468999999985], [-70.798445, 42.544052999999984], [-70.798847, 42.544533]]], [[[-70.803485, 42.548360000000024], [-70.803184, 42.548652000000004], [-70.802225, 42.550473000000004], [-70.802457, 42.551068], [-70.803082, 42.551874], [-70.80234, 42.55208300000001], [-70.800872, 42.551407999999995], [-70.799379, 42.551337], [-70.798846, 42.55097699999999], [-70.798298, 42.549823999999994], [-70.797254, 42.54984799999999], [-70.797075, 42.550473000000004], [-70.796379, 42.55114100000002], [-70.795868, 42.55119899999999], [-70.794879, 42.55058399999998], [-70.795119, 42.550373], [-70.795227, 42.549764], [-70.795668, 42.54941399999999], [-70.79544400000002, 42.548941], [-70.794477, 42.548915000000015], [-70.793627, 42.54866299999999], [-70.79324, 42.54826800000001], [-70.793171, 42.54785099999998], [-70.793333, 42.547325999999984], [-70.794724, 42.547489], [-70.7959, 42.546939], [-70.796442, 42.546386], [-70.79683600000001, 42.54633400000001], [-70.798653, 42.547147999999986], [-70.79938, 42.54711400000001], [-70.799975, 42.547505000000015], [-70.80132, 42.547394], [-70.801962, 42.54709999999999], [-70.802279, 42.54717200000002], [-70.803338, 42.548068999999984], [-70.803485, 42.548360000000024]]], [[[-70.817553, 42.514115], [-70.816456, 42.51472600000001], [-70.81607, 42.514669], [-70.815738, 42.514161], [-70.814957, 42.514075000000005], [-70.81537400000002, 42.51372599999999], [-70.815335, 42.51351900000001], [-70.814795, 42.51338800000003], [-70.814323, 42.51282900000001], [-70.814238, 42.51247400000002], [-70.813844, 42.512128999999995], [-70.81294800000002, 42.51229200000001], [-70.812005, 42.51213599999999], [-70.811897, 42.51197500000001], [-70.812322, 42.511793000000004], [-70.812298, 42.51149200000001], [-70.812569, 42.51119], [-70.811873, 42.51098500000001], [-70.812067, 42.510329], [-70.812422, 42.510022000000006], [-70.812685, 42.510036], [-70.81291, 42.510393], [-70.812719, 42.51062900000001], [-70.813071, 42.51068699999999], [-70.813365, 42.51097499999999], [-70.813736, 42.510713000000024], [-70.81447, 42.510962], [-70.815591, 42.512736], [-70.816054, 42.512711], [-70.816433, 42.51307], [-70.816935, 42.51321000000001], [-70.817553, 42.513889000000006], [-70.817553, 42.514115]]], [[[-70.83535, 42.483835000000006], [-70.834685, 42.484421000000005], [-70.834263, 42.48547199999999], [-70.833704, 42.485713], [-70.833768, 42.48540200000001], [-70.833183, 42.48467200000001], [-70.832987, 42.484123], [-70.833352, 42.48408200000001], [-70.83319, 42.483923], [-70.833317, 42.483868000000015], [-70.834599, 42.48410899999999], [-70.834939, 42.483343999999995], [-70.834245, 42.482695], [-70.833558, 42.48254700000001], [-70.833361, 42.48192199999999], [-70.834377, 42.482125], [-70.83452400000002, 42.481931], [-70.834915, 42.48203099999998], [-70.834866, 42.482296999999996], [-70.835159, 42.482476999999996], [-70.83535, 42.483835000000006]]], [[[-70.949917, 42.494775999999995], [-70.919785, 42.520586], [-70.918857, 42.522878999999996], [-70.91773, 42.52263100000001], [-70.91710200000001, 42.524271000000006], [-70.917476, 42.524375], [-70.917986, 42.524235999999995], [-70.918126, 42.52484499999999], [-70.918314, 42.524973], [-70.916482, 42.52685499999999], [-70.917004, 42.527090000000015], [-70.91554, 42.528822000000005], [-70.912707, 42.528057], [-70.913145, 42.53161], [-70.912826, 42.532393000000006], [-70.913256, 42.532576], [-70.91349, 42.541471], [-70.910809, 42.540949999999995], [-70.909755, 42.54092400000001], [-70.90934300000002, 42.54074800000001], [-70.909306, 42.540464], [-70.907922, 42.54033499999999], [-70.909589, 42.54254699999999], [-70.90954, 42.54294800000001], [-70.909835, 42.543108000000004], [-70.909929, 42.54359799999999], [-70.909584, 42.544473999999994], [-70.908399, 42.545558], [-70.909208, 42.54624799999999], [-70.907888, 42.54683599999999], [-70.907019, 42.546626], [-70.907041, 42.54619999999999], [-70.902758, 42.544828], [-70.898429, 42.54290700000001], [-70.894394, 42.540696000000004], [-70.890294, 42.539296], [-70.8881, 42.539000000000016], [-70.888266, 42.53678799999999], [-70.88814, 42.53648799999998], [-70.887774, 42.536302], [-70.887527, 42.53638200000001], [-70.887554, 42.537001999999994], [-70.887192, 42.537943], [-70.886447, 42.53804799999999], [-70.878793, 42.53719499999999], [-70.870992, 42.540195], [-70.867792, 42.541795], [-70.862766, 42.53972], [-70.856343, 42.539343999999986], [-70.842493, 42.538196000000006], [-70.799807, 42.53979500000001], [-70.796666, 42.53977799999999], [-70.789403, 42.53185700000001], [-70.78872900000002, 42.534223], [-70.788783, 42.535486999999996], [-70.788405, 42.536879000000006], [-70.786919, 42.537218], [-70.785729, 42.537052], [-70.783402, 42.53580499999998], [-70.782823, 42.535309999999996], [-70.782638, 42.53456099999999], [-70.782213, 42.533982], [-70.782252, 42.533716], [-70.783148, 42.533207000000004], [-70.783442, 42.532805999999994], [-70.785058, 42.532353], [-70.785383, 42.531839], [-70.785453, 42.53139199999999], [-70.785863, 42.53102999999998], [-70.78673700000002, 42.530758999999996], [-70.787275, 42.53087099999999], [-70.787672, 42.530583000000014], [-70.78846, 42.530625], [-70.77789, 42.522795], [-70.743567, 42.49597399999999], [-70.749489, 42.492722000000015], [-70.767571, 42.484591], [-70.799042, 42.509222], [-70.813707, 42.52237900000001], [-70.843292, 42.528795], [-70.858092, 42.52739499999999], [-70.875092, 42.518494999999994], [-70.877392, 42.514195], [-70.879692, 42.509294999999995], [-70.879359, 42.508429], [-70.878708, 42.505365], [-70.879544, 42.50374999999998], [-70.882245, 42.50270700000001], [-70.886761, 42.49844699999999], [-70.886001, 42.497809], [-70.885801, 42.4978], [-70.885497, 42.49736799999999], [-70.885673, 42.49669299999999], [-70.886141, 42.496149], [-70.886488, 42.495998000000014], [-70.886362, 42.495695000000005], [-70.886604, 42.495179], [-70.887326, 42.494942], [-70.888021, 42.49493700000001], [-70.888401, 42.49471299999999], [-70.888598, 42.494385000000015], [-70.890801, 42.493644999999994], [-70.89052, 42.49337899999999], [-70.890958, 42.493213999999995], [-70.889949, 42.490141], [-70.890624, 42.48874300000001], [-70.894244, 42.485951000000014], [-70.89903300000002, 42.48467200000001], [-70.901779, 42.485358000000005], [-70.905075, 42.484840000000005], [-70.906539, 42.484263000000006], [-70.933985, 42.490802999999985], [-70.949917, 42.494775999999995]]]]}}