{"type": "Feature", "properties": {"district_name": "33rd Middlesex District", "chamber": "house", "vintage": "2022-present"}, "geometry": {"type": "Polygon", "coordinates": [[[-71.08943, 42.426724], [-71.089062, 42.42911500000001], [-71.088031, 42.42902600000001], [-71.08725, 42.43413900000002], [-71.085859, 42.43275100000002], [-71.082271, 42.43301600000001], [-71.081872, 42.431968999999995], [-71.08177, 42.43122799999998], [-71.078059, 42.431472], [-71.074826, 42.431958], [-71.072307, 42.432058], [-71.072276, 42.43308900000001], [-71.071944, 42.433787], [-71.071995, 42.43536199999999], [-71.072576, 42.435824], [-71.072848, 42.435846], [-71.072819, 42.43668499999999], [-71.071412, 42.436430999999985], [-71.071232, 42.43684100000001], [-71.071085, 42.4378], [-71.071619, 42.44000000000001], [-71.06765700000001, 42.44041099999999], [-71.067198, 42.439564999999995], [-71.06708, 42.438812999999996], [-71.067191, 42.437380999999995], [-71.067633, 42.43657], [-71.067772, 42.43484], [-71.066521, 42.434872], [-71.064997, 42.43528799999999], [-71.06449200000002, 42.43516], [-71.064334, 42.435036], [-71.06414200000002, 42.43311], [-71.063563, 42.432304], [-71.062856, 42.43223799999999], [-71.060467, 42.432715], [-71.060935, 42.43416899999998], [-71.059817, 42.434177], [-71.057789, 42.43469300000002], [-71.054247, 42.43502000000001], [-71.054017, 42.43445599999999], [-71.053108, 42.43383999999998], [-71.053125, 42.433541], [-71.051189, 42.43334199999998], [-71.050817, 42.43333200000001], [-71.04893, 42.434175999999994], [-71.050334, 42.436284], [-71.050377, 42.43665800000001], [-71.04971500000002, 42.439432], [-71.048175, 42.439452], [-71.048987, 42.440311], [-71.049197, 42.441696000000015], [-71.050272, 42.4422], [-71.025836, 42.44470900000001], [-71.020377, 42.43824999999998], [-71.02822700000002, 42.424202], [-71.050472, 42.42288700000001], [-71.05283300000002, 42.42116300000001], [-71.055546, 42.42312800000001], [-71.053391, 42.424772], [-71.055064, 42.42603600000001], [-71.05646, 42.428363000000004], [-71.059451, 42.42703300000001], [-71.060009, 42.42790699999997], [-71.063295, 42.426170000000006], [-71.066172, 42.425261], [-71.072803, 42.425543999999974], [-71.074519, 42.42597799999998], [-71.076241, 42.421700999999985], [-71.076701, 42.42013399999998], [-71.076801, 42.413196], [-71.077132, 42.41328500000001], [-71.07931, 42.414938], [-71.07991, 42.415166000000006], [-71.081724, 42.41515700000001], [-71.08349, 42.41600700000001], [-71.08588, 42.417913], [-71.08943, 42.426724]]]}}