{"type": "Feature", "properties": {"district_name": "18th Worcester District", "chamber": "house", "vintage": "2022-present"}, "geometry": {"type": "Polygon", "coordinates": [[[-71.911855, 42.101326], [-71.899489, 42.104113999999996], [-71.902779, 42.120638000000014], [-71.901548, 42.11977299999999], [-71.90001, 42.119375], [-71.895157, 42.11986499999999], [-71.893315, 42.119649], [-71.890241, 42.117952999999986], [-71.887772, 42.116232999999994], [-71.886487, 42.115791000000016], [-71.88446, 42.11554999999999], [-71.883301, 42.115215], [-71.881638, 42.11429500000001], [-71.880506, 42.11316899999999], [-71.879494, 42.112839], [-71.878303, 42.112791], [-71.877153, 42.112993], [-71.869554, 42.115409], [-71.869383, 42.114312], [-71.869515, 42.11267100000001], [-71.868056, 42.112570000000005], [-71.867355, 42.116192999999996], [-71.864723, 42.117032], [-71.853365, 42.11636], [-71.851877, 42.116119000000005], [-71.848331, 42.115045000000016], [-71.848158, 42.115277], [-71.846545, 42.11595200000001], [-71.844379, 42.117278999999996], [-71.839958, 42.11923000000002], [-71.8371, 42.118767999999996], [-71.835962, 42.11882200000001], [-71.83393, 42.11934600000001], [-71.831218, 42.11980299999998], [-71.828106, 42.120841999999996], [-71.825104, 42.121376999999995], [-71.824023, 42.121038], [-71.822994, 42.121241], [-71.821875, 42.120975], [-71.820406, 42.12095999999999], [-71.819755, 42.12073000000001], [-71.818772, 42.120797999999986], [-71.817227, 42.12131800000002], [-71.814775, 42.122814000000005], [-71.814384, 42.123572], [-71.813082, 42.125274000000005], [-71.817956, 42.13326399999999], [-71.82953, 42.129390999999984], [-71.831942, 42.14377500000001], [-71.74415, 42.18243499999999], [-71.740533, 42.179206], [-71.733771, 42.183504000000006], [-71.733961, 42.18677499999999], [-71.723535, 42.191484], [-71.718614, 42.17296700000001], [-71.69520400000002, 42.17578899999999], [-71.691418, 42.163108], [-71.693687, 42.161214], [-71.691401, 42.149201000000005], [-71.693713, 42.136159], [-71.70464, 42.125253999999984], [-71.69201, 42.120292], [-71.707805, 42.099921], [-71.685541, 42.107265], [-71.679971, 42.10339599999999], [-71.654062, 42.096356], [-71.653626, 42.095209000000004], [-71.653101, 42.094548000000025], [-71.650733, 42.093036], [-71.646979, 42.090317000000006], [-71.644959, 42.088446000000005], [-71.644161, 42.088081], [-71.642079, 42.08765300000001], [-71.64091500000002, 42.08700200000001], [-71.640237, 42.086195], [-71.640017, 42.08485700000001], [-71.639041, 42.08335699999999], [-71.636791, 42.081406], [-71.634811, 42.080628999999995], [-71.636702, 42.07835899999999], [-71.63363900000002, 42.077759], [-71.631762, 42.076802], [-71.631103, 42.076734000000016], [-71.630054, 42.077083000000016], [-71.628137, 42.07488099999999], [-71.62711, 42.07334499999999], [-71.628997, 42.07262], [-71.631892, 42.071957], [-71.632923, 42.07136799999999], [-71.635217, 42.07154299999999], [-71.637167, 42.070903], [-71.637597, 42.070712], [-71.638996, 42.069386], [-71.64009400000002, 42.068730999999985], [-71.641688, 42.06808600000001], [-71.643131, 42.067838], [-71.644262, 42.067835], [-71.648003, 42.06699299999998], [-71.648503, 42.066636999999986], [-71.64968, 42.065055], [-71.64998, 42.06514000000001], [-71.652216, 42.06487399999998], [-71.655627, 42.06304699999999], [-71.656252, 42.06303000000002], [-71.657951, 42.06349800000003], [-71.651171, 42.060328999999996], [-71.653166, 42.06090900000002], [-71.655141, 42.060962], [-71.656174, 42.061412], [-71.656544, 42.06202700000001], [-71.657887, 42.06117700000001], [-71.65890200000001, 42.06102899999999], [-71.659724, 42.060236], [-71.661999, 42.059161], [-71.662477, 42.058732], [-71.663528, 42.05842100000001], [-71.664065, 42.057396999999995], [-71.666948, 42.055665], [-71.666784, 42.054474], [-71.667884, 42.052826], [-71.668104, 42.05208700000001], [-71.677806, 42.053917000000006], [-71.681802, 42.05492400000001], [-71.682451, 42.04374200000001], [-71.681665, 42.031592], [-71.680871, 42.01153000000001], [-71.771427, 42.009481000000015], [-71.799188, 42.008053], [-71.799709, 42.015629000000004], [-71.800671, 42.02351400000001], [-71.883947, 42.02439400000001], [-71.884032, 42.024859000000006], [-71.88526, 42.02527700000001], [-71.88704, 42.02829200000001], [-71.887098, 42.02863], [-71.886797, 42.029317999999996], [-71.886782, 42.029810000000005], [-71.887689, 42.030699000000006], [-71.887829, 42.031050000000015], [-71.887837, 42.031482], [-71.887475, 42.03222500000001], [-71.888736, 42.03388300000001], [-71.889345, 42.035768999999995], [-71.888694, 42.03917299999999], [-71.887943, 42.0406], [-71.887509, 42.04185400000001], [-71.887285, 42.04398499999999], [-71.886977, 42.04450099999999], [-71.886938, 42.045248], [-71.886332, 42.04595100000001], [-71.886396, 42.04627100000001], [-71.887233, 42.04675099999998], [-71.887404, 42.047191000000005], [-71.88748000000001, 42.050388], [-71.886848, 42.051002999999994], [-71.886431, 42.051069000000005], [-71.883969, 42.050678000000005], [-71.88283900000002, 42.051142000000006], [-71.880979, 42.051247999999994], [-71.880495, 42.051623], [-71.880447, 42.051966], [-71.880736, 42.052397000000006], [-71.880079, 42.053912], [-71.880054, 42.054484999999985], [-71.880387, 42.055507], [-71.879883, 42.057527000000015], [-71.879928, 42.05783399999999], [-71.880766, 42.058383000000006], [-71.882117, 42.058562000000016], [-71.88232500000001, 42.058768000000015], [-71.88224100000001, 42.059348], [-71.881616, 42.060041], [-71.88158, 42.06026900000001], [-71.88214, 42.062114], [-71.882043, 42.06262000000002], [-71.881771, 42.06289000000001], [-71.879609, 42.06389499999999], [-71.878827, 42.066158], [-71.879098, 42.06695], [-71.878978, 42.06775800000002], [-71.879083, 42.06817600000001], [-71.881509, 42.075893000000015], [-71.891139, 42.072732], [-71.895113, 42.094247999999986], [-71.909235, 42.09126100000002], [-71.911855, 42.101326]]]}}