{"type": "Feature", "properties": {"district_name": "36th Middlesex", "chamber": "house", "vintage": "2001-2010"}, "geometry": {"type": "Polygon", "coordinates": [[[-71.4578189684258, 42.70064701966822], [-71.32227141630747, 42.69719697283202], [-71.29447869042214, 42.69719086719974], [-71.27880141375468, 42.7113619614976], [-71.2678789122283, 42.726120021754426], [-71.2558983747307, 42.735902348880145], [-71.24193694842255, 42.68587523243919], [-71.23944397537565, 42.675835186829715], [-71.23877501141067, 42.67199204888815], [-71.23810303456304, 42.66949076229692], [-71.24222709426594, 42.662287116972706], [-71.24950299531454, 42.660888104932994], [-71.25030307731545, 42.660591074944904], [-71.25610297967405, 42.65669092484423], [-71.26420397840646, 42.657691217736875], [-71.27470409474671, 42.65599108179739], [-71.27880405856828, 42.6546908804692], [-71.28200398741821, 42.652691184945034], [-71.28646997941733, 42.649153251106554], [-71.29041602252114, 42.654219101443225], [-71.29944196805539, 42.66666304736457], [-71.30870492057515, 42.66459027134414], [-71.3133129359984, 42.663770183639414], [-71.35789393694684, 42.654330219826676], [-71.35920603139466, 42.65539013771499], [-71.36910593511637, 42.661590131627925], [-71.37790692772356, 42.66079014615522], [-71.37849901059953, 42.66021801389432], [-71.38158705577331, 42.654873989135005], [-71.3826069822443, 42.652190158785686], [-71.38102704199983, 42.65101827146266], [-71.38062692388077, 42.64989822372579], [-71.38080698649689, 42.64889017508211], [-71.38251501401741, 42.6492902670864], [-71.38558692857075, 42.649610106354636], [-71.38950692436485, 42.64909799343827], [-71.39115493166732, 42.64865001105274], [-71.39283493514267, 42.64842597092539], [-71.39429109803747, 42.648506080634284], [-71.39565093799435, 42.648874152038964], [-71.39729891794995, 42.64981803056451], [-71.39880300112306, 42.651161794078334], [-71.39952300695377, 42.652409778271846], [-71.40238700515556, 42.65191374276723], [-71.40125099981208, 42.64932185963689], [-71.39852798234193, 42.64552905938248], [-71.39933801821863, 42.64499414282169], [-71.40301095803544, 42.646778008035014], [-71.40337504499206, 42.64729199978144], [-71.40350290912694, 42.64778102848723], [-71.40417504262366, 42.64846124600076], [-71.40569908086141, 42.64826614621567], [-71.40970999174587, 42.64889499550812], [-71.41166100512048, 42.64857805460119], [-71.41195902576654, 42.649521809224225], [-71.41286699657454, 42.649770054937896], [-71.41781193648652, 42.653753723873756], [-71.46402102901645, 42.63164174248133], [-71.47915691254389, 42.62410616856836], [-71.49354102615935, 42.617418135161074], [-71.49411700158774, 42.62074615081478], [-71.4968049442114, 42.631386239560555], [-71.496725089898, 42.632122161804254], [-71.49831001269351, 42.6377862161771], [-71.49784599247478, 42.641673995669024], [-71.49735001750757, 42.642906148491164], [-71.49701405798174, 42.6442980902301], [-71.49709404302742, 42.64495412020263], [-71.49650200916231, 42.64951423015492], [-71.49242198538434, 42.64892214746804], [-71.48957299782111, 42.649018130793294], [-71.48830890722046, 42.64924193669573], [-71.48254892704243, 42.65090603764419], [-71.4796369194745, 42.65933824960158], [-71.47667695138597, 42.65314595194536], [-71.47549306976542, 42.65112980861899], [-71.47486890070803, 42.64951380065673], [-71.45736495662388, 42.65810620649393], [-71.45890102821437, 42.65972207452667], [-71.45507694161282, 42.66002615409431], [-71.45554093659547, 42.66119379200515], [-71.44971697548837, 42.66176978667592], [-71.44726803270814, 42.663113934579044], [-71.44768304410981, 42.66642181601517], [-71.44792497568977, 42.66681013816684], [-71.44853295046167, 42.66753000628631], [-71.4513809382134, 42.6696579695006], [-71.45162196389174, 42.66927098335429], [-71.4524600247839, 42.66929496141847], [-71.45240500855509, 42.66971522553423], [-71.44658099426995, 42.670282058923554], [-71.44746109009431, 42.67751276556966], [-71.44814892208305, 42.68092090098448], [-71.45042096884411, 42.68500092484446], [-71.45157292301496, 42.68519326340024], [-71.45230906999211, 42.686905071203576], [-71.45611694012109, 42.68623312307201], [-71.45739699685627, 42.690457211426455], [-71.458293024077, 42.69090482789351], [-71.45990893633632, 42.69029719950387], [-71.46120491199856, 42.691833044058484], [-71.45649092327977, 42.69599814792593], [-71.4578189684258, 42.70064701966822]]]}}