{"type": "Feature", "properties": {"district_name": "27th Middlesex District", "chamber": "house", "vintage": "2012-2020"}, "geometry": {"type": "Polygon", "coordinates": [[[-71.127375, 42.39708499999998], [-71.126012, 42.39706400000001], [-71.12415899999999, 42.398518], [-71.124567, 42.39903400000001], [-71.122225, 42.401458000000005], [-71.12174999999999, 42.40132899999998], [-71.12068099999999, 42.402855], [-71.12171599999999, 42.40363699999999], [-71.123482, 42.40446], [-71.121668, 42.407088], [-71.119456, 42.406327], [-71.119328, 42.40652499999999], [-71.115541, 42.40514499999999], [-71.115346, 42.40272799999999], [-71.11401, 42.400987999999984], [-71.112374, 42.400226], [-71.100334, 42.39615], [-71.09955, 42.397075], [-71.098632, 42.39625699999999], [-71.097988, 42.395562000000005], [-71.097596, 42.39484300000002], [-71.09764899999999, 42.39472799999999], [-71.098647, 42.395272000000006], [-71.099884, 42.39347599999999], [-71.099087, 42.393123], [-71.10082299999999, 42.390826], [-71.100021, 42.390490999999976], [-71.100302, 42.390099], [-71.09971900000001, 42.389824999999995], [-71.097398, 42.38876700000001], [-71.097146, 42.389120999999996], [-71.09541999999999, 42.387429999999995], [-71.09352799999999, 42.386378999999984], [-71.09373699999999, 42.38579000000001], [-71.091951, 42.384005000000016], [-71.09031000000002, 42.38176900000001], [-71.089741, 42.380109000000004], [-71.092157, 42.37948099999999], [-71.096186, 42.379684000000005], [-71.096684, 42.380053], [-71.10055, 42.38151000000001], [-71.099312, 42.383244999999995], [-71.100403, 42.384362], [-71.10166699999999, 42.38254], [-71.103082, 42.38299200000001], [-71.104309, 42.38094900000001], [-71.09928, 42.379652000000014], [-71.095868, 42.377872], [-71.09558899999999, 42.376972], [-71.09622999999999, 42.37606], [-71.09789599999999, 42.375918000000006], [-71.09788999999999, 42.376644], [-71.09950599999999, 42.37651599999999], [-71.100036, 42.375196], [-71.099204, 42.37496999999999], [-71.099477, 42.374385999999994], [-71.103172, 42.374297000000006], [-71.108457, 42.379112000000006], [-71.107855, 42.379374], [-71.110643, 42.38163999999999], [-71.111656, 42.38174900000002], [-71.115584, 42.385158], [-71.11819299999999, 42.388009], [-71.11739399999999, 42.38841499999999], [-71.117966, 42.389126000000005], [-71.117085, 42.389580999999986], [-71.120214, 42.392641000000005], [-71.12097399999999, 42.39370599999999], [-71.122838, 42.39224199999999], [-71.124313, 42.393584000000004], [-71.12638199999999, 42.395843], [-71.127375, 42.39708499999998]]]}}