{"type": "Feature", "properties": {"district_name": "10th Bristol", "chamber": "house", "vintage": "2001-2010"}, "geometry": {"type": "MultiPolygon", "coordinates": [[[[-70.85948343095964, 41.62473180971086], [-70.85997223913374, 41.625912932090216], [-70.86070489616228, 41.62671107966701], [-70.85963740434003, 41.62684575547091], [-70.85921033170015, 41.626708850542116], [-70.85866149596258, 41.62545704869171], [-70.85862893806248, 41.624682540158645], [-70.85948343095964, 41.62473180971086]]], [[[-70.91210355223556, 41.63684309627474], [-70.91207144957879, 41.63735614324998], [-70.91075442224921, 41.63776124636862], [-70.91035809605005, 41.637687161830854], [-70.90999211072437, 41.637251391138285], [-70.9104796128457, 41.63640588481811], [-70.91087648206977, 41.63631846274802], [-70.91176021141531, 41.63657401752139], [-70.91210355223556, 41.63684309627474]]], [[[-70.74381336999754, 41.6975896073621], [-70.74375234517233, 41.69779741633319], [-70.74253200994507, 41.69832052889492], [-70.742776163661, 41.69786633274842], [-70.74271456827277, 41.69761494002146], [-70.74176854939675, 41.69786356766518], [-70.74167647935474, 41.69752305808136], [-70.74213403636952, 41.69724586055334], [-70.74298886424316, 41.697088354809914], [-70.74381336999754, 41.6975896073621]]], [[[-70.75114915538799, 41.69813670289995], [-70.75114813823507, 41.69870450675541], [-70.75081187630568, 41.69914179017622], [-70.7496513644716, 41.6994656039286], [-70.74933999879053, 41.69982876535304], [-70.74900446794496, 41.69991490668722], [-70.74885171866724, 41.699782217127726], [-70.74909549479015, 41.69922896270735], [-70.74878973316969, 41.69895457799927], [-70.74863675218626, 41.698299095228684], [-70.74845332993941, 41.698157765967046], [-70.74759843171158, 41.69822527363816], [-70.74735424561626, 41.69852584673722], [-70.74729909032268, 41.6992880013204], [-70.74680533897529, 41.698687661335086], [-70.74707978639823, 41.69795397855764], [-70.74823954559395, 41.69762962790009], [-70.75029477702616, 41.69751994064557], [-70.75114915538799, 41.69813670289995]]], [[[-70.80244197666704, 41.87531779007546], [-70.81164204004442, 41.87365394020692], [-70.8091460035157, 41.86866204313226], [-70.80149802845492, 41.862325801777146], [-70.79888996124188, 41.861301953190214], [-70.7970659738314, 41.861286228755596], [-70.7939620770096, 41.85742977176918], [-70.79365808988243, 41.852918132847044], [-70.79477796855068, 41.85090203337438], [-70.79442607336532, 41.84923809640584], [-70.79151407401392, 41.84624599682637], [-70.79031406130449, 41.84624584842789], [-70.78975403698907, 41.845493924756965], [-70.78980192510767, 41.844453729503456], [-70.79004201966576, 41.84387785746977], [-70.79068196084019, 41.84339788616385], [-70.79023406596299, 41.84291790033644], [-70.7896740802768, 41.84309392263127], [-70.7892580744372, 41.84274187696578], [-70.78898600657554, 41.84270979366056], [-70.78877797060878, 41.84154194119515], [-70.78815396329728, 41.84096575087019], [-70.788169971341, 41.84039016761183], [-70.78842605863744, 41.839830155236115], [-70.78783407020289, 41.839605868096285], [-70.78783399306177, 41.839461807250295], [-70.78848993772849, 41.83904610007651], [-70.78865007445219, 41.838501812444065], [-70.78913006227948, 41.83800622110559], [-70.78932197787051, 41.83714192943445], [-70.789114038984, 41.83672589277462], [-70.78877803421527, 41.83637377630605], [-70.78837793860774, 41.83645400734725], [-70.78780191770268, 41.83613415431409], [-70.78674492009146, 41.8358940091362], [-70.78680908334339, 41.835254016810005], [-70.78629701752965, 41.83525419001757], [-70.78588095952824, 41.835014111069306], [-70.78508096432381, 41.83445424137052], [-70.78464891476858, 41.83384602815258], [-70.78444106396687, 41.833894812283944], [-70.78432900791198, 41.834325723331254], [-70.78389695790293, 41.83443893503286], [-70.78236096988944, 41.83363919871049], [-70.7808249725665, 41.833527105261474], [-70.78029706567273, 41.83298298991239], [-70.78004090964721, 41.83309504590709], [-70.780168957544, 41.83336709314271], [-70.77988094739707, 41.833334887197026], [-70.7795770854522, 41.83239094726337], [-70.77970501097757, 41.832023158367946], [-70.779193036415, 41.831735178978036], [-70.77914493800168, 41.831446753846976], [-70.77885696384942, 41.83147926469052], [-70.77852098114893, 41.831846853113035], [-70.77725707829673, 41.83181521542863], [-70.77645696542723, 41.832054937021944], [-70.77500094722771, 41.831414857850596], [-70.77354491548026, 41.8316548892982], [-70.77228095845523, 41.83146281154864], [-70.77180103447742, 41.83075914509292], [-70.77202503499353, 41.83011905498825], [-70.77146501425733, 41.829414866652165], [-70.77013699937962, 41.82575083416244], [-70.76300102714204, 41.80979915440451], [-70.77173699628392, 41.80895096985987], [-70.7717370154821, 41.80567077588865], [-70.7728889340231, 41.80213513152191], [-70.7744890157958, 41.8002472073757], [-70.77586504851003, 41.79827906375455], [-70.77778504063683, 41.79667899688237], [-70.77767294524946, 41.79482294450876], [-70.77836104127339, 41.79277499377445], [-70.7784410308175, 41.79127073912024], [-70.7780409399752, 41.789015002692736], [-70.77733698215367, 41.78821482957138], [-70.77693693694447, 41.78727083588839], [-70.77626498821311, 41.78010291299686], [-70.77568900602199, 41.777542728345374], [-70.77530500595549, 41.77699893241024], [-70.77530497663852, 41.772663036423246], [-70.77432904261502, 41.77069511800916], [-70.77420105678746, 41.769687000507176], [-70.77829700682575, 41.76279076780804], [-70.78040892869254, 41.75819924203244], [-70.78085700901781, 41.7557991776567], [-70.78084098415466, 41.75488687257961], [-70.78103297488241, 41.75407098797514], [-70.781753074137, 41.75248692411745], [-70.78188103655309, 41.7510150392528], [-70.78111197351393, 41.74847111046546], [-70.77901606143172, 41.74405499246107], [-70.77826406710642, 41.74311102236913], [-70.77522398837567, 41.740774913726916], [-70.77464802012241, 41.74016686461282], [-70.77436000693744, 41.7394948116969], [-70.77528809088727, 41.734726999009936], [-70.77523997625609, 41.734183086496806], [-70.77418391616398, 41.73432717421399], [-70.77391191864065, 41.73471092123196], [-70.77301607919215, 41.73490272258239], [-70.77266391157389, 41.734902724680886], [-70.77269594453789, 41.734663202226216], [-70.77327196979866, 41.73408725814719], [-70.77279198103938, 41.733783132650615], [-70.77048794673836, 41.7335748126256], [-70.76939999751504, 41.733846956347776], [-70.76962409044856, 41.73392717749166], [-70.76959202810906, 41.73410310487716], [-70.76827996111048, 41.73427925989669], [-70.76728799385936, 41.73531901923813], [-70.76647194041536, 41.73546288700539], [-70.7662000126564, 41.73560688916214], [-70.76620006562312, 41.735847174944816], [-70.76572001375759, 41.735926807759576], [-70.7654960037789, 41.736198854694656], [-70.76557596622725, 41.73677504888631], [-70.76512801319647, 41.736839129546695], [-70.76475996676642, 41.73725486513488], [-70.76466409312154, 41.7377190693005], [-70.76378399980543, 41.73807072729601], [-70.76372004275078, 41.73855089376149], [-70.76312806034798, 41.7388869597457], [-70.76168800649349, 41.739223154975704], [-70.76082391974695, 41.73895081076026], [-70.76005609288654, 41.7392069357511], [-70.75973605972062, 41.739495229804014], [-70.76047201557962, 41.740726784954596], [-70.76043994195949, 41.74103101458524], [-70.76008803553943, 41.74167081976206], [-70.7595439181599, 41.7421028441889], [-70.75689107782242, 41.74240350882756], [-70.75645575051897, 41.74191165059971], [-70.75651703643736, 41.74140670988033], [-70.75556990544513, 41.74092612797125], [-70.7533420488837, 41.738844034234255], [-70.75132678200619, 41.73749654936681], [-70.7498619217414, 41.73687127085897], [-70.74885845529772, 41.736910233751786], [-70.74827914971459, 41.737297520519895], [-70.74794266013475, 41.73732061762222], [-70.745619586114, 41.735284453206646], [-70.74558878220176, 41.73480760290828], [-70.74650450434011, 41.73443325301618], [-70.7468697621357, 41.7332747390696], [-70.74662456646033, 41.73262989950806], [-70.74460758666207, 41.73080507730942], [-70.74457611262416, 41.730481287778645], [-70.74359757287074, 41.72940670847026], [-70.74115378397845, 41.728335870233515], [-70.74103230302404, 41.728950141491126], [-70.74112474155338, 41.729705389447766], [-70.740850180922, 41.729862819557376], [-70.73920124846656, 41.73005045707343], [-70.73764298187783, 41.72909181931232], [-70.73684832820192, 41.728356615404564], [-70.73535078709658, 41.72735276612161], [-70.73480114789947, 41.727081775631426], [-70.73339633058752, 41.72680558597143], [-70.73327367136024, 41.72651044147416], [-70.7325711251215, 41.725962666699154], [-70.73250992737358, 41.72571127123281], [-70.73128839928097, 41.72465801380165], [-70.73046330866816, 41.72465243999248], [-70.7293037326659, 41.724976056188844], [-70.72887437397047, 41.72274018752449], [-70.72869088481555, 41.72216607287354], [-70.72820124125822, 41.72166022111719], [-70.72820173685747, 41.72124604608307], [-70.72642988369911, 41.719813658391786], [-70.72575758006184, 41.71873369159095], [-70.72502276886479, 41.71692566438817], [-70.72474805564596, 41.716632293210495], [-70.72316068997428, 41.71619716402133], [-70.72270160622502, 41.715717382623865], [-70.72190680254774, 41.71382001128836], [-70.72105144274184, 41.71295035549206], [-70.7179977718266, 41.71168969079413], [-70.71485257665792, 41.71082786882944], [-70.71479098099384, 41.7104318308634], [-70.71445522291332, 41.70997763579818], [-70.71268477761555, 41.708328945676406], [-70.71234870881968, 41.707415534299784], [-70.71234782398089, 41.70684772442501], [-70.71256190160345, 41.706385504965084], [-70.71378187104881, 41.704673627090685], [-70.71396373799148, 41.70286059815062], [-70.7144526252373, 41.702429535523834], [-70.71481786659754, 41.70179390474494], [-70.71777953632828, 41.70178503584818], [-70.7190313437414, 41.702333865992486], [-70.72098602696724, 41.703529589655915], [-70.72193164185218, 41.70382136422674], [-70.72327497222211, 41.70361163704934], [-70.72406876688557, 41.70391530519411], [-70.72587081546759, 41.70507669696861], [-70.72922928473523, 41.705926721413555], [-70.72983985173771, 41.706422124157584], [-70.73063378365043, 41.70656311890529], [-70.7306331796584, 41.706238975159415], [-70.73041937546081, 41.70597191530063], [-70.72831263476257, 41.70466165056038], [-70.7277015042661, 41.70412177441116], [-70.7276086776556, 41.702420536078805], [-70.72684512021043, 41.70194546597173], [-70.72489012509014, 41.700119569137556], [-70.72437053490394, 41.69792077351062], [-70.72311742485412, 41.696525627322636], [-70.72116354354668, 41.6949697887277], [-70.72064431163992, 41.69478840712218], [-70.71902674687084, 41.69481277511801], [-70.71643169219422, 41.692870353768434], [-70.71560798611608, 41.69192770647751], [-70.715667847425, 41.69133217815847], [-70.7170716430933, 41.69067161327005], [-70.7180169161936, 41.68968487544945], [-70.71820014896088, 41.689159406643235], [-70.71813820624162, 41.687809522258874], [-70.71764976930096, 41.686987936009785], [-70.71664206828295, 41.68584144276369], [-70.71740450428518, 41.684424640883464], [-70.7173123430155, 41.68401151143674], [-70.71606066618195, 41.6832375630509], [-70.71578566546683, 41.682890710611424], [-70.71511373487945, 41.68115338502925], [-70.7151742963168, 41.68083698259433], [-70.716333722892, 41.6804054671759], [-70.7171579632223, 41.680924363626154], [-70.71801336129093, 41.68113677743849], [-70.71828764028183, 41.68074530002186], [-70.71798187904389, 41.68048883874143], [-70.71712734444843, 41.68026743567759], [-70.71679185055378, 41.67980423514614], [-70.71679126449307, 41.67868718951877], [-70.71618036285275, 41.678065648085976], [-70.71581346619904, 41.67713459265621], [-70.71584419119255, 41.67655742939317], [-70.71752217797389, 41.67664945957333], [-70.71941424148496, 41.677404711335676], [-70.71984166696096, 41.677839271892424], [-70.72051457744107, 41.68039648834364], [-70.72130818871733, 41.68106033243019], [-70.72286522836433, 41.681973051219934], [-70.72500214237253, 41.68412999440929], [-70.7292169233103, 41.687741045229224], [-70.72985789524495, 41.68812805036014], [-70.73333724913113, 41.68881333136144], [-70.73422336528074, 41.68929537830218], [-70.73550510679769, 41.68965458084909], [-70.73865060867492, 41.69212866787967], [-70.74017670581563, 41.692654898004804], [-70.74042071158412, 41.692875996387166], [-70.74063545582712, 41.69379188990923], [-70.74152144873491, 41.694895145467626], [-70.74155247464097, 41.69525493987112], [-70.74118661431568, 41.6958732098587], [-70.74081999017338, 41.6959866895339], [-70.74051421189615, 41.69537013496801], [-70.739964929942, 41.694964102768274], [-70.73718606048757, 41.69343004934743], [-70.73593400968909, 41.692494250295184], [-70.73437685148969, 41.691148392037476], [-70.7338267100702, 41.69031915054197], [-70.73330770420856, 41.689867711797035], [-70.73156794536443, 41.68920094409745], [-70.73138386215133, 41.68933869375436], [-70.73126366795343, 41.69112402696034], [-70.73144822691671, 41.69169758734721], [-70.73205787086226, 41.69210293411112], [-70.73239391225972, 41.69256609202289], [-70.73315731927187, 41.6928604886284], [-70.73376730102726, 41.6934278981804], [-70.73404304863544, 41.694162445182776], [-70.7352649251876, 41.69567487760966], [-70.73560153894725, 41.69640813688296], [-70.73575484583554, 41.69743279925435], [-70.73703819582046, 41.698710389391984], [-70.73859561215548, 41.69967748119957], [-70.73994027278428, 41.70145854836513], [-70.74388104832695, 41.70472224611385], [-70.74489020522417, 41.706193199459435], [-70.74580616446045, 41.70630506785833], [-70.74586633157762, 41.70597964364783], [-70.74507167222784, 41.70491135228527], [-70.74485678842295, 41.703491259581064], [-70.74406198207585, 41.702503436381186], [-70.74418317856285, 41.7014299628185], [-70.74500714651883, 41.70115631186075], [-70.74549586119339, 41.70129292707872], [-70.74656465488172, 41.70232137901508], [-70.74949680705082, 41.704059931298644], [-70.75233220395853, 41.70618774654106], [-70.75391702315785, 41.7090720601447], [-70.75446612649161, 41.70964009173245], [-70.7558389454663, 41.71051062691662], [-70.75629720476145, 41.711061731538884], [-70.75629661221372, 41.71162897049149], [-70.75592942215435, 41.711995170684794], [-70.7546479266102, 41.7121139662762], [-70.75421996102479, 41.71242629816938], [-70.75394341199296, 41.713871855860006], [-70.75489056494922, 41.71384822967446], [-70.75522592286478, 41.71410422494246], [-70.75531629718589, 41.714760404842345], [-70.75498024004648, 41.71620614281262], [-70.75613992858696, 41.71625142565748], [-70.75610903062962, 41.71726022255462], [-70.75723751047387, 41.71837731576408], [-70.75735855571321, 41.720095590109764], [-70.75659363810253, 41.72123351972316], [-70.75653196080049, 41.72208060448658], [-70.75668433821058, 41.72249296740826], [-70.75702039769163, 41.72245126724429], [-70.75735655443903, 41.721140582013], [-70.75799906135917, 41.720662507136915], [-70.7584880303327, 41.72050137270739], [-70.76031887134837, 41.72116718724019], [-70.76083828833329, 41.72114973487402], [-70.758946720841, 41.71956739174843], [-70.75848952423098, 41.718835670143406], [-70.7571790962881, 41.7146954845375], [-70.75708813735181, 41.713571093063365], [-70.75760786261559, 41.71316705941907], [-70.75757768279051, 41.712888310396494], [-70.75712000129921, 41.71252629580446], [-70.75712028966673, 41.71229163025691], [-70.75751680148255, 41.71213271514333], [-70.75824944311094, 41.71213017142945], [-70.76014227923672, 41.71265965301242], [-70.76163901864807, 41.7123396053217], [-70.76240257380697, 41.71190449240828], [-70.762829724959, 41.71195171144455], [-70.76298240328016, 41.71229146987049], [-70.76237149029006, 41.712661172507325], [-70.76276681179472, 41.71398786637828], [-70.76340834842256, 41.71446415412042], [-70.76389662760609, 41.714357582687256], [-70.76441598872744, 41.71389949277462], [-70.76499567241457, 41.71410638190926], [-70.76481206119541, 41.71554130961718], [-70.76554390551904, 41.71623257684618], [-70.76575836827689, 41.716066830938104], [-70.76569763354516, 41.71481603025243], [-70.76633947171486, 41.714220845740044], [-70.76630941892715, 41.71307773102115], [-70.76600418792557, 41.712434239333724], [-70.76603596770701, 41.711334849638604], [-70.76508962721502, 41.710377145273], [-70.76512069495372, 41.70978196649682], [-70.76472376375283, 41.70939223775366], [-70.76423591048047, 41.708453810682684], [-70.76411519181407, 41.70749243676209], [-70.76304748554388, 41.7064191309644], [-70.76277331025157, 41.70543255938497], [-70.76249907656785, 41.70518486964472], [-70.76155280428617, 41.70504592744325], [-70.76106512730772, 41.70385593769847], [-70.75990542674747, 41.703603614880386], [-70.75947830152315, 41.70316920995862], [-70.75786094743101, 41.702302183703566], [-70.75700712169787, 41.701450817797785], [-70.75725142576549, 41.70086209261357], [-70.75709918191914, 41.70037826716587], [-70.75691635023873, 41.70003830348563], [-70.75597081914653, 41.69927862021307], [-70.75566597777124, 41.69884219075171], [-70.75536210961711, 41.69777492949591], [-70.754751925601, 41.69710915175929], [-70.7547824391912, 41.696649596528246], [-70.75539355248259, 41.69617189019775], [-70.7563707562018, 41.694913796028224], [-70.75646266386812, 41.694434941132116], [-70.75615841852756, 41.6934492813523], [-70.7562808573044, 41.69326719524021], [-70.75722703948382, 41.69317151439845], [-70.75750178279654, 41.69285198670589], [-70.7575630172647, 41.69250911417439], [-70.75731943833053, 41.69203538046055], [-70.75686243788616, 41.6917093835448], [-70.7564957596121, 41.69166984744446], [-70.75579328568531, 41.69221223993324], [-70.75478689738374, 41.69182243157188], [-70.75374954585472, 41.691207872892846], [-70.75280449061285, 41.69035811756162], [-70.75277487561627, 41.689583590954605], [-70.75295841836763, 41.68887856013645], [-70.75323318525044, 41.68862206088721], [-70.75509504865282, 41.688620758742246], [-70.75527771343133, 41.688762081457355], [-70.75521596618498, 41.6897442235432], [-70.75567387007311, 41.68992672962873], [-70.75588697834829, 41.6897429860441], [-70.75598036945905, 41.688120651068914], [-70.7545782841221, 41.686179021065], [-70.75421212345104, 41.685905380377086], [-70.75393737704279, 41.68585574173249], [-70.75341801741192, 41.686583899007104], [-70.75305138443579, 41.68660794617519], [-70.75299127999301, 41.68596940284282], [-70.7527778507703, 41.685828441581485], [-70.75158790149104, 41.68573846069771], [-70.75155684276403, 41.685441687132574], [-70.75210729962566, 41.684623145789466], [-70.75213846715482, 41.683883908343354], [-70.75162075293369, 41.68251416790456], [-70.74950408780718, 41.68070338718967], [-70.74825278802139, 41.67990278597105], [-70.74724369836477, 41.67848645030085], [-70.74443424935055, 41.67558376990303], [-70.74443410768427, 41.675151583094326], [-70.74470800287537, 41.67448993350409], [-70.74449256741394, 41.67293476776344], [-70.74482829691664, 41.67240746116783], [-70.74519425414645, 41.67233841716568], [-70.74711737144116, 41.673245920494054], [-70.74818605622423, 41.67402226065035], [-70.75168530702283, 41.67821749804003], [-70.752478716237, 41.67876350393331], [-70.75412641275493, 41.6789994145282], [-70.75708597789132, 41.6801605849871], [-70.75803139194905, 41.68038959985556], [-70.75903812429837, 41.68034719771189], [-70.75940439329237, 41.68020608798498], [-70.75967922182325, 41.679679458218175], [-70.75998430692407, 41.679521624524355], [-70.76108251024225, 41.67940608473601], [-70.76236554692998, 41.67865640284528], [-70.76300631557835, 41.67856601496904], [-70.76361718570662, 41.678610487792945], [-70.76462270484438, 41.679225309863284], [-70.76483684859308, 41.67897852960155], [-70.7651116506917, 41.678956669848155], [-70.7661483769443, 41.67945350432062], [-70.7666368648259, 41.67943696266197], [-70.76657628887742, 41.678844001718005], [-70.76624117324818, 41.67849744359717], [-70.76489817931913, 41.67814944593802], [-70.76413564762865, 41.67828688540397], [-70.76322063125798, 41.67799509106874], [-70.7632202346323, 41.67767094973683], [-70.76364840673286, 41.677006878345075], [-70.76465550333344, 41.67684737912742], [-70.764717336539, 41.67659398715673], [-70.76401517028893, 41.67629850535238], [-70.76368041674303, 41.67588948210294], [-70.76358921305115, 41.67442351444406], [-70.76270590308188, 41.67325742133793], [-70.76130297507817, 41.67234230716754], [-70.76115044257001, 41.671561357468235], [-70.75901674473847, 41.6695767596441], [-70.75804093786437, 41.66813259074338], [-70.75788900487298, 41.667675779199485], [-70.75801097509172, 41.66744866913807], [-70.75886553922896, 41.66729160343095], [-70.7618862895935, 41.667307868237174], [-70.76234336370524, 41.66717521710496], [-70.76234391467499, 41.666850514590266], [-70.76207019365013, 41.66587351344722], [-70.76170414518747, 41.665320777377424], [-70.76048527925346, 41.664177806186245], [-70.75908306823521, 41.662443316402225], [-70.75896173366085, 41.661985580050455], [-70.75847406906584, 41.6613448204276], [-70.75862781314103, 41.65928056204593], [-70.75801947085762, 41.657659834648264], [-70.75753384116844, 41.654164292340475], [-70.7567419162078, 41.65299649570158], [-70.75686442464382, 41.65260732096715], [-70.75738322073374, 41.652563439568745], [-70.75841925891552, 41.65299788353848], [-70.75948728867856, 41.65319730042576], [-70.76153117172232, 41.65274294808816], [-70.76220215324757, 41.65233594380435], [-70.76262997557522, 41.65185194295227], [-70.76263032082035, 41.65078048607901], [-70.76223453080202, 41.6495618399602], [-70.76223517578853, 41.649066631922], [-70.76275399286752, 41.64846391991969], [-70.76327291291447, 41.648356985696346], [-70.76516387699002, 41.64890439188995], [-70.76601743035614, 41.648927344710096], [-70.76674950278992, 41.6486996599254], [-70.76772661766101, 41.64769358081817], [-70.76833786022905, 41.64654952396593], [-70.76833834447635, 41.64570316487537], [-70.7678510782921, 41.644882370656326], [-70.76580779344884, 41.643986251203025], [-70.7649552884431, 41.64252268611918], [-70.76510794754975, 41.64133122012143], [-70.76559595261692, 41.64131468168286], [-70.76580941244582, 41.64149163537455], [-70.76669343545323, 41.64277476195346], [-70.76824745056057, 41.644056567551104], [-70.76879711881507, 41.64401226600258], [-70.76919412945925, 41.64263722879812], [-70.76922585420877, 41.641222702335796], [-70.76962154817394, 41.641126769610004], [-70.77376761289452, 41.64488035213158], [-70.77395035768353, 41.64563446591551], [-70.7750478530696, 41.646454632507925], [-70.77504779932373, 41.64682378989961], [-70.7746504375177, 41.647262444486444], [-70.7745589390491, 41.6476236984382], [-70.77541215569585, 41.648817646003494], [-70.7754114736865, 41.64915978783216], [-70.77437350583588, 41.65034617924343], [-70.77394640671889, 41.65046107049697], [-70.7737331356036, 41.65023011054378], [-70.77434337045962, 41.64966282001842], [-70.77434445583873, 41.64920307247723], [-70.77394806748555, 41.64838119221801], [-70.77379638044941, 41.64759969804985], [-70.77431538371448, 41.64687144863449], [-70.77431518884842, 41.64657432041254], [-70.77407133133939, 41.646460783083846], [-70.77340066726696, 41.6463900963449], [-70.7706241272534, 41.647991321683975], [-70.76937351639222, 41.64826298011103], [-70.7688241376155, 41.64854137770331], [-70.7679387119292, 41.649500786253775], [-70.76796873115215, 41.649959608773955], [-70.76827412289225, 41.65025194846291], [-70.77062205304354, 41.65075605787141], [-70.77147580438934, 41.6513732249265], [-70.77477016338827, 41.65119563839448], [-70.77498390959475, 41.65153464554814], [-70.7752276916493, 41.6515401341409], [-70.77641715622258, 41.65099003732426], [-70.77861328195054, 41.650641017470335], [-70.77949813793734, 41.65140126613282], [-70.78068760815023, 41.651698044304034], [-70.78254801573243, 41.65193039040121], [-70.78761065762396, 41.651905375180625], [-70.78892226275427, 41.652659218294176], [-70.78950188596511, 41.6526588972764], [-70.79157601619391, 41.652383155582946], [-70.79316223977509, 41.651953521541905], [-70.79429134985267, 41.65106184350374], [-70.79490086989252, 41.65078200363507], [-70.796121359681, 41.650736099616694], [-70.79807314035374, 41.65218258994185], [-70.79892723380324, 41.65305165835459], [-70.80115332992659, 41.654006826283315], [-70.8026176571256, 41.65517223891628], [-70.80432565545226, 41.6561359788954], [-70.80585039504892, 41.657345621359894], [-70.8088398404602, 41.65800985131357], [-70.80941925947681, 41.65768585710901], [-70.81033513612854, 41.65773418261837], [-70.81091430792415, 41.65755367315718], [-70.8116771389213, 41.65768603849978], [-70.81289739164718, 41.6570271347493], [-70.813812615914, 41.657030409293554], [-70.81512474447987, 41.6574417969733], [-70.81689355589555, 41.65714349577183], [-70.81686222578621, 41.65784673023997], [-70.81765673069877, 41.65780703876915], [-70.81881524212767, 41.6581668244975], [-70.81933342293628, 41.657915569235406], [-70.82168339772598, 41.659634137231194], [-70.82192741383248, 41.659656976280715], [-70.82226273886006, 41.659012393635734], [-70.8231473046319, 41.658511755385774], [-70.82317725819283, 41.658304287898794], [-70.82268978099471, 41.65794291747451], [-70.82262884642424, 41.65769157351931], [-70.82339096466693, 41.65661677886598], [-70.82332908103572, 41.65583420517572], [-70.82253634731192, 41.65606302656479], [-70.82226179715734, 41.655860488915735], [-70.82171228834157, 41.656220183434144], [-70.82098103325188, 41.656205123424], [-70.81957833539076, 41.65725412935743], [-70.8191808289555, 41.657395244238465], [-70.8182968189837, 41.65741865321205], [-70.81765661054695, 41.65718577521277], [-70.81738162097238, 41.65693764580202], [-70.8173818025765, 41.656568490701964], [-70.81875366977074, 41.656267777634234], [-70.81951655112711, 41.655832283566305], [-70.82079784153922, 41.654713341306916], [-70.82320646093102, 41.65194608280383], [-70.82381653234874, 41.65151302728387], [-70.82482288169538, 41.64998385788284], [-70.82521940320908, 41.649824710169554], [-70.82534151911514, 41.64998468496916], [-70.82525004830167, 41.65077872792819], [-70.82647043181002, 41.65068692045939], [-70.82628730997095, 41.651653744527835], [-70.82637921400483, 41.65183211403674], [-70.82750694506785, 41.651669967030735], [-70.8276601735937, 41.65206423109692], [-70.82674506951021, 41.652537702546624], [-70.8265927887755, 41.65283730283986], [-70.82668403113686, 41.653115277229276], [-70.82854459284619, 41.6529951550758], [-70.83074156944457, 41.65386966056701], [-70.8306497502332, 41.65359225338945], [-70.82952110981026, 41.652907501942416], [-70.82933759429712, 41.6521270329456], [-70.82854477017628, 41.65185167345523], [-70.8282393761763, 41.65144244793975], [-70.82830014226026, 41.65062177727844], [-70.82665278619767, 41.64895533561738], [-70.8267746040562, 41.64835898771128], [-70.82646921487138, 41.64812983334516], [-70.82579807835666, 41.64823952935277], [-70.82509732212412, 41.648772791640944], [-70.82460918453701, 41.648834603918], [-70.82396873036203, 41.64815157836925], [-70.8234499490769, 41.647988675586014], [-70.82320630072523, 41.64892924889289], [-70.82226068117001, 41.64904347582106], [-70.82146716879237, 41.6488575423043], [-70.82082718677349, 41.64830955879135], [-70.82024772459864, 41.647310050279636], [-70.81985149560315, 41.64698354398919], [-70.81841800698503, 41.64657372430883], [-70.81765501236146, 41.64602779444711], [-70.81649610447133, 41.64558696782404], [-70.81652673365059, 41.64538850084063], [-70.81725827325488, 41.64522351573839], [-70.81744196178197, 41.64472546523619], [-70.8168619740009, 41.64460830924823], [-70.81631274381039, 41.64486049148759], [-70.8157332620826, 41.644905968633175], [-70.81369032359639, 41.64405573490461], [-70.81125045956759, 41.64387835578497], [-70.8088712164721, 41.64343848927137], [-70.8068890478367, 41.64268641839473], [-70.8047850913175, 41.641152495621085], [-70.80347343664842, 41.63959749459289], [-70.80213255875873, 41.635827367009774], [-70.80137031562012, 41.63434436583888], [-70.80085219123818, 41.63216394790354], [-70.80042607403136, 41.63162165534608], [-70.80045614584597, 41.63113450833471], [-70.80127979498643, 41.62922175877386], [-70.80347524777672, 41.62843951833432], [-70.80405475747992, 41.62782687287564], [-70.80423832931322, 41.62704972414503], [-70.80496921211395, 41.62651565847064], [-70.80576236122043, 41.62635899445022], [-70.80868949850776, 41.62512417655781], [-70.8100316625361, 41.624841957722985], [-70.81143353304805, 41.62512564149002], [-70.8121043228766, 41.62567330800298], [-70.81317182806788, 41.62692622384637], [-70.81393366718846, 41.62729210218474], [-70.81619044227979, 41.62948969115232], [-70.81673917992987, 41.63058863728573], [-70.81686109368374, 41.6312534010199], [-70.81609860529124, 41.63127470269973], [-70.81457376259517, 41.63186596591329], [-70.81433061725572, 41.632419359746585], [-70.81573293917529, 41.634432282297674], [-70.81774536059656, 41.635075768526015], [-70.81835528532719, 41.634750787841604], [-70.81786772758264, 41.632903207998375], [-70.81820344762133, 41.63251073785044], [-70.81969669232035, 41.632649112759296], [-70.82018492841229, 41.63292046377986], [-70.82152629049384, 41.6329892522603], [-70.8215571373733, 41.633565112775685], [-70.82088590502893, 41.63390887737519], [-70.82082451631335, 41.634180317624086], [-70.82161831607242, 41.63432067217655], [-70.82265446473818, 41.6338355842327], [-70.82250205937707, 41.63342387746767], [-70.82256326670716, 41.63308040482578], [-70.82317299861732, 41.63248585046278], [-70.82329499350593, 41.63197954533981], [-70.82265468636908, 41.631530043848144], [-70.82198358621676, 41.631297571901314], [-70.82161730874039, 41.629304419971106], [-70.82015388784322, 41.62768849809764], [-70.81905622859884, 41.62724693644112], [-70.81707387522829, 41.62544159374178], [-70.81704413847673, 41.62445099584302], [-70.81768405269793, 41.62378349646359], [-70.81795868986974, 41.62378795379452], [-70.81920865840463, 41.62451575143646], [-70.8191166778625, 41.62574196959648], [-70.81975699560914, 41.626659131412104], [-70.82128184776442, 41.62757143565669], [-70.82201359404557, 41.62823533096664], [-70.82359910750735, 41.62841754072443], [-70.82454431879171, 41.628366319687544], [-70.82518508057508, 41.62809495075375], [-70.82664850895132, 41.626747430347386], [-70.82832402898465, 41.62562229621335], [-70.82936120285535, 41.62516416573332], [-70.83396460251696, 41.62455871357867], [-70.83551930212055, 41.62457906678775], [-70.83811107530217, 41.62512259281953], [-70.83881302190707, 41.62541761733736], [-70.84073429989981, 41.626512607329836], [-70.84396720949073, 41.62889198652811], [-70.8455842709643, 41.63037849499689], [-70.84619375290087, 41.63064817169643], [-70.84777918160943, 41.63026223724205], [-70.8483885804212, 41.629730006516105], [-70.84783923276508, 41.62827106135816], [-70.84771704114672, 41.627381236452514], [-70.84783799290099, 41.62690191155202], [-70.84814309483639, 41.62680687075973], [-70.84985075656957, 41.62707663417182], [-70.85088733545369, 41.6276993169006], [-70.85128484241172, 41.6287736033653], [-70.85180428799488, 41.62962067092928], [-70.85390889841784, 41.631126153429285], [-70.85427415307856, 41.63112935406935], [-70.85433518195715, 41.63078643155022], [-70.85335912194247, 41.62964021295009], [-70.85335901500783, 41.62929806864783], [-70.85387752865977, 41.62916370912731], [-70.85485249144375, 41.629544028483046], [-70.85537055049052, 41.62945467847884], [-70.85540097318584, 41.6290221113168], [-70.85479082970782, 41.62850036550326], [-70.85366302039799, 41.62869879503966], [-70.85323564705064, 41.62851685605042], [-70.85357123831065, 41.62815129347154], [-70.85436373935207, 41.627769201752486], [-70.85439399211961, 41.62735407418265], [-70.85405821073702, 41.62705334926999], [-70.85378414971596, 41.62712101277184], [-70.85369305684222, 41.627581938705], [-70.8533268602834, 41.627488692909935], [-70.85320430942437, 41.62722069144872], [-70.85320446882787, 41.626481824031366], [-70.85387504027592, 41.625732696174495], [-70.85439305604021, 41.62618357738418], [-70.85506431910271, 41.62726221389715], [-70.85616283475765, 41.62842430085727], [-70.85643844834031, 41.62952713165932], [-70.8564389622608, 41.630464094817754], [-70.85595157776069, 41.630598075165764], [-70.85515898946774, 41.63167347766106], [-70.85515995074205, 41.63315966503413], [-70.8553431852745, 41.63395810590999], [-70.85570918510506, 41.634167825761764], [-70.85598342942357, 41.63402869550344], [-70.85622748757969, 41.63336717448455], [-70.85634873575232, 41.63199647739895], [-70.85683611523378, 41.6315833691245], [-70.85732392122397, 41.63153942511769], [-70.85741632014222, 41.63240205916327], [-70.8578131736746, 41.63286405241559], [-70.85793488836968, 41.633366700466496], [-70.85842312187242, 41.633917003386415], [-70.85866658982503, 41.63398477989038], [-70.85924586703148, 41.63377758279841], [-70.86092363964849, 41.634641817512986], [-70.86177763263699, 41.63451043252621], [-70.8627837284895, 41.63335965811438], [-70.86308837816411, 41.633291585952485], [-70.86351519926617, 41.63359053352465], [-70.86375920088784, 41.633568831594616], [-70.86412492641861, 41.63297775413701], [-70.86516168664365, 41.63290644871753], [-70.86522323113927, 41.633526927150335], [-70.8657107744738, 41.6338881153609], [-70.86571139773046, 41.63494156010449], [-70.86540689035957, 41.63512668914956], [-70.86409616689572, 41.635193079620876], [-70.86424824592315, 41.63553326429008], [-70.86583406589665, 41.63571431778552], [-70.86577339649403, 41.63629190444676], [-70.86553026981579, 41.636565730243944], [-70.86556085300823, 41.6369795071577], [-70.86586628203223, 41.63749667695607], [-70.86598884860886, 41.638602573389825], [-70.86653796958183, 41.63917006240632], [-70.86690512064152, 41.639307722090784], [-70.8673320455907, 41.63914803054701], [-70.8673921275111, 41.638894575577126], [-70.86711749490736, 41.638503066956424], [-70.86730022583076, 41.63802294946312], [-70.86659813037187, 41.63743097711259], [-70.86644527072063, 41.636884271842376], [-70.86662762613949, 41.63661067282078], [-70.8671459474404, 41.63640422138005], [-70.86705423838337, 41.63587418113336], [-70.86665729035786, 41.63537676324516], [-70.86680959721268, 41.63505009941574], [-70.86699103933117, 41.632651604916546], [-70.86659273800903, 41.63130725744714], [-70.8661046758145, 41.63062194327816], [-70.8650074949313, 41.63034233074412], [-70.86473251874557, 41.6297077122911], [-70.86497528059972, 41.62910919224912], [-70.86604137857294, 41.628191130291114], [-70.86604153174096, 41.627758950118285], [-70.86561448875177, 41.627351965376114], [-70.86524802303173, 41.62732178297405], [-70.86466947338675, 41.62789872718638], [-70.86433404839354, 41.62787716086389], [-70.86418109260032, 41.6276270090283], [-70.86393549612566, 41.625793934565365], [-70.86308235427036, 41.62588932476046], [-70.8628380201946, 41.625721943959334], [-70.8626856210446, 41.62545435285909], [-70.86283736176657, 41.624866023510265], [-70.86222726935853, 41.624335881474416], [-70.86183035711441, 41.62429707158556], [-70.86134209254188, 41.62465617315776], [-70.86091641216855, 41.624663342805896], [-70.8599702808105, 41.62385893461623], [-70.8582937282468, 41.6239496496918], [-70.85750032495221, 41.622971634569886], [-70.85557909019664, 41.62226465898616], [-70.8553657184648, 41.62206086410733], [-70.85530311951915, 41.620476402057726], [-70.85499722882948, 41.61892376558961], [-70.85435681071921, 41.61842041987955], [-70.8543538478469, 41.61562867281704], [-70.85395776351965, 41.61478850330791], [-70.85383525456022, 41.61396227722546], [-70.85160923990293, 41.611746482481436], [-70.85133424497883, 41.61126490363015], [-70.84947379751641, 41.61018732153622], [-70.84947295632213, 41.608241932063535], [-70.84959465799166, 41.607609554556035], [-70.85002078240987, 41.60682809607176], [-70.84968418895586, 41.60499615135243], [-70.85023244909915, 41.60423959322904], [-70.85035375513951, 41.60323805762719], [-70.85023151193771, 41.60279898251307], [-70.84998749761127, 41.602667599374634], [-70.84962163787452, 41.60259235029809], [-70.84861584030084, 41.6031673334859], [-70.8482197333885, 41.60319150638954], [-70.84764070500401, 41.602570299068404], [-70.84779288389883, 41.6019825501152], [-70.85053604482086, 41.602433819231656], [-70.85102376134958, 41.6029121223943], [-70.85062847522909, 41.60462958684309], [-70.85114673353941, 41.60463029617494], [-70.85221266920213, 41.60357730749174], [-70.8521828731472, 41.60296543870317], [-70.85157154850722, 41.602254596916524], [-70.85163213215378, 41.60137988300983], [-70.85215038984978, 41.60047120594939], [-70.8521493348297, 41.599759901176206], [-70.85266742091838, 41.59895870804669], [-70.85263665421041, 41.59857192840991], [-70.85236189323473, 41.59838747792198], [-70.85138622711098, 41.598475327111046], [-70.85123397336906, 41.59831576625995], [-70.85101871263637, 41.59527463498213], [-70.8507751761602, 41.595098795438865], [-70.85037893728621, 41.595140982389], [-70.84986103011484, 41.5954829821278], [-70.84980073878401, 41.59610502365912], [-70.84830695007352, 41.59596703652995], [-70.84818538425682, 41.596311292227504], [-70.84830792766545, 41.59699403181565], [-70.84806371051477, 41.59708773785953], [-70.84775908375615, 41.59694868193294], [-70.84739300444542, 41.59614411760895], [-70.84556488922779, 41.59633562111032], [-70.8455952250171, 41.59663236255634], [-70.84638813649511, 41.597700498621556], [-70.84626689257182, 41.599278272937255], [-70.84687717711626, 41.59989910891311], [-70.84687693581712, 41.600106194603896], [-70.84635917376683, 41.60006044951172], [-70.84544450100715, 41.59916549320153], [-70.8438883625378, 41.59685830166263], [-70.84352271498251, 41.59658495059932], [-70.83925618940481, 41.59713140315115], [-70.83849498532891, 41.59741340284245], [-70.83800774243993, 41.59777240965839], [-70.83755077034624, 41.59839213367003], [-70.83727742621389, 41.599378706133045], [-70.83660675134902, 41.60010972734231], [-70.83611978033102, 41.60141468452894], [-70.8361196179331, 41.602098971989456], [-70.83645491736013, 41.602552803808926], [-70.83676039105052, 41.60262886841492], [-70.83764407657699, 41.60241680606559], [-70.83861901585986, 41.60157219334619], [-70.83895363167751, 41.60147678238095], [-70.83986864130273, 41.60164248610564], [-70.84011292967415, 41.60189038376056], [-70.84011325298859, 41.60235013724517], [-70.83935098795372, 41.60296528617634], [-70.83709579996197, 41.60337983315155], [-70.83679118258975, 41.60367348827343], [-70.8370357009025, 41.60491237851911], [-70.83651697371641, 41.605118689388235], [-70.83621270780591, 41.60506964263413], [-70.83575535557914, 41.604527300802324], [-70.83544985352727, 41.60351483863883], [-70.8340474961896, 41.602123420844684], [-70.83368175642077, 41.60191306407334], [-70.8330418620319, 41.60205844006157], [-70.8323412242958, 41.60184442013972], [-70.83194473376983, 41.601941131674096], [-70.83163961412362, 41.60267539802532], [-70.83188422083789, 41.60386027768357], [-70.83179360302408, 41.60632903664656], [-70.83130569287, 41.60647191125853], [-70.82950693283637, 41.604186169553934], [-70.828744068259, 41.60361330102406], [-70.82807404813013, 41.60260654288469], [-70.82755557343265, 41.602145965812674], [-70.82496514966302, 41.60123304516721], [-70.82411080515425, 41.59999500378694], [-70.8233188013524, 41.59947594777508], [-70.82350101859143, 41.59874378986216], [-70.82429425072613, 41.59793872545433], [-70.82408018863748, 41.59730268408452], [-70.82408001035573, 41.596662854666], [-70.82465939716327, 41.59606810501033], [-70.82371321515572, 41.59343561734987], [-70.82368244571158, 41.59240956772098], [-70.82346929243208, 41.592133682679986], [-70.82304236501207, 41.59183401420838], [-70.82167138485683, 41.591883236623175], [-70.82091024207423, 41.5913097573068], [-70.82039153718469, 41.591236876308656], [-70.81892860531148, 41.5918099873508], [-70.81844192001425, 41.592249948267416], [-70.81795412272753, 41.59226671242323], [-70.81713153916218, 41.59167652386974], [-70.8161553633778, 41.59176406715904], [-70.81603430463839, 41.59137842554747], [-70.81658216690009, 41.589613599064364], [-70.81941650838105, 41.588379650996686], [-70.82014776011576, 41.58788149967608], [-70.82093977158208, 41.58705845340355], [-70.8215794961992, 41.58575165436029], [-70.82173099729378, 41.584857247562425], [-70.8215783609881, 41.58288731194807], [-70.82194423622656, 41.582503458195795], [-70.82633123209985, 41.5831626425906], [-70.82825098299753, 41.583690603616674], [-70.82980556881988, 41.58455739723399], [-70.83422569106236, 41.58931375599722], [-70.83648100721445, 41.59224023528117], [-70.83669444141637, 41.592948279320304], [-70.83757957810961, 41.59405078052888], [-70.83803656580345, 41.59578161385799], [-70.83834239798216, 41.595947714399934], [-70.83977430900143, 41.596195202333995], [-70.84327890432915, 41.59576026229673], [-70.84327840643375, 41.595535164703826], [-70.84282123370012, 41.5948487917126], [-70.84218103456162, 41.5942108871839], [-70.84193654240957, 41.59363828902277], [-70.84202879659627, 41.593249976642035], [-70.84251588052575, 41.59343117934992], [-70.84315639266474, 41.59429418754162], [-70.84513745684318, 41.59548736973363], [-70.84727039807663, 41.59511923276855], [-70.85034636112847, 41.59271877857321], [-70.85037719413286, 41.592376252891555], [-70.85013272247025, 41.59216382418614], [-70.8501640251996, 41.59177628233207], [-70.85034692651091, 41.59166533923897], [-70.85110718025558, 41.59005913225384], [-70.85217280749383, 41.58910518527348], [-70.85305586423553, 41.587893023047044], [-70.85323807467773, 41.58677308988282], [-70.85323727776266, 41.585349920908335], [-70.85299181238234, 41.582697477313744], [-70.853692079672, 41.58217249144515], [-70.85433114129408, 41.58221607521802], [-70.85564227689032, 41.58265401730844], [-70.8564345079706, 41.58337993576393], [-70.85725882949129, 41.58496082168066], [-70.85756519307483, 41.58781956984001], [-70.85866322441296, 41.58909868234739], [-70.85905997815237, 41.589992853298426], [-70.85973188569095, 41.59204444235983], [-70.85973262945504, 41.59339501282747], [-70.86046512191689, 41.59426575146635], [-70.86198957759099, 41.59536658757023], [-70.8634225510165, 41.596118003273695], [-70.86384963263045, 41.596687065568744], [-70.86415550945702, 41.598195225750636], [-70.86607766118257, 41.59973097907625], [-70.86632062781355, 41.60015944612239], [-70.8662603375332, 41.60066501375573], [-70.8660781368232, 41.60087501884418], [-70.86473781135636, 41.60146403365042], [-70.864371328599, 41.60146986258657], [-70.86428051964987, 41.60130953764561], [-70.86449247527578, 41.60057635756197], [-70.86412626103763, 41.59957376469095], [-70.86330217300647, 41.5980649528802], [-70.86305811802836, 41.597880133231335], [-70.86250984691357, 41.597924895642706], [-70.86251049002033, 41.5983120615061], [-70.86281553572404, 41.59865872503529], [-70.86281691281015, 41.600874228213506], [-70.863609839825, 41.60101428646988], [-70.86385351492162, 41.60155982087411], [-70.86345895032636, 41.60286259119116], [-70.8634591949282, 41.60379955218538], [-70.86416119678957, 41.60505781576877], [-70.865078119509, 41.60734877493846], [-70.86620732799109, 41.60908662027171], [-70.86629964770074, 41.610156332885474], [-70.86669599858634, 41.61088840585532], [-70.86758179496509, 41.61196366150383], [-70.86788774889739, 41.61296760018249], [-70.8687410882497, 41.61408824309512], [-70.86919920013594, 41.61435977413925], [-70.86938150512587, 41.61497866941248], [-70.86916950356913, 41.615756318970625], [-70.86941439692323, 41.61696812655755], [-70.86911248145708, 41.620152659924926], [-70.86950957122473, 41.621199300348785], [-70.86883988960408, 41.622300229313346], [-70.86887136110278, 41.62310118127983], [-70.86982003972031, 41.62510358838544], [-70.8703078221769, 41.625626826251555], [-70.87323697710897, 41.62746120731056], [-70.87816935195349, 41.6290571996433], [-70.8792352413266, 41.62985929948147], [-70.88030169779954, 41.63035525541664], [-70.88191725959715, 41.63090484304459], [-70.88298449978893, 41.63104963129477], [-70.88341097165574, 41.631394087877354], [-70.88438680237823, 41.631531056055316], [-70.88557501866826, 41.63212442078489], [-70.88679355431762, 41.632491708156344], [-70.8875253901451, 41.63294809174462], [-70.88801370897414, 41.632534297717065], [-70.88984182586128, 41.63281085980183], [-70.88962973432938, 41.631553139551094], [-70.88993450074024, 41.631233449432926], [-70.89005750596169, 41.630132275171945], [-70.89085059596599, 41.62903863690273], [-70.89124732577578, 41.62819440930216], [-70.89170400958986, 41.62771008402576], [-70.89197909807957, 41.62695805870366], [-70.89249763233576, 41.626336753904], [-70.8935342230953, 41.625536453058714], [-70.89371359518165, 41.62508834781623], [-70.89395720489783, 41.624904511715876], [-70.89569538313631, 41.62438029301828], [-70.8960000475301, 41.62412305444493], [-70.90060388179023, 41.624173308837754], [-70.90255453430711, 41.623997308173124], [-70.90328592310856, 41.62454306707934], [-70.90542047639921, 41.624310025324604], [-70.90569433453142, 41.62470142744632], [-70.9056635361969, 41.62490891971319], [-70.90322777477832, 41.625430755993904], [-70.9028009168517, 41.62600531213755], [-70.90304467726058, 41.62899977883051], [-70.90337889484178, 41.62945397139645], [-70.90478110207745, 41.62941235920592], [-70.90487211661073, 41.6298883503105], [-70.90386616927093, 41.63000406316971], [-70.90334832855959, 41.63076047917575], [-70.90331795367172, 41.63128309508229], [-70.9040797430283, 41.63236022875272], [-70.90493270951065, 41.63293136496583], [-70.90520710177981, 41.633026214639436], [-70.90587708985669, 41.63290704183159], [-70.90709688635627, 41.63311205916791], [-70.90755418044775, 41.6337075644004], [-70.90773708341132, 41.63430782426684], [-70.9084988433424, 41.63446654620542], [-70.90862032153528, 41.63522124127659], [-70.90807220538719, 41.6354012729149], [-70.90810283755815, 41.63569799755473], [-70.90877267375254, 41.63590294137352], [-70.90874206011159, 41.636110426401785], [-70.90734011192089, 41.636431205481756], [-70.90706554419893, 41.63750740456894], [-70.90746178101219, 41.63791463851197], [-70.90743111205977, 41.638167708858504], [-70.90672986845142, 41.6383953401305], [-70.90678998456156, 41.63880870036846], [-70.90941197169357, 41.641305130488874], [-70.90941207678465, 41.64210646372424], [-70.90834501385493, 41.642403099962706], [-70.9081920098619, 41.64254073622358], [-70.90822233170844, 41.64281044796832], [-70.90892378794307, 41.64368183169449], [-70.90956345135395, 41.64503121372474], [-70.90971595987367, 41.6457399243731], [-70.91011254231131, 41.645994645198336], [-70.91224683070149, 41.64649921843294], [-70.91316122901318, 41.64708749102094], [-70.91319202871901, 41.64757329341838], [-70.91276520951169, 41.64807585753789], [-70.91267411257166, 41.64843778742806], [-70.91313057898583, 41.64907828374633], [-70.91383193247505, 41.64960749401988], [-70.91444193079619, 41.64976820192819], [-70.91566150328454, 41.64974803108165], [-70.91712584330193, 41.650182655965565], [-70.91804045524674, 41.65143773324327], [-70.91804024378888, 41.65191492991365], [-70.91706442258746, 41.65301176388699], [-70.91660753029751, 41.65310958757624], [-70.91581455489177, 41.65278926093324], [-70.91441121540733, 41.65308311051574], [-70.91441134465552, 41.65333521572421], [-70.91541750692106, 41.654137780642486], [-70.91745089707837, 41.654426771803436], [-70.91755233697079, 41.654822888298355], [-70.91730820465173, 41.655367488977106], [-70.91529501881526, 41.65518440215766], [-70.91520321620543, 41.655663378929404], [-70.91654556314721, 41.65589311558005], [-70.91651548144455, 41.65657837034503], [-70.91523429555102, 41.65671697547219], [-70.91517337496835, 41.657492108716326], [-70.91355632847363, 41.658248532493886], [-70.91340375208851, 41.6585212341006], [-70.91328134418927, 41.66035173710548], [-70.91215388567406, 41.661289056817026], [-70.91218358260573, 41.661792861195615], [-70.91245838939466, 41.66179709021688], [-70.91428876568612, 41.660740155234535], [-70.91505119332064, 41.66049309977684], [-70.91529524007616, 41.6608854497312], [-70.91525352084346, 41.664135582576286], [-70.88928999713308, 41.668999046538644], [-70.85797700585101, 41.68135200384594], [-70.86591402168764, 41.702358962723366], [-70.87909803406916, 41.73877527951866], [-70.88516291712945, 41.756341834735196], [-70.88658696019513, 41.760069745600106], [-70.90473106944341, 41.75795783955754], [-70.90746694476319, 41.763542025938705], [-70.9134999161486, 41.77504621731088], [-70.9158520228137, 41.77999007730059], [-70.92170793799802, 41.790854198088596], [-70.896042982525, 41.79429387481366], [-70.89876391161667, 41.814822068517685], [-70.89375592565496, 41.827141869343336], [-70.91570800544233, 41.84928618873988], [-70.91858807932027, 41.852550099982125], [-70.91830000729831, 41.85347825940794], [-70.9170840704681, 41.85549393301196], [-70.91657206325533, 41.8571581182865], [-70.91660392906867, 41.8576861207162], [-70.91729207414521, 41.85853373026143], [-70.91722798744102, 41.85885415822866], [-70.91657203967573, 41.859526080219176], [-70.91602807416861, 41.859845745358626], [-70.91429990331031, 41.85983013438249], [-70.91385209758606, 41.86051774011066], [-70.9131000043058, 41.860853762084034], [-70.91298801341033, 41.86128591982208], [-70.91311596571629, 41.86194216141003], [-70.91378804215229, 41.86195799632873], [-70.91449190865875, 41.86240616595928], [-70.91498802030542, 41.8639421413251], [-70.91538797706987, 41.864245813647464], [-70.91573992114952, 41.86410187411772], [-70.91586801732296, 41.86429385761115], [-70.91524400311407, 41.86504584296748], [-70.91525993661415, 41.86523781050549], [-70.91604398688114, 41.865670066467175], [-70.91581995363163, 41.86600598951645], [-70.9151959867951, 41.86619806463494], [-70.9151320539486, 41.86643801747191], [-70.91634807340422, 41.867094199417394], [-70.91660390881786, 41.867478162899054], [-70.9151640304151, 41.86838972317179], [-70.91426805812344, 41.86938172402867], [-70.9135960598774, 41.86979806808377], [-70.91321206037271, 41.87037401162855], [-70.9131799087655, 41.870677719569365], [-70.91321205707544, 41.87088609433933], [-70.91421992914825, 41.871670088192126], [-70.91474801920278, 41.87237395697766], [-70.91618791661315, 41.87272572185907], [-70.91631598298508, 41.87290194809375], [-70.91606003732181, 41.87363781245935], [-70.91599597803044, 41.87463013684928], [-70.91607607509512, 41.875318200266534], [-70.91650801131559, 41.87651789443593], [-70.91573996724084, 41.877733959147506], [-70.91437998391524, 41.877829972601035], [-70.91413994361544, 41.878182133783916], [-70.91410807643561, 41.87859782161245], [-70.91382003060518, 41.87880624456753], [-70.91289202010383, 41.87874182534394], [-70.91175596563198, 41.878374137031585], [-70.91124409041943, 41.8785020505045], [-70.91065201417054, 41.87907804632387], [-70.91068405106917, 41.879765865379035], [-70.90982005756631, 41.87986212475554], [-70.90943598745822, 41.880070040148134], [-70.90937206708851, 41.88040622074918], [-70.90957992167601, 41.88109382434404], [-70.90938798228264, 41.88210179803702], [-70.90924401730996, 41.8825022825159], [-70.90857191210111, 41.88301426065087], [-70.90681202525253, 41.882373747063596], [-70.90156395580429, 41.88090182330584], [-70.89818795450797, 41.87955772547579], [-70.8965240123625, 41.88093381013387], [-70.89596406886938, 41.88163820247611], [-70.89529206981965, 41.883973902285405], [-70.89543600547582, 41.88509393622421], [-70.89580390228856, 41.88560627441822], [-70.8932439625998, 41.88395797309893], [-70.89078002667276, 41.8820861508489], [-70.88937208904916, 41.88251812286149], [-70.8881560309969, 41.883333752979674], [-70.88738804405959, 41.883381971878954], [-70.88498796963746, 41.88427786771483], [-70.88351607064978, 41.88459800288601], [-70.882363985128, 41.88581402213927], [-70.88188393837041, 41.88573376695838], [-70.88105201113005, 41.88454977853504], [-70.88098807149304, 41.8836698815659], [-70.88058791766393, 41.882886084289865], [-70.87911608237177, 41.88109423522739], [-70.8754199100153, 41.88221415861702], [-70.87164400369001, 41.88226208665281], [-70.86941999255917, 41.88267805406688], [-70.86444400033415, 41.88298190706492], [-70.85938698064655, 41.88360583589682], [-70.85945105046734, 41.8852859497004], [-70.85925897948458, 41.88570185023394], [-70.85714705793937, 41.88896619072876], [-70.85637891136707, 41.88931807486664], [-70.855098995217, 41.89101423077488], [-70.85490694705996, 41.89170192733566], [-70.85540295532445, 41.89299788294518], [-70.85546709564767, 41.8936380736412], [-70.85511492283014, 41.8956540344323], [-70.85577102927104, 41.896725800137006], [-70.85594692325935, 41.898102104236656], [-70.8562029466948, 41.89885422976363], [-70.85421901785993, 41.89853408177485], [-70.85388291980395, 41.898662175238805], [-70.85183499454851, 41.90093412471193], [-70.85007508007516, 41.90214974555078], [-70.84881102874257, 41.902582030544195], [-70.84781908284708, 41.902517844742995], [-70.84596308556169, 41.90379813052907], [-70.84577097347187, 41.904405903747104], [-70.84329104942562, 41.904710172153585], [-70.84034692207851, 41.90450187226409], [-70.83980292361926, 41.90427813775659], [-70.83897102271801, 41.90312592173946], [-70.83703509275482, 41.901862058818345], [-70.83585100201492, 41.90131776473885], [-70.8336270206568, 41.90086981947558], [-70.83233098000483, 41.900213981612474], [-70.82847501958278, 41.89687012726029], [-70.82322692520424, 41.89355784410607], [-70.8220430187919, 41.89261387539152], [-70.82117896287458, 41.89159019595645], [-70.81793097803217, 41.889542181741746], [-70.81687498194201, 41.887253992365565], [-70.81593096295892, 41.886134128742164], [-70.81489100865471, 41.88653418430587], [-70.81401093654773, 41.88661386670116], [-70.81225102062992, 41.8866297292547], [-70.81133908142614, 41.88647004221092], [-70.80788202710772, 41.888037722621036], [-70.80687408983161, 41.888325920385974], [-70.80372204338667, 41.87875828096098], [-70.80244197666704, 41.87531779007546]]]]}}