{"type": "Feature", "properties": {"district_name": "7th Bristol District", "chamber": "house", "vintage": "2012-2020"}, "geometry": {"type": "Polygon", "coordinates": [[[-71.201162, 41.681909], [-71.19619, 41.68630200000001], [-71.18979, 41.691502], [-71.17419000000001, 41.70220199999999], [-71.168431, 41.708337], [-71.161377, 41.70435500000001], [-71.15943299999999, 41.703862], [-71.15847, 41.704910000000005], [-71.154974, 41.704674999999995], [-71.153522, 41.704421999999994], [-71.153853, 41.70329], [-71.150712, 41.70274099999999], [-71.15113800000002, 41.70118], [-71.151715, 41.701283000000004], [-71.152097, 41.699828], [-71.15302, 41.69999699999998], [-71.15328, 41.699868999999985], [-71.15062400000001, 41.697191000000004], [-71.145598, 41.69342299999998], [-71.140084, 41.68821799999999], [-71.143182, 41.685998999999995], [-71.14615900000001, 41.686535000000006], [-71.147403, 41.68284500000001], [-71.144584, 41.68230599999999], [-71.14684199999999, 41.67606200000001], [-71.155118, 41.677620999999995], [-71.15410899999999, 41.674910999999994], [-71.15482999999999, 41.674885], [-71.162014, 41.676308000000006], [-71.16040000000001, 41.670061999999994], [-71.15951199999999, 41.668485], [-71.160442, 41.667671000000006], [-71.16212, 41.665735], [-71.176017, 41.668269], [-71.17587999999999, 41.671541999999995], [-71.195555, 41.67515199999999], [-71.201162, 41.681909]]]}}