{"type": "Feature", "properties": {"district_name": "8th Bristol", "chamber": "house", "vintage": "2001-2010"}, "geometry": {"type": "MultiPolygon", "coordinates": [[[[-71.08682509902259, 41.513658814488764], [-71.08521199614302, 41.51503048266992], [-71.08448147605525, 41.515143173530035], [-71.08387307930332, 41.51512687161289], [-71.0835684500303, 41.51482638399982], [-71.08344636845982, 41.51434199168544], [-71.08314193828225, 41.5142125723154], [-71.08165131866886, 41.51421215600022], [-71.08116367370712, 41.514049975860104], [-71.08113319257974, 41.51381633658871], [-71.08162039216323, 41.51350131462959], [-71.08247269530727, 41.51325122704095], [-71.0834162863072, 41.51315340421435], [-71.0846942945308, 41.51242711223839], [-71.08515112655104, 41.51249124127902], [-71.08499891352439, 41.513683105221], [-71.08682509902259, 41.513658814488764]]], [[[-71.08028216127494, 41.51798524285471], [-71.08357023724179, 41.518988311510505], [-71.08357009760657, 41.51926799030511], [-71.08253555559688, 41.519953524419776], [-71.08189662352798, 41.520135746539], [-71.08110486283456, 41.520042232552875], [-71.08064798905944, 41.519834020358715], [-71.08067856687799, 41.518851613633046], [-71.07891321982271, 41.51771231418191], [-71.07748146205302, 41.517089677676466], [-71.07696392003375, 41.51674730484311], [-71.07693373378156, 41.51638760581293], [-71.07726903433057, 41.516291508176195], [-71.07848652017253, 41.51681937201147], [-71.08028216127494, 41.51798524285471]]], [[[-71.09066286714545, 41.52024705146278], [-71.09203293723566, 41.52179891319506], [-71.09270245576774, 41.52195775560372], [-71.09376868422204, 41.52296547957842], [-71.09480435674448, 41.5235414782643], [-71.09577935106799, 41.525875197375136], [-71.09830621554153, 41.52752282528945], [-71.09882490603195, 41.52816166515446], [-71.09897687279835, 41.528528541050086], [-71.098825038445, 41.52939628568871], [-71.09809418149385, 41.529391449359274], [-71.09690712061152, 41.529052980996305], [-71.09599306892217, 41.52790739808387], [-71.09550662346678, 41.52779874772699], [-71.09471374976054, 41.5270655014212], [-71.09395278490369, 41.52676397884398], [-71.09313065673598, 41.52548195460115], [-71.09279512967014, 41.525344013480655], [-71.09197390398386, 41.525485122038646], [-71.09179023068185, 41.52434381190136], [-71.0914860930184, 41.52386327526141], [-71.09029923052009, 41.52351517623161], [-71.08996405246823, 41.52317913945401], [-71.08975086041679, 41.52232696936919], [-71.08892853795984, 41.52159413406125], [-71.08871460220784, 41.52097661147838], [-71.08819728248413, 41.520382189794006], [-71.08737549271576, 41.52027116163091], [-71.08713202679849, 41.52008626034042], [-71.08713146342232, 41.519446443486444], [-71.08786209480711, 41.5188295334537], [-71.09002293859767, 41.51818684899733], [-71.09050940340386, 41.51848404081203], [-71.09047969834228, 41.519764130195604], [-71.09066286714545, 41.52024705146278]]], [[[-71.10272376675013, 41.53202779732321], [-71.10363682793732, 41.53200229469668], [-71.10403307999034, 41.532229326066464], [-71.10403323681987, 41.53250843848197], [-71.10318126806519, 41.533127837885516], [-71.10159823490625, 41.5331656273711], [-71.10095906105785, 41.53367264449501], [-71.10047201061735, 41.533654616792084], [-71.0999541081401, 41.53333091372809], [-71.09995388822182, 41.53255603519613], [-71.1005617429714, 41.53163474748444], [-71.1013232086597, 41.531477043139404], [-71.10187090105224, 41.53225046671436], [-71.10238913778166, 41.532250032250076], [-71.10272376675013, 41.53202779732321]]], [[[-71.1045526139687, 41.534751022131296], [-71.10400489893894, 41.53518466241296], [-71.10394373585503, 41.53578037994009], [-71.1033650943174, 41.5360974205849], [-71.1024214127797, 41.53579925125291], [-71.10199508336854, 41.53474377669368], [-71.10126354891842, 41.53447785390338], [-71.10129460202275, 41.53418027660129], [-71.10190271254102, 41.53388078989401], [-71.1040949033105, 41.53392166193681], [-71.10458251243884, 41.53442643813529], [-71.1045526139687, 41.534751022131296]]], [[[-71.10768969140145, 41.53639662898846], [-71.10525325935015, 41.536873252377276], [-71.10476638351194, 41.53712591029992], [-71.10415783196271, 41.537767548069986], [-71.1033662888549, 41.53753856959392], [-71.10339630612552, 41.537195970052345], [-71.10394469213428, 41.53671731690207], [-71.10497852402563, 41.53618464606372], [-71.10647054796846, 41.53588708176506], [-71.10781009085174, 41.5352952285186], [-71.10838823050312, 41.535635985145866], [-71.10835835074326, 41.53596057015428], [-71.10768969140145, 41.53639662898846]]], [[[-71.1129287783122, 41.53964296436712], [-71.11134475248849, 41.53966287971033], [-71.10982195466083, 41.53869989751426], [-71.10954726014145, 41.53799329534745], [-71.10982073579851, 41.53785298701685], [-71.11247029181494, 41.53851594945797], [-71.11304966850865, 41.53934344835702], [-71.1129287783122, 41.53964296436712]]], [[[-71.07348708217177, 41.75310205590634], [-71.00748496684298, 41.736302268863135], [-71.01088496476082, 41.72560201559434], [-71.01528508478248, 41.71040183649185], [-71.02675690677304, 41.70528313768248], [-71.02708599316378, 41.70480225187388], [-71.06998691862384, 41.68450209662217], [-71.07638691500972, 41.68610173852774], [-71.07517407946746, 41.678122251885895], [-71.06569791014994, 41.66834116277292], [-71.06423297308864, 41.667098127473885], [-71.0631649238603, 41.665907801616584], [-71.06058599233836, 41.66191825970792], [-71.05522997469703, 41.654517830996234], [-71.05341404412131, 41.65142021375195], [-71.05236108841436, 41.64929177187011], [-71.04912707192864, 41.64029673166785], [-71.04689903134334, 41.637604229274395], [-71.04576899806136, 41.63688618115251], [-71.04483806854597, 41.636574083215706], [-71.04413600587826, 41.63480373676598], [-71.04300699365311, 41.63308682683595], [-71.04073308844825, 41.63050824647971], [-71.03897802082213, 41.62802907263553], [-71.03804806281212, 41.6263579377411], [-71.03710205885633, 41.62413806495217], [-71.03893302612501, 41.622823094306995], [-71.03768405420496, 41.6224229861966], [-71.03681203581785, 41.61905712920446], [-71.0366899142066, 41.61707301814209], [-71.0385209713582, 41.60867273754166], [-71.0371019131007, 41.59810624664589], [-71.03887209065364, 41.59591711086816], [-71.03938996296594, 41.59502391511763], [-71.03969603327265, 41.59400211540356], [-71.0420610878718, 41.592322920140504], [-71.04492907893831, 41.58997323613624], [-71.04534108293952, 41.58887475673215], [-71.04517397644179, 41.58741718040987], [-71.0430069574492, 41.58435793969513], [-71.04099301201597, 41.582061767700296], [-71.03499605753629, 41.57375289180829], [-71.03233993455956, 41.569381967385084], [-71.03176006411634, 41.56585689856727], [-71.03017293511351, 41.56071488459997], [-71.02941008337382, 41.55749572877189], [-71.03020397611778, 41.55441413923044], [-71.0310279085647, 41.55251383982402], [-71.03115006267613, 41.551637046428546], [-71.03102807407026, 41.54995792883104], [-71.03061602042887, 41.54814986856691], [-71.0315619050973, 41.54612795351954], [-71.03096708381598, 41.5432212532913], [-71.02939495718779, 41.537270087298], [-71.02886095546505, 41.53630223087936], [-71.02634304495413, 41.530267185235374], [-71.0327980710236, 41.52745103619142], [-71.02916590637784, 41.513856278925346], [-71.02236562056618, 41.504412297512076], [-71.02318890910601, 41.504002718021525], [-71.02845410506862, 41.50237818109875], [-71.03028096345639, 41.50130138754513], [-71.03403060806225, 41.50008503452383], [-71.03644805167312, 41.498363988441994], [-71.03809975681041, 41.49629088568375], [-71.03840223158184, 41.49583743332], [-71.03841570958855, 41.495550497367155], [-71.03811260132306, 41.49461232770041], [-71.03845230792352, 41.49267511127074], [-71.038188433183, 41.49073375482057], [-71.03786459927078, 41.490156203648816], [-71.03648356342045, 41.488997546025324], [-71.0355278397529, 41.488691447911926], [-71.0343849611, 41.48774982659148], [-71.03448292664018, 41.48750318701125], [-71.03531146269333, 41.48692191535197], [-71.03638545995781, 41.48533154194219], [-71.03638061585896, 41.484500937280785], [-71.03566226231511, 41.483071481759204], [-71.03543471741644, 41.48194341264834], [-71.03771361817836, 41.48151210413768], [-71.0387336819281, 41.482379479848255], [-71.03892680692165, 41.48273422467523], [-71.03927031061762, 41.48403326833031], [-71.03938597841292, 41.48545968770744], [-71.0397978054562, 41.48667853279982], [-71.03956363254541, 41.48713733481057], [-71.03958187236476, 41.48764723933988], [-71.03991461235218, 41.48833905070546], [-71.0400176545189, 41.48899785897667], [-71.04069566324839, 41.490072605344906], [-71.0403581437068, 41.4910644466614], [-71.03903257084089, 41.49269604508904], [-71.0384923351153, 41.494341513236115], [-71.03850292234057, 41.49479398882386], [-71.04042528558035, 41.497125287771304], [-71.04247462905958, 41.49896300064448], [-71.0474135186161, 41.50189829321048], [-71.05075976948264, 41.503568826692586], [-71.05666341851733, 41.50574278877391], [-71.06646336617494, 41.5080354956185], [-71.07160595455709, 41.508258175939766], [-71.07833234445272, 41.508785880815594], [-71.08009744351024, 41.509150319935024], [-71.08280645471663, 41.509362335265294], [-71.0852710482831, 41.50975007969018], [-71.08944029825133, 41.50970165753118], [-71.09050603885997, 41.51004257659677], [-71.09059774990305, 41.51048240069517], [-71.08986779162481, 41.51200925300274], [-71.08922921601986, 41.51247118743363], [-71.08825538638398, 41.512444023705896], [-71.08578920984412, 41.511848688419626], [-71.08451193104754, 41.511917173324655], [-71.07924620821139, 41.51377840147742], [-71.07583770244848, 41.513659920060064], [-71.07239844057877, 41.51377588167309], [-71.07057238758522, 41.51411505850457], [-71.06892871398989, 41.51482911649382], [-71.06789333477491, 41.51484768787921], [-71.06646292590636, 41.51535093704097], [-71.06491116105389, 41.51519868940078], [-71.06290256425795, 41.514324939099346], [-71.06250642029417, 41.513845653223505], [-71.06205078579603, 41.51253837010026], [-71.06153350494367, 41.511628699127236], [-71.06031536039849, 41.51068648327982], [-71.0591896130981, 41.510274134454455], [-71.05903689387961, 41.51070909149529], [-71.0583064476883, 41.51102869752375], [-71.05791116551852, 41.510432351656185], [-71.05693760797247, 41.50990916235559], [-71.05584260661968, 41.50968541819469], [-71.05501993806351, 41.51005134388062], [-71.0550506806822, 41.510690722025466], [-71.05641950099128, 41.510323555973116], [-71.05666334770592, 41.511301402489664], [-71.05620680323155, 41.51171491025045], [-71.05480721083414, 41.51144269552169], [-71.05450276919436, 41.51183540948577], [-71.05477611862538, 41.51230804734499], [-71.05660189963693, 41.5127439937494], [-71.05660228124401, 41.51306812584857], [-71.05574986462682, 41.51423638919522], [-71.05474487340564, 41.51489421724875], [-71.05386292169727, 41.51491888979079], [-71.05307073847165, 41.515492005065965], [-71.0521582250261, 41.51531001873881], [-71.05188426867291, 41.514738332162096], [-71.05151809363974, 41.51496085096477], [-71.0510626500702, 41.51496917923585], [-71.05078789289334, 41.51509977008354], [-71.0510621345551, 41.51595114029311], [-71.05014894086983, 41.51631835670129], [-71.04935777700713, 41.516287648681974], [-71.04722757952648, 41.51572206996808], [-71.04479237406224, 41.51464820637592], [-71.04339236794806, 41.514483892869904], [-71.04275290384369, 41.514233718121815], [-71.0419617051743, 41.51363516195842], [-71.04132354533661, 41.51262867889956], [-71.0408058100526, 41.512214668677956], [-71.03968099068636, 41.51001829311073], [-71.03907239770989, 41.509542564499434], [-71.03916420240843, 41.50851371366672], [-71.03965171568869, 41.50716232900099], [-71.03910388797344, 41.50654167238205], [-71.0387390436648, 41.50512436810095], [-71.03800908365011, 41.50446188198547], [-71.0374616230962, 41.50423736981282], [-71.03566617511676, 41.50416082546999], [-71.0354222992558, 41.503985381712816], [-71.03542268561962, 41.502561683209265], [-71.03524106032657, 41.50224074304878], [-71.03481533709002, 41.502058925657245], [-71.03414467180781, 41.502466964912074], [-71.03326289866105, 41.502104320984266], [-71.03259359115269, 41.50217021844647], [-71.03231887386153, 41.502427382778215], [-71.03237938671491, 41.50293071049308], [-71.03219668267329, 41.503041935604465], [-71.03091963590107, 41.50281269762508], [-71.03052351761087, 41.502882530165124], [-71.03034069573224, 41.50311079912988], [-71.03049203482388, 41.503936951204054], [-71.03134427024968, 41.504525711096086], [-71.03253130161602, 41.504964466175224], [-71.03283589170388, 41.50531010984667], [-71.03313977625831, 41.50588140799308], [-71.03274365858454, 41.50743796533807], [-71.03316889869343, 41.50784487941764], [-71.03538993415208, 41.50878756456307], [-71.03587659191199, 41.509400678096156], [-71.03703334279167, 41.51010993817212], [-71.0387668267173, 41.51224128862167], [-71.03977175248085, 41.512836232400325], [-71.04004503728426, 41.51361559681506], [-71.04123094212169, 41.51453144828897], [-71.0413530938602, 41.51519596027561], [-71.04068322998523, 41.514982232768936], [-71.03992242505007, 41.515104076376225], [-71.04098749910317, 41.516220338578414], [-71.04202183154555, 41.51658916472333], [-71.0432698290119, 41.51663020876563], [-71.04378732573666, 41.516585021188135], [-71.04454811516551, 41.51620204612567], [-71.04515757424036, 41.51620054684802], [-71.04573522049596, 41.51654162232098], [-71.04670921231003, 41.51665918775441], [-71.0469832180195, 41.517482988976674], [-71.04722655822327, 41.51766797635896], [-71.0484445750529, 41.51769139474203], [-71.04905310932159, 41.51832913780234], [-71.04981356751189, 41.51988359102915], [-71.04978275204286, 41.520433257684275], [-71.0493566429957, 41.52054917201084], [-71.04862659712434, 41.52039095819173], [-71.04826139632081, 41.52052343422559], [-71.04838255785768, 41.52126053080131], [-71.04810806908704, 41.52201292543974], [-71.04789542678878, 41.522196653114044], [-71.04710403422592, 41.52237301237788], [-71.04725595286003, 41.52315411668702], [-71.04667810007703, 41.52333582647013], [-71.04670819485263, 41.52365951035256], [-71.04698186338396, 41.52395209573399], [-71.04780318910926, 41.5242074728005], [-71.04777264967022, 41.5248477347463], [-71.04731635790232, 41.525468292176406], [-71.04758962623025, 41.52608557261857], [-71.0473466221927, 41.52640479110298], [-71.04728502547775, 41.5272531382299], [-71.04786352051605, 41.52775627139275], [-71.04780255733655, 41.52909982138585], [-71.0473764930395, 41.5298369887347], [-71.04728432876723, 41.530586732270756], [-71.04752763433437, 41.53136595884769], [-71.04956706856429, 41.53479826128313], [-71.05099662427006, 41.53882686693175], [-71.05145343330891, 41.539719465646485], [-71.05172682449873, 41.540975994746105], [-71.05178750034446, 41.54287600196428], [-71.05203173496037, 41.543403111522295], [-71.05154459180036, 41.544726974165755], [-71.05166582675365, 41.545599122263994], [-71.0513602901659, 41.546577619353435], [-71.05172548270743, 41.546922325539825], [-71.05169526264066, 41.54891370323247], [-71.05489293104318, 41.553604799225276], [-71.05556305427318, 41.55484485712133], [-71.05568455908787, 41.555960100135536], [-71.05641491295292, 41.55800115417571], [-71.05717608198833, 41.55854602689039], [-71.05729816025259, 41.55879579560553], [-71.05723753423116, 41.55930144668421], [-71.05687188017251, 41.55968661869763], [-71.05693206964982, 41.55989281178356], [-71.05976452535263, 41.55977890190975], [-71.06006982450116, 41.559944401398575], [-71.06022174150958, 41.560924135346376], [-71.06086253085053, 41.56166041140617], [-71.06174490335037, 41.562049850866096], [-71.06198903058895, 41.562369854561545], [-71.06311561165485, 41.565268304818076], [-71.06329890567652, 41.56539111707302], [-71.0637244180637, 41.565293712433075], [-71.06405987417602, 41.56417067154251], [-71.06448678689512, 41.563396871352126], [-71.06430390805666, 41.56268825907189], [-71.0638769677691, 41.56211939129902], [-71.06360290266738, 41.5611335658588], [-71.06393784501542, 41.55909159452242], [-71.06448609733327, 41.55873017668126], [-71.06530853725783, 41.55886894056457], [-71.06591704597615, 41.559785704269295], [-71.06658799621685, 41.5601968068152], [-71.06710563405566, 41.56117905178566], [-71.06917697537915, 41.56124938677511], [-71.0696337960995, 41.56144864054659], [-71.06978587988242, 41.56220270374947], [-71.0700607745515, 41.562549259158935], [-71.07091339420974, 41.56302911803586], [-71.07100496582731, 41.56451393778485], [-71.07197962656821, 41.56492896413717], [-71.07204068705742, 41.565910031860206], [-71.07134010231367, 41.56705760380676], [-71.07045679235772, 41.56723602288514], [-71.07045675062697, 41.567857273388015], [-71.07109644255641, 41.56948541379124], [-71.07106705175826, 41.57174746556353], [-71.07051813473223, 41.57336997993531], [-71.0705492687666, 41.57403580831206], [-71.07097583094614, 41.574542181949745], [-71.07103689985932, 41.57524357054832], [-71.0707930549441, 41.57632027633864], [-71.07085462416114, 41.5768055797323], [-71.07121970315158, 41.5773483018647], [-71.07125010725092, 41.577789594678414], [-71.07076295052644, 41.578491722045776], [-71.0684779108761, 41.58019037907446], [-71.06835597201568, 41.58043583210339], [-71.0685089604919, 41.581198904197464], [-71.06741233216009, 41.58211085353943], [-71.06744262696327, 41.582479559758134], [-71.06820425791396, 41.58281727542759], [-71.06823460325167, 41.58306893434429], [-71.06716857655495, 41.58382681051338], [-71.06698559148654, 41.58439784413091], [-71.06796103596432, 41.584263126987054], [-71.068478942434, 41.58451494628562], [-71.06735128121306, 41.58551737200641], [-71.0676261742531, 41.58604400582202], [-71.06759592510785, 41.586666267077625], [-71.06710800072278, 41.5867741452978], [-71.06585863045068, 41.586454250603346], [-71.06555348461049, 41.58652286231911], [-71.0655845263417, 41.58727871936215], [-71.06573698217393, 41.587483009509796], [-71.06655920004133, 41.58745970565815], [-71.06723046382704, 41.587672724638146], [-71.0688142523215, 41.5876444156937], [-71.06921048013822, 41.587825991506925], [-71.06911920757616, 41.58810700901096], [-71.067870624458, 41.58847198317497], [-71.06680397611868, 41.58911280667741], [-71.06631575856792, 41.59022964609699], [-71.0649143292652, 41.590687408216745], [-71.06467064178483, 41.591304349479195], [-71.06531046705156, 41.592040595699544], [-71.06528034255551, 41.59407699542369], [-71.06476249227549, 41.59507779323942], [-71.06473183032894, 41.596114219721535], [-71.06534177471161, 41.59767080772459], [-71.06546346073172, 41.59915518084868], [-71.0659821614528, 41.59988477425239], [-71.06555533681926, 41.60022528148874], [-71.06214179607026, 41.60189923677977], [-71.06208038314679, 41.603999657589775], [-71.06198933080252, 41.6044877542026], [-71.06141014895275, 41.605308795332846], [-71.06153214910789, 41.60624395212188], [-71.06137983898353, 41.60675094465708], [-71.06077053418679, 41.606933166041685], [-71.06009957212738, 41.60754901303602], [-71.05967296121196, 41.607574371853744], [-71.05891107013493, 41.60702050244702], [-71.05811839276244, 41.60690882115833], [-71.05808810946588, 41.6074134656535], [-71.05918526095677, 41.608304027173965], [-71.06019151915453, 41.60807889110451], [-71.06092284839539, 41.608119426188274], [-71.0609531827432, 41.60850669997492], [-71.06016069889995, 41.60970112010652], [-71.06009961034904, 41.61013418395528], [-71.05915511165234, 41.6113493923939], [-71.05909371390494, 41.61212571842222], [-71.05799605029992, 41.613199073995844], [-71.05796587806267, 41.613659267929506], [-71.05827037700733, 41.61424850672776], [-71.05827069822419, 41.61466267557188], [-71.0590630395165, 41.614918979640606], [-71.05933797855792, 41.61528356799489], [-71.0594597797139, 41.61638023365852], [-71.05970377941159, 41.61647515012248], [-71.06025160412993, 41.61603271607208], [-71.06006931511574, 41.615279081067925], [-71.05918519786583, 41.6145744969102], [-71.05900254777467, 41.61379384780375], [-71.0591244061809, 41.61349439120107], [-71.0596724632816, 41.613042957287334], [-71.06061792278695, 41.61114290417474], [-71.06223331983466, 41.60940243141563], [-71.06241659084287, 41.60866934046587], [-71.06226383323273, 41.60578927977201], [-71.06275120801244, 41.604960570159875], [-71.06269078711799, 41.60316016777556], [-71.06296464976188, 41.60249720285181], [-71.06400110301176, 41.60175782566411], [-71.06665164583909, 41.60096269688848], [-71.06713969489846, 41.600575716899804], [-71.06738361284204, 41.59984115660768], [-71.06659123938074, 41.59800871494614], [-71.06680491363562, 41.597230147826984], [-71.06717022873823, 41.59686295803785], [-71.06808396630547, 41.596819724083765], [-71.06845007388532, 41.59702932422733], [-71.07052233109515, 41.59713621556352], [-71.07036999175862, 41.59654421782971], [-71.0687246817853, 41.59615926496041], [-71.06826700869483, 41.595717474158874], [-71.06835837818315, 41.59361659751551], [-71.0682367504076, 41.592339311643045], [-71.06844877656665, 41.59199347714445], [-71.06899716392586, 41.59165004416822], [-71.07097773756887, 41.59073129105256], [-71.07170929378032, 41.58997942943182], [-71.07216661074793, 41.589043090762935], [-71.07210599178137, 41.587990562701066], [-71.07158742954108, 41.5864591160504], [-71.07189193869121, 41.58457962981494], [-71.07125076203916, 41.58370836110443], [-71.07134323533954, 41.583274284708025], [-71.07237857846602, 41.58224670331302], [-71.07304864046995, 41.58179285642438], [-71.07368867239984, 41.58165513653248], [-71.0744201766799, 41.58227294444516], [-71.07475450639247, 41.58277107989116], [-71.07499922609523, 41.58398298423302], [-71.07530384680479, 41.58407697787969], [-71.07560808494797, 41.58235954654949], [-71.07506002597727, 41.5812883164849], [-71.07390133013594, 41.5801917186062], [-71.07390145943292, 41.579750541094064], [-71.07447990359339, 41.577965488347616], [-71.07435807648598, 41.576760237913064], [-71.07457088618023, 41.575747559326764], [-71.07447953778205, 41.57519968831127], [-71.07393043476573, 41.57457863028282], [-71.0732605936395, 41.574167575928776], [-71.07326067102017, 41.57376184554234], [-71.07420445257802, 41.572249400881184], [-71.07423490726997, 41.5716991680736], [-71.07380822708151, 41.57129240445151], [-71.07271119611742, 41.57092476116673], [-71.07249822929857, 41.57066735628301], [-71.0724674218905, 41.57014559689126], [-71.07322929468293, 41.5689965555043], [-71.07347204778776, 41.56812749151071], [-71.07475175581634, 41.56588813523864], [-71.0746294220955, 41.5639440184639], [-71.07481144746839, 41.5630758498071], [-71.07435467214775, 41.56204829218373], [-71.0719780905902, 41.559803083097016], [-71.07094239934403, 41.55836197018717], [-71.06984631128115, 41.557471524123564], [-71.06935876131365, 41.55683154386722], [-71.06844495441308, 41.553604774596714], [-71.06783579296342, 41.55273304914343], [-71.06689206521241, 41.550794798032314], [-71.06646526021744, 41.55037900216902], [-71.0661910520361, 41.54958225889274], [-71.06515565614941, 41.548141093515184], [-71.06469833425673, 41.547149499804156], [-71.06396773766565, 41.546333560354206], [-71.06363351818591, 41.54497948054849], [-71.06341987662411, 41.544839102931654], [-71.0630245587562, 41.54401712610944], [-71.06275058709032, 41.54308532079572], [-71.06272026093698, 41.54198676085423], [-71.0621710898479, 41.54115856104548], [-71.06220149436967, 41.53996907339818], [-71.0615317346357, 41.538296314836245], [-71.0616232419434, 41.53671765630761], [-71.06220105953922, 41.53548244509124], [-71.06265893083129, 41.53503234478144], [-71.06399829703184, 41.534522039106065], [-71.06433248696403, 41.53411083889863], [-71.06442430770943, 41.53027114349559], [-71.06494141699491, 41.52905426048337], [-71.06497206336898, 41.528648656463254], [-71.06469825879644, 41.52816703811094], [-71.06396717145014, 41.527594185297836], [-71.06396763961025, 41.52686489322934], [-71.06457663477639, 41.525898782909216], [-71.06591536756356, 41.52498272268824], [-71.06631231290812, 41.5240028448795], [-71.06622021986013, 41.52256303828481], [-71.06661630001838, 41.52134850377698], [-71.06704195849969, 41.52057524942689], [-71.06804647537571, 41.51956616936919], [-71.06880720865945, 41.51850720190275], [-71.06972051217248, 41.51844595020393], [-71.06990350210816, 41.519406655093725], [-71.07020846185569, 41.51968016997192], [-71.07048138235787, 41.51953996336679], [-71.07057275938477, 41.5179438499008], [-71.07042070611469, 41.5163878987835], [-71.07060290138052, 41.51604251610798], [-71.07087636860498, 41.515902301696045], [-71.07185109738974, 41.516110257428636], [-71.07279447368091, 41.5175707064408], [-71.07331189565397, 41.51801157950504], [-71.07456025921016, 41.518484454403996], [-71.07629536298829, 41.52011103880287], [-71.07733119250925, 41.5204345296496], [-71.07818289000961, 41.521004926314355], [-71.0787002032014, 41.52235626515967], [-71.07924876809719, 41.52274263758435], [-71.07988754062686, 41.52150588086457], [-71.08067980339189, 41.52112222241416], [-71.08436264832389, 41.52201024563776], [-71.08582369491184, 41.52363229396956], [-71.08640341746505, 41.52407220879373], [-71.08670687786449, 41.524796979791276], [-71.08765077831114, 41.52601365005126], [-71.08801738891387, 41.52679098491813], [-71.0879569619927, 41.527891457558155], [-71.08963346353761, 41.53241959689402], [-71.08969442138331, 41.53403990090337], [-71.09033385403606, 41.53491105926764], [-71.09079075178094, 41.53513723937657], [-71.0916735458979, 41.53516630360648], [-71.09526537466351, 41.53253322967437], [-71.09617823001463, 41.53277788564614], [-71.09739753532054, 41.53374672865411], [-71.09767180176496, 41.5350031467383], [-71.09873746971651, 41.536028828597786], [-71.09946851690545, 41.53658288151287], [-71.10029064111727, 41.536828876702344], [-71.100990708941, 41.537311907226474], [-71.1009917469842, 41.53870802888058], [-71.10388652619979, 41.54158356534016], [-71.10352186111233, 41.542959286708815], [-71.10364392540441, 41.543146537849836], [-71.10471039946955, 41.543622378357476], [-71.10516682477778, 41.543577823065014], [-71.10565355151905, 41.54274949886802], [-71.1062925840307, 41.542728640449525], [-71.1072066603509, 41.543784103476675], [-71.1078160754026, 41.54416886363134], [-71.10802954565223, 41.544444778136864], [-71.10803034840163, 41.545201084110886], [-71.1076653767493, 41.54657737583421], [-71.10766552932155, 41.547073133143535], [-71.10784855464163, 41.547213888619204], [-71.11095435444122, 41.546138512833444], [-71.11177614186902, 41.54624992727915], [-71.1131777519773, 41.54709767391687], [-71.11482150678034, 41.54645500247832], [-71.11676987093684, 41.54638338121917], [-71.1173790559083, 41.54691270492218], [-71.11753241540744, 41.547918816324625], [-71.11914700547648, 41.54830352048666], [-71.11948213163225, 41.5488555476705], [-71.1197574300926, 41.5500218785562], [-71.12061009698775, 41.54986209867033], [-71.12155449967563, 41.550024506040835], [-71.12243754506105, 41.549954291508065], [-71.12335084036677, 41.55034278700653], [-71.12453923923346, 41.55032083752992], [-71.12450833153743, 41.549907136821254], [-71.12246750952278, 41.54928699902078], [-71.12204040362109, 41.54892599216871], [-71.12158364417525, 41.54794307798533], [-71.1212465163035, 41.54633650330191], [-71.12139618109047, 41.54373045933534], [-71.12090853853724, 41.54272098682057], [-71.12036008939245, 41.54249688223965], [-71.11929484746152, 41.54318321631464], [-71.1185642119118, 41.543179071283305], [-71.11859439806601, 41.542637830999354], [-71.11904977019464, 41.54185436268611], [-71.11905007029277, 41.54133215468508], [-71.11871418704266, 41.540914610463034], [-71.11780090744995, 41.54064311511059], [-71.1174349773808, 41.54037064902858], [-71.11722153142237, 41.53977118988892], [-71.11670325709363, 41.53926693208603], [-71.11466191438005, 41.53789935178021], [-71.11310893674582, 41.537900822534766], [-71.11280419628949, 41.53705062650827], [-71.11195086163981, 41.5361383486054], [-71.11051940124663, 41.53593030703657], [-71.10991072438036, 41.535590014600785], [-71.1092712681761, 41.534493318984765], [-71.10735200163226, 41.53351093068167], [-71.10677340069765, 41.53303454577328], [-71.10555444001906, 41.53138153095101], [-71.10491455287563, 41.53113170637551], [-71.10333131075458, 41.530998450559714], [-71.10232670585145, 41.530512675187495], [-71.10165569307551, 41.52910125754166], [-71.10007154569377, 41.52729215606368], [-71.09912756304901, 41.5256878672388], [-71.09781819758695, 41.52489204298588], [-71.09784771579051, 41.52346789358397], [-71.09729929475237, 41.52232474155949], [-71.09684181076311, 41.520179691174924], [-71.09644536269505, 41.51949344966672], [-71.09565388149433, 41.51905733384041], [-71.0950150963589, 41.519015098146916], [-71.09467977967519, 41.51875954911533], [-71.09464944498684, 41.5184358780525], [-71.09547032663335, 41.517384817542194], [-71.09586517917329, 41.51594508873303], [-71.09732587070782, 41.51445905857608], [-71.09784254768685, 41.51343166144933], [-71.09787174238116, 41.510656403310605], [-71.09647125187514, 41.509699867555675], [-71.0957405501539, 41.508965156482226], [-71.09065743486825, 41.50743601987466], [-71.09001810270557, 41.50741176088595], [-71.08831429239802, 41.50773084739546], [-71.08810154348596, 41.507257385806795], [-71.08834376166028, 41.50704555453507], [-71.09096097561236, 41.506061246143155], [-71.0936385261644, 41.5042825255822], [-71.09458121996225, 41.504094571217024], [-71.09625496262983, 41.50416300633519], [-71.09716849157776, 41.504028948350054], [-71.0978074142702, 41.50423379600469], [-71.09868975291245, 41.50420878390547], [-71.09914571135398, 41.504047205357175], [-71.10054558141208, 41.5039767371204], [-71.10155001821319, 41.50421041890797], [-71.10258488572403, 41.50391242766473], [-71.1037102514916, 41.50383758225314], [-71.10444077763107, 41.5036352994725], [-71.10611392420678, 41.50230690374856], [-71.10857851825808, 41.50141507318766], [-71.11271593719233, 41.50050133380163], [-71.11427482474993, 41.49970926797339], [-71.11563220094371, 41.4984376152525], [-71.11584139101703, 41.49784689575311], [-71.11572092137297, 41.497028286277434], [-71.11599178686846, 41.49644847170794], [-71.11794907063054, 41.49691595568644], [-71.12046902459915, 41.49716751065401], [-71.12254857488313, 41.522141971190294], [-71.13162026145046, 41.593752652419035], [-71.13835167409667, 41.60369062022664], [-71.14030595232855, 41.60490387263601], [-71.14195416312425, 41.612562697233614], [-71.14027180367064, 41.62385859908068], [-71.13548171909932, 41.62831250435823], [-71.13446811562446, 41.64403010262412], [-71.13266684783426, 41.66036978483173], [-71.16221326828523, 41.665779673052306], [-71.16098905678359, 41.66720197489982], [-71.16088896726508, 41.66750217142303], [-71.15988905389327, 41.66840179624867], [-71.16058892875901, 41.6703019606567], [-71.16078907170353, 41.67130195620728], [-71.16080908317855, 41.67255294775109], [-71.16228900724116, 41.67620212076237], [-71.15668904127774, 41.675102110964794], [-71.15408901677057, 41.67480218573084], [-71.15418898026701, 41.67460215968201], [-71.15288903742413, 41.674701742206864], [-71.15328907244756, 41.67370187048164], [-71.15028903429605, 41.673101827071484], [-71.14998895986061, 41.67400183097703], [-71.14798906352306, 41.673601753196934], [-71.14818894543552, 41.672502240119385], [-71.13988896106132, 41.67840176341101], [-71.13858901596109, 41.682701929015], [-71.1378889893651, 41.68380207695624], [-71.13678807080636, 41.68510183897435], [-71.14038892010113, 41.68810191226518], [-71.14598901579133, 41.693401763938915], [-71.1489890301993, 41.695401976170466], [-71.15288893032287, 41.69930180512818], [-71.15358901394508, 41.69980194467522], [-71.15318903788103, 41.70000218186125], [-71.15218907218414, 41.70290222963805], [-71.15358900395888, 41.703302089705126], [-71.15428891034323, 41.70280226773049], [-71.15518906815672, 41.70290178690657], [-71.1551890006875, 41.70340205303728], [-71.15438906268035, 41.70570172711575], [-71.1537889869375, 41.70530206192837], [-71.15318901956321, 41.70720224332791], [-71.15268902293623, 41.70690190772646], [-71.1518890742211, 41.70690228216004], [-71.15168896820663, 41.70800179141338], [-71.15008906966602, 41.71280199135621], [-71.15088891759396, 41.712901793944155], [-71.15038900603494, 41.71450177277377], [-71.1457890788085, 41.71370198969205], [-71.14278891962182, 41.71300215656461], [-71.14408905417478, 41.70930180964511], [-71.14188908168238, 41.70870179803714], [-71.1406890482281, 41.708701959873125], [-71.14088897637959, 41.707601901595005], [-71.14148896963495, 41.707101842664024], [-71.14188901330812, 41.706102010521356], [-71.1405889646359, 41.70590208470704], [-71.14118892192378, 41.7040019685067], [-71.13838899344957, 41.703501853233135], [-71.13948907692415, 41.70180197095028], [-71.13958895446326, 41.700901927795464], [-71.13878909367439, 41.70060227343647], [-71.13608900664936, 41.70020201562257], [-71.13398796281423, 41.69970177301425], [-71.13458805018183, 41.697901856331725], [-71.12288801379434, 41.69580186357219], [-71.11918800492796, 41.70740194104862], [-71.11868802595228, 41.70640199272873], [-71.11818807049829, 41.708101997778535], [-71.11658804688217, 41.707901916573], [-71.11318800297805, 41.705502206619315], [-71.11198802043036, 41.70680195252389], [-71.10918795201327, 41.707202037127566], [-71.10838794129965, 41.70810189919976], [-71.10748800205769, 41.70870204119955], [-71.10628805909043, 41.71030223207785], [-71.11028805622057, 41.71050225446712], [-71.11568796184069, 41.70810202047911], [-71.11538804387312, 41.70980213044006], [-71.11398793949459, 41.711002181413896], [-71.11108800134026, 41.711001881361824], [-71.1097879906181, 41.7127019230653], [-71.10888799687285, 41.71290198279629], [-71.10818792813939, 41.71580211295549], [-71.10878808663439, 41.7168018845297], [-71.10668807019336, 41.719801852977604], [-71.10718803346684, 41.72030215377151], [-71.10578802369496, 41.72130178395971], [-71.1051879270403, 41.72330188133469], [-71.10358808060073, 41.724502238253244], [-71.10398802492915, 41.724902039594326], [-71.10438803658967, 41.72620220026224], [-71.10368793580106, 41.72690204675776], [-71.10458803816313, 41.72790176718171], [-71.10308804788316, 41.72930223605105], [-71.10148801438224, 41.73610224697882], [-71.10158800677924, 41.736301801588134], [-71.10040206717689, 41.736217739258194], [-71.09596593594344, 41.73639397108713], [-71.09186493982088, 41.73561404019373], [-71.09028703813017, 41.7355020233392], [-71.08608700560384, 41.73910178430394], [-71.07889696055871, 41.739745068192164], [-71.07828697713332, 41.73990205794873], [-71.0769870538409, 41.740601769709166], [-71.07608695094197, 41.74210202647475], [-71.07518697927958, 41.74510194571004], [-71.07398693981906, 41.751702172102696], [-71.07348708217177, 41.75310205590634]]], [[[-71.061015779541, 41.51272794892514], [-71.05891475691473, 41.514072038565324], [-71.05836708788846, 41.514072717669904], [-71.05794077085547, 41.51381895621054], [-71.05763707693613, 41.51331976412956], [-71.05757702199404, 41.5121766275528], [-71.05775877230575, 41.51187628172676], [-71.0590065969135, 41.511331349413595], [-71.05967648015724, 41.51130131259496], [-71.06016303725542, 41.51141912121961], [-71.0607718057566, 41.51194875848932], [-71.06098484681233, 41.51224220071261], [-71.061015779541, 41.51272794892514]]], [[[-71.06484996874893, 41.51627213698074], [-71.0650631650059, 41.51654756480824], [-71.065033192077, 41.51680011864751], [-71.06463740932972, 41.51700568438466], [-71.06329766660198, 41.51702079505569], [-71.06275008200798, 41.51686843409527], [-71.0621416927996, 41.516410847071285], [-71.06192875730976, 41.51604481122454], [-71.06201996864608, 41.51524158967148], [-71.0623843140675, 41.515145080818364], [-71.06281101477556, 41.515290225242886], [-71.06369359195921, 41.51586028302792], [-71.06484996874893, 41.51627213698074]]], [[[-71.06171505215585, 41.517598237085785], [-71.06208006041521, 41.51787144761985], [-71.06281147885322, 41.517965987544514], [-71.0641193884976, 41.51773579872239], [-71.06442422521764, 41.51780224540119], [-71.06485049816499, 41.5182360546679], [-71.06384563472032, 41.519812900841885], [-71.06360202250211, 41.52045684909816], [-71.0636324226826, 41.52157341567419], [-71.0634809131436, 41.52210742338744], [-71.06302410333078, 41.52274660673005], [-71.06271958180638, 41.522904690041834], [-71.06217206170386, 41.52265328679629], [-71.06226348329274, 41.52198512008042], [-71.06214112818449, 41.52150970675638], [-71.06180648870988, 41.52125462998344], [-71.06086292128326, 41.52119020852134], [-71.06061896796, 41.5210328263033], [-71.06022392930119, 41.519976746305225], [-71.05918908200827, 41.519607517415565], [-71.05608388417616, 41.51919475250902], [-71.05568856327227, 41.5192202164213], [-71.05529211490676, 41.519515225232716], [-71.05532324920584, 41.51991093974712], [-71.05614467320433, 41.52112176716164], [-71.05593161704702, 41.52215241669912], [-71.05520103009701, 41.522580037449984], [-71.05489636405245, 41.5225405776038], [-71.05434876591103, 41.52187441089248], [-71.05322282245706, 41.52251599480392], [-71.05291802036447, 41.522494536371234], [-71.05197375510814, 41.52148465681276], [-71.05115235120564, 41.52113871500664], [-71.05048358676746, 41.51931283241417], [-71.05054457675328, 41.51830297438222], [-71.05109176316255, 41.517707524000954], [-71.05157939194947, 41.517437091926226], [-71.05349729125331, 41.51748404476297], [-71.05425777433928, 41.51727263979043], [-71.05745406036084, 41.5158366900435], [-71.0587631890512, 41.515425928032904], [-71.05927997833047, 41.51539867439615], [-71.0602843667554, 41.51569631386537], [-71.06171505215585, 41.517598237085785]]], [[[-71.05078764523911, 41.52269490072169], [-71.05157867704617, 41.52315833958492], [-71.05215616996658, 41.524526353915235], [-71.05328273657457, 41.5253079240819], [-71.05346475963087, 41.52564740204178], [-71.05346486052683, 41.52635868947755], [-71.0531303488766, 41.527590303583146], [-71.05227768440487, 41.52765953975264], [-71.05042059717351, 41.526746766693755], [-71.04975128738349, 41.527551631723966], [-71.04929418517905, 41.527568383084535], [-71.04905114931472, 41.52706828320003], [-71.0495685213436, 41.525347266753904], [-71.0492956822571, 41.52402770930492], [-71.04844327238719, 41.523403637561216], [-71.04847380929554, 41.522628320952485], [-71.04896124176108, 41.52180867738631], [-71.04975214678308, 41.521299168822395], [-71.05014829732605, 41.521372768788666], [-71.05045256893969, 41.52224114140262], [-71.05078764523911, 41.52269490072169]]], [[[-71.06061859350679, 41.525537448363444], [-71.0590664584232, 41.52750209883335], [-71.05839627892668, 41.52915391066068], [-71.05830513964861, 41.531921047403316], [-71.05815296897448, 41.532076893296455], [-71.05790947955879, 41.53203655436825], [-71.0573614648819, 41.53138840809148], [-71.05644870570839, 41.53109842155646], [-71.05644813950354, 41.53031453604713], [-71.05708730750261, 41.529717732074346], [-71.05684407584792, 41.52883048315894], [-71.05727009402527, 41.528164751399444], [-71.05720915599694, 41.52693158337504], [-71.05769686765217, 41.5262475162809], [-71.05830541286434, 41.52576819180814], [-71.05891416219008, 41.52468506346344], [-71.0593100666128, 41.52438948155699], [-71.06034473058055, 41.52441600324441], [-71.06061900087873, 41.524960659441334], [-71.06061859350679, 41.525537448363444]]], [[[-71.0569039712234, 41.537090992280824], [-71.05723805359412, 41.53738209573945], [-71.05723850577402, 41.53791331192089], [-71.05571655099793, 41.538733449364976], [-71.05538140431273, 41.53873045358494], [-71.05507680010523, 41.5378891039571], [-71.05431615377067, 41.53703809483142], [-71.05376847419586, 41.53537195440065], [-71.05389009627413, 41.534549725233056], [-71.05425579785505, 41.534732359961296], [-71.05519923388547, 41.536084922113155], [-71.05577772262829, 41.536633590879056], [-71.0569039712234, 41.537090992280824]]], [[[-71.05684280260537, 41.54225433811521], [-71.05659891831762, 41.542672613159695], [-71.05611243337607, 41.54461831569113], [-71.05513768826114, 41.544707913297245], [-71.05474171216983, 41.54448070291207], [-71.0545892763922, 41.54386223039638], [-71.05434569463775, 41.54356021991384], [-71.0537062111481, 41.54326508972726], [-71.05312741872838, 41.542509883845874], [-71.05306742885965, 41.54136674397138], [-71.05343237953193, 41.540747496357824], [-71.05468132266829, 41.539670840438106], [-71.05528981916461, 41.5396242639175], [-71.05684311593303, 41.541479459467524], [-71.05684280260537, 41.54225433811521]]], [[[-71.05924835930072, 41.54708514881738], [-71.05933897401957, 41.547470964167594], [-71.05842532087436, 41.54811792720551], [-71.05812142810836, 41.54873574490888], [-71.05784711189824, 41.54886692242088], [-71.05751172564645, 41.548890934108925], [-71.05723838672837, 41.54820221580957], [-71.05644650385443, 41.54772981049241], [-71.05629404789539, 41.547408460249564], [-71.05629366750759, 41.54678664959962], [-71.05708552224921, 41.54625908505685], [-71.05772542657081, 41.54631054129847], [-71.05851673738513, 41.5468369573009], [-71.05924835930072, 41.54708514881738]]]]}}