{"type": "Feature", "properties": {"district_name": "7th Worcester District", "chamber": "house", "vintage": "2022-present"}, "geometry": {"type": "Polygon", "coordinates": [[[-71.992009, 42.151309], [-71.987368, 42.152238000000004], [-71.984023, 42.15269000000001], [-71.971228, 42.15342300000001], [-71.96661, 42.15442000000001], [-71.963139, 42.15575000000002], [-71.957701, 42.15860800000002], [-71.954613, 42.159953], [-71.954561, 42.160163999999995], [-71.944131, 42.16433500000003], [-71.937144, 42.16791200000001], [-71.938656, 42.17045700000002], [-71.93853, 42.17115499999999], [-71.936214, 42.17382], [-71.935093, 42.17588400000001], [-71.934259, 42.176623], [-71.93435200000002, 42.17687499999999], [-71.933875, 42.177659], [-71.9329, 42.177895], [-71.933424, 42.178933], [-71.932342, 42.182044000000005], [-71.930391, 42.18467600000001], [-71.929651, 42.185367], [-71.929133, 42.18621499999998], [-71.928199, 42.18687099999999], [-71.926757, 42.187345], [-71.926313, 42.188069], [-71.92592, 42.189201000000004], [-71.925799, 42.19022400000001], [-71.939356, 42.189237999999996], [-71.946281, 42.21938], [-71.945068, 42.218909], [-71.941691, 42.218297999999976], [-71.94001, 42.21831], [-71.938868, 42.218132999999995], [-71.935914, 42.21734200000001], [-71.935459, 42.21757000000001], [-71.934981, 42.21816100000001], [-71.933764, 42.219125000000005], [-71.933509, 42.22051299999999], [-71.933089, 42.221082], [-71.931357, 42.22133899999999], [-71.930482, 42.22180199999999], [-71.927065, 42.221982000000004], [-71.92482400000002, 42.22273300000001], [-71.924954, 42.222328], [-71.923049, 42.22269200000001], [-71.922018, 42.22315300000002], [-71.920683, 42.223435], [-71.910881, 42.225072], [-71.91082, 42.221808], [-71.911366, 42.22095300000001], [-71.912589, 42.220002], [-71.911457, 42.21939], [-71.911076, 42.218988], [-71.910849, 42.21836899999999], [-71.910814, 42.216946], [-71.90762300000002, 42.21627899999999], [-71.904878, 42.216273000000015], [-71.90272, 42.21561599999999], [-71.900416, 42.21605699999999], [-71.898868, 42.216084], [-71.898417, 42.21634900000001], [-71.898636, 42.21545], [-71.898022, 42.21134499999998], [-71.89652700000002, 42.20598499999996], [-71.896035, 42.198532], [-71.894059, 42.19586000000001], [-71.893847, 42.19546999999999], [-71.893625, 42.194188999999994], [-71.87621800000001, 42.214982000000006], [-71.86601, 42.225983000000014], [-71.856525, 42.22668600000001], [-71.810034, 42.231261999999994], [-71.806751, 42.22389800000001], [-71.803834, 42.220926000000006], [-71.797106, 42.210053], [-71.733429, 42.237975000000006], [-71.723535, 42.191484], [-71.733961, 42.18677499999999], [-71.733771, 42.183504000000006], [-71.740533, 42.179206], [-71.74415, 42.18243499999999], [-71.831942, 42.14377500000001], [-71.82953, 42.129390999999984], [-71.817956, 42.13326399999999], [-71.813082, 42.125274000000005], [-71.81508, 42.122527999999996], [-71.817227, 42.12131800000002], [-71.818772, 42.120797999999986], [-71.819755, 42.12073000000001], [-71.820406, 42.12095999999999], [-71.821875, 42.120975], [-71.822994, 42.121241], [-71.824023, 42.121038], [-71.825104, 42.121376999999995], [-71.828106, 42.120841999999996], [-71.831218, 42.11980299999998], [-71.83393, 42.11934600000001], [-71.835962, 42.11882200000001], [-71.8371, 42.118767999999996], [-71.839958, 42.11923000000002], [-71.844379, 42.117278999999996], [-71.846545, 42.11595200000001], [-71.848158, 42.115277], [-71.848331, 42.115045000000016], [-71.851877, 42.116119000000005], [-71.853365, 42.11636], [-71.864723, 42.117032], [-71.867355, 42.116192999999996], [-71.868056, 42.112570000000005], [-71.869515, 42.11267100000001], [-71.869383, 42.114312], [-71.869554, 42.115409], [-71.877153, 42.112993], [-71.878303, 42.112791], [-71.879494, 42.112839], [-71.880506, 42.11316899999999], [-71.881638, 42.11429500000001], [-71.883301, 42.115215], [-71.88446, 42.11554999999999], [-71.886487, 42.115791000000016], [-71.887772, 42.116232999999994], [-71.890241, 42.117952999999986], [-71.893315, 42.119649], [-71.895157, 42.11986499999999], [-71.90001, 42.119375], [-71.901548, 42.11977299999999], [-71.902779, 42.120638000000014], [-71.906909, 42.14104600000001], [-71.907837, 42.13958699999999], [-71.910967, 42.138788000000005], [-71.911723, 42.13835400000001], [-71.912399, 42.138759], [-71.91393, 42.138704000000004], [-71.916919, 42.13740499999999], [-71.919602, 42.13712900000001], [-71.920867, 42.137600000000006], [-71.922584, 42.137305000000005], [-71.921957, 42.134992], [-71.92211, 42.13458300000001], [-71.924284, 42.133708000000006], [-71.928797, 42.131358], [-71.930363, 42.131046000000005], [-71.932084, 42.131015], [-71.936243, 42.132374], [-71.941263, 42.134353], [-71.942597, 42.13463599999999], [-71.943885, 42.13452000000001], [-71.945884, 42.13395], [-71.948234, 42.134084], [-71.950784, 42.13258699999999], [-71.954564, 42.13205200000001], [-71.957611, 42.13109200000002], [-71.959351, 42.13206900000001], [-71.962247, 42.133015], [-71.965404, 42.132661000000006], [-71.967977, 42.131440000000005], [-71.969221, 42.13184300000002], [-71.969556, 42.13287200000001], [-71.969422, 42.13333299999999], [-71.969424, 42.134724000000006], [-71.969563, 42.135447], [-71.96983, 42.13575800000001], [-71.969973, 42.13678500000001], [-71.97088, 42.13707700000001], [-71.97379, 42.138507000000004], [-71.975061, 42.13925899999999], [-71.97602, 42.14018500000001], [-71.976768, 42.14063400000001], [-71.984626, 42.144186000000005], [-71.985513, 42.14512100000002], [-71.98724900000002, 42.14605899999998], [-71.989634, 42.14901900000001], [-71.990259, 42.15001999999999], [-71.992009, 42.151309]]]}}