{"type": "Feature", "properties": {"district_name": "6th Essex", "chamber": "house", "vintage": "2001-2010"}, "geometry": {"type": "MultiPolygon", "coordinates": [[[[-70.78884025370378, 42.53111447772953], [-70.78969167691227, 42.53206613480462], [-70.78888983694232, 42.53471305721104], [-70.78882732779422, 42.53605632479647], [-70.78857889571636, 42.53695224456014], [-70.78768211032596, 42.537335517871725], [-70.78585771774982, 42.53740976147997], [-70.78557867859743, 42.53710756829926], [-70.78496079430846, 42.53694619201483], [-70.7846507734044, 42.53662635719357], [-70.78267224419596, 42.53560351500409], [-70.78270367873378, 42.53484635785826], [-70.78236343469707, 42.53429282533984], [-70.78233266394403, 42.5337704767165], [-70.78313683143266, 42.53333491248675], [-70.78366326363096, 42.5327862003301], [-70.78533319621111, 42.53214724031838], [-70.78545802359783, 42.53137040452385], [-70.78573581775753, 42.53115887812025], [-70.7868190223903, 42.531051922689386], [-70.78743752828605, 42.53068156623592], [-70.78816524923381, 42.53064329754198], [-70.78884025370378, 42.53111447772953]]], [[[-70.79869232423049, 42.54434348977797], [-70.7986299402181, 42.54482194441468], [-70.79782528474615, 42.545348206387466], [-70.79634068858302, 42.54574090366033], [-70.79603089720305, 42.54564673611401], [-70.79627950740499, 42.54466076828962], [-70.79705168772384, 42.54450455390341], [-70.79779531512507, 42.54404206975236], [-70.79822812062221, 42.54395411887255], [-70.79869232423049, 42.54434348977797]]], [[[-70.79760826025016, 42.546883523087736], [-70.79899996575003, 42.54692462353942], [-70.80020685126603, 42.547472678284684], [-70.80234135541575, 42.54724984585534], [-70.80268175581442, 42.54743364976062], [-70.80339292597786, 42.54834158823755], [-70.80339285880224, 42.54869269136375], [-70.80237163942779, 42.55001553667004], [-70.8021546409543, 42.550541437437644], [-70.80308377855994, 42.551526659524825], [-70.80286632870612, 42.5520075454448], [-70.80159831839255, 42.55207302241257], [-70.80045427365467, 42.55161370762064], [-70.79887599723376, 42.55136780666495], [-70.79862844226069, 42.5511828728183], [-70.79847441313657, 42.550337937507344], [-70.79819607471984, 42.54992831622655], [-70.79754593150054, 42.54969534955755], [-70.79732989794928, 42.549806567064], [-70.79729884446303, 42.55035666525343], [-70.79636953215685, 42.55127264748271], [-70.79578254475378, 42.55136303543415], [-70.79506811714099, 42.55121181171835], [-70.79491587041176, 42.5506375291414], [-70.79522573935404, 42.54987588028122], [-70.79593749616697, 42.54937832831514], [-70.79599992788194, 42.54918796999953], [-70.79534949866157, 42.548981997043434], [-70.79401960383831, 42.54905714040215], [-70.79302991032746, 42.54841526617918], [-70.79303003214626, 42.54777551956482], [-70.79330871256094, 42.54745538187132], [-70.79516463467517, 42.54729118489765], [-70.79655682224302, 42.546404476082984], [-70.7968969558401, 42.54635365913527], [-70.79760826025016, 42.546883523087736]]], [[[-70.79438691359893, 42.56431380591828], [-70.79868830234749, 42.56335367591512], [-70.80039014551045, 42.562092954270696], [-70.80045109622974, 42.561659505422476], [-70.80181317771483, 42.56129527212961], [-70.8019682214786, 42.561040760781495], [-70.80240143661493, 42.560925788601324], [-70.80323589597283, 42.56166004325011], [-70.8042268928696, 42.56159062652252], [-70.80472156164831, 42.561114218885756], [-70.80695003945848, 42.560240868084385], [-70.80902291164917, 42.55880275333125], [-70.81267301195781, 42.55569051724584], [-70.81397339611408, 42.554840756754], [-70.81867476206456, 42.553558167887495], [-70.82025258901557, 42.552992432552614], [-70.82247976407942, 42.55183969357019], [-70.82452195135434, 42.551572587733105], [-70.82566685200044, 42.55193263892383], [-70.82733683925402, 42.55163574103679], [-70.82860563332692, 42.551975662223946], [-70.82934723413007, 42.5523873445662], [-70.83040000485721, 42.55234338735338], [-70.83111131905592, 42.55202567008979], [-70.83281250346708, 42.55070088244773], [-70.83414248599632, 42.5504002268983], [-70.83451343961046, 42.550330904624275], [-70.83469972757976, 42.550472086962586], [-70.83479231128256, 42.55129073416589], [-70.8353493708023, 42.55129056900966], [-70.83643254923774, 42.550994091519534], [-70.83813276427469, 42.55005689117794], [-70.83890634623587, 42.550034886278155], [-70.8391534679304, 42.55049036736173], [-70.83958721074409, 42.55049285127096], [-70.84063877313426, 42.550196153412585], [-70.84131895914659, 42.549554668380594], [-70.84243292447327, 42.54936521663529], [-70.8436390326845, 42.54955326313612], [-70.8440094657209, 42.54929485244891], [-70.84416459377492, 42.54842754885934], [-70.84472099344642, 42.54801264711832], [-70.84552514883895, 42.547810719226696], [-70.84608287389754, 42.54801812462587], [-70.84636136808106, 42.54868027017898], [-70.84716540334338, 42.54874784156317], [-70.84750507063438, 42.548427361588864], [-70.84855726195039, 42.54865330530849], [-70.84871190450545, 42.54885842986222], [-70.84858942069087, 42.54994142801978], [-70.84806333934645, 42.55016633028752], [-70.8480635948501, 42.55041840489253], [-70.84889893137888, 42.550828240144455], [-70.85001237759249, 42.550873347377554], [-70.85347649522959, 42.5496819627263], [-70.85424993653963, 42.54924572513693], [-70.85477545206732, 42.54853408342335], [-70.85465026546278, 42.54771639600841], [-70.85477347261791, 42.546867463422004], [-70.85523663397393, 42.546112149881914], [-70.85632015103963, 42.54595052741108], [-70.85675259385461, 42.54611441963632], [-70.85681519053496, 42.5466177898418], [-70.85752699955897, 42.54718329459763], [-70.85808376118209, 42.547002965946746], [-70.85820714966158, 42.54622605171896], [-70.8586092384666, 42.54585918092688], [-70.85972263368113, 42.545264441803724], [-70.86040252929082, 42.544532249800305], [-70.86092757005963, 42.54430728564811], [-70.86145393896636, 42.544325955302114], [-70.86170125449041, 42.54471837078244], [-70.86157754527312, 42.545720352394376], [-70.86179553482279, 42.54668090404624], [-70.86260046676479, 42.546865964990815], [-70.86349676777355, 42.54672518889844], [-70.86470332780871, 42.546245699333184], [-70.86510516566703, 42.546428522085904], [-70.86652959201861, 42.54768490674506], [-70.86717975996929, 42.547844895553375], [-70.86742683522868, 42.54841791599434], [-70.86810741049094, 42.548505478250995], [-70.86909798729316, 42.54816486714418], [-70.87209591918662, 42.546034662039126], [-70.87599879925797, 42.54293700524929], [-70.87807413200174, 42.53991208299224], [-70.87918775487631, 42.539110097624985], [-70.8799606161139, 42.539340445682946], [-70.88076455135702, 42.54002952148124], [-70.881351565954, 42.5402813686879], [-70.88159939050531, 42.540691191149676], [-70.88197093013264, 42.54078433397489], [-70.88391944765584, 42.540851591584726], [-70.88447602231334, 42.54046350777598], [-70.88552765902305, 42.54049106343779], [-70.8869819865139, 42.539990154736856], [-70.88790968159866, 42.5401273028623], [-70.88930189592743, 42.53987023108515], [-70.8896411825146, 42.54017080552059], [-70.88967256888803, 42.54058452429018], [-70.89124931302398, 42.54103567684943], [-70.8914960462413, 42.54142802480237], [-70.89146499127979, 42.54190612413297], [-70.89124827512396, 42.54220656767434], [-70.89028913989571, 42.542682015447674], [-70.89053595291782, 42.54369611206321], [-70.88806065170311, 42.54525058379094], [-70.88809082213959, 42.5461414424103], [-70.88790423528961, 42.5467841377573], [-70.88753235169244, 42.54734875986077], [-70.88672884210924, 42.54769559186639], [-70.88675894160673, 42.54808230503608], [-70.88734681752678, 42.548451158847286], [-70.88719033581918, 42.550047719333385], [-70.88691159757363, 42.55098925874446], [-70.88629253600101, 42.551927303843385], [-70.88573461797296, 42.55228781359872], [-70.8857345661948, 42.552566893239906], [-70.8866310236035, 42.55393892912496], [-70.88848624454849, 42.55533179770627], [-70.88870203641649, 42.556093658249246], [-70.88962964393782, 42.556087316296136], [-70.88984757021176, 42.55570529281608], [-70.89024836673609, 42.55551835790233], [-70.89160981046531, 42.55558575453588], [-70.89226027196202, 42.55519700408414], [-70.8921985052218, 42.55497273985613], [-70.89157954116284, 42.55473991181023], [-70.89031268831489, 42.55370693083838], [-70.88913703304556, 42.55357355040871], [-70.88768360072753, 42.552795567037016], [-70.88703335899962, 42.55220300331549], [-70.88706573954926, 42.55178793144775], [-70.88805637979077, 42.55080797533138], [-70.88848978758566, 42.549413748081776], [-70.8893255583155, 42.549273566958206], [-70.88861484946233, 42.5486998308323], [-70.88855318007349, 42.54813346637683], [-70.88920306306963, 42.547699158489166], [-70.88979035035383, 42.54769832350819], [-70.88991536380412, 42.547282056918526], [-70.88972883720035, 42.5470959500455], [-70.8898843291275, 42.54661625937512], [-70.8910305740268, 42.54540809195435], [-70.89171063278606, 42.545153980991586], [-70.89412307719408, 42.54532084692526], [-70.89449436695539, 42.54520633002058], [-70.89452509136518, 42.544998864567184], [-70.89412343679325, 42.54478913782641], [-70.89282474865713, 42.544450338530034], [-70.89273208801669, 42.54403798209761], [-70.89366003993156, 42.54358091361355], [-70.8940937977764, 42.543140940450286], [-70.89474316321225, 42.543148292824206], [-70.89536097563717, 42.54396682584987], [-70.8965062981568, 42.54411011330321], [-70.89703169429228, 42.54447071389288], [-70.897526839449, 42.544453045295406], [-70.89792937566457, 42.54401402017242], [-70.89829944806584, 42.54412510760593], [-70.89836140260883, 42.54443039347256], [-70.89795849060194, 42.54524809392318], [-70.89795867553367, 42.545527175072465], [-70.89826800623665, 42.54566607855418], [-70.89885557131231, 42.54559317828725], [-70.89925810920143, 42.54497353879759], [-70.89950560074432, 42.54493374866412], [-70.89978405533772, 42.545019039007094], [-70.90003168564296, 42.5456634449441], [-70.90086631638765, 42.54531612408767], [-70.90105217754568, 42.5454751926898], [-70.90089608700198, 42.547648505517394], [-70.90123663652005, 42.54760695327438], [-70.90185451891966, 42.547146526010934], [-70.90210359829165, 42.54671906944012], [-70.902474321848, 42.54660451499046], [-70.90312346963196, 42.54707995297423], [-70.90380387732633, 42.546987819213314], [-70.90522772674998, 42.54770242986645], [-70.90680402027341, 42.54760420807741], [-70.90757778237293, 42.54786138182312], [-70.90838218963533, 42.54779348957166], [-70.91011467952026, 42.54712491833833], [-70.91098043350942, 42.54729082143164], [-70.9114439770548, 42.54778720353036], [-70.91141325409109, 42.54818428518036], [-70.9108564479097, 42.5489140268768], [-70.9108560703881, 42.54930113535898], [-70.91141276901136, 42.54954086165614], [-70.91139409443016, 42.550094982309005], [-70.90869396418992, 42.55739406816597], [-70.90839397071234, 42.559293750938615], [-70.90839400693416, 42.565394094393724], [-70.90819503714658, 42.56899520875311], [-70.90829394419214, 42.572893804350855], [-70.91009390939841, 42.57509400385635], [-70.92209596682962, 42.591295035214564], [-70.91988798653732, 42.591362731840256], [-70.8929230547337, 42.59078014335305], [-70.88109403731323, 42.590894001839885], [-70.84379394931452, 42.5905951479758], [-70.83559306080359, 42.59069509548989], [-70.8297929190511, 42.584995030972166], [-70.823592995261, 42.579894930287615], [-70.82049306610898, 42.57769585026585], [-70.8189930249618, 42.57919606351782], [-70.8168930284454, 42.579495934105644], [-70.81329208086647, 42.58029492353078], [-70.81009293958508, 42.58409518164179], [-70.80779297555853, 42.581196089849904], [-70.79819195150428, 42.572096135485076], [-70.79459200039162, 42.568995853028426], [-70.79359193294218, 42.564495746070044], [-70.79383847121304, 42.56424743237709], [-70.79438691359893, 42.56431380591828]]]]}}