{"type": "Feature", "properties": {"district_name": "20th Middlesex", "chamber": "house", "vintage": "2001-2010"}, "geometry": {"type": "Polygon", "coordinates": [[[-71.0344780720142, 42.63635709754498], [-71.03411103040958, 42.635731086314124], [-71.03113405702629, 42.634548747979395], [-71.02995895264905, 42.63343781917619], [-71.02857202160503, 42.63299499020666], [-71.02615995596122, 42.63155320178197], [-71.02575706058987, 42.63099678318786], [-71.02438398056101, 42.630269263087776], [-71.02378004365174, 42.62962705478241], [-71.02332495672131, 42.62884816369802], [-71.02368693912689, 42.627857155145804], [-71.02371509068081, 42.62677981452419], [-71.02401009581806, 42.62572719559087], [-71.02383797753447, 42.62483582634825], [-71.02340007428809, 42.62410708489562], [-71.02195795710553, 42.62281097863702], [-71.02155207894107, 42.62180891718213], [-71.0207650228655, 42.621216003077734], [-71.02019395489995, 42.62054915377925], [-71.01961895487707, 42.619176720021116], [-71.01867804656493, 42.618113905309386], [-71.01787594010155, 42.61623695209412], [-71.02344793733414, 42.61415522934138], [-71.02471100560452, 42.613211247778864], [-71.02533908229081, 42.612021022942045], [-71.02584193720679, 42.60922223856338], [-71.02580496622178, 42.60846701581836], [-71.02625106824993, 42.60756298670764], [-71.02569508938251, 42.606771874167514], [-71.02565499674827, 42.60554626549777], [-71.02526602081443, 42.60460617225106], [-71.02509197568136, 42.60329505651738], [-71.02470498989723, 42.602775828867244], [-71.02353195730532, 42.60188707080458], [-71.02301102409336, 42.601182735976096], [-71.02234094199213, 42.60068877895303], [-71.02215205616402, 42.59918291044529], [-71.01779598782412, 42.59670096713378], [-71.01596899521284, 42.59512128164049], [-71.01554796409505, 42.59456474394897], [-71.01483803708618, 42.59283273791097], [-71.01160797875423, 42.588064170444454], [-71.00781908312653, 42.584840970045114], [-70.99828203466606, 42.57756026627413], [-70.99369703621828, 42.57369507454168], [-70.99494693222375, 42.573494062195174], [-70.99509696754572, 42.57329497238874], [-70.99479591745211, 42.572293824752144], [-70.99589600882793, 42.57209382972686], [-70.99559600758914, 42.57129410934344], [-70.99739597931517, 42.57069373912577], [-70.99629607761545, 42.569994061856576], [-70.99679603595455, 42.56889400917791], [-70.998096085329, 42.568093950889505], [-70.99809601308473, 42.567194262588984], [-71.0020960366757, 42.56529406708074], [-71.00289596850912, 42.56339406143522], [-71.00369608347272, 42.56499375113343], [-71.00789604903596, 42.56469384454221], [-71.00849598785052, 42.56389405703116], [-71.00879690977943, 42.56449512760719], [-71.01379694045626, 42.5665941795822], [-71.01539705182724, 42.56769415038545], [-71.01849702170857, 42.567793775912065], [-71.02169691142092, 42.56869382466062], [-71.02209697016688, 42.56979378019074], [-71.02349704985912, 42.56999424773595], [-71.02449704873861, 42.56919377952882], [-71.02939798929317, 42.56969493366941], [-71.02969792154211, 42.568494898036626], [-71.02999694084815, 42.56519390274354], [-71.03459802759359, 42.565394851802075], [-71.03449806205697, 42.56429502474599], [-71.03149707843033, 42.55089395965712], [-71.0213969678431, 42.5399949213711], [-71.0201210138775, 42.53844399510169], [-71.01079601387003, 42.528795176193924], [-71.00542693066227, 42.522715233686434], [-70.99707600662033, 42.5176461120464], [-70.99389593496234, 42.515895822181285], [-70.98869596077157, 42.513496192707244], [-70.98577502462321, 42.51187173510995], [-70.98769605592827, 42.511596138193845], [-70.9900950792601, 42.51169511628473], [-70.99310991896569, 42.51222211765552], [-70.99359602854123, 42.51239587051172], [-70.99559900102938, 42.51411682840362], [-70.9971070546774, 42.514274209674575], [-70.99890699161504, 42.51402322207312], [-71.00420405439259, 42.51401911500323], [-71.00739006157741, 42.51201394040805], [-71.00851000594552, 42.51395709538304], [-71.01270292081213, 42.51493872825115], [-71.01628194978848, 42.51969815753652], [-71.0224319319234, 42.524945279005536], [-71.02585706680827, 42.52598514592527], [-71.02909903051787, 42.52732292997337], [-71.03133694412907, 42.52792283864293], [-71.03504204991117, 42.5284082195503], [-71.03791702419586, 42.52959798212604], [-71.0390390068051, 42.53049709895931], [-71.04004791532931, 42.53177891919535], [-71.04175704693435, 42.53320812188392], [-71.04489702305965, 42.53644289829552], [-71.04684206726107, 42.53593684652597], [-71.04837201367215, 42.53527891234267], [-71.05010106486851, 42.534274012591325], [-71.05161100256922, 42.53302291656932], [-71.05286997713424, 42.53156208640623], [-71.05769805141429, 42.523894796471254], [-71.0620980729774, 42.524394908763256], [-71.06589800242962, 42.52439521450794], [-71.06679801902335, 42.52459496236379], [-71.06775807065857, 42.52536097120067], [-71.0685259255366, 42.52539591385682], [-71.07529796024855, 42.53089515150389], [-71.07997194725883, 42.526589937922104], [-71.08248194211667, 42.531031097460534], [-71.08443105530748, 42.53353295584128], [-71.08759499669121, 42.53844111012904], [-71.08957692591704, 42.538040817254775], [-71.09275001519754, 42.538861162939114], [-71.09461898913104, 42.53626208605112], [-71.09830508363589, 42.53346114728086], [-71.09938093701946, 42.532185968302194], [-71.10240802808069, 42.5278060424229], [-71.10201598014535, 42.52637384977171], [-71.10210704248098, 42.52565621395124], [-71.10335891429807, 42.52556825100283], [-71.10603198815953, 42.52693285873873], [-71.11135305161561, 42.52622677141627], [-71.11454897192795, 42.52515719784437], [-71.11527202956826, 42.52580779273614], [-71.11895109169656, 42.52438917775607], [-71.11586300893562, 42.51997782913364], [-71.11403790086636, 42.52041510831544], [-71.111853012921, 42.51748082940959], [-71.11368800461608, 42.51684499509729], [-71.1133979435948, 42.516427097882605], [-71.10691704630027, 42.51155225090142], [-71.10505107157904, 42.51077109677004], [-71.10581004652337, 42.51052893317253], [-71.10638999141828, 42.50990973904878], [-71.10963604233837, 42.50897607593279], [-71.1105509177652, 42.50854085417238], [-71.11341997060178, 42.50581598638495], [-71.1140520883145, 42.50544394033799], [-71.11513997099648, 42.50512010956117], [-71.11529108197692, 42.50343994492666], [-71.11580297812452, 42.50263704854683], [-71.1169940076988, 42.50231579460009], [-71.11747294338237, 42.5019899168385], [-71.12034290814313, 42.50242815189394], [-71.12197093259343, 42.50490301988919], [-71.12247093418132, 42.50474204540047], [-71.12439790908317, 42.50719422407444], [-71.1234990742967, 42.50779502061351], [-71.12389897039598, 42.50819525559838], [-71.13520002446585, 42.529695238461315], [-71.13099806569096, 42.5316567896607], [-71.13558501174705, 42.54888126459226], [-71.13654295557825, 42.55375178310106], [-71.13032994107472, 42.583324015808564], [-71.13529006394131, 42.599061232693124], [-71.07596096142463, 42.60409173899193], [-71.05863897105297, 42.60903774169191], [-71.05793807162722, 42.610715117544025], [-71.05819690992465, 42.611170157758416], [-71.05477000698362, 42.627058985569455], [-71.04335896290334, 42.63245799097384], [-71.0344780720142, 42.63635709754498]]]}}