{"type": "Feature", "properties": {"district_name": "12th Plymouth District", "chamber": "house", "vintage": "2012-2020"}, "geometry": {"type": "Polygon", "coordinates": [[[-70.99984599999999, 41.92895], [-70.999614, 41.929485], [-70.99970499999999, 41.929592], [-70.99931699999999, 41.92989499999999], [-70.99931699999999, 41.930223999999995], [-70.999039, 41.93068799999999], [-70.998671, 41.930600000000005], [-70.99905199999999, 41.930049000000004], [-70.99893399999999, 41.929853], [-70.998609, 41.92990800000001], [-70.998302, 41.93025999999998], [-70.99874799999999, 41.93211200000002], [-70.998237, 41.933804], [-70.99794399999999, 41.934102], [-70.997399, 41.934048000000004], [-70.996132, 41.933223999999996], [-70.995307, 41.932917999999994], [-70.992285, 41.932142000000006], [-70.99152099999999, 41.93162199999999], [-70.990037, 41.931674999999984], [-70.989546, 41.932007000000006], [-70.987902, 41.934198], [-70.987436, 41.935585999999994], [-70.98731099999999, 41.93737], [-70.987123, 41.937616], [-70.98665799999999, 41.93787300000001], [-70.984656, 41.938238], [-70.980312, 41.94022599999998], [-70.979435, 41.94039000000003], [-70.976717, 41.939437000000005], [-70.975171, 41.93915799999999], [-70.973972, 41.93932799999998], [-70.973547, 41.93966399999998], [-70.97351400000001, 41.93987099999999], [-70.97118499999999, 41.93892499999999], [-70.968672, 41.938454], [-70.96674399999999, 41.937038], [-70.965644, 41.93657], [-70.963743, 41.93613400000002], [-70.96060899999999, 41.935765], [-70.959334, 41.93475099999999], [-70.956767, 41.93387100000001], [-70.956222, 41.933876], [-70.954962, 41.93440699999999], [-70.954428, 41.93446999999999], [-70.95205, 41.934208000000005], [-70.950262, 41.93440100000001], [-70.948891, 41.934257999999986], [-70.948201, 41.933986], [-70.947757, 41.933615], [-70.94714499999999, 41.93254499999999], [-70.946409, 41.932449], [-70.94569, 41.93287599999998], [-70.94508600000002, 41.933602], [-70.94368399999999, 41.93471499999998], [-70.942686, 41.93633500000001], [-70.94248499999999, 41.937211999999995], [-70.94025599999999, 41.938714], [-70.938392, 41.94127599999999], [-70.938012, 41.94299799999998], [-70.93677600000001, 41.944950999999996], [-70.936364, 41.945983999999996], [-70.936353, 41.947199999999995], [-70.936927, 41.948600000000006], [-70.936953, 41.949184999999986], [-70.936238, 41.95157900000002], [-70.93606799999999, 41.953109], [-70.93586599999999, 41.95358099999999], [-70.934541, 41.954967], [-70.93414299999999, 41.956010000000006], [-70.933964, 41.95703499999999], [-70.933706, 41.957526], [-70.932997, 41.95825399999999], [-70.931399, 41.95934799999999], [-70.92939799999999, 41.960061999999986], [-70.926115, 41.959697999999996], [-70.924512, 41.95891900000001], [-70.92357299999999, 41.958934000000006], [-70.923186, 41.959148], [-70.922778, 41.95966699999999], [-70.92268299999999, 41.960859000000006], [-70.92178899999999, 41.962478], [-70.92067999999999, 41.96309300000001], [-70.92000999999999, 41.962975], [-70.920147, 41.96216200000001], [-70.91982, 41.961911], [-70.917171, 41.96168000000001], [-70.915398, 41.960927], [-70.913901, 41.96094299999999], [-70.91350299999999, 41.96114299999999], [-70.913434, 41.96155900000001], [-70.914439, 41.961667999999996], [-70.91483199999999, 41.962005000000005], [-70.914153, 41.96297599999999], [-70.91343499999999, 41.96335799999999], [-70.91301299999999, 41.96300599999999], [-70.91253, 41.96301400000001], [-70.90999699999999, 41.963921], [-70.909902, 41.964530999999994], [-70.91052599999999, 41.96512399999999], [-70.910799, 41.965795], [-70.910578, 41.96594199999999], [-70.90952, 41.965969], [-70.908857, 41.966173999999974], [-70.908148, 41.96651899999999], [-70.90750899999999, 41.967115], [-70.90714200000001, 41.96758], [-70.907118, 41.970107], [-70.907625, 41.970968000000006], [-70.908592, 41.971933], [-70.90862899999999, 41.97247300000001], [-70.908318, 41.97357199999999], [-70.908384, 41.97401699999998], [-70.910139, 41.975954], [-70.911726, 41.97700699999998], [-70.91211899999999, 41.977692000000005], [-70.91214, 41.978426], [-70.911492, 41.97938699999998], [-70.911369, 41.98022900000001], [-70.901399, 41.982980999999995], [-70.89977499999999, 41.988284], [-70.899185, 41.99632100000001], [-70.899571, 42.002975], [-70.897744, 42.01644900000001], [-70.894463, 42.026432000000014], [-70.864434, 42.02096999999999], [-70.860164, 42.01615899999999], [-70.850737, 42.01572900000001], [-70.849003, 42.015722], [-70.814392, 42.024122], [-70.812884, 42.022701999999995], [-70.81318399999999, 42.019202], [-70.812184, 42.01860200000001], [-70.811184, 42.017502], [-70.809484, 42.01670200000001], [-70.809484, 42.01540200000001], [-70.80798399999999, 42.013602], [-70.807284, 42.01300199999998], [-70.807307, 42.012871], [-70.799329, 42.01361299999999], [-70.800525, 42.01644199999999], [-70.796764, 42.02054399999999], [-70.775527, 42.023167000000015], [-70.769492, 42.02206299999998], [-70.73124000000001, 42.017707], [-70.72809099999999, 42.013828], [-70.72025, 42.01439999999999], [-70.71173399999999, 42.01638199999999], [-70.69985199999999, 42.022115], [-70.698936, 42.02293400000001], [-70.697254, 42.025138000000005], [-70.696445, 42.025351], [-70.695417, 42.02544100000001], [-70.693592, 42.025175000000004], [-70.68796999999999, 42.024929], [-70.683224, 42.02341200000001], [-70.68345599999999, 42.023102000000016], [-70.681378, 42.02413599999999], [-70.680377, 42.024345000000004], [-70.68036, 42.023981999999975], [-70.680125, 42.02381], [-70.676549, 42.023241000000006], [-70.676114, 42.023842], [-70.675572, 42.02400900000001], [-70.67536199999999, 42.02450900000001], [-70.674979, 42.024563], [-70.674554, 42.024915], [-70.67460799999999, 42.02542599999999], [-70.673776, 42.025102], [-70.673181, 42.02536900000001], [-70.672771, 42.02578300000001], [-70.66873, 42.02133500000001], [-70.66605799999999, 42.017556999999975], [-70.664031, 42.01368899999999], [-70.663473, 42.011629], [-70.663477, 42.00953999999999], [-70.66367799999999, 42.008475], [-70.66438099999999, 42.006443], [-70.665947, 42.00329400000002], [-70.666322, 42.002871000000006], [-70.67326899999999, 42.00023000000001], [-70.672635, 41.999658], [-70.67173799999999, 41.998325000000015], [-70.671066, 41.99651000000001], [-70.6701, 41.992642999999994], [-70.66873799999999, 41.99033900000002], [-70.66705499999999, 41.989205], [-70.666271, 41.988901999999996], [-70.66525299999999, 41.988588], [-70.662497, 41.988123000000016], [-70.653511, 41.987113], [-70.652348, 41.990216999999994], [-70.649808, 41.996042], [-70.64838999999999, 41.997844], [-70.645899, 42.002459], [-70.64358299999999, 42.007777], [-70.64202, 42.012396999999986], [-70.64150000000001, 42.013155000000005], [-70.598554, 42.01367700000001], [-70.59742299999999, 42.006742], [-70.594365, 42.003261], [-70.59563399999999, 42.003145], [-70.603552, 42.001124], [-70.62011, 41.990193], [-70.650131, 41.977739], [-70.651268, 41.97897499999999], [-70.652069, 41.979240999999995], [-70.652671, 41.979115000000014], [-70.652723, 41.978635], [-70.652197, 41.977166999999994], [-70.669398, 41.96918000000001], [-70.670585, 41.96903799999999], [-70.672341, 41.96854], [-70.674624, 41.96873199999999], [-70.67775499999999, 41.96731399999999], [-70.678122, 41.967701999999996], [-70.680477, 41.966134], [-70.681769, 41.96676799999999], [-70.68265199999999, 41.96760799999999], [-70.685552, 41.966057000000006], [-70.686956, 41.96481300000002], [-70.68834, 41.964319], [-70.689747, 41.96428500000001], [-70.69237799999999, 41.963190999999995], [-70.69287, 41.96311599999999], [-70.688386, 41.96008299999998], [-70.685684, 41.95790399999999], [-70.68642299999999, 41.95628399999999], [-70.687023, 41.955445000000005], [-70.68794299999999, 41.95467600000001], [-70.687472, 41.954369], [-70.68800800000001, 41.95370599999999], [-70.687874, 41.953615], [-70.687576, 41.953801000000006], [-70.687045, 41.95348099999999], [-70.68650099999999, 41.952448999999994], [-70.689623, 41.95079800000001], [-70.69263900000001, 41.95030900000001], [-70.69381000000001, 41.949948000000006], [-70.701945, 41.94506799999999], [-70.701398, 41.944948000000004], [-70.69771200000001, 41.94536], [-70.696485, 41.94534899999999], [-70.69380000000001, 41.944818000000005], [-70.692404, 41.94421199999999], [-70.696055, 41.94205900000001], [-70.698471, 41.938511999999974], [-70.700814, 41.936517], [-70.70224499999999, 41.93552299999999], [-70.702955, 41.934328], [-70.7051, 41.93322500000001], [-70.707365, 41.930600000000005], [-70.708406, 41.929618], [-70.708339, 41.92901399999999], [-70.709057, 41.925372], [-70.70966, 41.92377099999999], [-70.70961900000002, 41.92347899999999], [-70.70867100000001, 41.922003000000004], [-70.709181, 41.92141399999999], [-70.709941, 41.92172399999999], [-70.710303, 41.92171299999999], [-70.710509, 41.92107700000001], [-70.71077, 41.921102], [-70.712321, 41.919483], [-70.712577, 41.91861499999998], [-70.712858, 41.91821899999999], [-70.71320399999999, 41.91814099999999], [-70.713246, 41.918369], [-70.71347, 41.91835300000002], [-70.71360899999999, 41.91795700000001], [-70.713464, 41.917744999999975], [-70.713219, 41.917577999999985], [-70.712771, 41.91759599999999], [-70.71330800000001, 41.916255000000014], [-70.71298, 41.915998], [-70.712267, 41.915895000000006], [-70.71146, 41.916551999999996], [-70.71010199999999, 41.91709], [-70.70988, 41.917334000000004], [-70.70986599999999, 41.91797299999998], [-70.70862699999999, 41.918220999999996], [-70.708238, 41.917949000000014], [-70.707711, 41.918057999999995], [-70.707471, 41.9185], [-70.707847, 41.919126], [-70.704405, 41.919591000000004], [-70.70488399999999, 41.91653900000001], [-70.706476, 41.914216], [-70.709127, 41.911581000000005], [-70.710034, 41.909206999999995], [-70.71072099999999, 41.90928599999999], [-70.711287, 41.908873000000014], [-70.711908, 41.90900000000001], [-70.711776, 41.90872100000001], [-70.711894, 41.908308999999996], [-70.71145, 41.90821100000001], [-70.71235899999999, 41.905910000000006], [-70.712143, 41.905517], [-70.71154299999999, 41.90547199999998], [-70.712423, 41.903090999999996], [-70.713076, 41.90209], [-70.713319, 41.900355999999995], [-70.71352499999999, 41.900155000000005], [-70.715721, 41.900320999999984], [-70.716748, 41.89985700000001], [-70.719179, 41.8975], [-70.719689, 41.89671899999998], [-70.720759, 41.895967000000006], [-70.72265999999999, 41.893778999999995], [-70.75071799999999, 41.92601900000002], [-70.75352699999999, 41.933241], [-70.758692, 41.947506999999995], [-70.771717, 41.946146999999996], [-70.829827, 41.92769900000002], [-70.843563, 41.940756000000015], [-70.84394999999999, 41.94048000000001], [-70.84420399999999, 41.939379], [-70.84441799999999, 41.93908700000001], [-70.84512, 41.93887100000001], [-70.850577, 41.93842000000001], [-70.856067, 41.93836100000001], [-70.856752, 41.938074], [-70.85815099999999, 41.93684799999999], [-70.858589, 41.935558999999984], [-70.861272, 41.930647], [-70.86200699999999, 41.92734499999999], [-70.86228299999999, 41.926836], [-70.86363399999999, 41.925388999999996], [-70.866218, 41.923311000000005], [-70.870316, 41.92294299999999], [-70.871364, 41.92254099999998], [-70.873633, 41.920145000000005], [-70.874567, 41.918936], [-70.87403499999999, 41.91632899999998], [-70.874151, 41.91607100000001], [-70.876049, 41.91541], [-70.879395, 41.913374999999995], [-70.881153, 41.911956999999994], [-70.887197, 41.91033100000002], [-70.895814, 41.90882999999999], [-70.89827, 41.90859900000001], [-70.905022, 41.908356999999995], [-70.91502299999999, 41.907545], [-70.915086, 41.90833099999999], [-70.917, 41.909712], [-70.918044, 41.909712999999996], [-70.91814699999999, 41.90952699999998], [-70.918043, 41.90892100000001], [-70.918499, 41.908646999999995], [-70.919778, 41.909085000000005], [-70.921588, 41.909249], [-70.922161, 41.90955399999999], [-70.922015, 41.910191999999995], [-70.92081, 41.91126999999999], [-70.921313, 41.913486000000006], [-70.921932, 41.914165000000004], [-70.923874, 41.914712999999985], [-70.92468300000002, 41.91506400000001], [-70.925066, 41.91550400000001], [-70.924949, 41.91587499999999], [-70.923891, 41.91642400000001], [-70.923186, 41.91726899999999], [-70.922069, 41.91812500000002], [-70.922246, 41.918490999999996], [-70.923327, 41.91952600000001], [-70.924007, 41.91793199999999], [-70.924398, 41.91761199999999], [-70.927585, 41.916264], [-70.92691099999999, 41.915192], [-70.925939, 41.91287899999998], [-70.926253, 41.91286], [-70.926846, 41.912354000000015], [-70.92799, 41.910565], [-70.929309, 41.910405], [-70.929907, 41.90895699999999], [-70.930984, 41.90815200000001], [-70.93365899999999, 41.90553099999999], [-70.934502, 41.905052000000005], [-70.93599200000001, 41.904723000000025], [-70.937692, 41.904596999999995], [-70.938423, 41.905614999999976], [-70.939098, 41.90613499999998], [-70.943986, 41.908380000000015], [-70.946764, 41.909836], [-70.95613, 41.913190999999976], [-70.960144, 41.916531], [-70.9623, 41.919064000000006], [-70.962845, 41.919928999999996], [-70.971987, 41.920462000000015], [-70.976275, 41.920947999999996], [-70.97836, 41.92143399999999], [-70.98295, 41.918845000000005], [-70.98428899999999, 41.917726], [-70.98487899999999, 41.917505000000006], [-70.98538400000001, 41.91755099999998], [-70.989387, 41.920101], [-70.990088, 41.920098], [-70.98987799999999, 41.919261000000006], [-70.99582500000001, 41.923252000000005], [-70.996438, 41.923778], [-70.995798, 41.924277999999994], [-70.99561, 41.924609999999994], [-70.995609, 41.92537599999999], [-70.995961, 41.926333000000014], [-70.997028, 41.92755799999999], [-70.999054, 41.928228999999995], [-70.99984599999999, 41.92895]]]}}