{"type": "Feature", "properties": {"district_name": "17th Suffolk District", "chamber": "house", "vintage": "2022-present"}, "geometry": {"type": "Polygon", "coordinates": [[[-71.169284, 42.322121], [-71.167348, 42.322641000000004], [-71.156887, 42.33024100000001], [-71.157036, 42.33039], [-71.149853, 42.334635], [-71.150461, 42.334968], [-71.15005900000001, 42.33539299999999], [-71.148295, 42.335806999999996], [-71.148742, 42.336866], [-71.146156, 42.33744200000002], [-71.146606, 42.33853700000002], [-71.146215, 42.338632], [-71.146356, 42.338860000000004], [-71.146936, 42.339038], [-71.147142, 42.339517], [-71.147065, 42.34001300000002], [-71.146744, 42.34026900000001], [-71.147143, 42.34058600000001], [-71.147571, 42.340610999999996], [-71.14686, 42.34137199999999], [-71.145779, 42.341516], [-71.145923, 42.341897], [-71.148633, 42.34181399999999], [-71.149044, 42.342201], [-71.149529, 42.342258], [-71.149361, 42.342932000000005], [-71.15013, 42.343141], [-71.150039, 42.34455300000001], [-71.15031900000001, 42.344796], [-71.15109, 42.345009999999995], [-71.150662, 42.34566499999999], [-71.153067, 42.346153999999984], [-71.153786, 42.34725599999999], [-71.155147, 42.345229], [-71.153274, 42.34464999999997], [-71.153457, 42.344143999999986], [-71.153417, 42.343289000000006], [-71.154734, 42.341206], [-71.153111, 42.340696], [-71.151648, 42.340535], [-71.149612, 42.339474], [-71.148847, 42.33935799999999], [-71.150601, 42.33625100000002], [-71.15126, 42.33634099999999], [-71.152262, 42.337185], [-71.150658, 42.33749500000001], [-71.150692, 42.33827399999999], [-71.152741, 42.338645999999976], [-71.152587, 42.338896], [-71.153192, 42.339149000000006], [-71.154268, 42.340163], [-71.155056, 42.34038499999999], [-71.157878, 42.33973], [-71.159758, 42.340058], [-71.157901, 42.34324800000001], [-71.157688, 42.34512099999999], [-71.158103, 42.346091], [-71.159309, 42.345978], [-71.159378, 42.34632], [-71.160751, 42.346702999999984], [-71.16043, 42.34732600000001], [-71.161311, 42.34757599999999], [-71.162118, 42.34637300000001], [-71.164878, 42.34642599999999], [-71.16646, 42.346964], [-71.165674, 42.348231], [-71.165209, 42.348555999999995], [-71.164734, 42.34873], [-71.163712, 42.348533], [-71.163594, 42.34891], [-71.163333, 42.349115000000005], [-71.162138, 42.348989], [-71.161985, 42.352547], [-71.162368, 42.35249300000001], [-71.161848, 42.354727], [-71.158899, 42.35418899999998], [-71.158594, 42.35381300000001], [-71.158059, 42.354074000000004], [-71.158071, 42.351915999999996], [-71.156621, 42.351890999999995], [-71.154939, 42.351603999999995], [-71.15443000000002, 42.352396], [-71.153568, 42.352148000000014], [-71.154025, 42.35137099999999], [-71.152384, 42.35090300000001], [-71.149082, 42.35615100000001], [-71.140681, 42.35400400000002], [-71.139066, 42.353791000000015], [-71.137979, 42.357608000000006], [-71.140782, 42.357977000000005], [-71.13841, 42.362245], [-71.138473, 42.36277700000001], [-71.133585, 42.36339599999999], [-71.131789, 42.363161000000005], [-71.130218, 42.36269399999998], [-71.130417, 42.36195699999999], [-71.130578, 42.36198600000001], [-71.13281300000001, 42.36011000000002], [-71.133157, 42.35922], [-71.133083, 42.358556], [-71.13224, 42.358585000000005], [-71.131621, 42.358799000000005], [-71.131488, 42.35859500000002], [-71.13083, 42.359024], [-71.12968, 42.35708000000002], [-71.129718, 42.356654000000006], [-71.132404, 42.35571199999999], [-71.137341, 42.353590000000004], [-71.128344, 42.35260400000001], [-71.128031, 42.35372400000001], [-71.12495, 42.35335399999999], [-71.12474, 42.35430100000001], [-71.125175, 42.35435799999999], [-71.125014, 42.35492499999999], [-71.12514600000002, 42.354944], [-71.125088, 42.35523599999999], [-71.120729, 42.35461500000002], [-71.121311, 42.351674999999986], [-71.122855, 42.351860999999985], [-71.122942, 42.35141599999997], [-71.124067, 42.351552], [-71.126854, 42.35008799999999], [-71.128583, 42.349833000000004], [-71.129281, 42.34906699999999], [-71.133381, 42.347122000000006], [-71.13515500000001, 42.34602300000001], [-71.138809, 42.34308699999999], [-71.136679, 42.34163099999999], [-71.137432, 42.34164499999999], [-71.13802, 42.34114000000001], [-71.1352, 42.33923000000001], [-71.14561, 42.33688999999999], [-71.144365, 42.33587099999999], [-71.144239, 42.335269999999994], [-71.14677, 42.334850000000024], [-71.14582, 42.33442], [-71.14529, 42.33379999999999], [-71.14727, 42.33311999999999], [-71.14793, 42.33273], [-71.14924, 42.33122999999999], [-71.15015, 42.32934000000001], [-71.1506, 42.329220000000014], [-71.152439, 42.32967], [-71.15375, 42.32951], [-71.15229, 42.32917999999999], [-71.15008, 42.328070000000004], [-71.14901, 42.327489999999976], [-71.148143, 42.326612000000004], [-71.147777, 42.32646900000002], [-71.152216, 42.32667099999999], [-71.156262, 42.325283999999996], [-71.169223, 42.321994], [-71.169284, 42.322121]]]}}