{"type": "Feature", "properties": {"district_name": "7th Plymouth", "chamber": "house", "vintage": "2001-2010"}, "geometry": {"type": "Polygon", "coordinates": [[[-70.94059001780678, 42.151101166681954], [-70.93788496577248, 42.14063223935121], [-70.9365879429022, 42.136200152988984], [-70.93628902620513, 42.134400828637055], [-70.93438905227954, 42.12820108318781], [-70.9311880450768, 42.11620005016899], [-70.92270601435038, 42.10711820405844], [-70.9157869470393, 42.10009984626395], [-70.90238703066449, 42.08590093229976], [-70.91278691197347, 42.08439995080538], [-70.90835207210024, 42.062234228970155], [-70.90578590699971, 42.05270087670441], [-70.9023859440325, 42.03610097334772], [-70.90028595420037, 42.02830081741211], [-70.89968594616373, 42.02550095092063], [-70.89728598841069, 42.02480125431888], [-70.89628597145946, 42.02230087790431], [-70.89657393066813, 42.020645180199956], [-70.89658591876507, 42.019501236473346], [-70.89748501812906, 42.01620111132361], [-70.89948501037975, 42.003200952323056], [-70.89908502604175, 41.99900094524547], [-70.89918502113983, 41.996300962389775], [-70.90828509354239, 41.9961008189655], [-70.91018504999911, 41.996700934952806], [-70.91108501981623, 41.99680123638164], [-70.91378505044625, 41.99830125374954], [-70.91428504599945, 41.99920079391544], [-70.91748608128479, 42.00240102173944], [-70.91738599069622, 42.00470091520489], [-70.91998602748691, 42.007001028875024], [-70.9242859465147, 42.00870078821495], [-70.92548608056458, 42.00890096636845], [-70.93148598419818, 42.0078010074884], [-70.93538605533608, 42.00790079305319], [-70.94178600645822, 42.00660081570603], [-70.95368592038774, 42.00570110057536], [-70.97938693251164, 42.01090008239326], [-70.9831869540872, 42.028499975867035], [-70.98428693585498, 42.03429979190287], [-70.9847869368722, 42.03509997587741], [-70.98468698831286, 42.03599987129785], [-70.98628804465257, 42.04299993355929], [-70.98958803405483, 42.05939982594937], [-70.98073597752456, 42.06851593378627], [-70.97518803187928, 42.07099976997171], [-70.97598794127757, 42.08119979965521], [-70.97619196655268, 42.087123846969156], [-70.9751879725255, 42.087400047910656], [-70.97578791356497, 42.089399857666], [-70.97488792166254, 42.095300276643236], [-70.97538794797494, 42.09550007562715], [-70.97508795388379, 42.09610024443559], [-70.97578805223655, 42.09680008824726], [-70.97568794423066, 42.09759980597919], [-70.97678890431159, 42.100499986983515], [-70.9782890698821, 42.10780013201658], [-70.9800889833448, 42.10889997429898], [-70.98048907732047, 42.11079980736619], [-70.97838900239579, 42.11300003195441], [-70.97958906191283, 42.113999794342696], [-70.98718899445508, 42.11320013126877], [-70.99858907700875, 42.11099975858178], [-70.999888934729, 42.11629997774833], [-71.00109001762073, 42.122799999868015], [-71.00179002714975, 42.12580003079033], [-71.00227896553324, 42.12706993278267], [-70.99148891697814, 42.131099939410774], [-70.97728898631865, 42.13690003413403], [-70.97238899413026, 42.138600025270776], [-70.96778896124337, 42.14070016573768], [-70.96030797625261, 42.14338700657551], [-70.94059001780678, 42.151101166681954]]]}}