{"type": "Feature", "properties": {"district_name": "10th Norfolk District", "chamber": "house", "vintage": "2022-present"}, "geometry": {"type": "Polygon", "coordinates": [[[-71.455902, 42.034914], [-71.454754, 42.04411699999999], [-71.454687, 42.052223999999995], [-71.45496, 42.06312800000001], [-71.455872, 42.063187], [-71.45527400000002, 42.07275300000001], [-71.453698, 42.072621], [-71.451974, 42.08373300000001], [-71.44659, 42.102137], [-71.44401, 42.117312], [-71.442552, 42.13163500000001], [-71.441678, 42.131885999999994], [-71.442422, 42.132167], [-71.44208, 42.132521], [-71.442052, 42.132937999999996], [-71.442221, 42.13324099999999], [-71.441961, 42.133597], [-71.442493, 42.133911000000005], [-71.442851, 42.133931999999994], [-71.442886, 42.13407600000001], [-71.442383, 42.134558], [-71.441816, 42.134605999999984], [-71.441426, 42.134829], [-71.441769, 42.13503000000001], [-71.441841, 42.135248000000004], [-71.442366, 42.135316], [-71.442451, 42.13545600000001], [-71.442279, 42.13557200000001], [-71.442693, 42.13578400000001], [-71.444681, 42.135552000000004], [-71.44266, 42.13693], [-71.44273, 42.13929], [-71.442933, 42.140416], [-71.44279, 42.140999999999984], [-71.44282, 42.14394000000001], [-71.443211, 42.149831999999996], [-71.44376, 42.168289999999985], [-71.4441, 42.172529999999995], [-71.444067, 42.17488900000001], [-71.430174, 42.179386], [-71.42373000000002, 42.17925300000001], [-71.42355, 42.178131000000015], [-71.40229500000001, 42.17879400000002], [-71.380366, 42.14316699999999], [-71.3793, 42.141639999999995], [-71.375618, 42.13545399999999], [-71.37679, 42.13561], [-71.378109, 42.13539200000001], [-71.379214, 42.13587000000001], [-71.379795, 42.13558600000001], [-71.380018, 42.135116999999994], [-71.380044, 42.134592], [-71.37939, 42.13385500000001], [-71.379218, 42.13344099999998], [-71.379326, 42.13324499999999], [-71.380188, 42.132925], [-71.380128, 42.13270700000001], [-71.38052, 42.13297699999999], [-71.381058, 42.132668], [-71.38088, 42.132002000000014], [-71.380258, 42.131426], [-71.380693, 42.131004000000004], [-71.381329, 42.13100899999999], [-71.381637, 42.130817999999984], [-71.381919, 42.130959000000004], [-71.382012, 42.130815], [-71.381645, 42.13049899999999], [-71.382171, 42.12964599999998], [-71.38180200000001, 42.129825], [-71.381462, 42.129722000000015], [-71.38071300000001, 42.129135], [-71.380585, 42.128665], [-71.38067, 42.128212000000005], [-71.380045, 42.127458], [-71.379982, 42.12655], [-71.367718, 42.107263], [-71.359272, 42.08952099999999], [-71.365315, 42.076195], [-71.388272, 42.04099999999999], [-71.455902, 42.034914]]]}}