{"type": "Feature", "properties": {"district_name": "9th Essex District", "chamber": "house", "vintage": "2012-2020"}, "geometry": {"type": "Polygon", "coordinates": [[[-71.080103, 42.52638799999999], [-71.075298, 42.530894999999994], [-71.075257, 42.53112200000001], [-71.068354, 42.525389000000004], [-71.06775999999999, 42.52536200000001], [-71.06679799999999, 42.52459499999999], [-71.06589799999999, 42.52439499999999], [-71.062099, 42.52439499999999], [-71.05814099999999, 42.52394599999999], [-71.057662, 42.52417899999999], [-71.040983, 42.526261999999996], [-71.040004, 42.525189], [-71.038905, 42.52458199999998], [-71.03861599999999, 42.52374199999999], [-71.040199, 42.522197999999975], [-71.041696, 42.519895], [-71.040697, 42.51819599999999], [-71.038596, 42.516195], [-71.039796, 42.514195], [-71.037397, 42.512795999999994], [-71.03679799999999, 42.511593999999995], [-71.03719699999999, 42.510196], [-71.036433, 42.509371], [-71.035896, 42.507295000000006], [-71.035296, 42.506994999999996], [-71.035596, 42.50599500000001], [-71.036096, 42.505195], [-71.011592, 42.501684999999995], [-71.00163599999999, 42.506989999999995], [-70.996886, 42.507012], [-70.995308, 42.50557200000001], [-70.988239, 42.50930900000001], [-70.99143, 42.51110899999999], [-70.992966, 42.512267], [-70.98934, 42.511686000000005], [-70.98691099999999, 42.511773999999996], [-70.959531, 42.497834], [-70.960079, 42.49726099999998], [-70.960315, 42.497459], [-70.96279299999999, 42.495811999999994], [-70.963281, 42.49475699999999], [-70.96321499999999, 42.494500999999985], [-70.96341699999999, 42.49446399999999], [-70.965076, 42.490881999999985], [-70.963427, 42.49067799999998], [-70.962139, 42.491009], [-70.961745, 42.49087999999999], [-70.962051, 42.490429000000006], [-70.96184699999999, 42.49031], [-70.962563, 42.48901599999999], [-70.961544, 42.488653000000006], [-70.96115, 42.48775500000001], [-70.96060899999999, 42.487336000000006], [-70.960578, 42.48699500000001], [-70.961219, 42.48706900000001], [-70.962132, 42.487615999999996], [-70.962701, 42.48684599999999], [-70.964147, 42.48727299999999], [-70.96575299999999, 42.48826999999999], [-70.971734, 42.491240000000005], [-70.97435399999999, 42.489852], [-70.974594, 42.48989499999999], [-70.975064, 42.49118], [-70.974674, 42.491658], [-70.97725, 42.49302600000001], [-70.97939, 42.493266999999996], [-70.97939099999999, 42.493100999999996], [-70.98040999999999, 42.492988999999994], [-70.98138399999999, 42.49326000000001], [-70.983014, 42.49343], [-70.98943299999999, 42.49373300000001], [-70.993242, 42.49357699999999], [-70.994586, 42.49333700000001], [-70.995459, 42.49344399999999], [-70.99623799999999, 42.49324099999999], [-70.99833199999999, 42.493263], [-70.999495, 42.49299], [-70.999875, 42.492623999999985], [-71.001071, 42.492611999999994], [-71.001706, 42.49279], [-70.99169499999999, 42.466431], [-70.9922, 42.46570200000001], [-70.992295, 42.46517699999999], [-70.99358699999999, 42.46507299999999], [-70.994698, 42.46520799999998], [-70.99532599999999, 42.46499599999999], [-70.995228, 42.46477000000001], [-70.995342, 42.46391199999999], [-70.995698, 42.463601000000004], [-70.996524, 42.46392300000001], [-70.999703, 42.464634], [-70.999624, 42.465005], [-71.001722, 42.46542600000001], [-71.001088, 42.464888], [-71.00149600000002, 42.465011], [-71.002179, 42.46486399999999], [-71.00107, 42.464085000000004], [-71.000862, 42.464202], [-71.00048799999999, 42.46404899999999], [-71.000301, 42.46376099999999], [-71.000329, 42.46309900000001], [-70.999522, 42.462825], [-70.999663, 42.462634], [-71.000609, 42.46258199999999], [-70.999989, 42.46206100000001], [-70.999492, 42.46193799999998], [-70.99825299999999, 42.46219099999999], [-70.997601, 42.46177799999999], [-70.997481, 42.461479000000004], [-70.996983, 42.461356], [-70.99651899999999, 42.46135999999999], [-70.995981, 42.46170899999999], [-70.995312, 42.46168899999999], [-70.994005, 42.461244], [-70.993822, 42.461038999999985], [-70.99388, 42.460683], [-70.994507, 42.46060400000001], [-70.995132, 42.460287], [-70.996475, 42.460429999999995], [-70.997108, 42.460063], [-70.99744799999999, 42.45960699999999], [-70.99792699999999, 42.459950000000006], [-70.998567, 42.45978100000001], [-70.998621, 42.46004099999997], [-70.998977, 42.460278], [-70.998398, 42.46037799999999], [-70.998205, 42.460652], [-70.999132, 42.46071200000001], [-70.999344, 42.460860000000004], [-70.99949, 42.460232999999995], [-70.999937, 42.45939700000001], [-71.000168, 42.459478000000004], [-71.000536, 42.45886799999999], [-71.003089, 42.45940100000001], [-71.005301, 42.459270000000004], [-71.005561, 42.458325], [-71.007272, 42.45800799999999], [-71.007223, 42.457458], [-71.006545, 42.45756199999999], [-71.00651599999999, 42.45718800000001], [-71.00421899999999, 42.457102000000006], [-71.004559, 42.456638000000005], [-71.004556, 42.456326000000004], [-71.004138, 42.45629700000002], [-71.004061, 42.455409], [-71.003777, 42.45494899999999], [-71.00167499999999, 42.455695000000006], [-71.000595, 42.453196], [-71.000106, 42.453215], [-70.99992, 42.45254299999999], [-71.000452, 42.45224699999999], [-71.000135, 42.452031000000005], [-71.000541, 42.451781], [-71.000182, 42.450650000000024], [-71.001416, 42.450635999999996], [-71.00129799999999, 42.449962], [-70.99592299999999, 42.44967999999999], [-70.99748, 42.44892300000003], [-70.99883, 42.446879], [-71.000314, 42.445023], [-71.000807, 42.444261], [-71.000163, 42.44342600000001], [-71.001294, 42.44139599999999], [-71.00182699999999, 42.44204099999999], [-71.003896, 42.440988000000004], [-71.004294, 42.441392000000015], [-71.005439, 42.44170700000001], [-71.00549699999999, 42.44203099999998], [-71.009106, 42.442586999999996], [-71.009495, 42.441196], [-71.010295, 42.441596], [-71.012395, 42.443096000000004], [-71.016795, 42.44819599999999], [-71.018295, 42.44959599999998], [-71.018495, 42.45009599999999], [-71.02029499999999, 42.448896], [-71.023679, 42.44599500000001], [-71.024958, 42.44538899999999], [-71.025864, 42.44474300000001], [-71.03726999999999, 42.457674000000004], [-71.043734, 42.464596], [-71.044729, 42.465724000000016], [-71.04479599999999, 42.466195000000006], [-71.04689499999999, 42.46869499999999], [-71.053496, 42.475895000000016], [-71.05419599999999, 42.476995], [-71.053697, 42.479195], [-71.053596, 42.48109500000001], [-71.052621, 42.486059000000004], [-71.056673, 42.485099000000005], [-71.056596, 42.48439499999999], [-71.058964, 42.483402], [-71.060506, 42.485274], [-71.061278, 42.484259], [-71.060683, 42.483517000000006], [-71.060527, 42.48202799999999], [-71.06028599999999, 42.48142000000001], [-71.061532, 42.481141999999984], [-71.06107, 42.480422], [-71.060536, 42.478804], [-71.06237300000001, 42.47872699999999], [-71.063845, 42.48305800000001], [-71.065912, 42.482611000000006], [-71.066805, 42.481930999999996], [-71.069034, 42.486303], [-71.069386, 42.487724], [-71.069484, 42.48871099999998], [-71.069322, 42.49079499999999], [-71.069555, 42.49302000000001], [-71.07030499999999, 42.495553], [-71.069319, 42.49970199999999], [-71.069216, 42.500986], [-71.06964900000001, 42.50232500000001], [-71.07116200000002, 42.504459], [-71.071615, 42.50536700000001], [-71.07168399999999, 42.506129000000016], [-71.07120499999999, 42.50810000000002], [-71.07130599999999, 42.509416], [-71.07219599999999, 42.511321], [-71.07331099999999, 42.512724999999996], [-71.074229, 42.514567], [-71.074311, 42.515105000000005], [-71.07400799999999, 42.51614700000001], [-71.074073, 42.516685999999986], [-71.075411, 42.517649999999996], [-71.077292, 42.51978200000001], [-71.077745, 42.52105300000001], [-71.077669, 42.521580000000014], [-71.077373, 42.52206799999999], [-71.077453, 42.522516], [-71.078237, 42.523041], [-71.078144, 42.52320800000001], [-71.078819, 42.52466600000001], [-71.07916999999999, 42.52490399999999], [-71.079608, 42.525999000000006], [-71.080103, 42.52638799999999]]]}}