{"type": "Feature", "properties": {"district_name": "2nd Norfolk", "chamber": "house", "vintage": "2001-2010"}, "geometry": {"type": "MultiPolygon", "coordinates": [[[[-70.99856122341733, 42.272220008469695], [-70.99739116359427, 42.271582983866715], [-70.99705149576202, 42.2708505616058], [-70.99661832145911, 42.26911049644925], [-70.9965252159286, 42.26814788073406], [-70.99680270520521, 42.26769275618301], [-70.99680195424855, 42.26721502067342], [-70.99633935058073, 42.26684499037506], [-70.99630858750446, 42.266593335416985], [-70.99704798830196, 42.26575759383121], [-70.99600067034615, 42.26547052920713], [-70.99541543602867, 42.265471335327966], [-70.99338307535552, 42.26599301289605], [-70.9920279860219, 42.26606186058419], [-70.98793126025527, 42.264394968747666], [-70.98651312548067, 42.26336565588609], [-70.98592891744423, 42.26354704791073], [-70.98552863725808, 42.264049430365176], [-70.98414408387491, 42.26485743468021], [-70.98149513838561, 42.265245585423955], [-70.97986328101643, 42.26476947565667], [-70.97798304326511, 42.26384769307851], [-70.97444164019804, 42.26326039852532], [-70.97271748776141, 42.26353328421127], [-70.97210161028174, 42.26389563974926], [-70.97102501963853, 42.26502227150145], [-70.9694243672575, 42.266302335193444], [-70.96773071465043, 42.26707889551133], [-70.96532855166065, 42.26854368299812], [-70.96311253286439, 42.269374578952174], [-70.96089492947016, 42.26978226862134], [-70.95833869008379, 42.27071782014687], [-70.95667536355968, 42.27099863046186], [-70.95411991956699, 42.27261945563813], [-70.95344243938115, 42.27346871305451], [-70.95335020996396, 42.2740377221217], [-70.95415094617414, 42.27539312526191], [-70.95538384226482, 42.27861478584518], [-70.95621576013474, 42.27948358514828], [-70.95618518475321, 42.27969107930995], [-70.95553851014417, 42.280080776785205], [-70.95449070514871, 42.280260927330154], [-70.95399834457326, 42.280197258660614], [-70.95378285462346, 42.280011670164924], [-70.95307397576052, 42.27790662620449], [-70.95258077441223, 42.27713170048717], [-70.95181051485207, 42.2764150871426], [-70.95091743534084, 42.27612441355832], [-70.9504237828004, 42.27575404958724], [-70.94971534914033, 42.27483852335124], [-70.94943806432977, 42.27378945493085], [-70.94956135613431, 42.273355086507685], [-70.95048512207545, 42.27191563244953], [-70.95070067672695, 42.270975268661864], [-70.95069991471314, 42.267524811421076], [-70.95094608542465, 42.26624135698193], [-70.95223888588801, 42.26413854379919], [-70.95254628558493, 42.26260215473974], [-70.95137560442355, 42.261432909969706], [-70.95119106656472, 42.26104883587606], [-70.95128384273988, 42.2605692940656], [-70.95152957272613, 42.260403351510675], [-70.95220793718964, 42.260292357750316], [-70.95393270472928, 42.26109172523849], [-70.9547943042451, 42.26132034004337], [-70.95590311421545, 42.26140943676609], [-70.95839704757373, 42.26214092069339], [-70.95947517732087, 42.26203233606835], [-70.9600604984782, 42.26228380177063], [-70.96126158127156, 42.26147916000536], [-70.9620609886395, 42.26058259312521], [-70.9623082861416, 42.260497096115465], [-70.96421759350396, 42.26051840031556], [-70.96480206389303, 42.26031011027052], [-70.96732666699978, 42.26014966457295], [-70.968435461898, 42.260238649245466], [-70.96920560187043, 42.26085555107127], [-70.96994549639918, 42.26096925743254], [-70.96985291221519, 42.26071842561044], [-70.96895908543831, 42.25996815978784], [-70.96649542572187, 42.25937097660746], [-70.9663719297746, 42.25968832186457], [-70.96597175555988, 42.25975848657811], [-70.96449381241088, 42.258982401347154], [-70.96452431828973, 42.25871132374025], [-70.96483190828593, 42.25852594243568], [-70.96649501853487, 42.25795691321401], [-70.96652520886322, 42.25776686194819], [-70.96446172254731, 42.25724407639316], [-70.96326149408215, 42.25733694849381], [-70.96279950477131, 42.25685874617866], [-70.96150553180848, 42.25606096526642], [-70.96048855590364, 42.25587162638234], [-70.95965825926531, 42.25630887660168], [-70.95854929921875, 42.25658049944999], [-70.95737932503171, 42.255528358945945], [-70.95694739971022, 42.25479706081718], [-70.95694750398783, 42.25436490954184], [-70.95719394360573, 42.25409035305947], [-70.95867162996797, 42.253587525625996], [-70.95928809494659, 42.253108203164054], [-70.96073464628209, 42.25120971222719], [-70.96070357735722, 42.25049887439201], [-70.96094999533204, 42.25008926218946], [-70.96094879259097, 42.249139422350986], [-70.96297989638383, 42.24808656741915], [-70.96322608194764, 42.24808209178056], [-70.96414992766161, 42.24872394895326], [-70.96618203523559, 42.24940977872582], [-70.96685991697372, 42.24940673456503], [-70.96701496742351, 42.2500838171526], [-70.96729198736757, 42.25024097463638], [-70.96852348078181, 42.250174656958905], [-70.96978601522018, 42.250630085558505], [-70.97003302749879, 42.25113934639106], [-70.96990922169888, 42.25142968489083], [-70.96947934275887, 42.25175293836023], [-70.96753829638865, 42.25182217200123], [-70.96713833445997, 42.25209941430295], [-70.96716916570016, 42.252396094444805], [-70.9683095403798, 42.25328650864372], [-70.96830894606241, 42.25367364160741], [-70.96750933598462, 42.254615267193664], [-70.96747827527503, 42.25488634316496], [-70.96904929936598, 42.25541748544761], [-70.97018899819103, 42.25617226251395], [-70.97206767332534, 42.25692367585175], [-70.97391441842778, 42.25662154373926], [-70.97539349593951, 42.25660467797158], [-70.9790889132252, 42.25840525056253], [-70.98142913803774, 42.258337633398234], [-70.98287670778426, 42.258636763988676], [-70.98330746783627, 42.25817897596981], [-70.98296866772378, 42.25799570450812], [-70.9832444869451, 42.25700885161461], [-70.9837073131462, 42.256937783178515], [-70.98389193259052, 42.25724077657097], [-70.98413868372973, 42.25726326790264], [-70.98435375993758, 42.25687259742869], [-70.98330529653329, 42.255728428404964], [-70.98478354583524, 42.25513523695291], [-70.98601586492528, 42.25605063564563], [-70.98623064888868, 42.25597507024683], [-70.98589149914376, 42.2549719526752], [-70.986045258066, 42.25476219261048], [-70.98647620096733, 42.25467353125646], [-70.98656889794087, 42.25435658504391], [-70.98746094226372, 42.25424183724059], [-70.98974080589718, 42.25499475123984], [-70.9914337253687, 42.255037149585], [-70.99220436724798, 42.25556443509107], [-70.99155752536234, 42.25577370440756], [-70.99155747753348, 42.25601678889641], [-70.99245086486403, 42.256019058020975], [-70.99288212215517, 42.256318067071795], [-70.99334456044738, 42.25629197381316], [-70.99349801617309, 42.25604619003634], [-70.99291263889567, 42.25572286948473], [-70.9927267561658, 42.25523981335057], [-70.99134094876774, 42.25439920830347], [-70.99103312911447, 42.25403546776083], [-70.99069421015204, 42.253915231408016], [-70.98992392728988, 42.253982711613], [-70.98964720190818, 42.25378003658301], [-70.98957833987542, 42.25252716818964], [-70.98969207842367, 42.25229921900562], [-70.98869202573773, 42.25209895119589], [-70.98889198484943, 42.25129912875436], [-70.9917930872163, 42.2493999641497], [-70.99299197162422, 42.249499230857296], [-70.99429204752637, 42.247999188538635], [-70.99479208791765, 42.2484988140861], [-70.99559208163795, 42.24889903745652], [-70.99679205303069, 42.249098996473975], [-70.99679202804478, 42.24969883089626], [-70.99809308153847, 42.24999993737681], [-70.99869292496068, 42.2489002403014], [-70.99719307338096, 42.24700020228824], [-70.99789291848485, 42.24629989435757], [-71.00349193581407, 42.243999183810175], [-71.00385107651141, 42.24373514367334], [-71.00489193753336, 42.24189906042608], [-71.00499204112921, 42.24129908986709], [-71.00689198244193, 42.2406989962424], [-71.01309198336361, 42.241899248213095], [-71.01339201725287, 42.24049883825977], [-71.01489198533963, 42.240299240053105], [-71.01499206303198, 42.241198852405674], [-71.0155920154849, 42.24119913496436], [-71.01689194339362, 42.23979899680685], [-71.01869192116156, 42.24089875708537], [-71.02039294490758, 42.24149895898118], [-71.02109304964188, 42.24189914566308], [-71.02179295895776, 42.24189924556273], [-71.02239291307828, 42.24169917263942], [-71.0238930318853, 42.24069874499359], [-71.02508799867553, 42.23928400737956], [-71.02585004466107, 42.2398819324138], [-71.02609400241639, 42.24059981510946], [-71.02769300381229, 42.24079884760908], [-71.02779291045084, 42.24189876709847], [-71.02839297377234, 42.24269913706659], [-71.03109306101908, 42.24469876542541], [-71.03159301977112, 42.24539910739493], [-71.03189297376025, 42.25079883036796], [-71.03609304669166, 42.25219898258955], [-71.03569299406513, 42.252398810154205], [-71.03449402852019, 42.25237201452953], [-71.03419304131918, 42.25279900001474], [-71.03439302775021, 42.252898845499814], [-71.03179300149642, 42.25589925575599], [-71.02959307735227, 42.255199274632716], [-71.02919292097675, 42.25489883906066], [-71.02859301008385, 42.25479903581674], [-71.02639306642845, 42.25509889715637], [-71.02619295662583, 42.25549927744332], [-71.02749290163374, 42.25699915155525], [-71.02899296307008, 42.25769911268605], [-71.02879292030372, 42.25849901056659], [-71.02599292602403, 42.25889881087893], [-71.02859296217088, 42.26149903356559], [-71.02959298805573, 42.26089880127708], [-71.0308930783946, 42.26209872380228], [-71.02649305738073, 42.2644991226293], [-71.0291929437164, 42.26689885348804], [-71.03229300398657, 42.26999789772915], [-71.032792969597, 42.27069823022649], [-71.03059294109215, 42.273597822664314], [-71.02909292389617, 42.274697935796546], [-71.02689300829407, 42.272798247023715], [-71.02529308097564, 42.27109793906687], [-71.02249297284908, 42.26869881832358], [-71.0193930840398, 42.26559894903017], [-71.01889308802528, 42.265798866980134], [-71.01749408772058, 42.264600085853154], [-71.01419296776186, 42.26349904227131], [-71.01149292523627, 42.26199925600564], [-71.01299295226288, 42.26419901071479], [-71.01359296677698, 42.265698887696985], [-71.01429307728017, 42.266499184048534], [-71.01359309346171, 42.268198933241976], [-71.0130930606484, 42.27009871925667], [-71.01279295401622, 42.27079912997524], [-71.01249293460602, 42.2707989821855], [-71.01239302282413, 42.27159926650141], [-71.01209294877033, 42.27199919705742], [-71.01119306744835, 42.27199874667649], [-71.009893059041, 42.27129884228416], [-71.00789300614986, 42.27079905335099], [-71.00659291626009, 42.27079910203273], [-71.00619292940868, 42.27229921708492], [-71.00579297057146, 42.272798852260856], [-71.00139208748604, 42.272398890999035], [-71.00129202081948, 42.2731991653463], [-71.00076998303247, 42.27382598894939], [-70.99921279151486, 42.27291552322156], [-70.99856122341733, 42.272220008469695]]], [[[-70.94869708750231, 42.26246951586251], [-70.94900499443017, 42.26258128237417], [-70.94900517170609, 42.26314904005015], [-70.94863581136224, 42.26330876567606], [-70.94611040845096, 42.263171693219604], [-70.94749613845913, 42.26260722696715], [-70.94869708750231, 42.26246951586251]]]]}}