{"type": "Feature", "properties": {"district_name": "8th Worcester District", "chamber": "house", "vintage": "2022-present"}, "geometry": {"type": "Polygon", "coordinates": [[[-71.682449, 42.043769999999995], [-71.681802, 42.05492400000001], [-71.677806, 42.053917000000006], [-71.668104, 42.05208700000001], [-71.667884, 42.052826], [-71.666784, 42.054474], [-71.666948, 42.055665], [-71.664065, 42.057396999999995], [-71.663528, 42.05842100000001], [-71.662477, 42.058732], [-71.661999, 42.059161], [-71.659724, 42.060236], [-71.65890200000001, 42.06102899999999], [-71.657887, 42.06117700000001], [-71.656544, 42.06202700000001], [-71.656174, 42.061412], [-71.655141, 42.060962], [-71.653166, 42.06090900000002], [-71.651171, 42.060328999999996], [-71.657951, 42.06349800000003], [-71.656252, 42.06303000000002], [-71.655627, 42.06304699999999], [-71.652216, 42.06487399999998], [-71.64998, 42.06514000000001], [-71.64968, 42.065055], [-71.648503, 42.066636999999986], [-71.648003, 42.06699299999998], [-71.644262, 42.067835], [-71.643131, 42.067838], [-71.641688, 42.06808600000001], [-71.64009400000002, 42.068730999999985], [-71.638996, 42.069386], [-71.637597, 42.070712], [-71.637167, 42.070903], [-71.635217, 42.07154299999999], [-71.632923, 42.07136799999999], [-71.631892, 42.071957], [-71.628997, 42.07262], [-71.62711, 42.07334499999999], [-71.628137, 42.07488099999999], [-71.630054, 42.077083000000016], [-71.631103, 42.076734000000016], [-71.631762, 42.076802], [-71.63363900000002, 42.077759], [-71.636702, 42.07835899999999], [-71.634811, 42.080628999999995], [-71.636791, 42.081406], [-71.639041, 42.08335699999999], [-71.640017, 42.08485700000001], [-71.640237, 42.086195], [-71.64091500000002, 42.08700200000001], [-71.642079, 42.08765300000001], [-71.644161, 42.088081], [-71.644959, 42.088446000000005], [-71.646979, 42.090317000000006], [-71.650733, 42.093036], [-71.653101, 42.094548000000025], [-71.653626, 42.095209000000004], [-71.654062, 42.096356], [-71.65087, 42.095496], [-71.603531, 42.11211], [-71.60282, 42.111498999999995], [-71.601524, 42.111297], [-71.599162, 42.11176599999999], [-71.59854300000002, 42.11171499999999], [-71.595987, 42.112604999999995], [-71.592634, 42.11423800000001], [-71.591951, 42.063694999999996], [-71.498287, 42.06487800000001], [-71.49824, 42.091412], [-71.498025, 42.09257100000001], [-71.49812700000001, 42.093414999999986], [-71.497791, 42.09419899999998], [-71.49767, 42.095033999999984], [-71.49703, 42.09569700000001], [-71.497494, 42.095841999999976], [-71.497457, 42.09644300000001], [-71.497058, 42.09672599999999], [-71.497095, 42.09691899999999], [-71.496493, 42.097195], [-71.496511, 42.097989], [-71.496111, 42.09818000000002], [-71.495282, 42.09995800000001], [-71.495652, 42.10002099999999], [-71.49572, 42.100245], [-71.49609000000001, 42.10035900000002], [-71.495837, 42.10071700000001], [-71.49628, 42.100854999999996], [-71.496623, 42.10120400000002], [-71.496338, 42.10162099999999], [-71.496629, 42.10155000000001], [-71.497294, 42.10178599999999], [-71.497225, 42.101983], [-71.496703, 42.10208500000001], [-71.496703, 42.10225000000001], [-71.49786900000001, 42.102447000000005], [-71.499512, 42.10304899999999], [-71.499878, 42.10385499999999], [-71.500281, 42.104196000000016], [-71.500309, 42.104726], [-71.50068, 42.10505899999999], [-71.500926, 42.105722], [-71.501363, 42.106286000000004], [-71.501384, 42.106767000000005], [-71.501001, 42.106892], [-71.500617, 42.10730300000001], [-71.500599, 42.10745699999998], [-71.500842, 42.10761699999998], [-71.50071900000002, 42.107735000000005], [-71.501469, 42.108077], [-71.5016, 42.108410999999975], [-71.502423, 42.108864000000004], [-71.502292, 42.109337], [-71.502909, 42.10942800000002], [-71.502807, 42.10977600000001], [-71.503078, 42.11028499999998], [-71.502984, 42.110640000000004], [-71.502217, 42.11103], [-71.501965, 42.111657000000015], [-71.501385, 42.11157400000001], [-71.500992, 42.11229100000001], [-71.500384, 42.11269500000001], [-71.500355, 42.11284800000001], [-71.501235, 42.113329], [-71.501104, 42.11364300000001], [-71.501553, 42.11458300000002], [-71.501029, 42.11523099999999], [-71.501628, 42.116102], [-71.501319, 42.11635199999999], [-71.501498, 42.116589000000005], [-71.490128, 42.12458999999999], [-71.478522, 42.13137799999999], [-71.478119, 42.156782], [-71.472744, 42.15687299999999], [-71.464005, 42.158198999999996], [-71.444067, 42.17488900000001], [-71.4441, 42.172529999999995], [-71.44376, 42.168289999999985], [-71.443211, 42.149831999999996], [-71.44282, 42.14394000000001], [-71.44279, 42.140999999999984], [-71.442933, 42.140416], [-71.44273, 42.13929], [-71.44266, 42.13693], [-71.444681, 42.135552000000004], [-71.442693, 42.13578400000001], [-71.442279, 42.13557200000001], [-71.442451, 42.13545600000001], [-71.442366, 42.135316], [-71.441841, 42.135248000000004], [-71.441769, 42.13503000000001], [-71.441426, 42.134829], [-71.442529, 42.13447899999999], [-71.442895, 42.13400099999999], [-71.441961, 42.133597], [-71.442221, 42.13324099999999], [-71.442052, 42.132937999999996], [-71.44208, 42.132521], [-71.442422, 42.132167], [-71.441678, 42.131885999999994], [-71.442552, 42.13163500000001], [-71.44401, 42.117312], [-71.44659, 42.102137], [-71.451974, 42.08373300000001], [-71.453698, 42.072621], [-71.45527400000002, 42.07275300000001], [-71.455872, 42.063187], [-71.45496, 42.06312800000001], [-71.454687, 42.052223999999995], [-71.454754, 42.04411699999999], [-71.458104, 42.017797999999985], [-71.498259, 42.01727199999999], [-71.527702, 42.015094999999995], [-71.680871, 42.01153000000001], [-71.681665, 42.031592], [-71.682449, 42.043769999999995]]]}}