{"type": "Feature", "properties": {"district_name": "Barnstable, Dukes & Nantucket District", "chamber": "house", "vintage": "2012-2020"}, "geometry": {"type": "MultiPolygon", "coordinates": [[[[-70.007053, 41.341838999999986], [-70.006941, 41.341944999999996], [-70.00681, 41.341882], [-70.007053, 41.341838999999986]]], [[[-70.23481799999999, 41.283370999999995], [-70.234454, 41.283668000000006], [-70.23245299999999, 41.284309], [-70.23190699999999, 41.28391999999997], [-70.231815, 41.283531], [-70.23129899999999, 41.283097999999995], [-70.229692, 41.282869], [-70.226798, 41.28176899999999], [-70.221612, 41.280308999999995], [-70.218655, 41.27997200000001], [-70.216307, 41.27930199999999], [-70.215588, 41.278667000000006], [-70.214506, 41.278133000000004], [-70.214479, 41.277763], [-70.21564099999999, 41.27743899999999], [-70.216588, 41.27736], [-70.217137, 41.277897], [-70.21722799999999, 41.278378000000004], [-70.217288, 41.278756], [-70.216773, 41.278815], [-70.216447, 41.279057999999985], [-70.216929, 41.279283999999976], [-70.217387, 41.279166], [-70.21701999999999, 41.27908], [-70.217013, 41.27894999999998], [-70.217393, 41.278972], [-70.218532, 41.27835299999999], [-70.21912499999999, 41.278307000000005], [-70.219627, 41.277885999999995], [-70.21960299999999, 41.27771000000001], [-70.219223, 41.27723599999999], [-70.21186, 41.274781000000004], [-70.21024899999999, 41.274754], [-70.208218, 41.27409100000001], [-70.207399, 41.274137], [-70.206277, 41.274571000000016], [-70.206004, 41.274846000000004], [-70.204731, 41.27534999999999], [-70.20397299999999, 41.275852999999984], [-70.202578, 41.27594500000001], [-70.20130400000001, 41.276630999999995], [-70.20091, 41.27676799999999], [-70.200546, 41.276677], [-70.200546, 41.276357000000004], [-70.201062, 41.275831], [-70.20259899999999, 41.274801], [-70.202417, 41.274768], [-70.202314, 41.274333], [-70.20272, 41.274169999999984], [-70.20278, 41.273917], [-70.20182199999999, 41.27391], [-70.201528, 41.27382600000001], [-70.201398, 41.273572], [-70.20188, 41.272948], [-70.203305, 41.272376000000015], [-70.203396, 41.272078], [-70.203183, 41.27189499999999], [-70.20242499999999, 41.272009999999995], [-70.19951499999999, 41.273634000000015], [-70.197844, 41.274073], [-70.197037, 41.274603], [-70.197036, 41.27534400000001], [-70.196505, 41.275297], [-70.195814, 41.27558799999999], [-70.195771, 41.27584], [-70.19467100000001, 41.27616099999999], [-70.194524, 41.27636300000001], [-70.194289, 41.27621900000001], [-70.194485, 41.27640000000002], [-70.194391, 41.276508000000014], [-70.194651, 41.276546999999994], [-70.194276, 41.276649], [-70.192932, 41.27784099999999], [-70.192346, 41.278092], [-70.19213599999999, 41.277877999999994], [-70.1923, 41.278102999999994], [-70.191776, 41.278378000000004], [-70.19171, 41.27820000000001], [-70.191328, 41.27831], [-70.19145, 41.27836100000001], [-70.191335, 41.278625], [-70.190726, 41.279076], [-70.190587, 41.27889300000001], [-70.190748, 41.278648], [-70.19040199999999, 41.278981999999985], [-70.189446, 41.279059], [-70.18899800000001, 41.27941299999999], [-70.188811, 41.27932800000001], [-70.18875799999999, 41.27949399999999], [-70.188878, 41.279595], [-70.188903, 41.279581999999984], [-70.189452, 41.27909699999999], [-70.190219, 41.27900999999999], [-70.190592, 41.27912500000001], [-70.19026, 41.27931], [-70.19106099999999, 41.27894999999998], [-70.19117299999999, 41.279229], [-70.191588, 41.279488999999984], [-70.191188, 41.279805], [-70.191745, 41.279465], [-70.19198999999999, 41.279447000000005], [-70.192037, 41.279683999999996], [-70.192083, 41.279682], [-70.192007, 41.279433000000026], [-70.192385, 41.27896999999998], [-70.19228199999999, 41.278544999999994], [-70.193266, 41.278227999999984], [-70.19324200000001, 41.27807100000001], [-70.194104, 41.27747199999999], [-70.19424099999999, 41.27768899999998], [-70.194287, 41.277699], [-70.194149, 41.277446999999995], [-70.194467, 41.27734400000001], [-70.194711, 41.27701100000001], [-70.195165, 41.27722000000001], [-70.19512499999999, 41.277429000000005], [-70.19524799999999, 41.277553000000005], [-70.195304, 41.27735000000001], [-70.195606, 41.277409999999996], [-70.196052, 41.277153], [-70.19697099999999, 41.276067000000005], [-70.198568, 41.275980000000004], [-70.199111, 41.27543399999999], [-70.199564, 41.275324], [-70.199856, 41.274964000000004], [-70.200187, 41.27494899999999], [-70.199251, 41.27570300000001], [-70.198939, 41.27629800000001], [-70.197133, 41.278031], [-70.19586799999999, 41.27894199999999], [-70.1943, 41.279581999999984], [-70.193178, 41.280474000000005], [-70.192086, 41.281687000000005], [-70.19160099999999, 41.28324299999999], [-70.19175299999999, 41.28473000000002], [-70.191844, 41.28541599999999], [-70.19269299999999, 41.287451999999995], [-70.193846, 41.289168000000004], [-70.194908, 41.290151000000016], [-70.196455, 41.29076899999999], [-70.197941, 41.291135], [-70.19873, 41.291112], [-70.19985199999999, 41.29065400000001], [-70.1997, 41.289899000000005], [-70.199973, 41.289602], [-70.20470399999999, 41.287884999999996], [-70.20534099999999, 41.28783900000001], [-70.206706, 41.288137000000006], [-70.207161, 41.28841100000001], [-70.207798, 41.28914299999998], [-70.208071, 41.290035], [-70.208041, 41.290859000000005], [-70.207556, 41.29147700000001], [-70.206586, 41.291934000000005], [-70.196637, 41.293766], [-70.196334, 41.294063], [-70.196304, 41.29461200000001], [-70.196546, 41.294978], [-70.196213, 41.29507], [-70.194302, 41.29527600000001], [-70.191906, 41.295825], [-70.191238, 41.295825], [-70.1896, 41.295459], [-70.187932, 41.29472699999999], [-70.18526299999999, 41.294293], [-70.18323, 41.294247000000034], [-70.181106, 41.293766], [-70.17370500000001, 41.294269], [-70.15351500000001, 41.29373700000001], [-70.144374, 41.29364300000003], [-70.130421, 41.293981], [-70.127782, 41.293819], [-70.12446, 41.293851000000004], [-70.11570999999999, 41.294346999999995], [-70.11119000000001, 41.295035], [-70.108461, 41.295745000000004], [-70.104124, 41.297371], [-70.10399600000001, 41.296808999999996], [-70.10305799999999, 41.29563700000002], [-70.10312499999999, 41.29390500000001], [-70.10252000000001, 41.293468999999995], [-70.09961299999999, 41.29246099999999], [-70.096538, 41.29174599999999], [-70.094869, 41.291174999999996], [-70.09153599999999, 41.29082100000001], [-70.090989, 41.290686], [-70.090201, 41.290211], [-70.089959, 41.28982399999998], [-70.090475, 41.28903100000001], [-70.092479, 41.288926000000004], [-70.095817, 41.288394], [-70.09691, 41.28748600000001], [-70.096941, 41.28700999999999], [-70.097457, 41.28685099999999], [-70.097217, 41.285942999999975], [-70.095276, 41.286227999999994], [-70.09515499999999, 41.285979999999995], [-70.095186, 41.285616], [-70.09706800000001, 41.285190999999976], [-70.097129, 41.28453100000001], [-70.095221, 41.28490899999999], [-70.09511499999999, 41.284513999999994], [-70.09437799999999, 41.284729], [-70.094207, 41.28425900000001], [-70.09528999999999, 41.28405399999998], [-70.09560499999999, 41.283796], [-70.094623, 41.283671], [-70.094562, 41.28339599999999], [-70.095077, 41.28321299999997], [-70.095077, 41.28300699999999], [-70.094804, 41.28287000000001], [-70.09410299999999, 41.283032000000006], [-70.09410199999999, 41.28266699999999], [-70.095207, 41.282192], [-70.095333, 41.281988], [-70.095331, 41.28166900000001], [-70.09481699999999, 41.280896], [-70.09349399999999, 41.279918999999985], [-70.0918, 41.279166], [-70.092012, 41.278456000000006], [-70.091557, 41.27818200000001], [-70.090041, 41.277977], [-70.08876699999999, 41.277428], [-70.088261, 41.27754099999999], [-70.088219, 41.277724000000006], [-70.08767499999999, 41.27800000000001], [-70.087008, 41.27772600000001], [-70.086935, 41.27737099999999], [-70.087163, 41.27723599999999], [-70.088939, 41.277203000000014], [-70.089355, 41.27713000000001], [-70.08949199999999, 41.276838], [-70.088982, 41.276311000000014], [-70.088912, 41.275937], [-70.089315, 41.275800000000004], [-70.089483, 41.275312000000014], [-70.089146, 41.275116999999995], [-70.088765, 41.27519700000001], [-70.08865999999999, 41.274682999999996], [-70.088453, 41.274454], [-70.087869, 41.274854], [-70.087908, 41.27506999999999], [-70.088618, 41.275532999999996], [-70.08856399999999, 41.27679500000001], [-70.086744, 41.277107999999984], [-70.086506, 41.277392], [-70.08658299999999, 41.27777100000001], [-70.08618899999999, 41.278137999999984], [-70.083123, 41.279611], [-70.082101, 41.28070999999999], [-70.079495, 41.282075000000006], [-70.07763899999999, 41.283606], [-70.074486, 41.287380999999996], [-70.071908, 41.289967], [-70.07021499999999, 41.29004300000001], [-70.068136, 41.289216999999994], [-70.06809299999999, 41.289046], [-70.068546, 41.28863299999999], [-70.068815, 41.28803300000001], [-70.069418, 41.28766799999998], [-70.06838400000001, 41.288009], [-70.06747899999999, 41.28863299999998], [-70.067436, 41.289533], [-70.066187, 41.290424], [-70.066041, 41.291774000000025], [-70.0639, 41.29587], [-70.063566, 41.29593799999999], [-70.061778, 41.29552700000001], [-70.057818, 41.29571999999999], [-70.05654799999999, 41.296014], [-70.0558, 41.29598899999998], [-70.049916, 41.29545699999999], [-70.048374, 41.294891], [-70.045317, 41.29480999999999], [-70.04404, 41.295069000000005], [-70.041516, 41.296043000000004], [-70.039056, 41.297217], [-70.031198, 41.30021200000001], [-70.029741, 41.301354999999994], [-70.02925499999999, 41.30220099999999], [-70.027525, 41.30350500000001], [-70.025098, 41.305037000000006], [-70.02445999999999, 41.305197000000014], [-70.022337, 41.30462399999997], [-70.021791, 41.304304], [-70.020791, 41.30322799999998], [-70.020821, 41.302976999999984], [-70.021064, 41.303], [-70.02224700000001, 41.30357200000001], [-70.02267100000002, 41.304167], [-70.02434, 41.304145000000005], [-70.02613, 41.30380199999998], [-70.026585, 41.30334499999999], [-70.026585, 41.302704], [-70.025646, 41.301193999999995], [-70.025616, 41.29993499999999], [-70.025404, 41.299592], [-70.025261, 41.29866599999999], [-70.023687, 41.296946], [-70.023488, 41.294548], [-70.023906, 41.29365600000001], [-70.02373899999999, 41.292305999999996], [-70.0236, 41.29322900000001], [-70.023277, 41.29293500000001], [-70.023141, 41.293057999999995], [-70.022947, 41.29275699999998], [-70.022714, 41.292739999999995], [-70.02302399999999, 41.292877000000004], [-70.023051, 41.29309500000001], [-70.022898, 41.29354399999998], [-70.02266, 41.29352299999999], [-70.023218, 41.29396099999999], [-70.022543, 41.29409], [-70.02328, 41.29404400000001], [-70.02306, 41.294385999999996], [-70.02210699999999, 41.29431400000001], [-70.022029, 41.29465600000002], [-70.021473, 41.29527100000001], [-70.019925, 41.295711], [-70.02047, 41.29595899999998], [-70.02046299999999, 41.29631099999999], [-70.019933, 41.296747], [-70.019938, 41.297107], [-70.020196, 41.297279999999986], [-70.02015, 41.297481999999995], [-70.019215, 41.297419999999995], [-70.018931, 41.297143000000005], [-70.019053, 41.296985999999976], [-70.018836, 41.297066999999984], [-70.019182, 41.297517000000006], [-70.018926, 41.29799800000001], [-70.018548, 41.29793600000001], [-70.018119, 41.298119000000014], [-70.01777299999999, 41.298721000000015], [-70.017605, 41.298632], [-70.017119, 41.298854], [-70.016842, 41.29862200000001], [-70.01663599999999, 41.298855], [-70.016347, 41.298809], [-70.016612, 41.298885000000006], [-70.016849, 41.298701], [-70.01709699999999, 41.29895400000001], [-70.018022, 41.298894000000004], [-70.018158, 41.298613999999986], [-70.01858, 41.298626], [-70.018346, 41.298502000000006], [-70.01842700000002, 41.298428], [-70.01989, 41.298229], [-70.02096999999999, 41.29849000000001], [-70.021036, 41.298835], [-70.02118899999999, 41.29868399999999], [-70.021119, 41.298431000000015], [-70.022224, 41.29832100000001], [-70.02176399999999, 41.299083], [-70.021745, 41.299658], [-70.021571, 41.299814000000005], [-70.021799, 41.299707000000005], [-70.022339, 41.30012599999998], [-70.023042, 41.30023299999999], [-70.022935, 41.300520999999996], [-70.02176899999999, 41.301293999999984], [-70.02151599999999, 41.30114], [-70.02151, 41.301381000000006], [-70.02129099999999, 41.301351000000004], [-70.020068, 41.302889], [-70.01982199999999, 41.30299599999999], [-70.01935, 41.302940000000014], [-70.01826799999999, 41.302341999999996], [-70.01741, 41.302176], [-70.016578, 41.302259], [-70.01619, 41.30253299999998], [-70.015075, 41.302125], [-70.012839, 41.302495999999984], [-70.012974, 41.302270000000014], [-70.01294, 41.302105], [-70.012802, 41.302012000000005], [-70.013165, 41.302011], [-70.013184, 41.30187500000001], [-70.012725, 41.301649], [-70.01272399999999, 41.301895000000016], [-70.01288500000001, 41.301974], [-70.012771, 41.301993], [-70.01277, 41.30208400000001], [-70.012946, 41.302265], [-70.012864, 41.30243399999999], [-70.01123199999999, 41.30258800000001], [-70.010475, 41.303041], [-70.01011, 41.303909999999995], [-70.01020100000001, 41.304505000000006], [-70.010746, 41.30546599999999], [-70.011262, 41.305832999999986], [-70.01241399999999, 41.30617599999999], [-70.01441799999999, 41.30588], [-70.015237, 41.305308000000004], [-70.017331, 41.30558399999999], [-70.018059, 41.305446999999994], [-70.01994599999999, 41.30443400000001], [-70.020376, 41.30443400000001], [-70.021609, 41.30510499999998], [-70.023156, 41.305493999999996], [-70.02351999999999, 41.305701000000006], [-70.024035, 41.306546999999995], [-70.02712799999999, 41.309568], [-70.029282, 41.31036900000001], [-70.032799, 41.315815], [-70.032738, 41.31597500000001], [-70.02754999999999, 41.31556200000001], [-70.022786, 41.315720000000006], [-70.021603, 41.315979000000006], [-70.020088, 41.31673000000001], [-70.017917, 41.317237], [-70.016738, 41.317800000000005], [-70.013115, 41.31892899999999], [-70.011021, 41.320125000000004], [-70.004829, 41.32273999999999], [-70.002144, 41.32406199999999], [-70.000017, 41.32646299999998], [-69.999866, 41.327217999999995], [-69.99945799999999, 41.32740099999999], [-69.99945799999999, 41.32838400000001], [-69.998811, 41.32927500000001], [-69.998842, 41.329893000000006], [-69.99860000000001, 41.331083000000014], [-69.998723, 41.33263800000001], [-69.99945799999999, 41.33412499999999], [-69.999802, 41.334034999999986], [-70.000556, 41.335133000000006], [-70.001617, 41.33618599999999], [-70.003619, 41.33781199999999], [-70.008534, 41.340971], [-70.00850299999999, 41.341154], [-70.007926, 41.341383], [-70.007622, 41.341702999999995], [-70.006712, 41.34170199999999], [-70.006772, 41.342], [-70.007319, 41.342092000000015], [-70.008017, 41.34262699999999], [-70.009121, 41.342546], [-70.009469, 41.34265399999999], [-70.011355, 41.343832], [-70.012175, 41.344084], [-70.013631, 41.345137], [-70.015119, 41.34571000000001], [-70.017092, 41.345665000000004], [-70.018974, 41.345299], [-70.019976, 41.34557399999999], [-70.01994499999999, 41.34593999999998], [-70.019429, 41.34639800000003], [-70.018913, 41.346351999999996], [-70.018491, 41.346621000000006], [-70.01852, 41.347194000000016], [-70.017888, 41.34795], [-70.01779499999999, 41.348501999999996], [-70.017529, 41.348760999999996], [-70.016868, 41.348934], [-70.016251, 41.34863099999999], [-70.01492999999999, 41.34841500000001], [-70.013522, 41.34929100000002], [-70.013436, 41.350089999999994], [-70.013738, 41.35021999999999], [-70.01370899999999, 41.350522999999995], [-70.013149, 41.351592999999994], [-70.013149, 41.35207900000001], [-70.012887, 41.352277999999984], [-70.011957, 41.352425], [-70.011842, 41.352878999999994], [-70.01232999999999, 41.353818999999994], [-70.012732, 41.35413299999999], [-70.013149, 41.35417600000001], [-70.013781, 41.35394899999999], [-70.015475, 41.352587], [-70.015576, 41.35137699999999], [-70.015892, 41.35041500000001], [-70.01661, 41.34998199999998], [-70.016825, 41.34948499999999], [-70.018046, 41.34859900000001], [-70.019064, 41.34758700000002], [-70.019277, 41.347015000000006], [-70.020552, 41.346489999999996], [-70.020826, 41.34488800000001], [-70.022678, 41.344294], [-70.02447, 41.343402], [-70.025199, 41.34276199999999], [-70.026626, 41.34104700000001], [-70.027689, 41.33965099999999], [-70.02847899999999, 41.33814199999999], [-70.02927, 41.33475600000001], [-70.029271, 41.333293000000005], [-70.02981799999999, 41.332103], [-70.03051599999999, 41.33196599999999], [-70.032215, 41.332195], [-70.03349, 41.331897999999995], [-70.034279, 41.331623999999984], [-70.035251, 41.330686], [-70.035828, 41.32929099999999], [-70.036011, 41.328421000000006], [-70.036011, 41.326682999999996], [-70.03573899999999, 41.32549300000001], [-70.03513199999999, 41.32412], [-70.038318, 41.32467000000001], [-70.040959, 41.32425800000001], [-70.042203, 41.323664000000015], [-70.043357, 41.32286299999999], [-70.045299, 41.32075900000001], [-70.046149, 41.31876799999999], [-70.046149, 41.318197], [-70.045209, 41.31565700000001], [-70.04521, 41.315177000000006], [-70.047637, 41.315428999999995], [-70.049336, 41.315107999999995], [-70.051157, 41.31421600000001], [-70.053372, 41.31215699999999], [-70.05370599999999, 41.311676999999996], [-70.053888, 41.311197000000014], [-70.05494999999999, 41.309754999999996], [-70.055405, 41.30867999999998], [-70.055466, 41.30774199999999], [-70.0558, 41.307651], [-70.056649, 41.30822299999999], [-70.057529, 41.30847399999999], [-70.05828799999999, 41.308496999999996], [-70.060047, 41.308336999999995], [-70.060836, 41.30810800000001], [-70.062505, 41.30723899999999], [-70.06396099999999, 41.30604999999998], [-70.064841, 41.30435699999999], [-70.06569, 41.30122300000002], [-70.066357, 41.301154000000004], [-70.06660000000001, 41.301429], [-70.066115, 41.301566], [-70.065482, 41.303442999999994], [-70.065739, 41.303428], [-70.066293, 41.30299599999999], [-70.066531, 41.302176999999986], [-70.067184, 41.301773999999995], [-70.068471, 41.30170000000001], [-70.068708, 41.302161999999996], [-70.068827, 41.301819], [-70.07047, 41.30164], [-70.070818, 41.301176999999996], [-70.072972, 41.301291], [-70.074974, 41.300970999999976], [-70.076217, 41.300536], [-70.07743099999999, 41.29964300000001], [-70.07915899999999, 41.297264], [-70.079432, 41.296532], [-70.07924899999999, 41.292917], [-70.079461, 41.292803], [-70.079977, 41.292871000000005], [-70.081312, 41.293969000000004], [-70.081312, 41.294289000000006], [-70.080978, 41.29426599999999], [-70.08040199999999, 41.29360299999999], [-70.079977, 41.293442999999996], [-70.07985599999999, 41.293557000000014], [-70.079765, 41.29387799999999], [-70.080038, 41.294427], [-70.08015999999999, 41.295227], [-70.08094799999999, 41.295159000000005], [-70.08216200000001, 41.295525], [-70.082647, 41.295387000000005], [-70.082829, 41.294769000000024], [-70.081858, 41.294038], [-70.081949, 41.293853999999996], [-70.083071, 41.293831000000004], [-70.085358, 41.29487299999999], [-70.086626, 41.29508], [-70.091702, 41.296924000000004], [-70.092295, 41.297491], [-70.092305, 41.297912], [-70.09218299999999, 41.29798], [-70.090327, 41.29795199999999], [-70.08567, 41.29846099999999], [-70.083569, 41.29881999999999], [-70.08219900000002, 41.29922599999999], [-70.078148, 41.301131], [-70.07108199999999, 41.303847999999995], [-70.069101, 41.30473200000001], [-70.066146, 41.30641199999999], [-70.058281, 41.311862000000005], [-70.046088, 41.321650999999996], [-70.03755799999999, 41.330618], [-70.032091, 41.338393999999994], [-70.028871, 41.34502799999999], [-70.027442, 41.349626000000015], [-70.025922, 41.35269100000003], [-70.024523, 41.357381000000004], [-70.02431, 41.358936], [-70.023731, 41.36126999999999], [-70.023517, 41.36449499999998], [-70.023546, 41.3666], [-70.024031, 41.368612999999996], [-70.024971, 41.37085500000001], [-70.025487, 41.371793], [-70.026853, 41.373577999999995], [-70.028189, 41.37451600000002], [-70.03143399999999, 41.37783000000001], [-70.03434899999999, 41.380416], [-70.034865, 41.380691], [-70.042397, 41.381744999999995], [-70.044068, 41.3825], [-70.045586, 41.383598000000006], [-70.049564, 41.3879], [-70.04992899999999, 41.390165], [-70.04986699999999, 41.392314999999996], [-70.049655, 41.392475000000005], [-70.04597900000002, 41.390828], [-70.04327599999999, 41.38906600000001], [-70.0403, 41.386663], [-70.030007, 41.377350000000014], [-70.027322, 41.37511899999999], [-70.02290599999999, 41.37067100000001], [-70.019386, 41.36641600000001], [-70.007678, 41.34858899999998], [-70.00504, 41.34490499999998], [-70.004464, 41.343692000000004], [-70.00034099999999, 41.337740999999994], [-69.99980099999999, 41.336391000000006], [-69.99945799999999, 41.33659600000001], [-69.996933, 41.33296], [-69.996265, 41.33234200000001], [-69.99605199999999, 41.33186200000001], [-69.995171, 41.330924], [-69.994502, 41.32955199999999], [-69.993681, 41.32840900000001], [-69.992922, 41.32767799999999], [-69.988728, 41.32017599999999], [-69.987422, 41.318574999999996], [-69.985142, 41.31432100000001], [-69.983289, 41.311439], [-69.977368, 41.30444], [-69.975061, 41.301993], [-69.972754, 41.298493000000015], [-69.97169099999999, 41.29732700000001], [-69.969747, 41.29433100000001], [-69.96911, 41.293735999999996], [-69.968988, 41.29323300000001], [-69.966651, 41.289734], [-69.96574, 41.287904000000005], [-69.96027699999999, 41.27873100000001], [-69.95994300000001, 41.277381], [-69.959791, 41.27518499999999], [-69.959366, 41.2734], [-69.959426, 41.27099799999999], [-69.960212, 41.26525500000001], [-69.96018099999999, 41.264546], [-69.960666, 41.26381400000001], [-69.962271, 41.25949], [-69.963877, 41.256080000000004], [-69.964422, 41.25457], [-69.964755, 41.25425], [-69.965119, 41.25328899999999], [-69.96572499999999, 41.252466], [-69.96918099999999, 41.25012299999999], [-69.971363, 41.24894899999999], [-69.97500000000001, 41.24739199999999], [-69.982638, 41.245124], [-69.994243, 41.241321000000006], [-69.99945799999999, 41.240266], [-70.001586, 41.23935300000001], [-70.012104, 41.23810000000001], [-70.015225, 41.23796400000001], [-70.018226, 41.238033], [-70.02474099999999, 41.238791], [-70.026955, 41.239295], [-70.029985, 41.23957000000001], [-70.038077, 41.240716], [-70.04198699999999, 41.241448000000005], [-70.052807, 41.24268499999998], [-70.057808, 41.243027999999995], [-70.05947499999999, 41.24293700000001], [-70.061142, 41.243188], [-70.066204, 41.24350899999999], [-70.08331799999999, 41.244306999999985], [-70.085633, 41.244192999999974], [-70.088876, 41.24368899999998], [-70.09166499999999, 41.24304799999998], [-70.09696699999999, 41.24085], [-70.098998, 41.24073500000001], [-70.102847, 41.240961999999996], [-70.105848, 41.240847], [-70.112516, 41.241416], [-70.118669, 41.242351000000006], [-70.134646, 41.246952], [-70.14195000000001, 41.248602], [-70.148467, 41.24952], [-70.155799, 41.251188000000006], [-70.160466, 41.252585], [-70.162891, 41.253500999999986], [-70.173667, 41.256699999999995], [-70.174701, 41.257323], [-70.180104, 41.259247], [-70.18210700000002, 41.26021799999998], [-70.188608, 41.262879000000005], [-70.194887, 41.26528700000001], [-70.206885, 41.27053099999999], [-70.208947, 41.27091300000001], [-70.21085699999999, 41.271544999999996], [-70.212217, 41.27238099999999], [-70.215221, 41.273716000000015], [-70.217657, 41.275076000000006], [-70.217618, 41.275254999999994], [-70.223205, 41.27793299999998], [-70.224958, 41.278158000000005], [-70.227991, 41.279118], [-70.231207, 41.281153], [-70.231814, 41.281724999999994], [-70.233634, 41.28231900000001], [-70.23451399999999, 41.28279899999999], [-70.23481699999999, 41.28314199999999], [-70.23481799999999, 41.283370999999995]]], [[[-70.25021199999999, 41.28906099999999], [-70.24895599999999, 41.288990999999996], [-70.248289, 41.289288000000006], [-70.247925, 41.288854], [-70.247894, 41.288305], [-70.248318, 41.287664], [-70.24865199999999, 41.287641000000015], [-70.24946299999999, 41.288053], [-70.25021199999999, 41.288787], [-70.25021199999999, 41.28906099999999]]], [[[-70.27833, 41.309346], [-70.277557, 41.312153999999985], [-70.27682899999999, 41.312840000000016], [-70.27625200000001, 41.31313699999999], [-70.27594900000001, 41.313114], [-70.27482599999999, 41.312771], [-70.27458899999999, 41.31245399999999], [-70.274744, 41.312273999999995], [-70.275485, 41.312076000000005], [-70.276229, 41.31144700000001], [-70.276612, 41.30976099999999], [-70.276089, 41.30923099999999], [-70.274012, 41.30801099999999], [-70.27370599999999, 41.307966], [-70.27319, 41.30833199999999], [-70.27197699999999, 41.308584], [-70.26982199999999, 41.31000099999999], [-70.26650300000001, 41.31110800000002], [-70.262776, 41.311443], [-70.255983, 41.30951399999999], [-70.246763, 41.30629499999999], [-70.244271, 41.30473899999999], [-70.24289200000001, 41.303487], [-70.242205, 41.30263099999999], [-70.241556, 41.300827999999996], [-70.24185000000001, 41.30029200000002], [-70.242324, 41.30018100000001], [-70.242566, 41.30031900000001], [-70.24262399999999, 41.300895], [-70.243167, 41.301355999999984], [-70.24316499999999, 41.301794], [-70.243797, 41.303036999999996], [-70.244912, 41.304328], [-70.248204, 41.30633700000002], [-70.248597, 41.306338], [-70.248654, 41.30586100000001], [-70.24986299999999, 41.305892], [-70.248958, 41.30535299999998], [-70.24834, 41.304616], [-70.247822, 41.30288399999999], [-70.247841, 41.30141199999999], [-70.245655, 41.301456000000016], [-70.244716, 41.30164299999999], [-70.244315, 41.30131], [-70.244754, 41.30092199999999], [-70.245176, 41.300806], [-70.245329, 41.300142], [-70.244259, 41.300048000000004], [-70.243406, 41.300304000000004], [-70.241886, 41.299577000000006], [-70.23963599999999, 41.296662000000005], [-70.23974, 41.294812], [-70.23950099999999, 41.294374], [-70.239778, 41.293887], [-70.241275, 41.29318700000001], [-70.244235, 41.29275200000001], [-70.24682899999999, 41.292593], [-70.251239, 41.29301900000001], [-70.255789, 41.29260999999999], [-70.257942, 41.29290800000001], [-70.25906499999999, 41.292885999999996], [-70.260581, 41.293596], [-70.261218, 41.293527], [-70.26140000000001, 41.293366999999996], [-70.260885, 41.29288699999999], [-70.257913, 41.291536], [-70.255912, 41.290437], [-70.25551899999999, 41.289887], [-70.255489, 41.288652], [-70.255701, 41.288721], [-70.25858099999999, 41.290780999999996], [-70.263038, 41.293116], [-70.26607, 41.29503899999999], [-70.268162, 41.296664000000014], [-70.270556, 41.29934200000001], [-70.272314, 41.30169899999999], [-70.273315, 41.303094999999985], [-70.27386, 41.304353], [-70.274315, 41.304947], [-70.277438, 41.30757900000001], [-70.27833, 41.309346]]], [[[-70.30304199999999, 41.329795000000004], [-70.30267800000001, 41.329795000000004], [-70.301616, 41.329132], [-70.299613, 41.328399999999995], [-70.29830799999999, 41.32842200000001], [-70.29745799999999, 41.328697], [-70.29715399999999, 41.328903], [-70.297367, 41.32924599999999], [-70.29730599999999, 41.32947499999998], [-70.296972, 41.32956600000001], [-70.29521199999999, 41.329108000000005], [-70.29390699999999, 41.32897100000001], [-70.29436299999999, 41.328536], [-70.295425, 41.32805600000001], [-70.29675999999999, 41.327759000000015], [-70.298186, 41.32771299999999], [-70.300189, 41.327965], [-70.30198, 41.32858299999998], [-70.303011, 41.32940700000001], [-70.30304199999999, 41.329795000000004]]], [[[-70.31397, 41.33647099999998], [-70.31375799999999, 41.336951000000006], [-70.31345499999999, 41.338757000000015], [-70.312877, 41.33903200000001], [-70.31184499999999, 41.339214], [-70.31029699999999, 41.339259999999996], [-70.308688, 41.33914400000001], [-70.303105, 41.338273000000015], [-70.29665299999999, 41.337627999999995], [-70.29418199999999, 41.33758200000001], [-70.29202699999999, 41.337788], [-70.29069199999999, 41.33728400000001], [-70.288901, 41.336963], [-70.288567, 41.33677899999999], [-70.28853699999999, 41.33643599999999], [-70.290305, 41.33446099999998], [-70.291684, 41.332105000000006], [-70.293752, 41.33137000000001], [-70.29696899999999, 41.331283], [-70.299324, 41.331456], [-70.301801, 41.33074299999999], [-70.30344, 41.33074299999999], [-70.305503, 41.33122499999999], [-70.30586699999999, 41.33147600000001], [-70.305897, 41.331866], [-70.305533, 41.331911999999996], [-70.304867, 41.33143500000001], [-70.304408, 41.331348], [-70.30323, 41.331629], [-70.303173, 41.331283], [-70.302943, 41.331109999999995], [-70.302196, 41.331067000000004], [-70.301622, 41.331283], [-70.30160699999999, 41.331456], [-70.30269899999999, 41.33191], [-70.303589, 41.33192100000001], [-70.304695, 41.332207], [-70.305657, 41.332656], [-70.30614600000001, 41.333180000000006], [-70.307223, 41.333899], [-70.308917, 41.33476399999999], [-70.30999299999999, 41.334548999999996], [-70.31066, 41.333658], [-70.310751, 41.33317700000002], [-70.310266, 41.332446], [-70.309021, 41.331303000000005], [-70.30814099999999, 41.33079999999999], [-70.306562, 41.330115], [-70.30547, 41.330069], [-70.30443799999999, 41.32945199999999], [-70.30434699999999, 41.32920099999998], [-70.304711, 41.329041000000004], [-70.30550000000001, 41.329018], [-70.308626, 41.330228000000005], [-70.31060000000001, 41.331440999999984], [-70.31327, 41.33425300000002], [-70.313452, 41.334893], [-70.31400000000001, 41.33580699999999], [-70.31397, 41.33647099999998]]], [[[-71.05185399999999, 41.416729], [-70.999482, 41.442372], [-70.95682099999999, 41.46247200000001], [-70.91481, 41.483092], [-70.879213, 41.50010599999999], [-70.763776, 41.55660700000001], [-70.758464, 41.560930999999975], [-70.749476, 41.55639], [-70.697498, 41.527158], [-70.664171, 41.54288299999998], [-70.65623, 41.56651400000001], [-70.648153, 41.57145199999999], [-70.647207, 41.57853899999999], [-70.654276, 41.605216000000006], [-70.654394, 41.625107], [-70.660339, 41.625106], [-70.659556, 41.65921], [-70.624475, 41.657785], [-70.621443, 41.65762299999998], [-70.621012, 41.657427], [-70.615736, 41.658252], [-70.615434, 41.658091999999996], [-70.61535500000001, 41.658241], [-70.612897, 41.65841400000001], [-70.60229, 41.655322], [-70.605218, 41.643882999999995], [-70.606166, 41.64134599999999], [-70.620294, 41.61691300000001], [-70.61493999999999, 41.615161999999984], [-70.61266300000001, 41.61478799999999], [-70.610951, 41.61511100000002], [-70.609676, 41.61514599999998], [-70.607468, 41.614498], [-70.60681, 41.614450000000005], [-70.604062, 41.61529700000001], [-70.602727, 41.61539300000001], [-70.600612, 41.614759], [-70.598184, 41.61462500000001], [-70.597309, 41.61437199999999], [-70.59343, 41.61203099999999], [-70.591729, 41.611472000000006], [-70.58906499999999, 41.611331], [-70.584239, 41.611449000000015], [-70.583626, 41.61129600000002], [-70.579968, 41.60984599999999], [-70.578439, 41.60862499999999], [-70.576273, 41.607377], [-70.573605, 41.604974999999996], [-70.572695, 41.602747000000015], [-70.57307399999999, 41.60119999999999], [-70.573058, 41.600536000000005], [-70.573403, 41.600269999999995], [-70.574798, 41.597925], [-70.576351, 41.598692000000014], [-70.578413, 41.598251999999995], [-70.57942299999999, 41.599464999999995], [-70.579876, 41.59973900000001], [-70.580308, 41.599911], [-70.581245, 41.59989099999999], [-70.582987, 41.60071], [-70.58337999999999, 41.600750000000005], [-70.58668, 41.599726], [-70.587149, 41.599179000000014], [-70.588768, 41.59867399999999], [-70.589801, 41.598091000000004], [-70.591584, 41.597389000000014], [-70.592355, 41.59693500000001], [-70.59260000000002, 41.596531], [-70.592494, 41.59530999999999], [-70.592118, 41.594159999999995], [-70.591083, 41.59318100000002], [-70.590327, 41.592014000000006], [-70.5886, 41.591331000000004], [-70.58717399999999, 41.59133100000001], [-70.585535, 41.591641], [-70.585595, 41.591253], [-70.582833, 41.589455], [-70.5851, 41.587138999999986], [-70.589753, 41.581382000000005], [-70.592917, 41.57693], [-70.594082, 41.573564000000005], [-70.59463699999999, 41.56874500000001], [-70.596102, 41.56445899999999], [-70.593288, 41.563949], [-70.592686, 41.560815999999996], [-70.59216599999999, 41.559476], [-70.592165, 41.55842800000001], [-70.591939, 41.557916999999996], [-70.591319, 41.554272], [-70.590606, 41.55331200000001], [-70.58909500000001, 41.550661999999996], [-70.58929599999999, 41.54942899999999], [-70.588827, 41.545753000000005], [-70.58895799999999, 41.545176999999995], [-70.591852, 41.545438999999995], [-70.59183, 41.54523599999999], [-70.592743, 41.54536799999999], [-70.593825, 41.54529599999999], [-70.59380999999999, 41.545097999999996], [-70.594512, 41.545027], [-70.59525, 41.545175], [-70.59520599999999, 41.54487800000001], [-70.59660099999999, 41.54470800000001], [-70.59660099999999, 41.544433000000005], [-70.597514, 41.54412599999999], [-70.597346, 41.54386199999999], [-70.60143699999999, 41.542186000000015], [-70.602263, 41.54199400000001], [-70.60324899999999, 41.542015000000006], [-70.603307, 41.541889000000005], [-70.606596, 41.542837999999975], [-70.60723899999999, 41.54282100000001], [-70.608201, 41.54260799999998], [-70.60822499999999, 41.54247999999999], [-70.609015, 41.542848], [-70.610053, 41.543033999999984], [-70.611879, 41.542874], [-70.61399, 41.542208999999986], [-70.615101, 41.542378000000014], [-70.61628499999999, 41.54226199999999], [-70.616723, 41.542031999999985], [-70.61670099999999, 41.541745999999996], [-70.617007, 41.541554], [-70.61724099999999, 41.541554], [-70.617227, 41.54178999999998], [-70.61758499999999, 41.541827999999995], [-70.61775999999999, 41.541799999999995], [-70.61763599999999, 41.54153199999998], [-70.617826, 41.54150399999999], [-70.618082, 41.54185000000002], [-70.620544, 41.54134299999999], [-70.622991, 41.54122100000001], [-70.62640999999999, 41.540192000000005], [-70.62678300000002, 41.539911999999994], [-70.629676, 41.539485000000006], [-70.631796, 41.53884899999999], [-70.63180299999999, 41.538734000000005], [-70.633535, 41.538382999999996], [-70.63371099999999, 41.538163999999995], [-70.63474099999999, 41.53785099999999], [-70.634697, 41.537708999999985], [-70.63862999999999, 41.53601899999998], [-70.640895, 41.534686], [-70.642196, 41.533764999999995], [-70.645639, 41.530543], [-70.646224, 41.52971999999999], [-70.646217, 41.52938], [-70.64744499999999, 41.52803499999998], [-70.64738, 41.527898], [-70.648366, 41.527173999999995], [-70.64841, 41.526855], [-70.64939, 41.52574099999999], [-70.649624, 41.525368], [-70.649492, 41.52527500000002], [-70.650033, 41.52460499999999], [-70.650055, 41.52415499999999], [-70.650947, 41.52329299999998], [-70.651561, 41.522163], [-70.653885, 41.51975900000002], [-70.65421400000001, 41.51885299999999], [-70.654303, 41.517754999999994], [-70.653814, 41.516278], [-70.654494, 41.515417], [-70.65577200000001, 41.514988999999986], [-70.669518, 41.51333899999999], [-70.664005, 41.508430000000004], [-70.658182, 41.50010899999997], [-70.65732, 41.49835199999999], [-70.653136, 41.49278599999999], [-70.65000900000001, 41.488009000000005], [-70.646412, 41.489323], [-70.640223, 41.491977], [-70.627355, 41.498359999999984], [-70.624473, 41.50010899999997], [-70.60297899999999, 41.511801999999996], [-70.539279, 41.508126], [-70.502832, 41.500635], [-70.50860300000001, 41.498965], [-70.504182, 41.494858], [-70.499472, 41.488233], [-70.494942, 41.479631999999995], [-70.49165800000002, 41.47100900000001], [-70.489689, 41.462976999999995], [-70.485385, 41.463802999999984], [-70.475994, 41.46614099999998], [-70.46395, 41.468], [-70.44800699999999, 41.469355], [-70.436449, 41.46891900000001], [-70.421087, 41.46441600000002], [-70.405928, 41.457012999999996], [-70.392892, 41.44547999999999], [-70.385874, 41.43372099999999], [-70.38080699999999, 41.411995999999995], [-70.380693, 41.385361], [-70.38216299999999, 41.375117999999986], [-70.383449, 41.369933], [-70.37011199999999, 41.36876899999999], [-70.36769799999999, 41.37142700000001], [-70.362641, 41.375117999999986], [-70.353085, 41.381454999999995], [-70.338289, 41.38854999999999], [-70.323593, 41.391607], [-70.308734, 41.390693000000006], [-70.302438, 41.389624999999995], [-70.294179, 41.39144599999999], [-70.283214, 41.39288499999999], [-70.26728299999999, 41.393426000000005], [-70.258549, 41.39210699999999], [-70.24946299999999, 41.390049], [-70.247689, 41.38989099999999], [-70.238142, 41.38620499999999], [-70.23433, 41.38322900000001], [-70.24216299999999, 41.381702999999995], [-70.24946299999999, 41.381012], [-70.258422, 41.380999999999986], [-70.271551, 41.381243], [-70.287685, 41.384671999999995], [-70.301701, 41.38515100000001], [-70.315816, 41.383227], [-70.328182, 41.380158999999985], [-70.339753, 41.37511900000001], [-70.352415, 41.369206000000005], [-70.36102199999999, 41.36426999999999], [-70.36975, 41.357417999999996], [-70.374466, 41.351583999999995], [-70.380032, 41.342892000000006], [-70.388153, 41.32578], [-70.394819, 41.31966399999999], [-70.408171, 41.308989999999994], [-70.43684499999999, 41.29905399999999], [-70.493308, 41.279975], [-70.49946899999999, 41.28574100000001], [-70.512199, 41.298313], [-70.514962, 41.29853], [-70.54521000000001, 41.299672000000015], [-70.571848, 41.30009399999999], [-70.593135, 41.299843999999986], [-70.606672, 41.29940999999999], [-70.62447, 41.298382], [-70.655087, 41.29616499999999], [-70.68502, 41.29317599999998], [-70.686615, 41.292058999999995], [-70.689055, 41.290937000000014], [-70.692874, 41.28963900000001], [-70.700169, 41.289058000000004], [-70.70310599999999, 41.28904], [-70.704591, 41.28483399999999], [-70.707362, 41.280218], [-70.711063, 41.27485699999999], [-70.716499, 41.26945200000001], [-70.721634, 41.265861], [-70.726731, 41.26311000000002], [-70.734843, 41.25923100000001], [-70.734065, 41.256147999999996], [-70.734045, 41.253327000000006], [-70.733667, 41.25011600000003], [-70.73475300000001, 41.24625999999999], [-70.738908, 41.236427], [-70.74430699999999, 41.22603000000001], [-70.749473, 41.22017299999998], [-70.754188, 41.216091], [-70.767837, 41.20648999999999], [-70.783582, 41.20121899999999], [-70.80595, 41.19874200000001], [-70.823645, 41.20064899999999], [-70.847746, 41.20581399999999], [-70.866343, 41.21539699999999], [-70.87447399999999, 41.221380999999994], [-70.877327, 41.224143999999995], [-70.884973, 41.23378399999999], [-70.890541, 41.24309099999999], [-70.89245700000001, 41.25011200000001], [-70.89420299999999, 41.25943899999999], [-70.89359499999999, 41.267993999999995], [-70.890337, 41.27736199999999], [-70.885683, 41.28506600000001], [-70.878182, 41.29214699999999], [-70.874475, 41.29496799999998], [-70.870027, 41.29706799999999], [-70.87447399999999, 41.30134999999999], [-70.877963, 41.30370800000001], [-70.884472, 41.31016199999997], [-70.891363, 41.318817999999986], [-70.897722, 41.327411000000005], [-70.901005, 41.334613], [-70.903815, 41.346727], [-70.903739, 41.35508000000001], [-70.901866, 41.36177], [-70.896017, 41.37014800000001], [-70.902603, 41.36761300000002], [-70.918399, 41.363033], [-70.938664, 41.353986000000006], [-70.95575199999999, 41.35016100000001], [-70.97052099999999, 41.34918700000001], [-70.979229, 41.349643999999984], [-70.990748, 41.351288999999994], [-70.99947999999999, 41.354103], [-71.006315, 41.357319], [-71.014799, 41.362019999999994], [-71.020472, 41.366723], [-71.02610299999999, 41.37169300000001], [-71.032701, 41.38027300000001], [-71.037211, 41.388908000000015], [-71.039918, 41.398259], [-71.038114, 41.405453], [-71.033604, 41.41408500000001], [-71.05185399999999, 41.416729]]]]}}