{"type": "Feature", "properties": {"district_name": "3rd Berkshire District", "chamber": "house", "vintage": "2022-present"}, "geometry": {"type": "Polygon", "coordinates": [[[-73.50821, 42.08613400000002], [-73.483416, 42.154448000000016], [-73.383661, 42.42549700000001], [-73.206359, 42.398130999999985], [-73.191026, 42.452289], [-73.182199, 42.485415], [-73.162765, 42.51562800000001], [-73.146637, 42.541067000000005], [-73.107866, 42.53646500000001], [-73.120264, 42.49349], [-73.113708, 42.492416], [-73.115162, 42.48781399999999], [-73.124392, 42.452629000000016], [-73.157329, 42.453509000000004], [-73.16918600000001, 42.412755999999995], [-73.135639, 42.411959], [-73.140788, 42.39310800000001], [-73.09157, 42.384822], [-73.068508, 42.38072], [-73.064301, 42.33976999999998], [-73.062886, 42.328951], [-73.060602, 42.328039999999994], [-73.056766, 42.32594499999998], [-73.055086, 42.32539700000002], [-73.052656, 42.32428899999999], [-73.051518, 42.323589999999996], [-73.05056200000001, 42.322436999999994], [-73.049016, 42.321418], [-73.048141, 42.321352000000005], [-73.046675, 42.320745], [-73.046255, 42.32037100000001], [-73.04584, 42.31963800000001], [-73.045445, 42.31939600000001], [-73.044549, 42.319405], [-73.043197, 42.319735000000016], [-73.042729, 42.320065], [-73.041873, 42.320304], [-73.040752, 42.32018300000001], [-73.039629, 42.31863099999999], [-73.03972400000002, 42.317853999999976], [-73.039181, 42.315824000000006], [-73.039355, 42.315445999999994], [-73.038954, 42.314955000000005], [-73.036127, 42.31356199999999], [-73.034955, 42.312792], [-73.034163, 42.31211999999997], [-73.032829, 42.310495], [-73.031785, 42.309591], [-73.029398, 42.308568], [-73.027358, 42.30808900000002], [-73.026237, 42.30799000000001], [-73.024924, 42.30917199999998], [-73.023032, 42.309577], [-73.021716, 42.309371], [-73.020709, 42.30839100000002], [-73.020146, 42.308259], [-73.019202, 42.30849599999999], [-73.018241, 42.30900499999999], [-73.017104, 42.31096], [-73.016535, 42.31111300000002], [-73.015908, 42.310667], [-73.01433, 42.30903699999999], [-73.014216, 42.30848], [-73.013232, 42.307592], [-73.012742, 42.306767], [-73.011216, 42.30564199999999], [-73.010537, 42.30484000000001], [-73.009672, 42.304498], [-73.008776, 42.304477000000006], [-73.007611, 42.304939999999995], [-73.006611, 42.30479399999999], [-73.005354, 42.3052], [-73.005211, 42.305465], [-73.005344, 42.305713], [-73.005813, 42.305952999999995], [-73.005809, 42.306470999999995], [-73.00496, 42.307238999999996], [-73.00355100000002, 42.30788399999997], [-73.003432, 42.30840100000001], [-73.003548, 42.309431000000004], [-73.00333, 42.309785], [-73.002069, 42.31037999999998], [-73.001804, 42.311994], [-73.000803, 42.312537000000006], [-73.000278, 42.31259699999999], [-73.00185, 42.25101699999999], [-73.004294, 42.25134700000001], [-73.008264, 42.237010000000005], [-73.03492, 42.143652], [-73.071113, 42.148206], [-73.070405, 42.146956], [-73.070263, 42.146421], [-73.070564, 42.145806], [-73.070295, 42.14491699999999], [-73.07213, 42.143547999999996], [-73.070546, 42.140159999999995], [-73.070106, 42.139576000000005], [-73.069182, 42.138967], [-73.0688, 42.138363999999996], [-73.068941, 42.137747], [-73.068581, 42.136945], [-73.0685, 42.13549799999999], [-73.069442, 42.13498599999999], [-73.06983, 42.13345799999999], [-73.069686, 42.13224999999999], [-73.069285, 42.130869], [-73.068426, 42.129541], [-73.067797, 42.12785499999999], [-73.067206, 42.127351], [-73.066668, 42.125999000000014], [-73.066672, 42.12505600000001], [-73.06621, 42.12418799999999], [-73.06426, 42.122775], [-73.06321, 42.121263000000006], [-73.061764, 42.119917], [-73.061094, 42.11869999999999], [-73.061206, 42.118112], [-73.061517, 42.117580000000004], [-73.063213, 42.115933000000005], [-73.065745, 42.11477800000001], [-73.069227, 42.11392600000001], [-73.070979, 42.113127], [-73.072377, 42.11198000000001], [-73.072934, 42.111247000000006], [-73.073092, 42.110783999999995], [-73.072897, 42.110335000000006], [-73.071837, 42.10935599999999], [-73.071867, 42.10816299999997], [-73.072254, 42.107528000000016], [-73.072889, 42.10701699999999], [-73.074807, 42.10618100000001], [-73.075086, 42.10536500000003], [-73.074167, 42.10186699999999], [-73.073082, 42.094184999999996], [-73.061805, 42.070637999999995], [-73.060878, 42.069959000000004], [-73.060051, 42.068667000000005], [-73.058556, 42.06770999999999], [-73.058236, 42.067129], [-73.058153, 42.066753], [-73.058342, 42.066254000000015], [-73.059193, 42.06547200000001], [-73.060502, 42.06376399999999], [-73.061666, 42.06217999999998], [-73.061698, 42.061745], [-73.06071, 42.06100500000001], [-73.058248, 42.05959099999998], [-73.056492, 42.05903100000002], [-73.055623, 42.058575], [-73.054899, 42.05793899999999], [-73.054303, 42.056918], [-73.053899, 42.055276], [-73.053995, 42.054589], [-73.055396, 42.050278000000006], [-73.056453, 42.04831400000001], [-73.056549, 42.047419], [-73.056311, 42.046295], [-73.055807, 42.04504700000001], [-73.053288, 42.039865000000006], [-73.129412, 42.04221199999999], [-73.233362, 42.045055], [-73.340723, 42.048365000000004], [-73.426168, 42.05042600000001], [-73.436758, 42.05051100000001], [-73.487319, 42.049525], [-73.497018, 42.049624], [-73.50821, 42.08613400000002]]]}}