{"type": "Feature", "properties": {"district_name": "5th Worcester", "chamber": "house", "vintage": "2001-2010"}, "geometry": {"type": "Polygon", "coordinates": [[[-72.00134190895827, 42.546716044815994], [-72.09953405410528, 42.484530893484305], [-72.00718899023902, 42.42117189108947], [-72.03522395336567, 42.40388327975554], [-72.05503897657748, 42.39145208051293], [-72.11350809166747, 42.356691754088395], [-72.04177697591045, 42.30820505367286], [-72.00728094659691, 42.309019736022044], [-71.99895301817905, 42.30976800432343], [-71.98409502495859, 42.31029914597835], [-71.9843189844539, 42.30818699265943], [-71.9854390632042, 42.306731094997126], [-71.98630292365766, 42.30412274741735], [-71.9876149418726, 42.30351510899568], [-71.98867090326019, 42.30359502648289], [-71.98990290401564, 42.3034029672665], [-71.99057506315556, 42.302666918789214], [-71.99071900718812, 42.2997712579596], [-71.99135897415044, 42.298874970307295], [-71.9924309477905, 42.298170960901835], [-71.99374296578021, 42.29756325098689], [-71.99547101126696, 42.29593076021832], [-71.99951901698391, 42.29373223977627], [-72.00069205626569, 42.29172000776198], [-71.99951905990159, 42.291480905829886], [-71.99812706659816, 42.29095521074251], [-71.99651091815944, 42.28972315973851], [-71.99511905207589, 42.28225098736531], [-71.99457497574325, 42.275530833501435], [-71.994334936849, 42.27460286456673], [-71.99331103193079, 42.27261926625761], [-71.99257505194117, 42.26919506169365], [-71.99254295416324, 42.268283067804944], [-71.99273498582184, 42.26740275755934], [-71.99367895366547, 42.265387066576594], [-71.99369498643462, 42.26404272490354], [-71.99350291611897, 42.263162928881314], [-71.99257504519548, 42.261131083141215], [-71.99267104628402, 42.26015495825208], [-71.99228709340476, 42.25826707493162], [-71.99143890584217, 42.25589895224376], [-71.99132690653518, 42.255130789591114], [-71.99305493368934, 42.25351519772109], [-71.99343897994436, 42.25201227535794], [-71.99407897303858, 42.250844175052464], [-71.99444709350567, 42.250507790567774], [-71.99508708055572, 42.25046001680859], [-71.99571100924446, 42.2471481028727], [-71.994975056564, 42.243996242769], [-71.99374304638052, 42.243963843190116], [-71.9932470331378, 42.241436090318956], [-71.99219104853591, 42.24156385811483], [-71.9907510550719, 42.23828387243482], [-71.98867104200696, 42.23655626275369], [-71.98835094980095, 42.236092269846544], [-71.98814305855704, 42.23458794294565], [-71.9874710824235, 42.23284418548041], [-71.98739107479332, 42.231819848156604], [-71.98774298959756, 42.22911627758899], [-71.98812693886913, 42.22354787447037], [-71.98793504751472, 42.22212393729696], [-71.98676709542096, 42.22071595615363], [-71.98519798579885, 42.2198042768151], [-71.98308604641635, 42.21999606890421], [-71.98247799237531, 42.21990015032418], [-71.98191790579145, 42.219515934282114], [-71.97982209579156, 42.217788228246334], [-71.97852604216656, 42.21542017595571], [-71.97802998861381, 42.21481227774978], [-71.97638193844678, 42.21353223437704], [-71.97554993599549, 42.2123799013892], [-71.97415803265638, 42.21201202962279], [-71.9738060136288, 42.211195886162834], [-71.97314995317204, 42.21033203643031], [-71.97241402764425, 42.20804375638704], [-71.97215805401073, 42.20540518089978], [-71.97105396615038, 42.204637137079615], [-71.97190205980469, 42.20423694364737], [-71.97292607093273, 42.20314896644047], [-71.97482998811644, 42.202940780570316], [-71.97521403343225, 42.20159715452935], [-71.97446200772568, 42.1978847509942], [-71.974846002169, 42.19628509170148], [-71.97428605787746, 42.19462125520267], [-71.97423791318566, 42.191420809767095], [-71.97401406887715, 42.19078081368023], [-71.97313390540391, 42.18982110292928], [-71.97340592396027, 42.18890897121041], [-71.97467004837048, 42.187436778669785], [-71.97486195108843, 42.18689298154908], [-71.9976310159061, 42.18529290679011], [-71.99879895956676, 42.1854048753016], [-71.99951894867334, 42.18529426090572], [-71.99951894469201, 42.18517384249907], [-72.01975904024704, 42.183942737433895], [-72.03034199090573, 42.24533788425706], [-72.0385659447697, 42.24439702807494], [-72.0446549788294, 42.229971069459445], [-72.06816491600348, 42.231160874072465], [-72.06902090689253, 42.23097487635976], [-72.07049801734624, 42.23117293394773], [-72.07307297013816, 42.23205817692274], [-72.07336701121865, 42.230517157369526], [-72.07312103264229, 42.22989997253301], [-72.07238307135805, 42.229465873557174], [-72.07272107773441, 42.22914626543149], [-72.07287503125683, 42.22873415767869], [-72.07302908661389, 42.226470769339315], [-72.07355107258387, 42.2249387378214], [-72.07309003857358, 42.22299577532079], [-72.07324406671083, 42.22219596877021], [-72.07370492198396, 42.221464970613816], [-72.07382803223025, 42.22059610066182], [-72.07435005354262, 42.22018384158779], [-72.07475007855464, 42.22009293167457], [-72.0753650191969, 42.22038977496861], [-72.07564194854936, 42.22020719585954], [-72.07576498280056, 42.21952120675016], [-72.07647197286671, 42.218743936375176], [-72.07690296114002, 42.21766982586798], [-72.07902403410512, 42.21540607883477], [-72.07905497434467, 42.21485784968948], [-72.07921007646269, 42.214683187008696], [-72.06041298389637, 42.20309706954337], [-72.07045702346409, 42.18429823219811], [-72.0700030895328, 42.18272210340487], [-72.07176405179405, 42.18125480287486], [-72.07197908334568, 42.181231780530325], [-72.0738540770436, 42.17851804591317], [-72.07437707652194, 42.17605809151497], [-72.07354002143553, 42.17453284379648], [-72.07191291056773, 42.17267503423397], [-72.07172891828114, 42.17120728608912], [-72.07244604515388, 42.16930175721091], [-72.08947493176832, 42.16724205061878], [-72.08680103072004, 42.154478899401326], [-72.1087290285551, 42.15170912420196], [-72.11138405887277, 42.16440380040936], [-72.13005604021598, 42.16251610608637], [-72.13479994237812, 42.16173421136459], [-72.14184299174772, 42.160898197034136], [-72.15387399651419, 42.20708215329203], [-72.16997900850203, 42.232370137929735], [-72.17080809223393, 42.23310075633426], [-72.17102292788158, 42.23424404417477], [-72.17326904288447, 42.23515878798611], [-72.17495992923206, 42.23653086249848], [-72.1768370936189, 42.23691989687549], [-72.17729809084521, 42.23717095336548], [-72.17815908159852, 42.239366049020134], [-72.17880396686033, 42.24274972410831], [-72.17963406114079, 42.24565287282742], [-72.17991203623812, 42.24625613917347], [-72.18119294533912, 42.24604878079085], [-72.18208000895454, 42.24784586231616], [-72.1826050309339, 42.251306752276555], [-72.21116708734648, 42.25112324947302], [-72.21131592070469, 42.25196694478974], [-72.21127490355305, 42.25563491570303], [-72.21613806074902, 42.256143757771255], [-72.21667500085505, 42.260101855529314], [-72.21690791154471, 42.26036824936977], [-72.21813894619794, 42.26125920186558], [-72.21961703179701, 42.26198990129273], [-72.22220201714757, 42.26292689523153], [-72.22284804092104, 42.26281310721953], [-72.22395603372689, 42.2620577284998], [-72.22441899116114, 42.262148776065004], [-72.22650991940111, 42.26052510148527], [-72.22909493196835, 42.25993025459079], [-72.23011006088129, 42.25954116401243], [-72.2319869420149, 42.25837398239307], [-72.23312592648426, 42.2589221024624], [-72.23352607318569, 42.25949407469606], [-72.23438896524407, 42.26015592886311], [-72.23509698366318, 42.26036185053013], [-72.23666605794537, 42.260041180566326], [-72.23682006571028, 42.26033785968595], [-72.23755898924608, 42.26049799317351], [-72.24125290174855, 42.261959751983156], [-72.24165200585553, 42.26054196289141], [-72.2418670845228, 42.26024515687965], [-72.24476000514268, 42.2604031193691], [-72.24759105470126, 42.259922176516596], [-72.24802194635919, 42.25967008640502], [-72.24952392053882, 42.25936825112499], [-72.25182990358358, 42.259506789746354], [-72.25315308581018, 42.25987288142243], [-72.25157691318879, 42.265702168495366], [-72.25089999187868, 42.266067854685446], [-72.25019091203079, 42.26698182318198], [-72.24984602065207, 42.267781993663036], [-72.2495239157592, 42.26793208375753], [-72.24870604487485, 42.267625121390495], [-72.24818300617932, 42.26764878772051], [-72.2478450810832, 42.2681748640212], [-72.24750901920747, 42.27052973120104], [-72.24729793309726, 42.275468285617706], [-72.24677597151945, 42.276794038401206], [-72.2465609437697, 42.27802888624466], [-72.24570102319275, 42.27930899499688], [-72.24496401054314, 42.28161918378193], [-72.24499807304281, 42.28548192463174], [-72.2444160488168, 42.289300272969314], [-72.24404803406577, 42.2903740450511], [-72.24404903060748, 42.29181399254074], [-72.24525293384002, 42.29512895682098], [-72.24525392999467, 42.29590603889057], [-72.24451704587804, 42.29853583005077], [-72.24470503844542, 42.30246790238965], [-72.2445210046568, 42.30306218320403], [-72.24381308049132, 42.30390800331225], [-72.2438140724386, 42.30468621831551], [-72.24471009763582, 42.3060719720214], [-72.26153706352797, 42.303296164773414], [-72.2619780386123, 42.30526382752625], [-72.26968104919465, 42.30306576928432], [-72.27463891279749, 42.3019627554999], [-72.27595906375574, 42.30847726851212], [-72.27759193695081, 42.308054898823826], [-72.27916991147882, 42.30790128318674], [-72.28080395125012, 42.30829927279293], [-72.28191191627157, 42.30889777545434], [-72.28319691477863, 42.30986418570397], [-72.28392507300526, 42.31012313317514], [-72.28444291480805, 42.31009709122722], [-72.28489192614818, 42.307162895791], [-72.28489292032675, 42.306249057396776], [-72.28449306312048, 42.30538016358672], [-72.28449292007649, 42.30414502392277], [-72.28474000265066, 42.30279622201033], [-72.28618805662268, 42.302660277212894], [-72.28686497424707, 42.303163203200334], [-72.28822099584693, 42.30304924582171], [-72.29077701827522, 42.30330122326253], [-72.29234801513896, 42.30284417096386], [-72.29293307479621, 42.30245524461509], [-72.29358007577125, 42.30170125438878], [-72.29447394076382, 42.298179860045046], [-72.30204997212685, 42.29710703127487], [-72.30318907382605, 42.29742713587008], [-72.30386706601296, 42.29738075381692], [-72.30445204196603, 42.29674080100845], [-72.30611502289895, 42.29392911573646], [-72.30814798583293, 42.29393002151821], [-72.30851700659161, 42.29429487730206], [-72.30888702375644, 42.29440987394339], [-72.30891706136278, 42.29553001664168], [-72.3094410093347, 42.29802192673227], [-72.31027196043779, 42.299874126839505], [-72.31153399692565, 42.30179417761338], [-72.31310490945533, 42.30369177153497], [-72.31341306085471, 42.30435527649967], [-72.31446005855888, 42.30579514028427], [-72.31482994233853, 42.30606992755168], [-72.31550703997367, 42.30618385958891], [-72.31683203510505, 42.306733211040466], [-72.3184020438827, 42.30698426086543], [-72.32074292560975, 42.3068471455455], [-72.32366904374406, 42.306388989592286], [-72.32487009091133, 42.306481094039064], [-72.32576293017183, 42.306846067697784], [-72.32761302923896, 42.308469108622], [-72.32955305600372, 42.30981799534334], [-72.3311860855113, 42.31029800062088], [-72.33232491142763, 42.31020591892022], [-72.33478891396766, 42.30945202495799], [-72.33559001378808, 42.30890318569279], [-72.33592893505825, 42.308491069883765], [-72.33595893566509, 42.308193742236384], [-72.336175112218, 42.30810213621408], [-72.33669801308494, 42.307004994128505], [-72.3370981148189, 42.305473199276236], [-72.33709704271783, 42.30423806823203], [-72.33678896885739, 42.30323306527351], [-72.3371890454218, 42.30037497034888], [-72.33832704786835, 42.297974036455486], [-72.33888097687635, 42.297218772739555], [-72.34005101125865, 42.29621310363637], [-72.34131298922989, 42.29477177924611], [-72.34125105087887, 42.2937672342292], [-72.34075798758407, 42.29328691376377], [-72.33863299204594, 42.292394791301135], [-72.33724712205415, 42.291253038595485], [-72.3370929715907, 42.29052094725023], [-72.3382310459929, 42.28912613250265], [-72.33826197240943, 42.28859977786412], [-72.33736901169729, 42.28750281244631], [-72.33739903629849, 42.28606318197702], [-72.33903101954873, 42.28569676592643], [-72.33912303961074, 42.28587897900216], [-72.34004698887124, 42.286154139026586], [-72.34097001675484, 42.28603878662553], [-72.3428481113349, 42.2844151028752], [-72.34451100959612, 42.28245985384104], [-72.34556703677879, 42.28312226871544], [-72.34679011345048, 42.28361013668072], [-72.34808698640535, 42.28364501839364], [-72.34979298493654, 42.28418724270575], [-72.35056497423015, 42.28462888850134], [-72.35087198747341, 42.28527823389456], [-72.35079499536768, 42.285865148816995], [-72.35021398060704, 42.28701906407483], [-72.35028302716835, 42.287674115300966], [-72.34878804786958, 42.290995032930454], [-72.3488049869671, 42.292152964896225], [-72.34858188757634, 42.29346910319988], [-72.34866896616857, 42.29440986877669], [-72.34876904275242, 42.294553183120904], [-72.35029002986022, 42.294665732150854], [-72.35089386280556, 42.29505685090922], [-72.35261200177598, 42.2956321400185], [-72.35268595692662, 42.29596021364106], [-72.35237501175696, 42.297149280156546], [-72.35202704700563, 42.29775114233293], [-72.35168395247612, 42.29802491214928], [-72.35082399126911, 42.29821979591818], [-72.35070803160181, 42.29839621990218], [-72.35183597780053, 42.29843006128551], [-72.35242101046056, 42.29856809221387], [-72.35281202302562, 42.2988482288427], [-72.354526035347, 42.29895422970724], [-72.35485998364865, 42.29922522227562], [-72.35489594639012, 42.299846185934996], [-72.35466403414145, 42.30103578620516], [-72.35359503505038, 42.30232108273538], [-72.3547160087095, 42.30285014115422], [-72.35569604725724, 42.30298295676076], [-72.35594209871512, 42.30340090507526], [-72.35485198160826, 42.305075206188675], [-72.35401699886958, 42.30576510176038], [-72.35231602856632, 42.30628923792115], [-72.35196599739429, 42.30635373166806], [-72.35159992157236, 42.305915281878534], [-72.35174504565886, 42.30448886085575], [-72.35149500431446, 42.30389874452114], [-72.35074887894628, 42.303961109422296], [-72.34989404384461, 42.30451607190523], [-72.3495550034324, 42.30528611352872], [-72.34979001537032, 42.30616895332705], [-72.35019703717276, 42.30687720581666], [-72.35085498885203, 42.30739397087976], [-72.35123804757758, 42.30743895953807], [-72.3519549789986, 42.307042001277324], [-72.3524289873432, 42.3070711229751], [-72.35277397730708, 42.30739212504304], [-72.35260002951112, 42.30767589544216], [-72.35196502214504, 42.30787305154539], [-72.35014605903676, 42.30802720040273], [-72.34966799419321, 42.30828282955022], [-72.34961813060359, 42.30858480977065], [-72.34986403059895, 42.308746176730956], [-72.3508000112476, 42.30879607957038], [-72.3514630793944, 42.309741019589296], [-72.35145800356575, 42.310067995065104], [-72.3509580393875, 42.31031591374641], [-72.35032600290191, 42.31027782655003], [-72.34894296592859, 42.30920877854515], [-72.34840200566111, 42.30911316996069], [-72.34631597289396, 42.30975090712741], [-72.34520095705558, 42.311034776176406], [-72.34447500092811, 42.31128095206093], [-72.34359701832676, 42.31188724668653], [-72.34239899110474, 42.314168804420234], [-72.34198904537011, 42.31443515551409], [-72.34016001853178, 42.314462046541216], [-72.33911192246387, 42.31430314291762], [-72.33793600664369, 42.31446197015815], [-72.33692497513748, 42.314848034498475], [-72.33500098320513, 42.31522778903575], [-72.33492807151598, 42.31556313352223], [-72.33515691462692, 42.316084787563916], [-72.33468194675783, 42.31687883582343], [-72.33480493033728, 42.31765222611521], [-72.33377008064913, 42.31816392285865], [-72.33319302394932, 42.319023987817594], [-72.33085704613534, 42.31966887831353], [-72.32950194971173, 42.31971693050642], [-72.32888406830033, 42.31947717417056], [-72.32884306779388, 42.31850286395664], [-72.32812709749734, 42.31879106149675], [-72.32734395409788, 42.31980000992336], [-72.32716099873052, 42.32069715352147], [-72.32735102901958, 42.321530272957574], [-72.32722509509667, 42.32241012467092], [-72.32739997468884, 42.32347687983187], [-72.32826694127749, 42.325104172168764], [-72.32833591994901, 42.32576822481968], [-72.32803207289933, 42.326395016191455], [-72.32739402587536, 42.326791820315414], [-72.3269089424368, 42.32673791517119], [-72.32649909111245, 42.32623105268413], [-72.32644795572209, 42.32518984977141], [-72.32633609929141, 42.32513100729625], [-72.32588398785728, 42.32517702227113], [-72.32475404417829, 42.32595716614332], [-72.32457997329837, 42.32621613362864], [-72.32474102364903, 42.3268052595146], [-72.3261200391863, 42.328141903519864], [-72.3260789763182, 42.32862781684499], [-72.32571097868399, 42.329062050440506], [-72.32498503837378, 42.33067603785815], [-72.3246429800381, 42.330891752475246], [-72.32308406452695, 42.330972142310145], [-72.32258400783077, 42.331168724590654], [-72.32238595835045, 42.332283736457725], [-72.323075060943, 42.33297711506809], [-72.32317005034388, 42.33341478537821], [-72.32306106671291, 42.33388373491982], [-72.3219689300969, 42.33515087882263], [-72.32004791512263, 42.33666307142465], [-72.31994004481257, 42.33707405565118], [-72.31813397351749, 42.339198740668834], [-72.31749409037378, 42.33968890902868], [-72.31685897650578, 42.33984422751385], [-72.31564693876877, 42.33938916614856], [-72.31517192622292, 42.339402096613284], [-72.31478196986926, 42.33977681151062], [-72.31460591110066, 42.34093384902574], [-72.31484105990418, 42.34321675202565], [-72.31454808598048, 42.343895195331115], [-72.3141259602483, 42.3442189249744], [-72.31408109786798, 42.34487310172205], [-72.31441195849658, 42.34753627008303], [-72.31415299532212, 42.348927975493545], [-72.31315304799809, 42.35006889785717], [-72.31203601272829, 42.35216721965344], [-72.31218206558364, 42.35290726903962], [-72.3125499278126, 42.35321190464423], [-72.31258693996664, 42.353715822541055], [-72.31379399468527, 42.35453107992732], [-72.31357907761858, 42.35531025223264], [-72.31306508761276, 42.3556498148714], [-72.31299198537779, 42.35596881989675], [-72.31363601001547, 42.356728978852274], [-72.31371292892484, 42.35757698602057], [-72.31346297556277, 42.358405922971876], [-72.31310608482241, 42.358780954024965], [-72.31253205073526, 42.35870116442859], [-72.31244697471901, 42.35833882873123], [-72.31210202401134, 42.35803403114684], [-72.31163599533708, 42.358181930423626], [-72.31147304533435, 42.358490881509475], [-72.31144705211415, 42.35872627332735], [-72.31208594130634, 42.35972111797108], [-72.31201399506422, 42.36073616845769], [-72.31285007105465, 42.362135885053995], [-72.31266194218124, 42.362654897745564], [-72.31063401804255, 42.36373777886236], [-72.31036700907481, 42.36417293856819], [-72.31035000242386, 42.36453318559477], [-72.31064995706302, 42.36486306407549], [-72.31075296714715, 42.36548524092124], [-72.31100802527084, 42.365788992578516], [-72.31157193457082, 42.36584409379407], [-72.31190796667967, 42.36605724029954], [-72.31239808705632, 42.36721912376202], [-72.31276796042265, 42.36740726999507], [-72.31325208697847, 42.36891300521411], [-72.31416095968842, 42.369339853291976], [-72.31483100902041, 42.36911903237307], [-72.31533702865211, 42.3692572465768], [-72.31563098670618, 42.36995628471305], [-72.31505594526074, 42.36990915082029], [-72.31496001608237, 42.3702530765031], [-72.31431992280979, 42.370708893816364], [-72.31448090442035, 42.37124794428195], [-72.31435404837808, 42.37141484290204], [-72.3117509033192, 42.37170389610474], [-72.31159005936368, 42.37185415051371], [-72.31180205035483, 42.372023147548184], [-72.3116290340557, 42.3722742063109], [-72.31130298615956, 42.37216228325658], [-72.31107302986149, 42.37241205015017], [-72.31115502862586, 42.372933097254226], [-72.31198892027805, 42.37379601913416], [-72.31309990949407, 42.37360303939549], [-72.31308490872576, 42.37383779488377], [-72.31223208733414, 42.37417581139796], [-72.31264597678927, 42.37440527782893], [-72.31239503964753, 42.37458823892474], [-72.31294401070174, 42.37552575812206], [-72.31206591180879, 42.37645309136855], [-72.31252509405648, 42.37670700616134], [-72.31343593365283, 42.37688006507745], [-72.31372393850354, 42.37729274065001], [-72.31352801660941, 42.37771108052401], [-72.31240306647463, 42.378476987970856], [-72.31248796688814, 42.37889728577667], [-72.31320195719795, 42.37863283305817], [-72.31368898063667, 42.379382278035116], [-72.31325796145126, 42.37956483067386], [-72.3138579326483, 42.38034779634151], [-72.31371591084348, 42.38095988977844], [-72.31446207092458, 42.38170299651875], [-72.31425407907989, 42.38217207429922], [-72.31359095137802, 42.382042276732115], [-72.3131380056905, 42.382173773842005], [-72.31298707875342, 42.38260980945905], [-72.31334402119505, 42.38286275080825], [-72.3139749557984, 42.38290893130998], [-72.31399600003118, 42.3830258233104], [-72.31342990374132, 42.383299921533364], [-72.31304899118139, 42.38307190850332], [-72.31275404340006, 42.38321297406099], [-72.31186297674385, 42.38430696206478], [-72.31190507700894, 42.384526116521705], [-72.3123210358274, 42.38464584817297], [-72.31145396974378, 42.38549713647814], [-72.31093306032184, 42.3857461446945], [-72.31093094721861, 42.38592227894476], [-72.31166901867937, 42.386388055519966], [-72.3117339776905, 42.386614926420556], [-72.31132892608912, 42.38662115959978], [-72.31054297623619, 42.3862980847532], [-72.31040699750326, 42.386363748156874], [-72.31050695301973, 42.386508219607435], [-72.3114160532296, 42.38689007202983], [-72.3100580973766, 42.38736105142142], [-72.31190495913134, 42.38840421826058], [-72.31273593927548, 42.38868475912545], [-72.31361795477193, 42.38947924607447], [-72.3137229648464, 42.39007496090937], [-72.31356395763326, 42.390208881482195], [-72.31314803303914, 42.3901392293696], [-72.31270296765231, 42.389574051248346], [-72.31243195896187, 42.38969019685357], [-72.3127209764509, 42.38998581724656], [-72.312669951295, 42.39048922748201], [-72.31289006272449, 42.390959778688995], [-72.31393904336838, 42.39092422834553], [-72.31460898923875, 42.391473179719476], [-72.31451392269862, 42.39190093409313], [-72.31367407554586, 42.39236603552985], [-72.3135700849172, 42.39261717476463], [-72.31368996300716, 42.3929370634273], [-72.31599393532453, 42.39454411936195], [-72.31596990250843, 42.39471197295265], [-72.31556094161343, 42.39491913504368], [-72.31512405696232, 42.39469883617463], [-72.31477404898533, 42.394739020081346], [-72.31451994132124, 42.39530013794317], [-72.31485690894347, 42.395410849451046], [-72.31543303901644, 42.39528804407975], [-72.31549808999124, 42.39549015331123], [-72.31359396535983, 42.39641913195044], [-72.31404091976079, 42.39677384490817], [-72.31414504449043, 42.3975051786464], [-72.31473990636874, 42.39775980808631], [-72.3144889259127, 42.39801873173173], [-72.31518900201344, 42.398837001344084], [-72.31497306807492, 42.3990039629843], [-72.31415008264214, 42.39901597351032], [-72.3140129842127, 42.39921726260579], [-72.31411693118656, 42.39990526526388], [-72.31363198719832, 42.39991994881429], [-72.31357108412305, 42.400363782516166], [-72.31333193937796, 42.40055623078101], [-72.31405509863063, 42.401382212470025], [-72.31409709027682, 42.40165088323895], [-72.31398200296401, 42.40191110380541], [-72.31373303860354, 42.40196013076318], [-72.31297101961209, 42.40159526365025], [-72.31327190750754, 42.40186491445406], [-72.31341207730739, 42.40240298470606], [-72.31320598883097, 42.40268691352765], [-72.31334802166327, 42.40307416863133], [-72.31275002312368, 42.403095841356155], [-72.31262399491892, 42.40328804722772], [-72.31268494256005, 42.403909956203485], [-72.31297399633317, 42.40418813618104], [-72.31294906140107, 42.40444827681821], [-72.3134070634222, 42.404786033093494], [-72.31309800715205, 42.405196165376196], [-72.31373199270878, 42.405963141992814], [-72.3137150785555, 42.40644886158633], [-72.3134779755338, 42.40650624885324], [-72.31309695101673, 42.406236030510485], [-72.31267292176159, 42.40688781541521], [-72.31196000624787, 42.407068965645244], [-72.3114250630212, 42.40756903376594], [-72.31047496933694, 42.40777379611016], [-72.30998196746675, 42.408526773810756], [-72.30998003396955, 42.40862807215182], [-72.310704911466, 42.40837088209872], [-72.31089309141629, 42.40871617535144], [-72.31044607337213, 42.409310151481], [-72.31034004915485, 42.41063491866028], [-72.30993208179311, 42.41082572952775], [-72.30926694376635, 42.410814085457254], [-72.30866309086372, 42.41134782776192], [-72.30870494877466, 42.41166714300932], [-72.30929208473749, 42.411561164425706], [-72.30949198624005, 42.41181409573315], [-72.30872509998446, 42.412826147759276], [-72.30892296539946, 42.41426975102399], [-72.30864801304965, 42.41462111024975], [-72.30767902038309, 42.41457389511313], [-72.3073819841458, 42.41489108647891], [-72.30739905465438, 42.415395138703964], [-72.30801407698999, 42.41583479153566], [-72.30800101988869, 42.41598624279769], [-72.3069499641796, 42.416130912606015], [-72.30658694687423, 42.416321963117795], [-72.30706193644286, 42.41719811643078], [-72.30604992510173, 42.41788888202192], [-72.30665804786861, 42.418991998908645], [-72.30671904268094, 42.41954581792445], [-72.30628391079578, 42.42011380844186], [-72.30552000223271, 42.41986707072776], [-72.3053039628965, 42.41995805464133], [-72.30514096292211, 42.42042678660049], [-72.3049599338741, 42.4204342466941], [-72.30463909078763, 42.41992894240486], [-72.30418596081023, 42.42012792528146], [-72.30210892887942, 42.42031009820946], [-72.30214606587275, 42.42094793086627], [-72.3018300505178, 42.42097094748844], [-72.30172601737515, 42.42125583539414], [-72.3013280478792, 42.42147973923917], [-72.30159601910721, 42.42172489933272], [-72.3015270557977, 42.42182609663952], [-72.30112094922022, 42.421857057985534], [-72.30085804895326, 42.42213179664423], [-72.3012969126608, 42.423142143901785], [-72.30130395241612, 42.423502783969845], [-72.30247303030792, 42.423895276374175], [-72.30243291182191, 42.42439915940982], [-72.30181490915503, 42.42417726378856], [-72.30036800737356, 42.42447092791538], [-72.3002740053811, 42.424814822408706], [-72.3004370369581, 42.425378071715784], [-72.30032297100433, 42.425486901217795], [-72.29949903551466, 42.42548193038161], [-72.29883894818782, 42.42603176353004], [-72.29727798858403, 42.42641001592717], [-72.297219943778, 42.426534776815], [-72.29784791926953, 42.426824150679735], [-72.29776805347595, 42.42695017943037], [-72.2961480247887, 42.42757022382871], [-72.29543799718444, 42.42845574505236], [-72.29471094303946, 42.42887996492311], [-72.29393401381256, 42.429747932061865], [-72.29285305044246, 42.42961695947833], [-72.29213893360398, 42.42986383116505], [-72.29196705877676, 42.43014916696367], [-72.2922859325699, 42.43080476094535], [-72.2919309158437, 42.43126523204039], [-72.29206194789379, 42.43158393791983], [-72.29155099532844, 42.43189186181847], [-72.29130897125937, 42.432369001794434], [-72.2912900383571, 42.432965014563024], [-72.2913979647012, 42.43339416678998], [-72.2921269982808, 42.4337588444576], [-72.29192105438271, 42.43400896934904], [-72.29115297435902, 42.43403000471523], [-72.29068893307641, 42.43324711210024], [-72.29022799738054, 42.4331518105127], [-72.29007805634042, 42.433385792466176], [-72.2899279381435, 42.43466918448915], [-72.28890297244062, 42.435485924162286], [-72.28920293999109, 42.4358738068568], [-72.28917697875227, 42.436091749525204], [-72.28993197990226, 42.43622217581294], [-72.29003994871661, 42.43655004482848], [-72.29074594812904, 42.436998725185546], [-72.29083395196494, 42.437201255640566], [-72.29065002048333, 42.43745178493896], [-72.28959102881525, 42.437311069062815], [-72.28823694753297, 42.43737098811659], [-72.2876650658347, 42.43710706210647], [-72.28747302378746, 42.437165202551355], [-72.28720890741307, 42.43755020325498], [-72.28753806247381, 42.43831489119839], [-72.28721797322336, 42.43867382376538], [-72.28653496581772, 42.439141020058656], [-72.28641898120893, 42.43945016486853], [-72.28503591405249, 42.439963211538235], [-72.28369498420233, 42.44081187423042], [-72.28340802669595, 42.44119588667431], [-72.29142395133263, 42.47949478562076], [-72.27060893963866, 42.49467686106315], [-72.26281305243472, 42.50008822028739], [-72.24495207754164, 42.513552257436814], [-72.19618294303532, 42.54871381568143], [-72.18583396170261, 42.5502308603815], [-72.17548606169134, 42.58985207699162], [-72.167561049188, 42.58483988373213], [-72.16323901164868, 42.58868693078861], [-72.16558193616953, 42.59024720310916], [-72.16067098845598, 42.595078812016794], [-72.1601639322163, 42.59638201606494], [-72.15735001835331, 42.59919390534501], [-72.15796091134617, 42.60007886310984], [-72.15896408288188, 42.599511044236586], [-72.16160899357858, 42.60082603554161], [-72.1635540587209, 42.59828798985628], [-72.16802793817692, 42.599868009876964], [-72.17097506645409, 42.59675180770301], [-72.15836507720624, 42.61687684393663], [-72.15848702222351, 42.617028064898875], [-72.15842498995337, 42.61741609076286], [-72.15814605156606, 42.61798821045225], [-72.157094077093, 42.618307035543545], [-72.15539002125536, 42.61974698055641], [-72.15483196373154, 42.620478217785006], [-72.154646010426, 42.620911946773525], [-72.15486200740645, 42.62285581354834], [-72.15464394868954, 42.62370102687848], [-72.13909403637096, 42.62376617039508], [-72.1164579151586, 42.626582046748595], [-72.07574290644587, 42.62546714468005], [-72.05318003529091, 42.60769984001107], [-72.03603994534897, 42.593870855257975], [-72.04185301485731, 42.59184011065532], [-72.04145007435945, 42.59147177662381], [-72.04135793447509, 42.59076326775766], [-72.04182199539245, 42.58984903654203], [-72.04182197968257, 42.58907200986083], [-72.04145103898763, 42.58863713247362], [-72.04064702519365, 42.58820315776863], [-72.03962605024105, 42.58795080775124], [-72.03934807465572, 42.587745050971925], [-72.03919408442755, 42.58694511191584], [-72.03873009414566, 42.58651122743294], [-72.03872996182382, 42.5859170672307], [-72.03916403790039, 42.585368142317364], [-72.04105102856884, 42.58470606842761], [-72.04182408742096, 42.58415723615053], [-72.04182395272167, 42.58367673129295], [-72.04132997341955, 42.58278723977576], [-72.0414850105395, 42.581711845198136], [-72.04139299014633, 42.580683746775804], [-72.0418880472826, 42.579929160433345], [-72.04160894958733, 42.579654770291924], [-72.03978392955678, 42.578512131084445], [-72.03808292510935, 42.57848912367488], [-72.03743402647801, 42.57823726963129], [-72.03731002214944, 42.57773426755239], [-72.03805297912633, 42.577299813519396], [-72.03786698669954, 42.57709419106192], [-72.03662991886986, 42.57746004811067], [-72.03588696627286, 42.57800814890055], [-72.03560898837958, 42.578533832316594], [-72.03539205514588, 42.57997410598509], [-72.0348659731087, 42.58004181295145], [-72.03430902902159, 42.57990485465298], [-72.03171207075097, 42.57812085894717], [-72.03171201785071, 42.577640911367816], [-72.03248599421788, 42.57677310718997], [-72.03254798483276, 42.576384032010374], [-72.03205309500166, 42.575927189203185], [-72.03087798902524, 42.57565183199937], [-72.0311260859791, 42.574691928431164], [-72.03078593487606, 42.57421186166296], [-72.02908598784634, 42.57405087161285], [-72.02599405500459, 42.5732052704834], [-72.02447798261323, 42.57331794953289], [-72.023549994656, 42.57359223707056], [-72.02237398133181, 42.574574900087995], [-72.01965193911083, 42.57560221569641], [-72.01918804815485, 42.57633406021199], [-72.01875409081585, 42.576585271445275], [-72.01794994290982, 42.57665302565627], [-72.0175169691793, 42.576515988208335], [-72.01723893156802, 42.57621790323712], [-72.01662192185046, 42.57457209314537], [-72.0159420006823, 42.57400122848189], [-72.01594206327682, 42.57352072219952], [-72.01736602519773, 42.5718528355508], [-72.01866591318773, 42.57116674750999], [-72.01888293047833, 42.570618872243806], [-72.01860396661948, 42.57034499293237], [-72.0171510173584, 42.56990982550376], [-72.01637900345061, 42.5694519063568], [-72.0149600373189, 42.567930078525734], [-72.02704300650893, 42.56320380233634], [-72.00134190895827, 42.546716044815994]]]}}