{"type": "Feature", "properties": {"district_name": "14th Norfolk District", "chamber": "house", "vintage": "2022-present"}, "geometry": {"type": "MultiPolygon", "coordinates": [[[[-71.299888, 42.270361], [-71.298391, 42.271342], [-71.2976, 42.27236400000001], [-71.296687, 42.272622000000005], [-71.295653, 42.272484000000006], [-71.299745, 42.26961300000001], [-71.299888, 42.270361]]], [[[-71.335845, 42.393997000000006], [-71.334569, 42.396114], [-71.321524, 42.392683], [-71.319859, 42.392873999999985], [-71.318566, 42.39257499999999], [-71.317749, 42.392169], [-71.314613, 42.39321700000003], [-71.315244, 42.39348], [-71.313524, 42.39627999999998], [-71.312223, 42.395824], [-71.309941, 42.39963300000001], [-71.29952, 42.401274000000015], [-71.299578, 42.403764], [-71.299147, 42.405643999999995], [-71.299367, 42.405992], [-71.300412, 42.406656], [-71.301586, 42.408909999999985], [-71.30175, 42.40977600000001], [-71.29696, 42.41721700000001], [-71.296125, 42.41774900000002], [-71.295339, 42.41872399999998], [-71.294195, 42.419163999999995], [-71.292775, 42.42000399999999], [-71.29142, 42.42203399999999], [-71.291262, 42.42336699999999], [-71.294263, 42.423674], [-71.29753, 42.425053], [-71.303872, 42.425837999999985], [-71.303432, 42.42624599999999], [-71.3028, 42.427462], [-71.302489, 42.428351], [-71.302302, 42.429686000000004], [-71.30149, 42.431374000000005], [-71.300057, 42.433486], [-71.29999, 42.434599], [-71.300258, 42.43774100000001], [-71.299083, 42.439584999999994], [-71.298823, 42.440688], [-71.302864, 42.442935], [-71.309744, 42.446070999999996], [-71.314825, 42.44747399999999], [-71.32013, 42.44986599999999], [-71.313618, 42.455023], [-71.310931, 42.453594], [-71.309929, 42.453248], [-71.304804, 42.452759999999984], [-71.303191, 42.461254], [-71.302155, 42.461116000000025], [-71.302282, 42.46201000000001], [-71.29519, 42.46344600000001], [-71.29521, 42.463235000000005], [-71.289302, 42.46455700000003], [-71.289676, 42.466182], [-71.28294, 42.461170999999986], [-71.28184, 42.45964], [-71.280851, 42.460168], [-71.280711, 42.45999], [-71.28012100000001, 42.460059], [-71.279501, 42.459675999999995], [-71.277982, 42.46023499999999], [-71.277889, 42.460710000000006], [-71.272695, 42.459704], [-71.269018, 42.44049399999999], [-71.267962, 42.43716700000001], [-71.26615, 42.429916000000006], [-71.26723, 42.42443800000002], [-71.271765, 42.41677500000001], [-71.270859, 42.41649700000001], [-71.274421, 42.40987700000001], [-71.281416, 42.412180000000006], [-71.286031, 42.40409700000001], [-71.281205, 42.402691], [-71.282825, 42.399727999999996], [-71.279583, 42.39875200000002], [-71.27617200000002, 42.39291599999999], [-71.267761, 42.390141], [-71.276517, 42.37496500000001], [-71.275724, 42.374558000000015], [-71.27525, 42.37464299999999], [-71.274694, 42.374207999999996], [-71.273623, 42.373736], [-71.273608, 42.37344300000001], [-71.273262, 42.37327399999998], [-71.273012, 42.37281800000001], [-71.273038, 42.37249400000002], [-71.272378, 42.37217], [-71.272148, 42.37177700000001], [-71.272173, 42.37158800000002], [-71.272376, 42.37150799999999], [-71.271755, 42.371227], [-71.2717, 42.37103700000001], [-71.271877, 42.370786], [-71.27159, 42.37061399999999], [-71.270683, 42.369423000000005], [-71.270232, 42.36835799999999], [-71.270772, 42.367484], [-71.272711, 42.36686200000002], [-71.273142, 42.366558], [-71.273567, 42.365899], [-71.273423, 42.365236000000024], [-71.27127500000002, 42.36337300000003], [-71.269517, 42.362844], [-71.269308, 42.36263699999999], [-71.269181, 42.36057400000001], [-71.268917, 42.35988100000001], [-71.265999, 42.35633], [-71.264922, 42.355241], [-71.262889, 42.35422999999998], [-71.261209, 42.35368199999998], [-71.260385, 42.35363299999999], [-71.25914500000002, 42.35172399999999], [-71.25863100000001, 42.350052], [-71.258624, 42.349360999999995], [-71.258747, 42.349107999999994], [-71.259963, 42.34855700000001], [-71.260306, 42.348194], [-71.260432, 42.34761200000001], [-71.259881, 42.346804000000006], [-71.259718, 42.346284], [-71.260169, 42.345452999999985], [-71.261236, 42.34428200000001], [-71.261882, 42.34218799999999], [-71.261706, 42.34152799999999], [-71.261323, 42.34111499999999], [-71.260597, 42.34091399999999], [-71.258248, 42.341190000000005], [-71.256385, 42.340438], [-71.255885, 42.340111], [-71.255661, 42.339555], [-71.25583, 42.338995999999995], [-71.256746, 42.338040000000014], [-71.258964, 42.336579], [-71.25893400000001, 42.336019], [-71.259204, 42.33541899999999], [-71.259933, 42.334825000000016], [-71.26122, 42.334605], [-71.263138, 42.334903000000004], [-71.264415, 42.334472999999996], [-71.264726, 42.333944], [-71.26513, 42.33182999999999], [-71.265666, 42.33127300000001], [-71.26801, 42.33056], [-71.269767, 42.33118100000001], [-71.270246, 42.33098], [-71.270279, 42.33052200000001], [-71.269763, 42.32976399999999], [-71.270249, 42.328929999999986], [-71.270255, 42.328555], [-71.269559, 42.327779], [-71.266097, 42.327391000000006], [-71.263536, 42.32601699999999], [-71.263092, 42.326052], [-71.262488, 42.326509], [-71.261952, 42.32664900000001], [-71.260249, 42.32679], [-71.259565, 42.326674], [-71.258999, 42.326340999999985], [-71.258398, 42.32493799999999], [-71.257818, 42.324506], [-71.256295, 42.324659000000004], [-71.254888, 42.32512600000001], [-71.25447, 42.325391999999994], [-71.254308, 42.326052], [-71.253838, 42.32662], [-71.252937, 42.32675600000001], [-71.251746, 42.326123], [-71.251245, 42.325271], [-71.250229, 42.324551], [-71.24977, 42.32372899999999], [-71.248756, 42.32344700000001], [-71.2478, 42.321864999999995], [-71.247258, 42.32131], [-71.24661, 42.321022000000006], [-71.244586, 42.321258], [-71.242638, 42.320868000000004], [-71.240885, 42.32088400000001], [-71.238786, 42.321799], [-71.238097, 42.32175500000001], [-71.234761, 42.320850000000014], [-71.231144, 42.320840999999994], [-71.229477, 42.319566], [-71.228358, 42.319006], [-71.22814, 42.318384000000016], [-71.228148, 42.31716200000001], [-71.227939, 42.31641699999999], [-71.227528, 42.315895000000005], [-71.227543, 42.31539999999999], [-71.228915, 42.31636], [-71.229404, 42.316459], [-71.231531, 42.316461], [-71.233006, 42.31626599999999], [-71.294843, 42.27305200000001], [-71.29562, 42.273998999999996], [-71.296205, 42.274318], [-71.297199, 42.274497], [-71.298352, 42.27426100000002], [-71.299044, 42.274492], [-71.299641, 42.27500199999999], [-71.299775, 42.276139], [-71.297788, 42.27920799999999], [-71.297514, 42.280909], [-71.297945, 42.281523], [-71.299025, 42.28237599999999], [-71.299949, 42.282911000000006], [-71.300315, 42.282897000000006], [-71.300997, 42.282361], [-71.302477, 42.28016], [-71.304636, 42.27835799999999], [-71.307341, 42.27710499999999], [-71.308875, 42.27667399999999], [-71.309302, 42.276378999999984], [-71.309496, 42.275704], [-71.309025, 42.27480799999999], [-71.309013, 42.27334200000002], [-71.308476, 42.27229400000001], [-71.308029, 42.27181099999999], [-71.308115, 42.271223], [-71.30846, 42.270709], [-71.323662, 42.297415], [-71.32975, 42.312991000000004], [-71.327327, 42.313746], [-71.327444, 42.321113999999994], [-71.328779, 42.33168300000001], [-71.335845, 42.393997000000006]]]]}}