{"type": "Feature", "properties": {"district_name": "6th Norfolk District", "chamber": "house", "vintage": "2022-present"}, "geometry": {"type": "Polygon", "coordinates": [[[-71.177918, 42.164066999999996], [-71.17748000000002, 42.163922], [-71.177092, 42.16421399999999], [-71.177159, 42.164948], [-71.177044, 42.16513300000001], [-71.175752, 42.16493], [-71.17587, 42.165319], [-71.176345, 42.16571], [-71.176197, 42.16596899999999], [-71.173416, 42.166023], [-71.173343, 42.166280000000015], [-71.173924, 42.16705499999998], [-71.173778, 42.16751599999999], [-71.173486, 42.16777200000001], [-71.172995, 42.167703], [-71.17267700000001, 42.167231], [-71.172089, 42.16724500000001], [-71.171573, 42.167470000000016], [-71.171819, 42.168126], [-71.171758, 42.168411], [-71.170388, 42.168654], [-71.170115, 42.168815999999985], [-71.169711, 42.16945700000001], [-71.168516, 42.16912299999998], [-71.16726200000001, 42.16917699999999], [-71.16714, 42.169681000000004], [-71.167702, 42.170192], [-71.168812, 42.171933], [-71.168749, 42.172315000000005], [-71.168313, 42.17293900000001], [-71.167091, 42.172693], [-71.163908, 42.17283200000001], [-71.163448, 42.173791000000016], [-71.163492, 42.174034000000006], [-71.165293, 42.17485200000001], [-71.165462, 42.175143], [-71.165191, 42.17549499999999], [-71.163642, 42.17580700000001], [-71.163404, 42.175987], [-71.163432, 42.176227999999995], [-71.166974, 42.17747700000002], [-71.167136, 42.177763], [-71.166139, 42.178293], [-71.166033, 42.178610000000006], [-71.167708, 42.178817], [-71.168001, 42.179097999999996], [-71.167852, 42.17940999999999], [-71.167368, 42.17973800000001], [-71.166474, 42.17966], [-71.165266, 42.18001600000001], [-71.164937, 42.18055800000001], [-71.164283, 42.180886], [-71.164023, 42.181302], [-71.164168, 42.18172499999999], [-71.165093, 42.181988], [-71.165379, 42.182230999999994], [-71.164547, 42.18362900000001], [-71.16374900000001, 42.184483], [-71.16284, 42.185065999999985], [-71.16289, 42.18634400000001], [-71.163872, 42.18677899999999], [-71.163871, 42.187377], [-71.163602, 42.18766200000001], [-71.163269, 42.18771300000002], [-71.162692, 42.18721600000001], [-71.162311, 42.187236000000006], [-71.160415, 42.18829100000003], [-71.16024, 42.188583], [-71.160149, 42.19003799999998], [-71.159298, 42.19203300000001], [-71.158316, 42.19373499999998], [-71.15828900000001, 42.194458], [-71.158045, 42.19497299999998], [-71.157626, 42.195292], [-71.156353, 42.19561], [-71.15546, 42.19686200000001], [-71.154462, 42.197102000000015], [-71.153758, 42.197852000000005], [-71.152778, 42.19786700000001], [-71.152349, 42.198032999999995], [-71.151901, 42.198841999999985], [-71.150463, 42.199941999999986], [-71.149959, 42.20106899999999], [-71.148474, 42.20219900000001], [-71.146308, 42.20424599999999], [-71.146174, 42.20447099999999], [-71.146255, 42.20525200000001], [-71.145667, 42.206072000000006], [-71.145712, 42.20634400000001], [-71.146326, 42.20640000000002], [-71.147695, 42.20597199999998], [-71.14842, 42.20638600000001], [-71.14841, 42.206786000000015], [-71.14710900000001, 42.208292], [-71.145922, 42.20922699999999], [-71.144893, 42.20947100000001], [-71.144413, 42.210407000000004], [-71.143943, 42.21092600000001], [-71.142595, 42.21139099999999], [-71.142328, 42.211660999999985], [-71.142415, 42.21216199999999], [-71.143526, 42.21312300000001], [-71.142422, 42.2143], [-71.142829, 42.21525], [-71.142819, 42.215672], [-71.142194, 42.217562], [-71.141358, 42.21806900000001], [-71.14117, 42.21836299999998], [-71.141386, 42.218671000000015], [-71.142148, 42.218978], [-71.142248, 42.21952100000001], [-71.140575, 42.22176300000001], [-71.140446, 42.22242800000001], [-71.139983, 42.22319], [-71.140206, 42.22363699999999], [-71.14008, 42.223931], [-71.137098, 42.226727999999994], [-71.136528, 42.22707900000001], [-71.134832, 42.22693999999999], [-71.13411300000001, 42.227465], [-71.132605, 42.22710699999999], [-71.131521, 42.227367], [-71.130771, 42.227926000000004], [-71.114002, 42.211861], [-71.04012, 42.137194], [-71.02721, 42.13293899999998], [-71.027576, 42.12759600000001], [-71.027521, 42.126414999999994], [-71.026953, 42.123734], [-71.021859, 42.118745], [-71.061256, 42.103194], [-71.060335, 42.106962], [-71.068326, 42.12587400000001], [-71.069938, 42.125859], [-71.07145, 42.1261], [-71.0758, 42.12798], [-71.07771, 42.128609999999995], [-71.08097, 42.128850000000014], [-71.0823, 42.12910999999999], [-71.083715, 42.129571999999996], [-71.08845, 42.1316], [-71.0893, 42.130639999999985], [-71.09256000000002, 42.13198], [-71.094629, 42.12882099999999], [-71.09716, 42.12687000000002], [-71.0954, 42.12544], [-71.098694, 42.123419000000005], [-71.09952, 42.12264000000001], [-71.09739, 42.121860000000005], [-71.09565, 42.12033000000001], [-71.099343, 42.11764500000002], [-71.1011, 42.11714999999999], [-71.10065, 42.114509999999996], [-71.102738, 42.114222999999996], [-71.10615, 42.11422000000002], [-71.10824, 42.11362], [-71.112246, 42.112831000000014], [-71.115182, 42.111563], [-71.116342, 42.110668999999994], [-71.118395, 42.11294900000001], [-71.120197, 42.112515000000016], [-71.121333, 42.11263600000001], [-71.12177, 42.111769999999986], [-71.123471, 42.11199], [-71.12452, 42.111700000000006], [-71.12485, 42.11213999999999], [-71.12501, 42.11268999999999], [-71.125075, 42.114810000000006], [-71.12346, 42.11484000000001], [-71.12342, 42.11580000000001], [-71.12231, 42.11848999999999], [-71.11966, 42.11858], [-71.12115, 42.12122000000001], [-71.11406, 42.122699999999995], [-71.114, 42.12377999999999], [-71.117187, 42.124810000000004], [-71.11562, 42.12785000000001], [-71.12596, 42.13080999999999], [-71.12737, 42.131000000000014], [-71.128666, 42.13071], [-71.129526, 42.130701], [-71.131748, 42.13146400000001], [-71.13399, 42.13181999999999], [-71.1335, 42.13338], [-71.13354, 42.133931000000004], [-71.13274, 42.134180000000015], [-71.1316, 42.13657000000001], [-71.13179, 42.136970000000005], [-71.13184, 42.137799999999984], [-71.13682, 42.13928999999998], [-71.13686, 42.14067000000001], [-71.137472, 42.139378999999984], [-71.138685, 42.139956999999995], [-71.139915, 42.139871], [-71.140779, 42.138061], [-71.144549, 42.13769699999999], [-71.163542, 42.141456999999996], [-71.162198, 42.145279], [-71.171993, 42.15152400000001], [-71.176368, 42.155360000000016], [-71.175763, 42.15559899999999], [-71.178013, 42.16396099999999], [-71.177918, 42.164066999999996]]]}}