{"type": "Feature", "properties": {"district_name": "13th Middlesex", "chamber": "house", "vintage": "2001-2010"}, "geometry": {"type": "Polygon", "coordinates": [[[-71.27242001295117, 42.459556268611806], [-71.27210897746639, 42.45730725351941], [-71.27014408472898, 42.4480947976299], [-71.26988390301568, 42.445894818563126], [-71.26577302457777, 42.42838874969503], [-71.26649093553658, 42.42710620161923], [-71.26693390911458, 42.42422624220322], [-71.27110194284792, 42.416796133503496], [-71.27020093310081, 42.41659515369964], [-71.27359796902543, 42.41054813476005], [-71.27400201097599, 42.41009597546885], [-71.27859707257838, 42.41116779265319], [-71.28096195010158, 42.41192404308624], [-71.28550098036423, 42.404294916163735], [-71.28100094836765, 42.40269521017432], [-71.2828010411713, 42.3990952799364], [-71.2895349507595, 42.401029874435764], [-71.29512294003995, 42.40189184063061], [-71.30754597979285, 42.3999377466113], [-71.30995807041413, 42.399420722510406], [-71.31200195801279, 42.3958950107075], [-71.31330199498997, 42.39639509521027], [-71.3144019313815, 42.39349517696477], [-71.31650200482076, 42.392494740009965], [-71.3177019189802, 42.39229521100193], [-71.32117603310589, 42.392552180868016], [-71.3340039548777, 42.39619612482561], [-71.33540409131135, 42.39359578060302], [-71.33482100797092, 42.386081034770676], [-71.32860308455761, 42.33169726313902], [-71.33360290449474, 42.33239727061744], [-71.33750398787042, 42.324897274248286], [-71.33950399743271, 42.32179691187208], [-71.34500406204992, 42.31549681879773], [-71.34560405660717, 42.3145967707357], [-71.35470397538985, 42.31709680713281], [-71.35880394013016, 42.317195889274224], [-71.36270394378845, 42.31589575512201], [-71.36400299548147, 42.31609480484148], [-71.3680029338221, 42.312695253614756], [-71.36932397753714, 42.31139527907734], [-71.3694700034506, 42.31107303360986], [-71.37060308432129, 42.31009525085266], [-71.37330398255654, 42.309895128128325], [-71.37399001056049, 42.311245757514634], [-71.37480503354186, 42.31159606834301], [-71.37590496108385, 42.31299608459267], [-71.37736001083738, 42.31444711056623], [-71.38033605954574, 42.32388807480877], [-71.38160508800131, 42.32849603417554], [-71.38820405881778, 42.33579494605754], [-71.38840396370634, 42.33629479776765], [-71.38930396467873, 42.33739513920903], [-71.39390393931004, 42.33569513137969], [-71.39460397532599, 42.33669509013637], [-71.394804919718, 42.338996056253094], [-71.39660499097272, 42.340896160731695], [-71.40230604328733, 42.34179580207116], [-71.46970794083533, 42.35109495737917], [-71.48301808231119, 42.352651243300315], [-71.47261393336605, 42.38903276889379], [-71.46916407782263, 42.402381788926], [-71.46816405784786, 42.402333127153106], [-71.46461004269453, 42.403096192876504], [-71.44261996689774, 42.40666702527622], [-71.43516595240906, 42.42548820458923], [-71.4335789680227, 42.42881377690431], [-71.43027603227411, 42.43674596055795], [-71.36680004576361, 42.412651242242944], [-71.36565395533025, 42.41332398619896], [-71.3649229289281, 42.414738244107625], [-71.36418496241876, 42.41565789966558], [-71.3647929223575, 42.41854115469516], [-71.36482094730296, 42.41928222442746], [-71.3643999085699, 42.420236012138055], [-71.36357193189353, 42.42068797608897], [-71.36160791790547, 42.42102717499234], [-71.36059005627776, 42.42104901171629], [-71.3566639525996, 42.419591951823065], [-71.3550589877848, 42.421729759526464], [-71.35230808698707, 42.426718238854164], [-71.33578005287701, 42.43705902289725], [-71.31333489968954, 42.45485901806561], [-71.31107006864276, 42.453584833138436], [-71.30947501329368, 42.45296496913762], [-71.3045360487408, 42.452554952146656], [-71.30293904635067, 42.461293187032005], [-71.30208508169935, 42.461116172541445], [-71.30200106010996, 42.46192120165518], [-71.29529809175666, 42.463444985028765], [-71.29502309082959, 42.46306413678069], [-71.28904891415964, 42.464384051228045], [-71.2894040689309, 42.466068184049945], [-71.28206598657336, 42.46020622885754], [-71.28170409068686, 42.45960292776594], [-71.28003992435559, 42.45971792117989], [-71.27697096641813, 42.46046486243519], [-71.27242001295117, 42.459556268611806]]]}}