{"type": "Feature", "properties": {"district_name": "13th Bristol District", "chamber": "house", "vintage": "2012-2020"}, "geometry": {"type": "Polygon", "coordinates": [[[-70.96454, 41.64401600000001], [-70.96414399999999, 41.644037], [-70.964404, 41.645297], [-70.960638, 41.64625999999999], [-70.960884, 41.646739999999994], [-70.95711299999999, 41.647791000000026], [-70.95694999999999, 41.647980000000004], [-70.957307, 41.64864999999999], [-70.956172, 41.649128999999995], [-70.953504, 41.646280000000004], [-70.951222, 41.64220199999999], [-70.938987, 41.643398], [-70.938672, 41.64180600000001], [-70.932935, 41.642357000000004], [-70.932239, 41.638436000000006], [-70.92790699999999, 41.63890899999999], [-70.927257, 41.63989600000001], [-70.92394399999999, 41.640313999999975], [-70.92428199999999, 41.64076499999999], [-70.924148, 41.64109600000001], [-70.92418599999999, 41.64255800000001], [-70.92386400000001, 41.647486], [-70.923998, 41.64884299999999], [-70.91998199999999, 41.649204], [-70.91918199999999, 41.64650499999999], [-70.91698199999999, 41.64470499999998], [-70.911881, 41.64420599999999], [-70.909981, 41.64160700000001], [-70.910381, 41.63980599999999], [-70.913882, 41.63750500000001], [-70.91318199999999, 41.63450400000001], [-70.910282, 41.63200400000001], [-70.90758199999999, 41.630504], [-70.906695, 41.625134], [-70.906381, 41.624404000000006], [-70.90408099999999, 41.62100399999999], [-70.89728099999999, 41.61340400000001], [-70.878749, 41.591791999999984], [-70.911743, 41.58184], [-70.924782, 41.604803999999994], [-70.92728199999999, 41.60880399999998], [-70.931468, 41.608315999999995], [-70.931433, 41.60841300000001], [-70.932324, 41.608112], [-70.933009, 41.610986], [-70.934652, 41.61003799999999], [-70.93642299999999, 41.614370000000015], [-70.949731, 41.620932999999994], [-70.95975299999999, 41.63683299999999], [-70.960454, 41.640225], [-70.96454, 41.64401600000001]]]}}