{"type": "Feature", "properties": {"district_name": "12th Middlesex District", "chamber": "house", "vintage": "2012-2020"}, "geometry": {"type": "Polygon", "coordinates": [[[-71.250586, 42.328959], [-71.250118, 42.32944200000001], [-71.248516, 42.33003000000001], [-71.246877, 42.33212600000001], [-71.244888, 42.33370000000001], [-71.238108, 42.330313], [-71.235351, 42.33749199999999], [-71.234199, 42.338007999999995], [-71.233769, 42.33846099999999], [-71.223753, 42.335547], [-71.222927, 42.33542599999999], [-71.221019, 42.336304999999996], [-71.21964, 42.33740999999999], [-71.218738, 42.337531], [-71.218113, 42.33740599999998], [-71.21708, 42.337037], [-71.217218, 42.33688999999999], [-71.217586, 42.333886], [-71.218306, 42.333891], [-71.218332, 42.333202], [-71.21755399999999, 42.333109], [-71.21710999999999, 42.33199299999999], [-71.21476799999999, 42.332171], [-71.214698, 42.332058999999994], [-71.213554, 42.33201], [-71.213443, 42.332436999999985], [-71.212693, 42.332937], [-71.211938, 42.33291300000001], [-71.21022099999999, 42.33232399999998], [-71.209696, 42.33260699999999], [-71.209221, 42.333466], [-71.207782, 42.333272], [-71.20779499999999, 42.333715000000005], [-71.20707999999999, 42.33614999999999], [-71.203763, 42.33531299999999], [-71.203742, 42.335945], [-71.20333, 42.33669], [-71.203408, 42.337606], [-71.203071, 42.33796000000001], [-71.201557, 42.337804999999996], [-71.199197, 42.33793599999999], [-71.197987, 42.33776399999999], [-71.19674599999999, 42.337085999999985], [-71.195651, 42.336019], [-71.194758, 42.335724], [-71.1923, 42.33619899999999], [-71.187123, 42.336331], [-71.187134, 42.33682399999999], [-71.186703, 42.33734200000001], [-71.186593, 42.338387], [-71.186253, 42.338764999999995], [-71.183031, 42.33967700000001], [-71.182867, 42.34084999999999], [-71.1829, 42.34236699999998], [-71.180827, 42.342135999999996], [-71.180399, 42.34350399999999], [-71.177999, 42.34299800000001], [-71.176452, 42.341817000000006], [-71.176405, 42.34135299999999], [-71.172564, 42.341895000000015], [-71.17059499999999, 42.341581000000005], [-71.170003, 42.34425199999999], [-71.16668299999999, 42.340104000000004], [-71.166808, 42.33928999999997], [-71.168633, 42.338629], [-71.169217, 42.33806800000001], [-71.168886, 42.33582599999999], [-71.16857, 42.335143], [-71.168191, 42.33479100000001], [-71.167565, 42.333441], [-71.16273199999999, 42.33396099999999], [-71.161295, 42.33378299999999], [-71.159325, 42.332767999999994], [-71.15683299999999, 42.33018899999999], [-71.162196, 42.32649699999999], [-71.164794, 42.32439], [-71.16695399999999, 42.32292700000001], [-71.16940000000001, 42.32214700000002], [-71.169397, 42.321895], [-71.170406, 42.32139199999999], [-71.170068, 42.320679999999996], [-71.178935, 42.314315999999984], [-71.169612, 42.307598], [-71.166297, 42.30469599999999], [-71.164804, 42.303763999999994], [-71.178636, 42.29459500000001], [-71.191155, 42.283058999999994], [-71.191012, 42.285893], [-71.192256, 42.28742600000001], [-71.19276099999999, 42.287810000000015], [-71.194187, 42.28847099999999], [-71.19482099999999, 42.288492999999995], [-71.195453, 42.288184], [-71.19552999999999, 42.28788499999999], [-71.196009, 42.287520000000015], [-71.196133, 42.28672999999999], [-71.196518, 42.28659599999998], [-71.200208, 42.287753], [-71.201313, 42.28860799999999], [-71.202608, 42.28859899999999], [-71.203553, 42.288775], [-71.204932, 42.289486], [-71.20539099999999, 42.290300999999985], [-71.20548099999999, 42.291904], [-71.206096, 42.294036000000006], [-71.206924, 42.29552], [-71.20723699999999, 42.29663800000001], [-71.208029, 42.29740500000001], [-71.211007, 42.299296999999996], [-71.211603, 42.29994099999998], [-71.211759, 42.30078400000001], [-71.21108199999999, 42.302721], [-71.212057, 42.304814], [-71.213183, 42.30622399999999], [-71.214167, 42.30641099999999], [-71.216354, 42.30648599999999], [-71.218426, 42.306852999999975], [-71.22102500000001, 42.306473999999994], [-71.222495, 42.307134999999995], [-71.22395999999999, 42.307322], [-71.226985, 42.308536], [-71.22721899999999, 42.30913799999999], [-71.226411, 42.310255], [-71.22698299999999, 42.31141600000001], [-71.227119, 42.312659999999994], [-71.22654299999999, 42.313181], [-71.22632, 42.31411999999999], [-71.227325, 42.31490800000001], [-71.227734, 42.315552000000004], [-71.22766299999999, 42.315935999999994], [-71.228098, 42.316414], [-71.22817400000001, 42.317333], [-71.228096, 42.31751500000002], [-71.22785, 42.317479000000006], [-71.227757, 42.31784599999999], [-71.227356, 42.317813], [-71.227532, 42.31809300000001], [-71.228398, 42.318643], [-71.228657, 42.31911999999999], [-71.22932399999999, 42.319288000000014], [-71.23119, 42.32078300000001], [-71.234942, 42.320862999999996], [-71.238355, 42.32176100000001], [-71.23930700000001, 42.32167900000001], [-71.24088499999999, 42.32088400000001], [-71.242772, 42.32076899999999], [-71.24445, 42.32113899999999], [-71.245376, 42.321144], [-71.246135, 42.320960000000014], [-71.24687399999999, 42.32109299999998], [-71.2475, 42.32148599999999], [-71.24816899999999, 42.32218900000001], [-71.24878, 42.323271999999996], [-71.24917099999999, 42.32356800000001], [-71.249786, 42.32552499999999], [-71.250463, 42.32705699999998], [-71.250137, 42.328087], [-71.250586, 42.328959]]]}}