{"type": "Feature", "properties": {"district_name": "10th Suffolk District", "chamber": "house", "vintage": "2012-2020"}, "geometry": {"type": "Polygon", "coordinates": [[[-71.191155, 42.283058999999994], [-71.178636, 42.29459500000001], [-71.164804, 42.303763999999994], [-71.166297, 42.30469599999999], [-71.169612, 42.307598], [-71.178935, 42.314315999999984], [-71.170068, 42.320679999999996], [-71.170406, 42.32139199999999], [-71.169397, 42.32194699999998], [-71.156262, 42.325283999999996], [-71.152216, 42.32667099999999], [-71.14777699999999, 42.326468999999996], [-71.14814299999999, 42.326612000000004], [-71.14900999999999, 42.327489999999976], [-71.15008, 42.328070000000004], [-71.15229, 42.32917999999999], [-71.15375, 42.32951], [-71.152439, 42.32967], [-71.1506, 42.329220000000014], [-71.15015, 42.32933999999999], [-71.14924, 42.33122999999999], [-71.14793, 42.33273], [-71.14726999999999, 42.33311999999999], [-71.14529, 42.33379999999999], [-71.14582, 42.33442], [-71.14677, 42.33485000000001], [-71.144239, 42.335269999999994], [-71.144365, 42.33587099999999], [-71.14560999999999, 42.33688999999999], [-71.137211, 42.338726999999984], [-71.136333, 42.33820600000001], [-71.138555, 42.33769199999999], [-71.13844, 42.337360000000004], [-71.139341, 42.33717600000001], [-71.13909, 42.33595999999999], [-71.140428, 42.33635599999999], [-71.14146, 42.33646999999999], [-71.14148999999999, 42.33617], [-71.14200000000001, 42.33536000000001], [-71.14321, 42.33451999999999], [-71.141976, 42.333411], [-71.14070000000001, 42.33307], [-71.13900000000002, 42.332110000000014], [-71.13286000000001, 42.32990999999999], [-71.13273, 42.32971999999998], [-71.1329, 42.329119999999996], [-71.13278, 42.328579999999974], [-71.13161, 42.32704999999998], [-71.131998, 42.32565599999999], [-71.13087, 42.32350999999999], [-71.131, 42.32251999999999], [-71.13186999999999, 42.32176999999999], [-71.12971, 42.32011999999999], [-71.12961, 42.31952], [-71.12904, 42.31896999999999], [-71.1286, 42.318720000000006], [-71.126999, 42.318615], [-71.13079499999999, 42.31449699999999], [-71.13650200000001, 42.306204], [-71.140135, 42.302147000000005], [-71.137103, 42.30118499999999], [-71.13461699999999, 42.30175], [-71.13107099999999, 42.30130700000001], [-71.12792499999999, 42.300157], [-71.130068, 42.298184000000006], [-71.1298, 42.297882], [-71.129819, 42.297564], [-71.12933199999999, 42.29636200000001], [-71.129429, 42.29603199999999], [-71.13057599999999, 42.294559], [-71.130462, 42.29320699999998], [-71.130577, 42.291962999999996], [-71.131577, 42.29134099999999], [-71.133697, 42.29250299999999], [-71.13416699999999, 42.29212799999999], [-71.132494, 42.290772999999994], [-71.13416000000001, 42.288908000000006], [-71.136802, 42.287871], [-71.139742, 42.287685999999994], [-71.13967099999999, 42.287065999999996], [-71.13941799999999, 42.28668699999999], [-71.147752, 42.286562999999994], [-71.147662, 42.285042999999995], [-71.14725299999999, 42.28361000000002], [-71.146361, 42.282528000000006], [-71.14373100000002, 42.28030200000001], [-71.141378, 42.277727999999996], [-71.14074699999999, 42.276291], [-71.140653, 42.27517900000001], [-71.14847499999999, 42.269017], [-71.15578599999999, 42.262454], [-71.157381, 42.26374299999999], [-71.157761, 42.263738], [-71.156707, 42.259954999999984], [-71.155958, 42.256484999999984], [-71.15858399999999, 42.255155000000016], [-71.161397, 42.25749600000001], [-71.16210099999999, 42.257878000000005], [-71.163096, 42.258799], [-71.163398, 42.258899], [-71.16650299999999, 42.261467], [-71.16667, 42.26146], [-71.171019, 42.265118], [-71.17133799999999, 42.26519900000001], [-71.171581, 42.26623999999998], [-71.17356, 42.26670499999999], [-71.174151, 42.267071], [-71.17457999999999, 42.267824], [-71.17450099999999, 42.268564999999995], [-71.173529, 42.26943800000003], [-71.173007, 42.27023399999999], [-71.17482199999999, 42.27353], [-71.174565, 42.275576], [-71.177587, 42.276595], [-71.183131, 42.275694999999985], [-71.183437, 42.275442999999974], [-71.183875, 42.27593600000001], [-71.184039, 42.276958], [-71.185317, 42.279753], [-71.18777299999999, 42.280227000000004], [-71.18974, 42.281236], [-71.190681, 42.28184600000001], [-71.191155, 42.283058999999994]]]}}