{"type": "Feature", "properties": {"district_name": "2nd Worcester", "chamber": "house", "vintage": "2001-2010"}, "geometry": {"type": "Polygon", "coordinates": [[[-72.28299552892598, 42.72161011487474], [-72.12456252987084, 42.71768639987444], [-72.07862925565823, 42.71643826185757], [-71.99950080302999, 42.713865606599], [-71.89876271352463, 42.711401443942975], [-71.77251517485495, 42.70806124342134], [-71.77551699034075, 42.643888042690584], [-71.77551706836432, 42.63928794181038], [-71.77531703070335, 42.6365877694741], [-71.78071702469505, 42.636488127921346], [-71.79421804424452, 42.63688776135559], [-71.84471909810665, 42.63778785803215], [-71.85841907653072, 42.63368785555147], [-71.8586190124715, 42.62888792907233], [-71.88162995746754, 42.619693794920465], [-71.88008797913412, 42.61747419653689], [-71.8833080043345, 42.61636809518847], [-71.88256002235234, 42.615284109646915], [-71.89176207561069, 42.61239278526716], [-71.89247994881187, 42.61342280122357], [-71.8957140234477, 42.61243782525897], [-71.89515008265148, 42.611454006174974], [-71.91028692607563, 42.60670876739724], [-71.9111560250765, 42.60770774961148], [-71.91248396720943, 42.607440821316466], [-71.91284993617042, 42.60781479249695], [-71.92782004940545, 42.60188797530631], [-71.92336291279527, 42.595477863129815], [-71.95194295307117, 42.56015378901774], [-71.95961993476983, 42.553488088490056], [-71.9640200598625, 42.549387849701226], [-71.95942004566656, 42.54628915006535], [-71.96142000005796, 42.54488915689297], [-71.97241994060927, 42.53608912010373], [-71.9757199848656, 42.53578916722803], [-71.97972090208742, 42.5323887680133], [-71.99422107268228, 42.542087971081145], [-72.02704300650893, 42.56320380233634], [-72.0149600373189, 42.567930078525734], [-72.01637900345061, 42.5694519063568], [-72.0171510173584, 42.56990982550376], [-72.01860396661948, 42.57034499293237], [-72.01888293047833, 42.570618872243806], [-72.01866591318773, 42.57116674750999], [-72.01736602519773, 42.5718528355508], [-72.01594206327682, 42.57352072219952], [-72.0159420006823, 42.57400122848189], [-72.01662192185046, 42.57457209314537], [-72.01723893156802, 42.57621790323712], [-72.0175169691793, 42.576515988208335], [-72.01794994290982, 42.57665302565627], [-72.01875409081585, 42.576585271445275], [-72.01918804815485, 42.57633406021199], [-72.01965193911083, 42.57560221569641], [-72.02237398133181, 42.574574900087995], [-72.023549994656, 42.57359223707056], [-72.02447798261323, 42.57331794953289], [-72.02599405500459, 42.5732052704834], [-72.02908598784634, 42.57405087161285], [-72.03078593487606, 42.57421186166296], [-72.0311260859791, 42.574691928431164], [-72.03087798902524, 42.57565183199937], [-72.03205309500166, 42.575927189203185], [-72.03254798483276, 42.576384032010374], [-72.03248599421788, 42.57677310718997], [-72.03171201785071, 42.577640911367816], [-72.03171207075097, 42.57812085894717], [-72.03430902902159, 42.57990485465298], [-72.0348659731087, 42.58004181295145], [-72.03539205514588, 42.57997410598509], [-72.03560898837958, 42.578533832316594], [-72.03588696627286, 42.57800814890055], [-72.03662991886986, 42.57746004811067], [-72.03786698669954, 42.57709419106192], [-72.03805297912633, 42.577299813519396], [-72.03731002214944, 42.57773426755239], [-72.03743402647801, 42.57823726963129], [-72.03808292510935, 42.57848912367488], [-72.03978392955678, 42.578512131084445], [-72.04160894958733, 42.579654770291924], [-72.0418880472826, 42.579929160433345], [-72.04139299014633, 42.580683746775804], [-72.0414850105395, 42.581711845198136], [-72.04132997341955, 42.58278723977576], [-72.04182395272167, 42.58367673129295], [-72.04182408742096, 42.58415723615053], [-72.04105102856884, 42.58470606842761], [-72.03916403790039, 42.585368142317364], [-72.03872996182382, 42.5859170672307], [-72.03873009414566, 42.58651122743294], [-72.03919408442755, 42.58694511191584], [-72.03934807465572, 42.587745050971925], [-72.03962605024105, 42.58795080775124], [-72.04064702519365, 42.58820315776863], [-72.04145103898763, 42.58863713247362], [-72.04182197968257, 42.58907200986083], [-72.04182199539245, 42.58984903654203], [-72.04135793447509, 42.59076326775766], [-72.04145007435945, 42.59147177662381], [-72.04185301485731, 42.59184011065532], [-72.03603994534897, 42.593870855257975], [-72.05318003529091, 42.60769984001107], [-72.07574290644587, 42.62546714468005], [-72.1164579151586, 42.626582046748595], [-72.13909403637096, 42.62376617039508], [-72.15442908717763, 42.623755133757946], [-72.15667298835372, 42.62349595617199], [-72.15841202600286, 42.63323172445238], [-72.16429498525915, 42.6326128864628], [-72.1674009778212, 42.6465199938544], [-72.22483294906569, 42.638979901043], [-72.22952000103182, 42.66286980182341], [-72.24195506590415, 42.66170472426574], [-72.24324694736936, 42.66936307596712], [-72.25738702471948, 42.66795524214386], [-72.25838296881557, 42.67540887385228], [-72.27191207902695, 42.674303734043335], [-72.28299552892598, 42.72161011487474]]]}}