{"type": "Feature", "properties": {"district_name": "8th Bristol District", "chamber": "house", "vintage": "2012-2020"}, "geometry": {"type": "Polygon", "coordinates": [[[-71.16210000000001, 41.66575899999998], [-71.160442, 41.667671000000006], [-71.15951199999999, 41.668485], [-71.16040000000001, 41.670061999999994], [-71.162014, 41.676308000000006], [-71.15482999999999, 41.674885], [-71.15410899999999, 41.674910999999994], [-71.155118, 41.677620999999995], [-71.14684199999999, 41.67606200000001], [-71.144584, 41.68230599999999], [-71.147403, 41.68284500000001], [-71.14615900000001, 41.686535000000006], [-71.143126, 41.68602], [-71.13865, 41.68925599999999], [-71.138266, 41.69003700000001], [-71.136946, 41.68976199999999], [-71.13597299999999, 41.692130999999996], [-71.134278, 41.69066499999998], [-71.134137, 41.690996], [-71.130558, 41.69027900000001], [-71.130511, 41.68957999999999], [-71.130353, 41.68956], [-71.13038, 41.68993], [-71.121693, 41.688217], [-71.123052, 41.69203299999998], [-71.123262, 41.693179], [-71.123233, 41.694555000000015], [-71.119266, 41.707956999999986], [-71.11900299999999, 41.70723699999998], [-71.118762, 41.707905999999994], [-71.118336, 41.70822299999999], [-71.110905, 41.707], [-71.109897, 41.709754000000004], [-71.109565, 41.712230999999996], [-71.10886099999999, 41.71256700000001], [-71.108554, 41.713044000000004], [-71.108263, 41.71537200000001], [-71.108395, 41.715844000000004], [-71.10881300000001, 41.716239], [-71.108696, 41.71701300000001], [-71.107452, 41.717979], [-71.107415, 41.71845099999999], [-71.107108, 41.71908199999999], [-71.10663199999999, 41.719516000000006], [-71.107036, 41.720366999999996], [-71.105798, 41.721114], [-71.105741, 41.722102], [-71.105301, 41.722558], [-71.105448, 41.72268899999999], [-71.105997, 41.72247499999999], [-71.106049, 41.72269999999999], [-71.10560199999999, 41.72310600000001], [-71.104708, 41.723194], [-71.103647, 41.72425400000001], [-71.104226, 41.724781], [-71.104578, 41.725516000000006], [-71.104571, 41.725719], [-71.10394099999999, 41.726487999999996], [-71.104191, 41.72726199999997], [-71.104558, 41.727683999999996], [-71.103606, 41.728502999999996], [-71.103174, 41.729182999999985], [-71.103504, 41.72977000000001], [-71.103593, 41.73082400000001], [-71.103044, 41.731747], [-71.102766, 41.732866], [-71.101998, 41.73391000000001], [-71.101697, 41.733833], [-71.101522, 41.735090000000014], [-71.10161699999999, 41.73606899999999], [-71.09978199999999, 41.73671], [-71.09799699999999, 41.736763], [-71.095646, 41.73621099999998], [-71.092581, 41.735822999999996], [-71.09020799999999, 41.73521500000001], [-71.09016199999999, 41.735586999999995], [-71.085909, 41.73896400000001], [-71.084791, 41.73919900000001], [-71.07826399999999, 41.739670999999994], [-71.077156, 41.740177], [-71.07606899999999, 41.741465], [-71.075722, 41.742155], [-71.075096, 41.74463600000001], [-71.074921, 41.748386], [-71.073829, 41.752019000000004], [-71.07285399999999, 41.754334], [-71.072032, 41.75749300000001], [-71.113368, 41.76496599999999], [-71.10558, 41.76781799999999], [-71.07703699999999, 41.778961], [-71.074917, 41.77998600000001], [-71.07269, 41.781353999999986], [-71.06272899999999, 41.79000799999999], [-71.06060699999999, 41.79197299999999], [-71.058724, 41.794111000000015], [-71.06248699999999, 41.795154000000004], [-71.06432000000001, 41.79555400000001], [-71.065806, 41.79568700000001], [-71.064138, 41.79741399999997], [-71.062527, 41.798110999999984], [-71.059618, 41.798927], [-71.05802899999999, 41.79905600000001], [-71.052213, 41.801725999999995], [-71.052285, 41.800914000000006], [-71.052745, 41.800439000000004], [-71.047705, 41.799533], [-71.04545, 41.798923000000016], [-71.03797899999999, 41.797672999999996], [-71.033943, 41.79761000000001], [-71.031121, 41.797283], [-71.029296, 41.79739], [-71.02917, 41.79761800000001], [-71.028559, 41.79778199999998], [-71.028337, 41.798646000000005], [-71.028077, 41.79888900000002], [-71.02619800000001, 41.799111], [-71.025938, 41.799359], [-71.026144, 41.799634999999995], [-71.026174, 41.800048000000004], [-71.025853, 41.80040100000001], [-71.02590599999999, 41.80079200000002], [-71.025722, 41.80117299999999], [-71.02597500000002, 41.801696000000014], [-71.02559099999999, 41.802779], [-71.02592, 41.803493], [-71.025018, 41.804036], [-71.024621, 41.80386700000001], [-71.02404, 41.80463400000001], [-71.02349, 41.804342], [-71.02330599999999, 41.804421999999995], [-71.023184, 41.80464899999999], [-71.023451, 41.804933], [-71.023451, 41.805158000000006], [-71.02313699999999, 41.80576199999999], [-71.023657, 41.805950999999986], [-71.02371, 41.806139999999985], [-71.023611, 41.80626800000001], [-71.023157, 41.80617600000001], [-71.01449400000001, 41.799382], [-71.026288, 41.778888], [-70.921782, 41.791244], [-70.92158599999999, 41.79086999999999], [-70.921708, 41.790853999999996], [-70.915095, 41.77874699999999], [-70.907184, 41.76354299999999], [-70.926104, 41.758907000000015], [-70.92605999999999, 41.758608], [-70.926309, 41.75843199999999], [-70.926424, 41.75761700000001], [-70.926146, 41.757017000000005], [-70.925292, 41.75659500000001], [-70.924913, 41.75658999999998], [-70.92488999999999, 41.756303], [-70.924611, 41.75624799999999], [-70.92455, 41.75602800000001], [-70.924052, 41.75565499999999], [-70.923552, 41.755548], [-70.923444, 41.755719000000006], [-70.92322, 41.75565199999999], [-70.92308, 41.755355], [-70.922696, 41.755358], [-70.92273899999999, 41.75508300000001], [-70.92249799999999, 41.755122], [-70.92232, 41.754799999999996], [-70.942993, 41.74466800000001], [-70.93338299999999, 41.715599], [-70.934635, 41.71526099999999], [-70.93552199999999, 41.716895], [-70.936796, 41.72029800000001], [-70.939244, 41.72538400000001], [-70.940804, 41.72740999999999], [-70.942595, 41.72723200000002], [-70.94140500000002, 41.72541100000001], [-70.94234999999999, 41.725222], [-70.94157, 41.72382299999999], [-70.942427, 41.723755], [-70.942376, 41.72300499999998], [-70.94402099999999, 41.722798000000004], [-70.946263, 41.72525400000001], [-70.94683599999999, 41.726368], [-70.94693699999999, 41.726887999999995], [-70.948692, 41.726749], [-70.94297, 41.72044400000001], [-70.94107, 41.718046000000015], [-70.939577, 41.715682], [-70.93918, 41.714447], [-70.93903499999999, 41.71338999999999], [-70.939176, 41.71206000000003], [-70.93959100000001, 41.710893], [-70.946325, 41.698428], [-70.94694199999999, 41.697008], [-70.944934, 41.69288099999999], [-70.94144399999999, 41.693464], [-70.939061, 41.694072000000006], [-70.939013, 41.69290099999999], [-70.937392, 41.692771000000015], [-70.934975, 41.693365000000014], [-70.93400799999999, 41.682155000000016], [-70.933368, 41.67876899999998], [-70.93848, 41.67895299999999], [-70.93868499999999, 41.679998000000005], [-70.939663, 41.680057], [-70.940452, 41.679672], [-70.93915500000001, 41.67250899999999], [-70.93818, 41.67255799999999], [-70.937398, 41.665816], [-70.942978, 41.665258], [-70.942683, 41.663883000000006], [-70.942695, 41.66295999999999], [-70.972785, 41.660505999999984], [-70.97751199999999, 41.67867099999999], [-70.965484, 41.73390199999999], [-71.011896, 41.711777999999995], [-71.027727, 41.704077], [-71.027763, 41.704194], [-71.06663, 41.68561900000001], [-71.07667, 41.68748600000001], [-71.075118, 41.678069], [-71.063763, 41.666849], [-71.061362, 41.663666000000006], [-71.059527, 41.66077399999999], [-71.053905, 41.65280500000002], [-71.05319, 41.651150000000015], [-71.051658, 41.648340000000005], [-71.04946199999999, 41.64135999999999], [-71.048874, 41.64014799999999], [-71.04642299999999, 41.63738200000001], [-71.04505, 41.63676500000001], [-71.044718, 41.63643600000001], [-71.043067, 41.633277], [-71.04221799999999, 41.63251999999999], [-71.040675, 41.63042399999999], [-71.038517, 41.62804399999998], [-71.036637, 41.62409499999999], [-71.038538, 41.62290100000002], [-71.03781699999999, 41.622256000000014], [-71.03740499999999, 41.621514], [-71.036531, 41.617643], [-71.036822, 41.615254999999976], [-71.038072, 41.610203999999996], [-71.038321, 41.608090999999995], [-71.03681399999999, 41.598175], [-71.037307, 41.597921], [-71.03899899999999, 41.59573100000002], [-71.03960099999999, 41.593837], [-71.04109, 41.59294599999999], [-71.04481299999999, 41.58989699999999], [-71.045053, 41.58784300000001], [-71.04446, 41.586428], [-71.040947, 41.582268], [-71.03457399999999, 41.57332199999998], [-71.03282999999999, 41.570458], [-71.03217099999999, 41.56905299999999], [-71.031578, 41.566058], [-71.029731, 41.56055500000001], [-71.02911499999999, 41.55822200000001], [-71.02904, 41.557363999999986], [-71.02959899999999, 41.555243000000004], [-71.031015, 41.552057000000005], [-71.030875, 41.550736], [-71.030175, 41.548604], [-71.030188, 41.54816], [-71.031352, 41.546766999999996], [-71.031438, 41.546380000000006], [-71.02964899999999, 41.538849], [-71.02883899999999, 41.53652699999998], [-71.026287, 41.53050700000001], [-71.032708, 41.52777300000001], [-71.029674, 41.516994000000004], [-71.028858, 41.514458999999995], [-71.028183, 41.513175999999994], [-71.021757, 41.503716999999995], [-71.016759, 41.498290999999995], [-71.00413, 41.48403099999999], [-71.033164, 41.484162000000005], [-71.033164, 41.480332000000004], [-71.041236, 41.480332000000004], [-71.041373, 41.48420000000001], [-71.116404, 41.484567999999996], [-71.121116, 41.492787000000014], [-71.119874, 41.49460399999998], [-71.120617, 41.497901000000006], [-71.122495, 41.52213899999998], [-71.125329, 41.54357699999999], [-71.126199, 41.551514999999995], [-71.126868, 41.55486099999999], [-71.12657999999999, 41.55570700000001], [-71.126989, 41.55579499999999], [-71.127862, 41.562781], [-71.12803199999999, 41.565512999999996], [-71.128222, 41.56565700000001], [-71.131727, 41.593762000000005], [-71.138464, 41.603635000000004], [-71.138688, 41.603902000000005], [-71.140078, 41.604665000000004], [-71.140442, 41.605298000000005], [-71.141598, 41.611089], [-71.141415, 41.61136399999998], [-71.14156, 41.612154000000004], [-71.141875, 41.612544000000014], [-71.14027, 41.62379199999999], [-71.135514, 41.628294000000004], [-71.134464, 41.644012], [-71.132721, 41.65945599999998], [-71.13250699999999, 41.660356], [-71.16210000000001, 41.66575899999998]]]}}