{"type": "Feature", "properties": {"district_name": "13th Suffolk District", "chamber": "house", "vintage": "2012-2020"}, "geometry": {"type": "Polygon", "coordinates": [[[-71.07918699999999, 42.288137000000006], [-71.078507, 42.28943300000001], [-71.07816, 42.29109500000001], [-71.078147, 42.292022], [-71.078481, 42.294346], [-71.07114899999999, 42.29572800000001], [-71.071478, 42.297456], [-71.070737, 42.29767300000001], [-71.070501, 42.29688799999998], [-71.07000599999999, 42.29674300000002], [-71.069345, 42.29679599999999], [-71.066862, 42.297543999999995], [-71.06670299999999, 42.29755099999999], [-71.066976, 42.29687499999999], [-71.066413, 42.297022], [-71.065538, 42.29831300000002], [-71.06375700000001, 42.299457000000004], [-71.060915, 42.300242000000004], [-71.05754499999999, 42.300427], [-71.056482, 42.300853999999994], [-71.056017, 42.301272999999995], [-71.05631699999999, 42.30225799999998], [-71.05632899999999, 42.302938], [-71.058149, 42.30221099999999], [-71.05785999999999, 42.301670999999985], [-71.059613, 42.301245], [-71.05979599999999, 42.301537999999994], [-71.05720699999999, 42.31296000000001], [-71.058881, 42.31277100000001], [-71.059975, 42.309572], [-71.060454, 42.31009700000001], [-71.06217199999999, 42.310776], [-71.063236, 42.311772], [-71.064413, 42.31256900000001], [-71.064151, 42.31295800000001], [-71.064431, 42.313741], [-71.064213, 42.314105], [-71.064602, 42.314769000000005], [-71.06338199999999, 42.31452400000001], [-71.061915, 42.317904999999996], [-71.060846, 42.319911000000005], [-71.061481, 42.32050000000001], [-71.061865, 42.32047699999999], [-71.063332, 42.321014], [-71.065383, 42.321234000000025], [-71.066088, 42.321646], [-71.06750699999999, 42.32329699999998], [-71.067077, 42.324774999999995], [-71.066431, 42.326256], [-71.064132, 42.32350299999999], [-71.06382099999999, 42.323662], [-71.062962, 42.323403000000006], [-71.06101199999999, 42.322424999999996], [-71.06020000000001, 42.323650999999984], [-71.056795, 42.32250199999999], [-71.056769, 42.320721999999996], [-71.054977, 42.32131999999999], [-71.051994, 42.321459999999995], [-71.051653, 42.32171], [-71.051035, 42.32107000000001], [-71.049039, 42.31767099999999], [-71.048076, 42.31595099999999], [-71.04829699999999, 42.315941], [-71.04775599999999, 42.31475099999998], [-71.0467, 42.313016000000005], [-71.041589, 42.311256000000014], [-71.037094, 42.306598], [-71.04169399999999, 42.305298], [-71.041294, 42.300097999999984], [-71.03529400000001, 42.288798], [-71.03789400000001, 42.284898], [-71.033767, 42.28132900000001], [-71.03312600000001, 42.28058900000001], [-71.03151299999999, 42.27715999999999], [-71.029146, 42.274819], [-71.03105000000001, 42.273239999999994], [-71.03155, 42.27222], [-71.03291999999999, 42.27073999999999], [-71.03227, 42.27006999999999], [-71.03661, 42.26760000000001], [-71.03751, 42.26854], [-71.04111999999999, 42.268629999999995], [-71.041635, 42.26839], [-71.042794, 42.27699799999999], [-71.04469399999999, 42.276198], [-71.048794, 42.277699000000005], [-71.053117, 42.27729999999999], [-71.05374800000001, 42.277996], [-71.055731, 42.282622], [-71.056536, 42.282583], [-71.05578700000001, 42.283205], [-71.05452799999999, 42.286671999999996], [-71.054537, 42.28711300000001], [-71.055347, 42.288242], [-71.058146, 42.28734999999999], [-71.06188, 42.28651399999999], [-71.064303, 42.285699], [-71.06412499999999, 42.28634500000001], [-71.06434, 42.285807], [-71.065104, 42.28745199999999], [-71.066081, 42.28848200000001], [-71.06771499999999, 42.289381999999996], [-71.069648, 42.28995199999999], [-71.067218, 42.290757], [-71.067578, 42.291425999999994], [-71.06459, 42.29234699999999], [-71.065203, 42.294210000000014], [-71.063069, 42.29470299999998], [-71.063142, 42.29561499999999], [-71.071866, 42.29328900000001], [-71.071602, 42.290217999999996], [-71.071996, 42.290217000000005], [-71.073059, 42.28927100000001], [-71.07781299999999, 42.28799], [-71.07918699999999, 42.288137000000006]]]}}