{"type": "Feature", "properties": {"district_name": "37th Middlesex District", "chamber": "house", "vintage": "2022-present"}, "geometry": {"type": "Polygon", "coordinates": [[[-71.678969, 42.530430000000024], [-71.677622, 42.539879000000006], [-71.664597, 42.61162], [-71.65793, 42.649944000000005], [-71.656412, 42.649723], [-71.652466, 42.645755], [-71.648988, 42.64423000000001], [-71.646949, 42.644152], [-71.64074, 42.63926599999999], [-71.630784, 42.635163000000006], [-71.621867, 42.631876], [-71.615525, 42.629273000000005], [-71.61418, 42.62849799999998], [-71.609874, 42.627845], [-71.609929, 42.62755400000001], [-71.608056, 42.62738000000001], [-71.607123, 42.630468], [-71.606576, 42.63079400000001], [-71.605621, 42.631025999999984], [-71.604828, 42.630818999999995], [-71.603562, 42.629864], [-71.601616, 42.626981], [-71.60091, 42.62625400000002], [-71.600309, 42.625972], [-71.599644, 42.625821], [-71.59846, 42.625851], [-71.59598800000002, 42.62633699999999], [-71.593623, 42.626247000000006], [-71.593127, 42.626509999999996], [-71.591601, 42.62570699999999], [-71.588848, 42.623363], [-71.58416500000001, 42.618680999999995], [-71.584188, 42.61739399999999], [-71.583466, 42.615545000000004], [-71.582733, 42.614285], [-71.580859, 42.612056], [-71.579486, 42.61076500000001], [-71.578002, 42.60965600000001], [-71.57339, 42.60686400000001], [-71.572612, 42.606013], [-71.572149, 42.60477399999999], [-71.568478, 42.605886000000005], [-71.567889, 42.60495900000001], [-71.56769900000002, 42.602779999999996], [-71.567106, 42.600982000000016], [-71.56627200000001, 42.59995500000001], [-71.564423, 42.59877399999999], [-71.563317, 42.59782500000003], [-71.561011, 42.597317], [-71.558561, 42.596239], [-71.556801, 42.59624199999999], [-71.554814, 42.596888], [-71.553634, 42.59684000000001], [-71.549465, 42.595191], [-71.54837700000002, 42.59417599999999], [-71.547588, 42.593864999999994], [-71.544952, 42.593938999999985], [-71.54222500000002, 42.594366000000015], [-71.541459, 42.59427900000002], [-71.540294, 42.59380099999998], [-71.539597, 42.593188], [-71.538398, 42.59053400000001], [-71.53719700000002, 42.589442000000005], [-71.53529, 42.58847900000001], [-71.533052, 42.58632999999999], [-71.531324, 42.58539299999999], [-71.528295, 42.58312500000001], [-71.526033, 42.581951999999994], [-71.52395, 42.581207000000006], [-71.520856, 42.57915800000002], [-71.516721, 42.57366900000001], [-71.513732, 42.571205], [-71.512437, 42.569921], [-71.511412, 42.56941599999999], [-71.516325, 42.566627000000004], [-71.520892, 42.56431099999999], [-71.523187, 42.559826], [-71.523796, 42.55964399999999], [-71.524447, 42.55966499999998], [-71.524622, 42.559112], [-71.524504, 42.558692000000015], [-71.525222, 42.558467], [-71.525257, 42.558259000000014], [-71.525543, 42.558149], [-71.525616, 42.557694], [-71.526181, 42.557734999999994], [-71.526231, 42.557531], [-71.526612, 42.557459999999985], [-71.526687, 42.557133999999984], [-71.527642, 42.55657], [-71.52788, 42.556226], [-71.5292, 42.55590699999999], [-71.529461, 42.55574599999999], [-71.529628, 42.55521300000001], [-71.531476, 42.55405699999999], [-71.532431, 42.553797], [-71.533318, 42.55290699999999], [-71.533031, 42.55272999999999], [-71.542323, 42.550333999999985], [-71.53878, 42.54303], [-71.531377, 42.520352], [-71.517807, 42.51561600000001], [-71.51482, 42.511523999999994], [-71.51144, 42.508857000000006], [-71.50908400000002, 42.51004300000001], [-71.50281, 42.506868999999995], [-71.500053, 42.509266000000004], [-71.473528, 42.50017700000001], [-71.473813, 42.49976399999999], [-71.464653, 42.494672], [-71.461877, 42.492773], [-71.463048, 42.491634000000005], [-71.462787, 42.49093200000001], [-71.46299, 42.49029799999999], [-71.462382, 42.48970300000001], [-71.462199, 42.489175000000024], [-71.462154, 42.48884399999999], [-71.462547, 42.488698999999976], [-71.46255200000002, 42.488557], [-71.462355, 42.48827099999999], [-71.46176, 42.487956], [-71.467674, 42.48163499999999], [-71.466613, 42.48159400000001], [-71.464055, 42.482509], [-71.463267, 42.482578000000004], [-71.46198900000002, 42.482318], [-71.459125, 42.48134800000001], [-71.456854, 42.481073999999985], [-71.452646, 42.480937999999995], [-71.450822, 42.48128], [-71.447381, 42.476521999999996], [-71.446026, 42.47496499999999], [-71.444757, 42.474281000000005], [-71.438524, 42.472549], [-71.42552, 42.47122699999999], [-71.420717, 42.470579], [-71.410917, 42.469958999999996], [-71.408455, 42.46955200000001], [-71.430389, 42.436937], [-71.498546, 42.463775], [-71.54339400000002, 42.46645199999998], [-71.54890300000001, 42.44730799999999], [-71.635791, 42.476891], [-71.635448, 42.477081999999996], [-71.634076, 42.47706299999999], [-71.633638, 42.477247000000006], [-71.633782, 42.478435], [-71.634832, 42.479775000000004], [-71.634791, 42.480112], [-71.634288, 42.48055000000001], [-71.633915, 42.48129399999999], [-71.634166, 42.48268699999999], [-71.634102, 42.482875000000014], [-71.633664, 42.48308600000001], [-71.632539, 42.48267800000001], [-71.632192, 42.48277799999998], [-71.632108, 42.482988000000006], [-71.63206, 42.48397800000001], [-71.632419, 42.484904000000014], [-71.632741, 42.48520400000001], [-71.633492, 42.48515900000001], [-71.634129, 42.485352], [-71.634151, 42.48580799999999], [-71.633567, 42.48623500000001], [-71.631908, 42.485413], [-71.63161000000001, 42.485423], [-71.631231, 42.48673800000002], [-71.630808, 42.48743999999999], [-71.62895, 42.48877800000001], [-71.628629, 42.490778000000006], [-71.627769, 42.492611999999994], [-71.627594, 42.493335], [-71.627978, 42.494513], [-71.62776, 42.495047000000014], [-71.626834, 42.495567000000015], [-71.62663, 42.49591199999999], [-71.625794, 42.499108], [-71.62588, 42.49949500000002], [-71.626405, 42.500094000000004], [-71.629674, 42.50152300000001], [-71.63095300000002, 42.50244300000001], [-71.631604, 42.502667000000024], [-71.633507, 42.50256500000001], [-71.633763, 42.502863999999995], [-71.633467, 42.50350800000001], [-71.634219, 42.504265999999994], [-71.632815, 42.506583], [-71.631326, 42.508333], [-71.631263, 42.508725999999996], [-71.631426, 42.50912899999999], [-71.631849, 42.50950099999998], [-71.631803, 42.50972599999999], [-71.630577, 42.509716], [-71.62982900000002, 42.51041900000001], [-71.629873, 42.511142], [-71.629711, 42.51127300000001], [-71.629201, 42.511100000000006], [-71.628683, 42.51056700000001], [-71.628427, 42.510512000000006], [-71.627964, 42.510707999999994], [-71.627813, 42.510923999999996], [-71.627994, 42.51151300000001], [-71.627336, 42.51259499999999], [-71.627421, 42.513008000000006], [-71.628633, 42.513412], [-71.629455, 42.513458], [-71.62974, 42.51365999999999], [-71.629751, 42.513956], [-71.629132, 42.51509499999998], [-71.629615, 42.515845000000006], [-71.630061, 42.515982], [-71.631124, 42.515871999999995], [-71.631798, 42.515979], [-71.632312, 42.51636200000001], [-71.632274, 42.51662599999999], [-71.631824, 42.51699300000002], [-71.630811, 42.51708], [-71.630138, 42.51756400000001], [-71.630022, 42.51782100000001], [-71.630214, 42.518919999999994], [-71.630646, 42.51908299999999], [-71.6319, 42.51911299999999], [-71.632914, 42.520116999999985], [-71.634087, 42.52211], [-71.635153, 42.52286500000001], [-71.636144, 42.523098000000005], [-71.635869, 42.52402399999999], [-71.678969, 42.530430000000024]]]}}