{"type": "Feature", "properties": {"district_name": "6th Worcester", "chamber": "house", "vintage": "2001-2010"}, "geometry": {"type": "Polygon", "coordinates": [[[-71.96067006785371, 42.28156321218195], [-71.96058999617797, 42.280138798341696], [-71.95827004373363, 42.26972421112649], [-71.95788603006163, 42.2690038036211], [-71.95382209209389, 42.25108408179251], [-71.95153407976075, 42.24166008472036], [-71.95130999441153, 42.24148427957278], [-71.95135792239302, 42.24103618550424], [-71.95060591367873, 42.23767590338201], [-71.94329407478857, 42.207869046831725], [-71.94330990657274, 42.207292782208036], [-71.94284599679025, 42.20583718401703], [-71.94174206299544, 42.200284791074786], [-71.93890998031235, 42.1894850736278], [-71.89501699864003, 42.19229326059385], [-71.89041691918284, 42.18719295373833], [-71.8895170627657, 42.18589280247969], [-71.87931607786768, 42.17469383274126], [-71.87851595217066, 42.173493982606], [-71.87561599663408, 42.17019428461987], [-71.86791605942263, 42.166094091311216], [-71.86481595998694, 42.16469387059068], [-71.8578160291091, 42.160793909327595], [-71.84791599413168, 42.16059424125091], [-71.8422160087316, 42.16019387427659], [-71.83471491787412, 42.15999374925993], [-71.8307479457042, 42.16438419157996], [-71.82581494150917, 42.16569421737703], [-71.82531507638095, 42.159993798646305], [-71.82601504848746, 42.15959398599407], [-71.8343149832535, 42.157293955871666], [-71.83371503945202, 42.15509386220882], [-71.83011491342342, 42.1559939108309], [-71.83039491368358, 42.15563016701846], [-71.83121092429664, 42.15298987279829], [-71.83097103279137, 42.15063790994551], [-71.83135508585133, 42.150222094428266], [-71.83212307521303, 42.1498057239606], [-71.83449107648678, 42.149021743698135], [-71.8355789203293, 42.14886213309681], [-71.83833092602192, 42.148814095694505], [-71.8386349712896, 42.14868602738768], [-71.83909891407193, 42.14763015383095], [-71.83953098214769, 42.143517778395115], [-71.84441206667944, 42.14279814472455], [-71.84566006979689, 42.141423087661764], [-71.8467959244478, 42.14070277394049], [-71.84933992617462, 42.14043113584481], [-71.8513560131191, 42.13955110069556], [-71.85237996408391, 42.13884682981188], [-71.85282806035916, 42.138735161475935], [-71.85701996279641, 42.13900578123061], [-71.8660279261568, 42.13684584683128], [-71.86682798531875, 42.139069899180235], [-71.86673194189959, 42.14007801153307], [-71.86639602253724, 42.14099009692722], [-71.86497198830388, 42.14323026178572], [-71.86748396635213, 42.14300615730209], [-71.86814002170414, 42.14342213523737], [-71.86841208279775, 42.14382190511076], [-71.86831594373025, 42.14406192529195], [-71.8684280118309, 42.144286087819545], [-71.87026804084073, 42.145165851635575], [-71.87068400915774, 42.14508572875425], [-71.87177191670845, 42.144414272906765], [-71.87258807945203, 42.14327778166194], [-71.873180031447, 42.14291009911278], [-71.87492396388491, 42.142654000305356], [-71.8756120122321, 42.142270235018465], [-71.87706791301933, 42.14103820405013], [-71.87833196540589, 42.14108580689023], [-71.87898809704292, 42.14014223254452], [-71.8802840826916, 42.13911776339611], [-71.88060398702451, 42.13906999256451], [-71.88182000013722, 42.138238215789556], [-71.8829079153688, 42.13794985815827], [-71.8833879293552, 42.13822172711536], [-71.88409199302501, 42.13819010901339], [-71.8841879676185, 42.137902241420306], [-71.88396392453444, 42.13742188543341], [-71.88417200890568, 42.137294017105724], [-71.88505195784424, 42.137470003567934], [-71.88593195702768, 42.136813740243255], [-71.88737196290201, 42.13662206417017], [-71.8887960091288, 42.13524593746182], [-71.88943596337249, 42.134813858828274], [-71.89036405792422, 42.13449389434593], [-71.8929240577221, 42.13449414845902], [-71.89426797672947, 42.13433422625669], [-71.89602905773745, 42.135422050108716], [-71.89665301417357, 42.135614029457656], [-71.89932490586938, 42.135038102696605], [-71.90407691160082, 42.13369403038291], [-71.90550098774578, 42.13366199018168], [-71.89932403165392, 42.10439880016803], [-71.91172494474621, 42.10150309551794], [-71.90890897919513, 42.09158308786173], [-71.96247799867903, 42.07939073088088], [-71.96734192446688, 42.07852691427621], [-71.9771820919297, 42.07609480182148], [-71.9927339215103, 42.07262283356247], [-71.99335796219026, 42.065375215961296], [-71.99185395863326, 42.05892681061411], [-71.99157803533016, 42.057957878124526], [-71.98957299579057, 42.05669811608993], [-71.98910998098702, 42.05621109321976], [-71.98865806041077, 42.05561992361661], [-71.98821702048956, 42.0544057864259], [-71.9884989389282, 42.05407426609602], [-71.9885739647366, 42.05347128405821], [-71.98858998599815, 42.05039879858213], [-71.9911339578755, 42.039647943186786], [-71.9944940516348, 42.03134410989513], [-71.99307440992582, 42.02683050585582], [-72.09976980784582, 42.02877152630127], [-72.09438092134394, 42.035134181588035], [-72.08777594366393, 42.04257875262669], [-72.07447596050226, 42.05839900802414], [-72.0666789544807, 42.0719689449684], [-72.06472001346376, 42.07239615976752], [-72.06340106303482, 42.07289897322042], [-72.06337000513962, 42.07244220128491], [-72.06051302909925, 42.071222753331966], [-72.06056197701524, 42.071955168856526], [-72.05974399154034, 42.07325904312029], [-72.05954301114208, 42.074751778496974], [-72.06096703844939, 42.0775870870683], [-72.06095107089416, 42.0783670879165], [-72.06025806901229, 42.079996726374105], [-72.0590240815567, 42.0812508586186], [-72.05654394881122, 42.08255886718788], [-72.05554497966637, 42.0825412099144], [-72.05428392327691, 42.08226596448814], [-72.05372906328849, 42.08195972365363], [-72.05071197333035, 42.09275474115263], [-72.04819292177567, 42.099342121436884], [-72.04681603166766, 42.103421056716094], [-72.04057298999523, 42.10419909826187], [-72.04692297495507, 42.135038139337034], [-72.03149695306438, 42.13964277890839], [-72.02398697033193, 42.14170479418843], [-72.02944695118792, 42.17459691360239], [-72.07244604515388, 42.16930175721091], [-72.07172891828114, 42.17120728608912], [-72.07191291056773, 42.17267503423397], [-72.07354002143553, 42.17453284379648], [-72.07437707652194, 42.17605809151497], [-72.0738540770436, 42.17851804591317], [-72.07197908334568, 42.181231780530325], [-72.07176405179405, 42.18125480287486], [-72.0700030895328, 42.18272210340487], [-72.07045702346409, 42.18429823219811], [-72.06041298389637, 42.20309706954337], [-72.07921007646269, 42.214683187008696], [-72.07905497434467, 42.21485784968948], [-72.07902403410512, 42.21540607883477], [-72.07690296114002, 42.21766982586798], [-72.07647197286671, 42.218743936375176], [-72.07576498280056, 42.21952120675016], [-72.07564194854936, 42.22020719585954], [-72.0753650191969, 42.22038977496861], [-72.07475007855464, 42.22009293167457], [-72.07435005354262, 42.22018384158779], [-72.07382803223025, 42.22059610066182], [-72.07370492198396, 42.221464970613816], [-72.07324406671083, 42.22219596877021], [-72.07309003857358, 42.22299577532079], [-72.07355107258387, 42.2249387378214], [-72.07302908661389, 42.226470769339315], [-72.07287503125683, 42.22873415767869], [-72.07272107773441, 42.22914626543149], [-72.07238307135805, 42.229465873557174], [-72.07312103264229, 42.22989997253301], [-72.07336701121865, 42.230517157369526], [-72.07307297013816, 42.23205817692274], [-72.07049801734624, 42.23117293394773], [-72.06902090689253, 42.23097487635976], [-72.06816491600348, 42.231160874072465], [-72.0446549788294, 42.229971069459445], [-72.0385659447697, 42.24439702807494], [-72.03034199090573, 42.24533788425706], [-72.01975904024704, 42.183942737433895], [-71.99951894469201, 42.18517384249907], [-71.99951894867334, 42.18529426090572], [-71.99879895956676, 42.1854048753016], [-71.9976310159061, 42.18529290679011], [-71.97486195108843, 42.18689298154908], [-71.97467004837048, 42.187436778669785], [-71.97340592396027, 42.18890897121041], [-71.97313390540391, 42.18982110292928], [-71.97401406887715, 42.19078081368023], [-71.97423791318566, 42.191420809767095], [-71.97428605787746, 42.19462125520267], [-71.974846002169, 42.19628509170148], [-71.97446200772568, 42.1978847509942], [-71.97521403343225, 42.20159715452935], [-71.97482998811644, 42.202940780570316], [-71.97292607093273, 42.20314896644047], [-71.97190205980469, 42.20423694364737], [-71.97105396615038, 42.204637137079615], [-71.97215805401073, 42.20540518089978], [-71.97241402764425, 42.20804375638704], [-71.97314995317204, 42.21033203643031], [-71.9738060136288, 42.211195886162834], [-71.97415803265638, 42.21201202962279], [-71.97554993599549, 42.2123799013892], [-71.97638193844678, 42.21353223437704], [-71.97802998861381, 42.21481227774978], [-71.97852604216656, 42.21542017595571], [-71.97982209579156, 42.217788228246334], [-71.98191790579145, 42.219515934282114], [-71.98247799237531, 42.21990015032418], [-71.98308604641635, 42.21999606890421], [-71.98519798579885, 42.2198042768151], [-71.98676709542096, 42.22071595615363], [-71.98793504751472, 42.22212393729696], [-71.98812693886913, 42.22354787447037], [-71.98774298959756, 42.22911627758899], [-71.98739107479332, 42.231819848156604], [-71.9874710824235, 42.23284418548041], [-71.98814305855704, 42.23458794294565], [-71.98835094980095, 42.236092269846544], [-71.98867104200696, 42.23655626275369], [-71.9907510550719, 42.23828387243482], [-71.99219104853591, 42.24156385811483], [-71.9932470331378, 42.241436090318956], [-71.99374304638052, 42.243963843190116], [-71.994975056564, 42.243996242769], [-71.99571100924446, 42.2471481028727], [-71.99508708055572, 42.25046001680859], [-71.99444709350567, 42.250507790567774], [-71.99407897303858, 42.250844175052464], [-71.99343897994436, 42.25201227535794], [-71.99305493368934, 42.25351519772109], [-71.99132690653518, 42.255130789591114], [-71.99143890584217, 42.25589895224376], [-71.99228709340476, 42.25826707493162], [-71.99267104628402, 42.26015495825208], [-71.99257504519548, 42.261131083141215], [-71.99350291611897, 42.263162928881314], [-71.99369498643462, 42.26404272490354], [-71.99367895366547, 42.265387066576594], [-71.99273498582184, 42.26740275755934], [-71.99254295416324, 42.268283067804944], [-71.99257505194117, 42.26919506169365], [-71.99331103193079, 42.27261926625761], [-71.994334936849, 42.27460286456673], [-71.99457497574325, 42.275530833501435], [-71.99511905207589, 42.28225098736531], [-71.99651091815944, 42.28972315973851], [-71.99812706659816, 42.29095521074251], [-71.99951905990159, 42.291480905829886], [-72.00069205626569, 42.29172000776198], [-71.99951901698391, 42.29373223977627], [-71.99547101126696, 42.29593076021832], [-71.99374296578021, 42.29756325098689], [-71.9924309477905, 42.298170960901835], [-71.99135897415044, 42.298874970307295], [-71.99071900718812, 42.2997712579596], [-71.99057506315556, 42.302666918789214], [-71.98990290401564, 42.3034029672665], [-71.98867090326019, 42.30359502648289], [-71.9876149418726, 42.30351510899568], [-71.98630292365766, 42.30412274741735], [-71.9854390632042, 42.306731094997126], [-71.9843189844539, 42.30818699265943], [-71.98409502495859, 42.31029914597835], [-71.96723108391242, 42.31068292936615], [-71.96067006785371, 42.28156321218195]]]}}