{"type": "Feature", "properties": {"district_name": "17th Essex District", "chamber": "house", "vintage": "2012-2020"}, "geometry": {"type": "Polygon", "coordinates": [[[-71.209942, 42.70062], [-71.20249, 42.698910000000005], [-71.195382, 42.698506], [-71.193534, 42.698206], [-71.190057, 42.69699899999999], [-71.188858, 42.696247000000014], [-71.191212, 42.71057000000001], [-71.183199, 42.715366], [-71.18430099999999, 42.716634000000006], [-71.185191, 42.718226], [-71.18627, 42.721498999999994], [-71.182896, 42.722851000000006], [-71.181607, 42.721265], [-71.180978, 42.72232599999999], [-71.180585, 42.723402], [-71.180345, 42.723258999999985], [-71.178893, 42.72337299999999], [-71.179017, 42.724242000000004], [-71.17951599999999, 42.725208999999985], [-71.179855, 42.725547], [-71.178668, 42.72486699999998], [-71.178383, 42.72514199999999], [-71.177067, 42.72569600000001], [-71.175079, 42.72467], [-71.174572, 42.725207000000005], [-71.170878, 42.72329700000002], [-71.172271, 42.721706000000005], [-71.17882900000001, 42.71785599999999], [-71.177668, 42.716441999999994], [-71.176718, 42.71696499999999], [-71.173354, 42.71823399999998], [-71.17090999999999, 42.719519000000005], [-71.170731, 42.71755499999999], [-71.168162, 42.71771599999999], [-71.16801699999999, 42.71630000000001], [-71.167321, 42.716339000000005], [-71.167191, 42.714920000000006], [-71.173355, 42.714537], [-71.173509, 42.71398900000001], [-71.174249, 42.713655999999986], [-71.17326899999999, 42.71242499999999], [-71.172299, 42.712063000000036], [-71.171928, 42.712193], [-71.171238, 42.71137200000001], [-71.171818, 42.711125], [-71.17098299999999, 42.71079800000001], [-71.168123, 42.710437999999996], [-71.163759, 42.705062], [-71.161958, 42.706047], [-71.160196, 42.703293], [-71.16552800000001, 42.70112799999999], [-71.173802, 42.69489099999999], [-71.175759, 42.69392399999999], [-71.174185, 42.69301599999999], [-71.174611, 42.69235799999999], [-71.173568, 42.691635000000026], [-71.174847, 42.690643999999985], [-71.17447299999999, 42.69006600000001], [-71.17340899999999, 42.69036200000001], [-71.173209, 42.688837], [-71.173803, 42.68681599999998], [-71.173033, 42.686963], [-71.172063, 42.687545], [-71.171422, 42.687037000000004], [-71.17249799999999, 42.686134], [-71.17253199999999, 42.685873], [-71.17195699999999, 42.68439699999999], [-71.173028, 42.684132999999996], [-71.172827, 42.68355], [-71.172845, 42.682685000000006], [-71.171735, 42.682603999999984], [-71.171393, 42.68231399999999], [-71.16977899999999, 42.682204000000006], [-71.167682, 42.682379], [-71.165722, 42.67924499999997], [-71.15338299999999, 42.68138799999999], [-71.15104, 42.68165500000001], [-71.134444, 42.676812999999996], [-71.12882700000002, 42.67445], [-71.12683500000001, 42.671814999999995], [-71.127479, 42.67083299999999], [-71.128423, 42.668861], [-71.130268, 42.66593900000001], [-71.131118, 42.665198999999994], [-71.13400899999999, 42.663478], [-71.13500499999999, 42.662698], [-71.133715, 42.66146699999998], [-71.132458, 42.65896299999999], [-71.133347, 42.658832999999994], [-71.132702, 42.656774000000006], [-71.13581599999999, 42.65647699999998], [-71.139873, 42.65519700000001], [-71.142077, 42.654706000000004], [-71.141809, 42.655176999999995], [-71.143919, 42.65659200000002], [-71.145747, 42.657357999999995], [-71.14715199999999, 42.657251], [-71.147607, 42.65770500000001], [-71.14819600000001, 42.65869999999999], [-71.14938599999999, 42.65927699999998], [-71.155086, 42.65998599999999], [-71.165685, 42.66032999999998], [-71.166479, 42.660477000000014], [-71.168759, 42.65862800000001], [-71.17235099999999, 42.654707], [-71.174249, 42.652952], [-71.177427, 42.65082500000001], [-71.179954, 42.650029999999994], [-71.18097999999999, 42.65179499999999], [-71.182757, 42.651831], [-71.18348399999999, 42.65202899999999], [-71.18476199999999, 42.652854999999995], [-71.18527399999999, 42.653389999999995], [-71.186706, 42.653935000000004], [-71.18785199999999, 42.654889999999995], [-71.188464, 42.65510299999999], [-71.188767, 42.65550699999999], [-71.189695, 42.65591699999999], [-71.190315, 42.65671200000001], [-71.191121, 42.656853], [-71.208659, 42.69518699999998], [-71.209514, 42.697779000000004], [-71.209942, 42.70062]]]}}