{"type": "Feature", "properties": {"district_name": "14th Worcester District", "chamber": "house", "vintage": "2012-2020"}, "geometry": {"type": "Polygon", "coordinates": [[[-71.824162, 42.404854], [-71.786552, 42.398979000000004], [-71.77773499999999, 42.400408999999996], [-71.76330399999999, 42.40036699999999], [-71.741916, 42.392773000000005], [-71.741919, 42.38685000000001], [-71.753805, 42.383131], [-71.759706, 42.370742], [-71.763738, 42.344194999999985], [-71.764442, 42.312911000000014], [-71.76719899999999, 42.313226], [-71.767239, 42.31144299999999], [-71.768215, 42.31129199999999], [-71.758541, 42.296220999999996], [-71.75474, 42.274387000000004], [-71.766942, 42.27370699999998], [-71.781634, 42.273357], [-71.781224, 42.274378], [-71.780271, 42.27523099999998], [-71.77988599999999, 42.27582400000002], [-71.779164, 42.279042], [-71.778707, 42.27943900000002], [-71.777339, 42.28007599999998], [-71.77658199999999, 42.281166], [-71.77515199999999, 42.282698], [-71.774957, 42.283418], [-71.77576599999999, 42.283508], [-71.776133, 42.283409000000006], [-71.776772, 42.282712], [-71.77744299999999, 42.28231500000002], [-71.779406, 42.282480000000014], [-71.78341499999999, 42.28121799999999], [-71.784435, 42.281519], [-71.78549, 42.281473000000005], [-71.786811, 42.282167], [-71.787365, 42.282208999999995], [-71.78869499999999, 42.280729], [-71.78947699999999, 42.280513000000006], [-71.78969699999999, 42.280501], [-71.78943300000002, 42.281145], [-71.792636, 42.281844000000014], [-71.79390699999999, 42.278822000000005], [-71.796464, 42.274993], [-71.79758, 42.27750400000001], [-71.797445, 42.276524], [-71.799582, 42.276759000000006], [-71.79964, 42.278676999999995], [-71.803718, 42.278561999999994], [-71.804774, 42.27983299999999], [-71.80598900000001, 42.281862999999994], [-71.80856, 42.28164300000001], [-71.808464, 42.283486], [-71.806557, 42.286525], [-71.807022, 42.286515000000016], [-71.80728100000002, 42.286756000000004], [-71.807228, 42.286542], [-71.811303, 42.28694499999999], [-71.810977, 42.288132], [-71.811269, 42.28793899999999], [-71.811983, 42.28808999999999], [-71.811754, 42.289156999999996], [-71.81155799999999, 42.289438000000004], [-71.811368, 42.291689000000005], [-71.811936, 42.29193], [-71.81129899999999, 42.293676], [-71.812153, 42.293858], [-71.812184, 42.293551000000015], [-71.81236799999999, 42.29340700000001], [-71.812615, 42.29363000000001], [-71.812422, 42.29305399999999], [-71.813092, 42.292623999999996], [-71.81362299999999, 42.292737], [-71.813746, 42.293013], [-71.814424, 42.29290599999999], [-71.815178, 42.29375700000001], [-71.815201, 42.29392699999998], [-71.814686, 42.29438499999999], [-71.81450099999999, 42.294776999999996], [-71.814493, 42.295412], [-71.814139, 42.29561899999999], [-71.812207, 42.29499599999998], [-71.812007, 42.294825], [-71.811945, 42.294435], [-71.811267, 42.294051], [-71.810767, 42.293994999999995], [-71.81029, 42.294615000000015], [-71.810098, 42.294619999999995], [-71.81004399999999, 42.294000000000004], [-71.809305, 42.29364900000001], [-71.809089, 42.293681], [-71.808742, 42.29415399999999], [-71.809139, 42.294398], [-71.809457, 42.29530999999998], [-71.810881, 42.29644900000001], [-71.81273399999999, 42.29719999999998], [-71.815533, 42.29762300000001], [-71.815264, 42.298985999999985], [-71.815071, 42.29925199999998], [-71.815849, 42.301557], [-71.81565599999999, 42.302102000000005], [-71.816935, 42.30301599999999], [-71.817273, 42.30382699999999], [-71.81715, 42.30401899999999], [-71.816627, 42.30418500000001], [-71.816504, 42.30443599999999], [-71.815287, 42.30367799999998], [-71.814255, 42.302649], [-71.81357799999999, 42.302369], [-71.812646, 42.302599], [-71.812292, 42.30315700000001], [-71.811661, 42.302721999999974], [-71.81133, 42.30296899999998], [-71.810868, 42.302984999999985], [-71.809597, 42.302552], [-71.809112, 42.302554999999984], [-71.80775, 42.30361], [-71.806626, 42.301602999999986], [-71.806834, 42.301179], [-71.806787, 42.300814999999986], [-71.807126, 42.300428999999994], [-71.80709499999999, 42.2997], [-71.807734, 42.297911], [-71.807746, 42.29746299999999], [-71.80452199999999, 42.297146000000005], [-71.804467, 42.29658399999999], [-71.804068, 42.29648700000001], [-71.803923, 42.29574399999999], [-71.803162, 42.29641199999999], [-71.80284499999999, 42.297840000000015], [-71.80250199999999, 42.298564], [-71.800915, 42.30001600000002], [-71.80134, 42.30216599999999], [-71.801147, 42.304174999999994], [-71.800857, 42.30511799999999], [-71.79924, 42.308528999999986], [-71.800189, 42.309792999999985], [-71.801388, 42.310273], [-71.801771, 42.31059200000001], [-71.802222, 42.31199800000001], [-71.805299, 42.31410599999999], [-71.807169, 42.31465600000001], [-71.808128, 42.314780000000006], [-71.811832, 42.31417099999999], [-71.81215999999999, 42.31483699999999], [-71.812162, 42.315237999999994], [-71.81030299999999, 42.319382], [-71.810366, 42.32018899999999], [-71.811602, 42.319776000000005], [-71.811331, 42.319424], [-71.8121, 42.318236000000006], [-71.81317500000002, 42.318197999999995], [-71.81352500000001, 42.317595000000004], [-71.814695, 42.317912], [-71.815692, 42.31667600000002], [-71.817401, 42.316952], [-71.8182, 42.31516800000001], [-71.818709, 42.31330800000001], [-71.818799, 42.31362], [-71.82147499999999, 42.316832999999995], [-71.820639, 42.317742], [-71.81988199999999, 42.319353], [-71.82109299999999, 42.31959100000001], [-71.822903, 42.318543000000005], [-71.822982, 42.318633999999996], [-71.80204200000001, 42.331345000000006], [-71.824162, 42.404854]]]}}