{"type": "Feature", "properties": {"district_name": "12th Middlesex District", "chamber": "house", "vintage": "2022-present"}, "geometry": {"type": "Polygon", "coordinates": [[[-71.250586, 42.328959], [-71.250118, 42.32944200000001], [-71.248516, 42.33003000000001], [-71.246877, 42.33212600000002], [-71.244888, 42.33370000000001], [-71.238108, 42.330313], [-71.235351, 42.33749199999999], [-71.234199, 42.338008], [-71.233769, 42.33846099999999], [-71.223753, 42.335547], [-71.222927, 42.33542599999999], [-71.221492, 42.336023000000004], [-71.22006700000001, 42.33696100000001], [-71.220113, 42.337151], [-71.219318, 42.337537], [-71.218352, 42.337475], [-71.21708, 42.337037], [-71.217218, 42.33688999999999], [-71.217586, 42.333886], [-71.218306, 42.333891], [-71.218332, 42.333202], [-71.217463, 42.332880999999986], [-71.21711, 42.33199299999999], [-71.214768, 42.332171], [-71.214698, 42.332058999999994], [-71.213554, 42.33201], [-71.213443, 42.332436999999985], [-71.212439, 42.33297100000001], [-71.210109, 42.332337], [-71.209597, 42.332728], [-71.209221, 42.333466], [-71.207782, 42.333272], [-71.207795, 42.333715000000005], [-71.20708, 42.336149999999996], [-71.203763, 42.33531299999999], [-71.203742, 42.33594500000002], [-71.20333, 42.33669], [-71.203408, 42.337606], [-71.203071, 42.33796000000001], [-71.201557, 42.33780500000002], [-71.199197, 42.33793599999999], [-71.198388, 42.337869999999995], [-71.197351, 42.33747900000001], [-71.196636, 42.336998], [-71.195651, 42.336019], [-71.194758, 42.335724], [-71.1923, 42.33619899999999], [-71.188584, 42.33623599999999], [-71.185648, 42.336494000000016], [-71.187192, 42.335051], [-71.18622, 42.33498899999999], [-71.183738, 42.33527200000001], [-71.182362, 42.335815], [-71.181836, 42.33539099999999], [-71.180297, 42.335257999999996], [-71.177515, 42.334022000000004], [-71.177423, 42.332853], [-71.177176, 42.332691], [-71.176748, 42.332731999999986], [-71.176171, 42.332202], [-71.17462, 42.33265899999999], [-71.162972, 42.33394700000001], [-71.161721, 42.333886], [-71.160917, 42.333638999999984], [-71.159325, 42.332767999999994], [-71.156887, 42.33024100000001], [-71.167348, 42.322641000000004], [-71.169284, 42.322121], [-71.169223, 42.321994], [-71.156262, 42.325283999999996], [-71.152216, 42.32667099999999], [-71.147777, 42.32646900000002], [-71.148143, 42.326612000000004], [-71.14901, 42.327489999999976], [-71.15008, 42.328070000000004], [-71.15229, 42.32917999999999], [-71.15375, 42.32951], [-71.152439, 42.32967], [-71.1506, 42.329220000000014], [-71.15015, 42.32934000000001], [-71.14924, 42.33122999999999], [-71.14793, 42.33273], [-71.14727, 42.33311999999999], [-71.14529, 42.33379999999999], [-71.14582, 42.33442], [-71.14677, 42.334850000000024], [-71.144239, 42.335269999999994], [-71.144365, 42.33587099999999], [-71.14561, 42.33688999999999], [-71.137211, 42.338726999999984], [-71.136333, 42.33820600000001], [-71.138555, 42.33769199999999], [-71.13844, 42.337360000000004], [-71.139341, 42.33717600000001], [-71.13909, 42.33595999999999], [-71.140428, 42.336356], [-71.14146, 42.33646999999999], [-71.14149, 42.33617], [-71.142, 42.33536000000001], [-71.14321, 42.33451999999999], [-71.141976, 42.333411], [-71.1407, 42.33307], [-71.139, 42.332110000000014], [-71.13295, 42.32998000000001], [-71.13273, 42.32971999999998], [-71.1329, 42.32912], [-71.13278, 42.328579999999995], [-71.131638, 42.327025], [-71.13093, 42.3274], [-71.12937, 42.32755000000001], [-71.12827, 42.32474], [-71.12797, 42.32439], [-71.12656, 42.32434000000001], [-71.126516, 42.325375], [-71.12679000000001, 42.326820000000005], [-71.12638, 42.32655999999999], [-71.12471, 42.326109999999986], [-71.124452, 42.32666199999999], [-71.123506, 42.325835], [-71.122632, 42.325416000000004], [-71.122, 42.32643000000001], [-71.12312, 42.32758999999999], [-71.12424, 42.32914], [-71.12038000000001, 42.330450000000006], [-71.11869, 42.32867999999999], [-71.12021, 42.32618], [-71.11795400000001, 42.32522000000001], [-71.117464, 42.32527600000001], [-71.116446, 42.32589299999998], [-71.115929, 42.325855], [-71.116537, 42.32393900000002], [-71.116772, 42.323769999999996], [-71.118398, 42.323454999999996], [-71.118509, 42.323116], [-71.11887, 42.322858], [-71.119436, 42.322735], [-71.120112, 42.32283499999998], [-71.121528, 42.323882], [-71.12336700000002, 42.322571], [-71.123711, 42.32271600000002], [-71.124269, 42.321856], [-71.13186300000001, 42.31317800000001], [-71.13650200000001, 42.306204], [-71.140135, 42.302147000000005], [-71.147518, 42.305794000000006], [-71.149199, 42.30510899999998], [-71.150845, 42.303743000000004], [-71.150984, 42.303448999999986], [-71.151762, 42.303756], [-71.152501, 42.305280999999994], [-71.153455, 42.306328000000015], [-71.153439, 42.30581699999998], [-71.15427, 42.30576000000001], [-71.15499, 42.30612999999999], [-71.15782, 42.30699], [-71.15857, 42.30668000000001], [-71.15868, 42.30604000000001], [-71.158511, 42.30557700000001], [-71.159119, 42.30589399999999], [-71.160201, 42.306140000000006], [-71.161549, 42.30707], [-71.16233, 42.307790000000004], [-71.16261, 42.30825999999998], [-71.16263, 42.30865999999999], [-71.16235, 42.30913], [-71.16115, 42.30962000000001], [-71.16273, 42.31016999999999], [-71.16324, 42.31015], [-71.16397, 42.30795000000002], [-71.16338, 42.3069], [-71.16252, 42.3061], [-71.16282, 42.30581], [-71.16296, 42.30525000000001], [-71.16346, 42.304399999999994], [-71.16415, 42.30420999999999], [-71.16612, 42.30531], [-71.16642, 42.304747], [-71.164702, 42.30382999999999], [-71.178636, 42.29459500000001], [-71.191247, 42.28299200000001], [-71.190886, 42.285823], [-71.192117, 42.28727700000001], [-71.19322, 42.288014], [-71.19429, 42.28828299999999], [-71.195006, 42.28816400000001], [-71.195524, 42.287572000000004], [-71.195793, 42.286196], [-71.196355, 42.28595699999998], [-71.200018, 42.287595], [-71.201344, 42.28855799999999], [-71.203375, 42.288621], [-71.204566, 42.289046000000006], [-71.20524, 42.289567999999996], [-71.205515, 42.290186000000006], [-71.205584, 42.29171099999999], [-71.206054, 42.293398], [-71.207538, 42.296858], [-71.210477, 42.29883100000001], [-71.211343, 42.29949500000001], [-71.211779, 42.300062000000004], [-71.211768, 42.30093599999999], [-71.211253, 42.302266], [-71.211235, 42.30288199999999], [-71.21148700000002, 42.30366300000001], [-71.212945, 42.305949], [-71.21369, 42.306288], [-71.21636, 42.30640899999998], [-71.218475, 42.306814], [-71.220855, 42.30640799999999], [-71.222776, 42.30715], [-71.22411, 42.30729999999999], [-71.225456, 42.30795200000001], [-71.226688, 42.30825000000001], [-71.22700300000001, 42.30849099999999], [-71.227209, 42.30900600000001], [-71.227123, 42.30928000000001], [-71.226513, 42.30985600000002], [-71.22631100000001, 42.31028400000001], [-71.226944, 42.311554000000015], [-71.227068, 42.31239800000001], [-71.226425, 42.313205], [-71.226286, 42.31411699999998], [-71.227543, 42.31539999999999], [-71.227528, 42.315895000000005], [-71.227939, 42.31641699999999], [-71.228148, 42.31716200000001], [-71.228205, 42.31871200000001], [-71.228491, 42.319131999999996], [-71.229477, 42.319566], [-71.231144, 42.320840999999994], [-71.234761, 42.320850000000014], [-71.238421, 42.32179099999999], [-71.239216, 42.32170099999999], [-71.24025500000002, 42.321079999999995], [-71.240885, 42.32088400000001], [-71.242638, 42.320868000000004], [-71.244586, 42.321258], [-71.246219, 42.321006], [-71.246874, 42.32109299999998], [-71.2478, 42.321864999999995], [-71.248756, 42.32344700000001], [-71.24919, 42.32363800000002], [-71.250463, 42.32705700000001], [-71.250137, 42.328087], [-71.250586, 42.328959]]]}}