{"type": "Feature", "properties": {"district_name": "3rd Middlesex District", "chamber": "house", "vintage": "2012-2020"}, "geometry": {"type": "Polygon", "coordinates": [[[-71.660574, 42.41821], [-71.642426, 42.479502999999994], [-71.635335, 42.476744999999994], [-71.54890300000001, 42.44730799999999], [-71.54796, 42.450587000000006], [-71.546638, 42.453477000000014], [-71.546184, 42.456911999999996], [-71.543297, 42.466450999999985], [-71.49854599999999, 42.463775], [-71.43038899999999, 42.436937], [-71.434676, 42.42640899999999], [-71.435166, 42.42549599999999], [-71.43573599999999, 42.42367699999999], [-71.442508, 42.40694199999999], [-71.46945199999999, 42.40263099999999], [-71.472689, 42.389984999999996], [-71.475505, 42.380632000000006], [-71.595364, 42.367995], [-71.60318699999999, 42.367329000000005], [-71.607759, 42.370022], [-71.580043, 42.386949000000016], [-71.63041799999999, 42.40953700000001], [-71.660574, 42.41821]]]}}