{"type": "Feature", "properties": {"district_name": "4th Suffolk District", "chamber": "house", "vintage": "2022-present"}, "geometry": {"type": "Polygon", "coordinates": [[[-71.063553, 42.330791000000005], [-71.060584, 42.335446], [-71.060042, 42.33656400000002], [-71.059697, 42.336801], [-71.060001, 42.340054999999985], [-71.059983, 42.34207099999999], [-71.059782, 42.34298499999998], [-71.059265, 42.343989000000015], [-71.058143, 42.34564699999999], [-71.054469, 42.34677800000001], [-71.054788, 42.34687100000001], [-71.054771, 42.347253], [-71.052186, 42.350922], [-71.05218800000002, 42.351121], [-71.049595, 42.354496999999995], [-71.049396, 42.354498], [-71.045566, 42.359733], [-71.045564, 42.358246], [-71.045828, 42.357227], [-71.032422, 42.353091], [-71.02979500000001, 42.35178899999999], [-71.028363, 42.35409899999999], [-71.010994, 42.34269800000001], [-70.988173, 42.34344700000002], [-70.975094, 42.34349900000001], [-70.972893, 42.35359699999999], [-70.968935, 42.35592500000001], [-70.96882, 42.35586600000001], [-70.967257, 42.35706900000001], [-70.967048, 42.356954], [-70.917892, 42.38599700000002], [-70.901292, 42.384098000000016], [-70.851436, 42.393209000000006], [-70.749487, 42.400820000000024], [-70.648072, 42.40562799999999], [-70.652005, 42.39293899999999], [-70.658723, 42.375097999999994], [-70.67569, 42.375097999999994], [-70.74947, 42.37333999999999], [-70.851191, 42.372499], [-70.894292, 42.372398999999994], [-70.905692, 42.316999], [-70.917091, 42.314198000000005], [-70.927191, 42.310097999999996], [-70.937091, 42.311097999999994], [-70.948991, 42.301298], [-70.960192, 42.29949800000001], [-70.975992, 42.300097999999984], [-70.981781, 42.308382], [-70.988693, 42.31359800000001], [-70.998593, 42.31199800000001], [-71.002093, 42.308697999999985], [-71.009991, 42.30518], [-71.015393, 42.30669799999998], [-71.022093, 42.305598], [-71.028395, 42.30879899999999], [-71.028195, 42.324599], [-71.037194, 42.324797999999994], [-71.044999, 42.324596], [-71.045109, 42.32399199999999], [-71.046227, 42.323285], [-71.047841, 42.32259200000001], [-71.050283, 42.321864000000026], [-71.050244, 42.32201700000002], [-71.05123000000002, 42.32140599999999], [-71.052456, 42.32146600000002], [-71.052904, 42.32286999999999], [-71.053787, 42.323994000000006], [-71.05685, 42.326288999999996], [-71.056868, 42.32686700000001], [-71.055984, 42.32684999999999], [-71.055997, 42.327774999999995], [-71.056173, 42.32801099999999], [-71.056915, 42.32803499999998], [-71.057017, 42.329511], [-71.058124, 42.327514], [-71.058951, 42.328795], [-71.059288, 42.329972999999995], [-71.063553, 42.330791000000005]]]}}