{"type": "Feature", "properties": {"district_name": "10th Worcester", "chamber": "house", "vintage": "2001-2010"}, "geometry": {"type": "Polygon", "coordinates": [[[-71.47796308033017, 42.13186374192879], [-71.49173993770256, 42.12387074312072], [-71.50085801141869, 42.117976202148], [-71.50119905417655, 42.11761101171663], [-71.5014019656685, 42.1169549019335], [-71.50093998616336, 42.11624196196358], [-71.50120297620781, 42.11527018195061], [-71.50088497523647, 42.11430121615118], [-71.50024391738421, 42.113807169014294], [-71.50025695159657, 42.11360122090203], [-71.50267598646279, 42.111636242327286], [-71.50270807416192, 42.11071397194609], [-71.50155293715355, 42.10941022206447], [-71.50174203846281, 42.1088750870842], [-71.50165399802714, 42.108633127348774], [-71.50110101663942, 42.10838216974758], [-71.49910892690544, 42.104209186171715], [-71.49738800413857, 42.10363577255585], [-71.4969320004392, 42.103286886920735], [-71.49678996827927, 42.102814214554876], [-71.49631999315629, 42.10254973114009], [-71.49570893972145, 42.10186208970405], [-71.49515592143236, 42.10079799611661], [-71.49605404843668, 42.099156069604405], [-71.49616004012947, 42.098646266190336], [-71.4970750689695, 42.09783994724771], [-71.49687300393829, 42.09685914951754], [-71.49780200332698, 42.095155879280775], [-71.4976569983559, 42.09366527625767], [-71.49783702241773, 42.09269405724839], [-71.4979489244361, 42.08992781867755], [-71.49820593675462, 42.064696805320054], [-71.51809102500808, 42.06427617111181], [-71.52534206903427, 42.06397206090569], [-71.55505907292101, 42.06392110972983], [-71.59181207645632, 42.0634411827239], [-71.59186101577701, 42.06556872245725], [-71.59226100560156, 42.06838473744457], [-71.59256502698435, 42.12156822252333], [-71.57449995526338, 42.13473616293607], [-71.57240398762752, 42.13641603905804], [-71.56984397105889, 42.13918385030729], [-71.57128403343711, 42.14220802572048], [-71.57114094069436, 42.151647919608756], [-71.5702919170661, 42.15231973587473], [-71.56081992981143, 42.15804777337082], [-71.56149191601854, 42.158480132564065], [-71.56269195669586, 42.160031955937136], [-71.56347600443, 42.160559900319946], [-71.56344398578608, 42.1610562156612], [-71.56374794413237, 42.161919780370255], [-71.56344398538927, 42.162944054905005], [-71.56409990636843, 42.16369601841738], [-71.564196049511, 42.164160183850704], [-71.56406805822948, 42.16585621916469], [-71.56309209040812, 42.167310764720376], [-71.56264402938967, 42.16759911028996], [-71.56198801674877, 42.16735920053347], [-71.55971600009953, 42.16712013106638], [-71.55982797515297, 42.16755109713252], [-71.56053205218842, 42.168223152660595], [-71.56067593006043, 42.16879927627857], [-71.5623399266458, 42.17102327913153], [-71.56302792280792, 42.17143872993131], [-71.56315592227115, 42.171790906389624], [-71.56273993967524, 42.17203084268869], [-71.56248408955052, 42.1724310627917], [-71.5625479255911, 42.17292675743542], [-71.56238802253755, 42.17358294639613], [-71.56182800745339, 42.174319254107104], [-71.56201999692158, 42.17571125633741], [-71.5617319844459, 42.17630280794885], [-71.56197209078286, 42.17835088520902], [-71.5618599115313, 42.17852706451684], [-71.56005203758295, 42.178526900102085], [-71.55817996552162, 42.17823920761653], [-71.5575559839499, 42.177758981744866], [-71.55648405872843, 42.17739094559169], [-71.5559239208429, 42.176799265868084], [-71.5551560874239, 42.17702303184505], [-71.55454794266046, 42.17777508209425], [-71.55368397383458, 42.177727098116414], [-71.55266002718737, 42.177023079856646], [-71.55237206904768, 42.17711886973585], [-71.55190798748073, 42.177838762008925], [-71.5518280097114, 42.17833509433613], [-71.55277200418247, 42.1804470168278], [-71.55378001384985, 42.18124726631794], [-71.55419604571097, 42.18116716794949], [-71.55558793926114, 42.181438845500836], [-71.55586009072256, 42.181631154521014], [-71.55581205119594, 42.18206275948489], [-71.53926792179476, 42.18945497134842], [-71.53099591857377, 42.189087253160444], [-71.52303801641882, 42.18923992937536], [-71.5066740951758, 42.18877613919943], [-71.50241792792922, 42.19128872676873], [-71.49711406509196, 42.16654706673423], [-71.49242897929818, 42.16608601033945], [-71.477742949558, 42.16573410363588], [-71.47799405497666, 42.143383861414485], [-71.47785496551072, 42.13569794518219], [-71.47796308033017, 42.13186374192879]]]}}