{"type": "Feature", "properties": {"district_name": "14th Suffolk", "chamber": "house", "vintage": "2001-2010"}, "geometry": {"type": "Polygon", "coordinates": [[[-71.10809591424461, 42.28859825993122], [-71.10449504921729, 42.28589795091457], [-71.09999496003628, 42.282097721663256], [-71.1046340841707, 42.281017106306486], [-71.10776702451295, 42.27813393119567], [-71.10919599109353, 42.27424780703018], [-71.11039606349611, 42.27499801105597], [-71.11229599908101, 42.27179823291885], [-71.11029499058012, 42.270797749371994], [-71.1116960678419, 42.26729805892635], [-71.10849493265701, 42.262697882380564], [-71.10760792325239, 42.263056102534804], [-71.10683707602462, 42.26187574837986], [-71.1086949451524, 42.26109826996848], [-71.11099502602, 42.26129795837931], [-71.11269495665384, 42.259797942643], [-71.11379504536133, 42.259298043664], [-71.10949493011198, 42.25549826754469], [-71.10929601420071, 42.25449881691216], [-71.10939498282994, 42.25229790161551], [-71.10919503047514, 42.24799824976033], [-71.12029501746865, 42.242298283441734], [-71.12179605361705, 42.24129826881388], [-71.1255960880771, 42.23939812752837], [-71.12619594140591, 42.23889816013835], [-71.12259508423966, 42.235398244401985], [-71.12219506722185, 42.23479822221477], [-71.1222949426336, 42.23439791290373], [-71.12449508859828, 42.234598131426516], [-71.1244949132643, 42.23299782950184], [-71.12769591040916, 42.2307979955299], [-71.13069596843611, 42.22779784164264], [-71.13219603602997, 42.228898220026544], [-71.13249599684228, 42.22929813557475], [-71.13779595546858, 42.23279805883057], [-71.13919594262511, 42.23349795752825], [-71.14239604605262, 42.2357981341968], [-71.1429960378276, 42.23789827971227], [-71.14329600508721, 42.23999805640527], [-71.14359592274155, 42.2407980115475], [-71.1441959191518, 42.24439772798487], [-71.14449604435794, 42.244997929460034], [-71.14439590935393, 42.24529809690443], [-71.14659602786229, 42.255598201838666], [-71.15219798060107, 42.25819918332239], [-71.15024197978732, 42.259231968451466], [-71.14964307069081, 42.258841886150364], [-71.1487130609112, 42.258948206614214], [-71.14774396250431, 42.25879500380508], [-71.14552991689807, 42.25780123070413], [-71.14492406880166, 42.25646183819284], [-71.14312895608163, 42.25514126838482], [-71.14189691781881, 42.25729872394898], [-71.14019698670526, 42.25829894265468], [-71.14159608961968, 42.260197893335715], [-71.14159598977177, 42.26379798604282], [-71.14479603744468, 42.26649815432287], [-71.1451960863379, 42.269397800780915], [-71.14419601029738, 42.27179795745053], [-71.14239607880651, 42.27229822013193], [-71.1438960507239, 42.272798047307575], [-71.14074497487695, 42.27510595453275], [-71.14017209075782, 42.27568823225714], [-71.1389959077471, 42.276398030859234], [-71.13549593033038, 42.279397919847234], [-71.13022997401335, 42.28425903896048], [-71.12889597924972, 42.28569802770343], [-71.1276959548646, 42.28209800795868], [-71.12479896100099, 42.27984176091204], [-71.12426891669676, 42.279268903503905], [-71.12369604956967, 42.277998159802266], [-71.12168097267194, 42.27824306675659], [-71.12059601073148, 42.27879823381325], [-71.12019596732848, 42.2786978783996], [-71.11969595875465, 42.28079787199725], [-71.11979597899983, 42.28139802946703], [-71.11949590411317, 42.28549791055056], [-71.11899595083787, 42.28549793696262], [-71.11879698329939, 42.28619895376817], [-71.117797053501, 42.286199007295025], [-71.11719604409781, 42.28639788129979], [-71.11189701467156, 42.28649883231328], [-71.1105960031346, 42.286998031158944], [-71.10809591424461, 42.28859825993122]]]}}