{"type": "Feature", "properties": {"district_name": "11th Norfolk", "chamber": "house", "vintage": "2001-2010"}, "geometry": {"type": "Polygon", "coordinates": [[[-71.15219798060107, 42.25819918332239], [-71.14659602786229, 42.255598201838666], [-71.14439590935393, 42.24529809690443], [-71.14449604435794, 42.244997929460034], [-71.1441959191518, 42.24439772798487], [-71.14359592274155, 42.2407980115475], [-71.14329600508721, 42.23999805640527], [-71.1429960378276, 42.23789827971227], [-71.14239604605262, 42.2357981341968], [-71.13919594262511, 42.23349795752825], [-71.13779595546858, 42.23279805883057], [-71.13249599684228, 42.22929813557475], [-71.13219603602997, 42.228898220026544], [-71.13069596843611, 42.22779784164264], [-71.13679604659154, 42.226698105710476], [-71.13949605871487, 42.22379805650639], [-71.141497053123, 42.2195987453678], [-71.14109601516739, 42.2185981455954], [-71.14239608784922, 42.21669804458155], [-71.14229590876715, 42.214697913530095], [-71.1429960208894, 42.21329785711734], [-71.14239591134822, 42.21169793301893], [-71.14649693608436, 42.208598934611906], [-71.14749591935612, 42.20619817138006], [-71.1458959507311, 42.2062979056739], [-71.14586405445523, 42.205335029678544], [-71.15199706565825, 42.19799879784984], [-71.15289700785196, 42.197899113705965], [-71.15447805277078, 42.19678692941062], [-71.16329595955202, 42.20219815471335], [-71.17289694499308, 42.20879821476654], [-71.17709707015494, 42.211397950805654], [-71.17819702333625, 42.21229797644147], [-71.18769692097501, 42.21349800779244], [-71.19639693134616, 42.21369804393657], [-71.19829705350149, 42.21329791625659], [-71.20169696449864, 42.21189782000252], [-71.21019891982445, 42.20889906751451], [-71.21759895434504, 42.201798869503605], [-71.2189980321104, 42.2009982187755], [-71.22389792014337, 42.196197949598], [-71.23189793455309, 42.18879778402443], [-71.23859803575908, 42.182997792964876], [-71.23559794196221, 42.181297757973184], [-71.23319892262839, 42.18129895418605], [-71.2256990795559, 42.17179925813714], [-71.2251980592557, 42.170897742487554], [-71.22139896859024, 42.17079910111095], [-71.22589195669198, 42.16711975842343], [-71.22666394270156, 42.167360185317456], [-71.22853408467223, 42.16837917699751], [-71.22969104927012, 42.16721318272326], [-71.23082190537902, 42.166394871637166], [-71.23649005446168, 42.16282421155745], [-71.2389250840197, 42.16148325050091], [-71.23952892172868, 42.160906170309715], [-71.24616705205136, 42.164679881735466], [-71.25229398752269, 42.16712188511115], [-71.25200990131302, 42.16868612763908], [-71.251997993562, 42.17124974981539], [-71.25182299762723, 42.17242878392249], [-71.25209194472782, 42.17329198442846], [-71.25446906761451, 42.17315304875449], [-71.25652502510329, 42.173568201262334], [-71.25678305953414, 42.173942937628986], [-71.25677499849984, 42.175404806184666], [-71.25889905105, 42.17544192819979], [-71.25993499370517, 42.176055757135565], [-71.2613709010196, 42.176130212157275], [-71.26155403973289, 42.17621499756808], [-71.26163307364926, 42.176621995810194], [-71.27437402256781, 42.17643788218838], [-71.27547693346935, 42.17720193735069], [-71.27557298477792, 42.18148424022553], [-71.26946302067182, 42.200549723732465], [-71.26726891459596, 42.20091386238564], [-71.26364108354545, 42.203300144445706], [-71.26056891475794, 42.20417495205476], [-71.2570360616175, 42.2039300676994], [-71.25353208898974, 42.20287879173177], [-71.25137894202517, 42.2025978674243], [-71.24690000123606, 42.214399009114594], [-71.24609993996192, 42.215999223460265], [-71.23969999844333, 42.23429882210449], [-71.23599994985142, 42.24549916540209], [-71.23289993209413, 42.25419905145233], [-71.231900017924, 42.256598835355106], [-71.23229907357955, 42.25819780229679], [-71.23149906862966, 42.25929824570647], [-71.2288989782572, 42.26399789392807], [-71.22490008776678, 42.263699161842545], [-71.2226999209914, 42.26259887852469], [-71.21999992391125, 42.26319890464005], [-71.21879908702525, 42.2648981067076], [-71.21809898404783, 42.26679827583029], [-71.21809902620139, 42.267597850954985], [-71.21779891988913, 42.268598140008365], [-71.21059806352207, 42.26729784894227], [-71.20749802419836, 42.267798106606875], [-71.20469803199967, 42.2670982670743], [-71.20229795240726, 42.26719785565943], [-71.19699803727637, 42.26899810109786], [-71.18809794212669, 42.280197086197475], [-71.18529803329034, 42.279298152401765], [-71.1831980186857, 42.27569793117902], [-71.17759703814718, 42.27659783401879], [-71.1742970791441, 42.27549803422946], [-71.17479690845745, 42.27369772323657], [-71.1727969066481, 42.269698079865684], [-71.17439691397415, 42.268197997666896], [-71.17379692348722, 42.26679801749126], [-71.17159696041065, 42.26609794711877], [-71.17109709488649, 42.26519790639766], [-71.16829705058073, 42.26279785517449], [-71.16699694717964, 42.26189773215091], [-71.16339801952303, 42.25889878792312], [-71.16309801951192, 42.258798874618606], [-71.16209795327114, 42.25769925720062], [-71.16139704693144, 42.257498000010386], [-71.15839696397016, 42.254998078070805], [-71.15669697032885, 42.25599797314303], [-71.15579796266829, 42.256299134533805], [-71.15219798060107, 42.25819918332239]]]}}