{"type": "Feature", "properties": {"district_name": "4th Berkshire District", "chamber": "house", "vintage": "2012-2020"}, "geometry": {"type": "Polygon", "coordinates": [[[-73.50814199999999, 42.08625699999999], [-73.499563, 42.10999], [-73.49708799999999, 42.11628299999999], [-73.493119, 42.127666], [-73.48341599999999, 42.154448], [-73.450974, 42.242779000000006], [-73.405626, 42.365933000000005], [-73.38351, 42.425491000000015], [-73.24561899999999, 42.404284], [-73.221994, 42.400507000000005], [-73.206268, 42.398196999999996], [-73.201787, 42.41374800000002], [-73.169292, 42.412759], [-73.135639, 42.41195899999999], [-73.140788, 42.39310800000001], [-73.09156999999999, 42.384822], [-73.068595, 42.38073], [-73.06437199999999, 42.33972200000001], [-73.06290899999999, 42.329091], [-73.061916, 42.328464000000004], [-73.060575, 42.32803], [-73.056476, 42.32578799999999], [-73.05369499999999, 42.324633], [-73.052239, 42.323843999999994], [-73.051531, 42.323357999999985], [-73.050876, 42.32258100000001], [-73.049844, 42.32174], [-73.048896, 42.321328], [-73.04821799999999, 42.321287999999996], [-73.04669299999999, 42.320601999999994], [-73.046331, 42.32031599999999], [-73.04607, 42.31947000000002], [-73.04579199999999, 42.31932099999999], [-73.044822, 42.319178000000015], [-73.042017, 42.32018899999999], [-73.040723, 42.32018399999999], [-73.039715, 42.318731], [-73.0398, 42.31757100000001], [-73.039315, 42.316826999999996], [-73.039123, 42.315432], [-73.038538, 42.314723], [-73.03585, 42.313505000000006], [-73.03504099999999, 42.31296100000001], [-73.032439, 42.310262000000016], [-73.03123, 42.30929000000001], [-73.028189, 42.308254000000005], [-73.026941, 42.308020000000006], [-73.02633999999999, 42.30807700000001], [-73.025893, 42.308282000000005], [-73.0253, 42.30886500000001], [-73.024599, 42.309197], [-73.021972, 42.309533], [-73.020671, 42.30839999999999], [-73.019624, 42.308434], [-73.018822, 42.30868], [-73.018298, 42.309023], [-73.01797499999999, 42.30953099999999], [-73.017781, 42.31064600000001], [-73.01735699999999, 42.311068999999996], [-73.016795, 42.31121699999999], [-73.014616, 42.309444000000006], [-73.01424, 42.30848400000001], [-73.013609, 42.308055], [-73.01295499999999, 42.306899], [-73.011346, 42.305887], [-73.010854, 42.304995], [-73.01010699999999, 42.30457100000001], [-73.009198, 42.304438999999995], [-73.007873, 42.304908], [-73.00677999999999, 42.30483299999998], [-73.00527, 42.305254999999995], [-73.005208, 42.30570699999999], [-73.005847, 42.30606699999999], [-73.00584599999999, 42.306422000000005], [-73.00538399999999, 42.306936], [-73.00369599999999, 42.30783300000001], [-73.00348699999999, 42.309501999999995], [-73.003379, 42.30970199999999], [-73.002023, 42.31052600000001], [-73.001939, 42.311688999999994], [-73.00172599999999, 42.312045000000005], [-73.000888, 42.312513999999986], [-73.000067, 42.312693], [-73.000377, 42.312351], [-73.001846, 42.25109], [-72.912302, 42.23913299999999], [-72.87218, 42.216438999999994], [-72.86841799999999, 42.22374799999999], [-72.86448, 42.222027000000004], [-72.863359, 42.221992], [-72.861912, 42.22229], [-72.860018, 42.22229], [-72.857884, 42.22056099999999], [-72.857641, 42.219802000000016], [-72.85804399999999, 42.218927], [-72.859582, 42.217468], [-72.859652, 42.21678000000001], [-72.85841099999999, 42.21555300000001], [-72.857924, 42.21446799999998], [-72.8575, 42.21265400000001], [-72.854792, 42.208625], [-72.854196, 42.20734399999999], [-72.854233, 42.206496], [-72.854514, 42.205927], [-72.856338, 42.204048], [-72.856482, 42.203365000000005], [-72.852826, 42.20258499999999], [-72.848686, 42.20218900000001], [-72.84754699999999, 42.201827], [-72.84661299999999, 42.201022], [-72.837329, 42.191239], [-72.82830799999999, 42.182047], [-72.82786, 42.18096], [-72.812981, 42.16130400000001], [-72.812465, 42.15746100000001], [-72.81287499999999, 42.155848000000006], [-72.828906, 42.137012], [-72.830047, 42.13792900000002], [-72.831383, 42.138231], [-72.83445600000002, 42.137796], [-72.83615300000001, 42.137173], [-72.836506, 42.136532999999986], [-72.835899, 42.13508699999999], [-72.835909, 42.134775999999995], [-72.836117, 42.13433799999999], [-72.836604, 42.133945000000004], [-72.837676, 42.13353399999999], [-72.839215, 42.133375999999984], [-72.84034199999999, 42.13242300000002], [-72.84083100000001, 42.13219599999999], [-72.843428, 42.132332999999996], [-72.843803, 42.13226700000001], [-72.844067, 42.13197499999999], [-72.844211, 42.13119999999999], [-72.844122, 42.12978100000001], [-72.843612, 42.12841399999999], [-72.84289799999999, 42.127323999999994], [-72.842798, 42.126869000000006], [-72.843013, 42.126432], [-72.84391099999999, 42.12605800000001], [-72.846211, 42.126495000000006], [-72.84701799999999, 42.126413], [-72.84908899999999, 42.125153000000005], [-72.85061, 42.12508199999999], [-72.851292, 42.124659000000015], [-72.85141999999999, 42.123509], [-72.851642, 42.123033], [-72.851868, 42.122907000000005], [-72.853897, 42.11500600000001], [-72.895663, 42.12391699999999], [-72.981827, 42.13668200000001], [-72.971487, 42.085249999999974], [-72.970265, 42.07854999999999], [-72.979007, 42.038478], [-72.999549, 42.03865299999998], [-73.052037, 42.03972199999998], [-73.05332899999999, 42.03987000000001], [-73.067663, 42.04014700000001], [-73.08705499999999, 42.04087999999997], [-73.148173, 42.04269699999999], [-73.229798, 42.044877], [-73.25546, 42.045795], [-73.293386, 42.046789999999994], [-73.29589299999999, 42.047025999999995], [-73.32674399999999, 42.047931999999996], [-73.42616799999999, 42.05048399999998], [-73.432812, 42.05058699999999], [-73.489524, 42.04960599999999], [-73.49687899999999, 42.04967499999999], [-73.507965, 42.085007000000004], [-73.50814199999999, 42.08625699999999]]]}}