{"type": "Feature", "properties": {"district_name": "18th Suffolk", "chamber": "house", "vintage": "2001-2010"}, "geometry": {"type": "Polygon", "coordinates": [[[-71.1171970217677, 42.36719699994788], [-71.11692894610178, 42.35871597359536], [-71.11709595447965, 42.355597032204756], [-71.1109959868566, 42.35259716227438], [-71.10879593987487, 42.35239726209368], [-71.10301692804467, 42.35263798280062], [-71.1038249760962, 42.34964786430477], [-71.1007959536512, 42.34929697071865], [-71.10109594694289, 42.34809724954925], [-71.1003560911019, 42.34799114709566], [-71.10099601283078, 42.347796989043665], [-71.09949599196104, 42.347496928963025], [-71.10159599056426, 42.34689709527681], [-71.10302600058593, 42.346145229803945], [-71.1034960127222, 42.347097225357565], [-71.10535597389358, 42.346606213553194], [-71.10623906059377, 42.34834792679329], [-71.10689598684252, 42.34849702981836], [-71.10719596342427, 42.347096978274415], [-71.10569592601851, 42.34399709468831], [-71.11059608834704, 42.340197127225586], [-71.11109601069388, 42.3403968834841], [-71.11279609303499, 42.34039699477221], [-71.11459597970317, 42.34399688689857], [-71.11749596680376, 42.34329703395281], [-71.1163960051266, 42.34929717889649], [-71.11439594235539, 42.349096926997596], [-71.11409592142552, 42.350496996052094], [-71.11609595637252, 42.35089700003691], [-71.1215970146622, 42.35149704562578], [-71.12125104621839, 42.35350074138089], [-71.12519805403538, 42.35395987422568], [-71.12539695971046, 42.35319696988584], [-71.12849692880675, 42.353697116186915], [-71.12876106031992, 42.35264013060064], [-71.13769703783115, 42.35359705321466], [-71.12981308164895, 42.356815230570795], [-71.13124091019874, 42.35908573234391], [-71.13198003106277, 42.358698158648615], [-71.13208707040278, 42.35888193457492], [-71.13349702875226, 42.35849706242598], [-71.1333529237414, 42.35989711614581], [-71.13089693858818, 42.36199705597681], [-71.13063393886989, 42.362502055473485], [-71.13249692629225, 42.363196742207826], [-71.13389693657727, 42.36349605073225], [-71.14000403547331, 42.362652179174255], [-71.14038702901907, 42.36171427118178], [-71.1393590168468, 42.36143984109686], [-71.14117493066365, 42.357972099434775], [-71.13828490895216, 42.35758605090465], [-71.13900597876446, 42.355633010263126], [-71.13887197389418, 42.35525221817814], [-71.1392969501239, 42.353796769874826], [-71.14359702387407, 42.354596803210434], [-71.14929699588572, 42.356197148468716], [-71.15276103368818, 42.3509657390147], [-71.15396095698429, 42.35123774983142], [-71.15356704582622, 42.35200124985919], [-71.15478407961412, 42.352304813551946], [-71.15519698433907, 42.35149691921392], [-71.15819705758089, 42.35169718673468], [-71.15829801834566, 42.35389700476193], [-71.15879808430097, 42.353697050417004], [-71.1590980403276, 42.354096875037655], [-71.16199804287074, 42.35459609142342], [-71.1624160766857, 42.352387115721754], [-71.16219792297707, 42.35239717049936], [-71.16219799158873, 42.348797147292714], [-71.16358008427471, 42.349115732612226], [-71.16378104386916, 42.34891319752823], [-71.16807202929559, 42.3499227321155], [-71.16869808374247, 42.34929714548004], [-71.16679805221113, 42.34879706464041], [-71.16739798350565, 42.347697074745646], [-71.16849799798116, 42.3479967790108], [-71.16713397061726, 42.34712800421442], [-71.16499796711557, 42.34629691218956], [-71.16219806133797, 42.34629715632164], [-71.16139802750189, 42.34749725477847], [-71.16054795489302, 42.34716895220982], [-71.1608980524041, 42.34659717698614], [-71.1589880567898, 42.34593206721024], [-71.15819694965802, 42.34599723986928], [-71.15779699496215, 42.34459722710835], [-71.1582970076521, 42.3424971071067], [-71.15919692781202, 42.3411971678815], [-71.15986804501331, 42.33988023144706], [-71.15795505393386, 42.339388966971086], [-71.15549708732132, 42.34019694836036], [-71.15399506142197, 42.342851109300945], [-71.15349699160636, 42.34439698097369], [-71.15526498463282, 42.345038124258316], [-71.15439706079613, 42.346496795015824], [-71.15379700306198, 42.34709705767604], [-71.1534240547083, 42.34628905075447], [-71.15259699392327, 42.34609693614409], [-71.15329708654158, 42.34509691103], [-71.15146993830024, 42.34452589771001], [-71.15125608635036, 42.34482797139676], [-71.15010691596348, 42.34459321393788], [-71.150296961905, 42.34379703637135], [-71.15024293745681, 42.34314191171852], [-71.14939707060647, 42.342896824602036], [-71.14959701190966, 42.34219689198776], [-71.14883190224114, 42.341340975189574], [-71.14609696760944, 42.34169720660866], [-71.14613195618786, 42.34144298247209], [-71.14704403330612, 42.34130399042355], [-71.14769702205898, 42.34059701501223], [-71.14702899633768, 42.340090236582235], [-71.14731091687115, 42.33985815173329], [-71.1474479875983, 42.33931727277527], [-71.14714889979953, 42.33892022760356], [-71.14649694363976, 42.338697095574766], [-71.14659704544347, 42.338497088745704], [-71.14649706778891, 42.337997120266955], [-71.14619705286817, 42.33739693708182], [-71.14869690526332, 42.33679690699502], [-71.14839700764313, 42.33579723482631], [-71.15049707532349, 42.33499675292176], [-71.14999703124201, 42.334497253762635], [-71.14979701218647, 42.33449721180963], [-71.15699706878424, 42.33009679824092], [-71.15962592387135, 42.33243974227152], [-71.16127195927076, 42.33339272731155], [-71.16249696591548, 42.33359720308686], [-71.16699793519244, 42.333196762671434], [-71.16769794544311, 42.33329725301503], [-71.16909805939011, 42.338197184767594], [-71.16679898334458, 42.339798119140816], [-71.16843292699828, 42.34214078495981], [-71.16946898942827, 42.34323086639701], [-71.17479792805332, 42.350096124363155], [-71.17479793493082, 42.35079609729577], [-71.17399797056628, 42.3531959044032], [-71.17119801534487, 42.35639576873541], [-71.1699990585945, 42.35739727836653], [-71.16969796883815, 42.35839573082379], [-71.16799801014395, 42.360195907747794], [-71.163698067037, 42.358495937595556], [-71.1595979043852, 42.359995796331255], [-71.1552970555313, 42.35989576660243], [-71.14849692224698, 42.36119579543198], [-71.14679696118634, 42.36229624611639], [-71.1450970484191, 42.3644961540969], [-71.14379696489424, 42.36499572763388], [-71.13999695283339, 42.364496058848445], [-71.13199704484967, 42.36969577111004], [-71.13299693475938, 42.37169590457602], [-71.1331969737974, 42.372596268562326], [-71.13099692050722, 42.37379617092198], [-71.12749704093625, 42.372996016891626], [-71.12329694378941, 42.368995770131725], [-71.11849696932939, 42.36839701536797], [-71.1171970217677, 42.36719699994788]]]}}