{"type": "Feature", "properties": {"district_name": "12th Bristol", "chamber": "house", "vintage": "2001-2010"}, "geometry": {"type": "Polygon", "coordinates": [[[-70.882363985128, 41.88581402213927], [-70.88351607064978, 41.88459800288601], [-70.88498796963746, 41.88427786771483], [-70.88738804405959, 41.883381971878954], [-70.8881560309969, 41.883333752979674], [-70.88937208904916, 41.88251812286149], [-70.89078002667276, 41.8820861508489], [-70.8932439625998, 41.88395797309893], [-70.89580390228856, 41.88560627441822], [-70.89543600547582, 41.88509393622421], [-70.89529206981965, 41.883973902285405], [-70.89596406886938, 41.88163820247611], [-70.8965240123625, 41.88093381013387], [-70.89818795450797, 41.87955772547579], [-70.90156395580429, 41.88090182330584], [-70.90681202525253, 41.882373747063596], [-70.90857191210111, 41.88301426065087], [-70.90924401730996, 41.8825022825159], [-70.90938798228264, 41.88210179803702], [-70.90957992167601, 41.88109382434404], [-70.90937206708851, 41.88040622074918], [-70.90943598745822, 41.880070040148134], [-70.90982005756631, 41.87986212475554], [-70.91068405106917, 41.879765865379035], [-70.91065201417054, 41.87907804632387], [-70.91124409041943, 41.8785020505045], [-70.91175596563198, 41.878374137031585], [-70.91289202010383, 41.87874182534394], [-70.91382003060518, 41.87880624456753], [-70.91410807643561, 41.87859782161245], [-70.91413994361544, 41.878182133783916], [-70.91437998391524, 41.877829972601035], [-70.91573996724084, 41.877733959147506], [-70.91650801131559, 41.87651789443593], [-70.91607607509512, 41.875318200266534], [-70.91599597803044, 41.87463013684928], [-70.91606003732181, 41.87363781245935], [-70.91631598298508, 41.87290194809375], [-70.91618791661315, 41.87272572185907], [-70.91474801920278, 41.87237395697766], [-70.91421992914825, 41.871670088192126], [-70.91321205707544, 41.87088609433933], [-70.9131799087655, 41.870677719569365], [-70.91321206037271, 41.87037401162855], [-70.9135960598774, 41.86979806808377], [-70.91426805812344, 41.86938172402867], [-70.9151640304151, 41.86838972317179], [-70.91660390881786, 41.867478162899054], [-70.91634807340422, 41.867094199417394], [-70.9151320539486, 41.86643801747191], [-70.9151959867951, 41.86619806463494], [-70.91581995363163, 41.86600598951645], [-70.91604398688114, 41.865670066467175], [-70.91525993661415, 41.86523781050549], [-70.91524400311407, 41.86504584296748], [-70.91586801732296, 41.86429385761115], [-70.91573992114952, 41.86410187411772], [-70.91538797706987, 41.864245813647464], [-70.91498802030542, 41.8639421413251], [-70.91449190865875, 41.86240616595928], [-70.91378804215229, 41.86195799632873], [-70.91311596571629, 41.86194216141003], [-70.91298801341033, 41.86128591982208], [-70.9131000043058, 41.860853762084034], [-70.91385209758606, 41.86051774011066], [-70.91429990331031, 41.85983013438249], [-70.91602807416861, 41.859845745358626], [-70.91657203967573, 41.859526080219176], [-70.91722798744102, 41.85885415822866], [-70.91729207414521, 41.85853373026143], [-70.91660392906867, 41.8576861207162], [-70.91657206325533, 41.8571581182865], [-70.9170840704681, 41.85549393301196], [-70.91830000729831, 41.85347825940794], [-70.91858807932027, 41.852550099982125], [-70.91570800544233, 41.84928618873988], [-70.89375592565496, 41.827141869343336], [-70.89876391161667, 41.814822068517685], [-70.896042982525, 41.79429387481366], [-70.92170793799802, 41.790854198088596], [-70.9158520228137, 41.77999007730059], [-70.9134999161486, 41.77504621731088], [-70.90746694476319, 41.763542025938705], [-70.9101390910093, 41.763302096138354], [-70.91194694700503, 41.762950168434124], [-70.92613993981836, 41.758726097343136], [-70.92636394331713, 41.75819825810466], [-70.92628400669376, 41.75762217686785], [-70.92567605686483, 41.756885878856075], [-70.92450803022251, 41.755941906049735], [-70.92278007755289, 41.75517404271853], [-70.92236391632674, 41.75482191406657], [-70.92238000640683, 41.7546621798853], [-70.92284397354172, 41.754693793721984], [-70.9245240072644, 41.75402194690049], [-70.93585197628714, 41.748405726627745], [-70.942983917346, 41.745102142027264], [-70.93908396361424, 41.7331018962082], [-70.94358402329689, 41.73260175981465], [-70.94258393861699, 41.730102276695156], [-70.94068408086322, 41.72740197906379], [-70.9470839134306, 41.7270021852369], [-70.94948406176887, 41.72740209977122], [-70.95108393421768, 41.72720218076728], [-70.94898407447836, 41.72510205502433], [-70.94860709169977, 41.722784028904584], [-70.95015498569533, 41.7223908504802], [-70.95149201070832, 41.72125213778184], [-70.95218394499395, 41.72040181095491], [-70.95768403614689, 41.71950188888649], [-70.9473830196106, 41.697802952231505], [-70.94503499985143, 41.69319119102681], [-70.94148300479068, 41.69360318236702], [-70.93908308991305, 41.69420306358909], [-70.93891901606395, 41.69290178578973], [-70.93738694615746, 41.69274115851577], [-70.93478301928207, 41.69340296628937], [-70.93468304122317, 41.69040310744366], [-70.93418291312568, 41.684902728199035], [-70.93388300369729, 41.68240327246993], [-70.93318308192003, 41.678902969220125], [-70.93828308075757, 41.67910326822593], [-70.93848291631932, 41.68000294232085], [-70.93928302631438, 41.680203277290545], [-70.94048303443073, 41.67950296076685], [-70.93698298300471, 41.665402757907], [-70.93428303654125, 41.66090325933851], [-70.93388304114673, 41.66050285459896], [-70.93188303199736, 41.657102981585844], [-70.91952458754972, 41.65858640150863], [-70.9191073205865, 41.65772385672073], [-70.91922917641257, 41.65715442587573], [-70.91904653820112, 41.656815295003284], [-70.91883324972628, 41.65662962885499], [-70.91791852732108, 41.65651015346785], [-70.91791756496711, 41.655915335069174], [-70.91858895174602, 41.65562502254512], [-70.91834488963498, 41.65544032359464], [-70.9184976517131, 41.654545800804385], [-70.9197476364878, 41.65440812545327], [-70.91974781103336, 41.653975947316056], [-70.9202660985642, 41.65356160075435], [-70.92075419767717, 41.65240092306027], [-70.9212418815391, 41.65178045596608], [-70.92099795294085, 41.65168524240549], [-70.9209676960919, 41.65129848623631], [-70.92127220955234, 41.65008678380259], [-70.92166902641965, 41.649909295162516], [-70.92225953243141, 41.648948897717595], [-70.9237820183339, 41.648802991739736], [-70.92408203933172, 41.64410400771298], [-70.92354861724719, 41.64171306601507], [-70.92389427355329, 41.64164954081098], [-70.92380262120524, 41.64110153271618], [-70.92339125696063, 41.6411512188461], [-70.92318194267159, 41.640403973236936], [-70.92362097931348, 41.6407168282122], [-70.9235079949311, 41.64033078782939], [-70.92698199623405, 41.639704014639484], [-70.92738191099998, 41.63900373876967], [-70.9280819460096, 41.638903719241085], [-70.92788195960696, 41.638303965430424], [-70.9289819949106, 41.63820426871857], [-70.92878204927905, 41.637704115923945], [-70.93478206513245, 41.637103840726645], [-70.93528201969994, 41.638804093403174], [-70.9357820443314, 41.64190272972986], [-70.93438193057722, 41.64210285928659], [-70.93488193452863, 41.645203183193516], [-70.93848295502951, 41.644802916462794], [-70.93868307090477, 41.64510327805819], [-70.94108302176363, 41.64480277862215], [-70.94048309012699, 41.64310319506824], [-70.95088303491121, 41.64210326842548], [-70.95148302824138, 41.6433030993096], [-70.9519829595935, 41.64390313090939], [-70.95278296526884, 41.64560305700614], [-70.95498299185337, 41.64820274636785], [-70.95393304331743, 41.64925283579562], [-70.95288303014289, 41.648003026460735], [-70.9475829912967, 41.650203003836815], [-70.94668298932032, 41.65040290462498], [-70.94288305498287, 41.65190316201456], [-70.94378295178544, 41.653703249371894], [-70.94018297753696, 41.65470300565703], [-70.94298299156836, 41.6591032457663], [-70.94438297739694, 41.6604032515192], [-70.94308291982725, 41.661803165234815], [-70.94258306505293, 41.66310287868042], [-70.97218394035436, 41.6605030218615], [-70.9771839237957, 41.678603270822094], [-70.97638394690668, 41.683302893326115], [-70.96998404800327, 41.71410189122512], [-70.9686219880508, 41.72009424678031], [-70.96603093234154, 41.72997604791884], [-70.96548406488928, 41.733901906162494], [-70.96468408122138, 41.73420202251725], [-70.98015701809874, 41.76621422146841], [-70.98345304665655, 41.77338205253133], [-70.98386904982819, 41.77469396970993], [-70.98807706434589, 41.78365414626799], [-70.96089291695797, 41.78611790225085], [-70.95015595313164, 41.7872697214301], [-70.94734003794314, 41.787733862988986], [-70.94729195844756, 41.78799023455948], [-70.94743600354222, 41.78807027342041], [-70.94818803319436, 41.78799007486762], [-70.94911595908219, 41.788134120867795], [-70.95018795692542, 41.788485938889146], [-70.95071602491116, 41.78891784329278], [-70.9509560560878, 41.78950986583691], [-70.95090792474883, 41.79058219630488], [-70.9521249585815, 41.791365745169514], [-70.95258893627332, 41.792262155986364], [-70.9530530502266, 41.79255025060431], [-70.95316501403639, 41.79299815311743], [-70.95364505213817, 41.79338198564663], [-70.95393292121084, 41.79416612603931], [-70.9543810148305, 41.794374230828794], [-70.95401307403161, 41.79459811881362], [-70.95402900641817, 41.79587784127741], [-70.95359692334203, 41.79639010525591], [-70.95382098858602, 41.79738214965086], [-70.95348491537212, 41.798054121063466], [-70.95351699521929, 41.79850220723769], [-70.95447705050427, 41.79959006385757], [-70.9544449731008, 41.80054992603755], [-70.95484502904955, 41.801125823541966], [-70.9549249449884, 41.80200574655034], [-70.95510100756435, 41.802150088660476], [-70.95548502681582, 41.802118159924156], [-70.95567705863924, 41.80237398873295], [-70.95561291270093, 41.802885765704985], [-70.9546210154175, 41.803622143021244], [-70.95402905289978, 41.804421760853735], [-70.95398098497057, 41.80485426464934], [-70.95332504492072, 41.805766118195365], [-70.953260938218, 41.806357801543506], [-70.9537890351747, 41.806806014269625], [-70.95545292996223, 41.807333935624925], [-70.95732501390097, 41.80850208348898], [-70.95809293618012, 41.80936615280168], [-70.95814093239021, 41.81035790864801], [-70.95839698432482, 41.81074178072122], [-70.95898896726561, 41.810693945852286], [-70.96022102425898, 41.811381812583896], [-70.96164492358085, 41.811445943410696], [-70.96350100977874, 41.812486169126664], [-70.96390093856263, 41.81235806462209], [-70.96623703717182, 41.81663000227914], [-70.9677890842394, 41.818502137634155], [-70.96993298730162, 41.8202942786138], [-70.9736769978652, 41.82263005915355], [-70.98444502664144, 41.82781301469046], [-70.98330897400335, 41.82915672501268], [-70.98633397559209, 41.83333288407563], [-70.98898999553516, 41.83557321235226], [-70.99058992199393, 41.83632485195329], [-70.98956593210035, 41.839413017715216], [-70.99071796749814, 41.841445107089974], [-70.99529402439138, 41.84509277791442], [-70.99604598143092, 41.845860851308785], [-70.99963702485725, 41.85073916633251], [-71.00051199428074, 41.85414693071965], [-71.00090904792523, 41.857992081390286], [-71.00327408567564, 41.85664173330107], [-71.00550193453864, 41.85629801974139], [-71.00940795389168, 41.8548489796976], [-71.01091892141217, 41.85465795508639], [-71.01954095461146, 41.852354214799675], [-71.01973901970878, 41.85341409646016], [-71.02134092806588, 41.85681687523125], [-71.02131101066864, 41.85724385301136], [-71.02095997245783, 41.85793115427518], [-71.0204409194911, 41.858563726853134], [-71.02057806526594, 41.85921988155858], [-71.02167705051998, 41.86095205751016], [-71.02280602994139, 41.86227974472476], [-71.02326405428089, 41.86432378942199], [-71.02521697454239, 41.86687994580564], [-71.02631592538366, 41.869359930190896], [-71.0266970352715, 41.870656901355325], [-71.02822308756053, 41.871702008148695], [-71.02901593618553, 41.8725341792741], [-71.03008490580872, 41.88281784608083], [-71.03161005927397, 41.882650238141444], [-71.03518101520324, 41.881749849104885], [-71.04067398397852, 41.87973615620216], [-71.04291801831782, 41.88094882436578], [-71.04702292906072, 41.88182615492011], [-71.04882304738489, 41.882429212322776], [-71.04668691630742, 41.88301610870019], [-71.04586301347372, 41.883558107021244], [-71.04534397455689, 41.88411482853254], [-71.04507006408157, 41.88474792074377], [-71.0450849315207, 41.885381047126394], [-71.04418497391393, 41.88625923822043], [-71.04372699943983, 41.88632775326707], [-71.04343695302259, 41.88608293021969], [-71.04412404000132, 41.88443521622605], [-71.0440020884042, 41.88395472237495], [-71.04374196584152, 41.88376404991909], [-71.04279607784301, 41.88427515152], [-71.0414839492391, 41.88539702574247], [-71.04085694926064, 41.88543502137077], [-71.04055202440107, 41.8856099220345], [-71.03960600284445, 41.885610053781036], [-71.03896498200368, 41.88524394769655], [-71.03882800161715, 41.884740878591245], [-71.03897795228232, 41.88350406186381], [-71.03878195865997, 41.88342786522766], [-71.037760021889, 41.883855902199755], [-71.03644792669576, 41.885503860185956], [-71.03524496819158, 41.88637794125015], [-71.03347196937457, 41.88662505917219], [-71.03121390372931, 41.88596079852399], [-71.0264840731853, 41.88638075745431], [-71.02509507338497, 41.88680772540282], [-71.0238740661983, 41.887754198954255], [-71.02285189972254, 41.888792093758326], [-71.02227206295535, 41.889089037179446], [-71.01853394751681, 41.889432916200526], [-71.01751092043122, 41.890173074867086], [-71.01635207817199, 41.89183608217296], [-71.01574105418604, 41.8922397778395], [-71.0140320388936, 41.89248405699024], [-71.01351401453648, 41.89239294030368], [-71.01209405293363, 41.89041678157472], [-71.00919506244631, 41.89094288479555], [-71.00733306690839, 41.8859159279261], [-71.0079429698034, 41.88490115433424], [-71.00771404540114, 41.884146117439826], [-71.00603599611631, 41.88457273229608], [-71.00507394125904, 41.88501480030605], [-71.00513502094843, 41.88398528053082], [-71.0053489220225, 41.883664896897066], [-71.0049830372978, 41.8832907874639], [-71.0050740275082, 41.883016005563945], [-71.00495197133903, 41.88261200770241], [-71.00446391060939, 41.88209274200148], [-70.99900103973421, 41.883839791138726], [-70.99675808177973, 41.884801744163305], [-70.99366095516051, 41.890141804661525], [-70.99552190599441, 41.891896739041165], [-70.99549206892631, 41.8924311948407], [-70.99520209395439, 41.89314794855356], [-70.99488203102162, 41.896185241115916], [-70.9955219542061, 41.89750484399843], [-71.00080207903622, 41.89785612619003], [-70.99890991900173, 41.90074698780552], [-70.99749109624601, 41.90334109178904], [-70.99597995670061, 41.90480595684276], [-70.99537001690095, 41.90592026386759], [-70.99457596052115, 41.906666866262974], [-70.99459102850504, 41.90640526216457], [-70.99423509101966, 41.90635923546165], [-70.9937709553492, 41.90682311347386], [-70.993034966775, 41.90687105138708], [-70.99268301295253, 41.90667872948961], [-70.99225105014914, 41.90679103775809], [-70.99197897715838, 41.906310954528294], [-70.99101893983983, 41.90602306645456], [-70.98742196868375, 41.90611726941598], [-70.98511801365137, 41.90779675765054], [-70.98468594891301, 41.90768508195667], [-70.98422205215591, 41.90685296563749], [-70.98375804949634, 41.90675689837566], [-70.98367805529642, 41.9063091668764], [-70.98284592912641, 41.906277264814456], [-70.98223791574684, 41.905733169122335], [-70.98118199986645, 41.905317029472734], [-70.98098999402309, 41.90482095989295], [-70.98031795371303, 41.90400476256972], [-70.97993400654262, 41.9038612079384], [-70.97946999638486, 41.90406899399083], [-70.97865406379162, 41.90413279812951], [-70.97796603929213, 41.90331708098393], [-70.97790194102544, 41.90298083714268], [-70.97761406144205, 41.902837155680096], [-70.97686198643876, 41.90184500143648], [-70.9764139324398, 41.901509256650726], [-70.97577394325431, 41.90163687192365], [-70.97446204536239, 41.90149296882451], [-70.9739979506532, 41.901732803075035], [-70.97212590731063, 41.90198921073981], [-70.97009401574529, 41.9016050238321], [-70.967726054365, 41.901668846758895], [-70.96723005909791, 41.90150897046931], [-70.96474994990903, 41.89958917545876], [-70.96426999041279, 41.89819699403556], [-70.96323005971422, 41.89747688153916], [-70.96316606567746, 41.89698082448632], [-70.96329397900658, 41.89666123091265], [-70.96295803970001, 41.89603727727991], [-70.96239093885333, 41.895898995890384], [-70.960501048732, 41.89445175499488], [-70.95748307961486, 41.89344311253832], [-70.95863702323373, 41.8988372467854], [-70.95538895369516, 41.896837071410985], [-70.95190107159047, 41.89526894082756], [-70.95066906428328, 41.895861200907234], [-70.94898893463544, 41.896164853963604], [-70.94545299913781, 41.89611677840173], [-70.94228505686608, 41.895717008801235], [-70.94058891108628, 41.89584488967738], [-70.93894098233221, 41.89648506301892], [-70.93628490005992, 41.89810106612932], [-70.93487702845891, 41.8983090671823], [-70.9337729303685, 41.8981488513714], [-70.92959701088493, 41.89648490278695], [-70.9262690214184, 41.89550877302993], [-70.92225301304853, 41.8947091473385], [-70.91964508380737, 41.89459687922158], [-70.91886097094009, 41.89435710321583], [-70.91942106345086, 41.896452738883355], [-70.91791697740595, 41.896676923376646], [-70.91881295439372, 41.900613255628926], [-70.91951704608766, 41.9035891594402], [-70.92185297012841, 41.90744499959151], [-70.91238092384094, 41.90800494932985], [-70.91313301782485, 41.906788826035076], [-70.9111970402815, 41.90664493016039], [-70.91090898369131, 41.90630918466782], [-70.91066904601298, 41.90547680352871], [-70.90873293154776, 41.9048849342866], [-70.903355907815, 41.9039087630534], [-70.90268403561988, 41.90330088101761], [-70.90239598514063, 41.902390006341136], [-70.90207606081245, 41.90200624396992], [-70.90006003275883, 41.90178183175915], [-70.89865199547192, 41.9012859767532], [-70.89833199711933, 41.90077389241985], [-70.8984600872502, 41.90055004355767], [-70.89964391906307, 41.90019781284037], [-70.89996403166452, 41.8998781827539], [-70.9000600335645, 41.89946226885994], [-70.89972394747348, 41.89827820701056], [-70.89820405243225, 41.89733382641244], [-70.89765990796143, 41.897270182154045], [-70.89746804404099, 41.896950107528575], [-70.89764404315122, 41.896357921143064], [-70.89694008429565, 41.89639021925524], [-70.89586805943898, 41.89677395900482], [-70.89434799075998, 41.89571810539301], [-70.89423592982578, 41.895205986530435], [-70.89343598720839, 41.89416576105574], [-70.89113194736805, 41.89291774432102], [-70.8891479088315, 41.89158979316193], [-70.882363985128, 41.88581402213927]]]}}