{"type": "Feature", "properties": {"district_name": "13th Norfolk District", "chamber": "house", "vintage": "2022-present"}, "geometry": {"type": "Polygon", "coordinates": [[[-71.352179, 42.207489], [-71.35167, 42.20844400000001], [-71.351736, 42.209988], [-71.351479, 42.211546], [-71.350317, 42.21365099999998], [-71.349023, 42.21454299999999], [-71.34681, 42.215588999999994], [-71.339954, 42.213872999999985], [-71.339564, 42.21407200000001], [-71.338713, 42.21497299999999], [-71.338505, 42.21522999999999], [-71.338351, 42.21597500000001], [-71.338623, 42.21689399999999], [-71.33973100000001, 42.217652000000015], [-71.341167, 42.218262000000024], [-71.342203, 42.21963999999999], [-71.343014, 42.22005499999999], [-71.343166, 42.220613], [-71.343051, 42.22105500000001], [-71.342736, 42.22149799999999], [-71.341657, 42.221921999999985], [-71.34155, 42.22282999999999], [-71.341012, 42.22447200000001], [-71.340689, 42.224849999999996], [-71.33777, 42.22706099999999], [-71.336552, 42.227637], [-71.334833, 42.229130000000026], [-71.334196, 42.229944], [-71.331473, 42.231629000000005], [-71.330391, 42.23249000000003], [-71.329695, 42.23332799999999], [-71.329667, 42.23417299999999], [-71.33101, 42.236523999999996], [-71.331185, 42.23758500000001], [-71.330777, 42.241051], [-71.330524, 42.24192599999999], [-71.329772, 42.24259300000001], [-71.32943, 42.24410799999999], [-71.329377, 42.245148], [-71.330465, 42.246321], [-71.331512, 42.24684800000001], [-71.332298, 42.247549], [-71.332652, 42.24822499999999], [-71.332665, 42.24873200000001], [-71.332496, 42.249075000000005], [-71.302922, 42.24827400000001], [-71.30846, 42.270709], [-71.308115, 42.271223], [-71.308029, 42.27181099999999], [-71.308476, 42.27229400000001], [-71.309013, 42.27334200000002], [-71.309025, 42.27480799999999], [-71.309496, 42.275704], [-71.309302, 42.276378999999984], [-71.308875, 42.27667399999999], [-71.307341, 42.27710499999999], [-71.304636, 42.27835799999999], [-71.302477, 42.28016], [-71.300997, 42.282361], [-71.300315, 42.282897000000006], [-71.299949, 42.282911000000006], [-71.29822, 42.28176199999998], [-71.297514, 42.280909], [-71.297788, 42.27920799999999], [-71.299775, 42.276139], [-71.299641, 42.27500199999999], [-71.299044, 42.274492], [-71.298352, 42.27426100000002], [-71.297199, 42.274497], [-71.296205, 42.274318], [-71.29562, 42.273998999999996], [-71.294843, 42.27305200000001], [-71.233006, 42.31626599999999], [-71.230587, 42.316500000000005], [-71.228915, 42.31636], [-71.227543, 42.31539999999999], [-71.22639300000002, 42.314323], [-71.226343, 42.313419999999994], [-71.227068, 42.31239800000001], [-71.226944, 42.311554000000015], [-71.22631100000001, 42.31028400000001], [-71.227209, 42.30900600000001], [-71.22700300000001, 42.30849099999999], [-71.226688, 42.30825000000001], [-71.225456, 42.30795200000001], [-71.22411, 42.30729999999999], [-71.222776, 42.30715], [-71.220855, 42.30640799999999], [-71.218475, 42.306814], [-71.21636, 42.30640899999998], [-71.21369, 42.306288], [-71.212945, 42.305949], [-71.21148700000002, 42.30366300000001], [-71.211235, 42.30288199999999], [-71.211253, 42.302266], [-71.211768, 42.30093599999999], [-71.211779, 42.300062000000004], [-71.211343, 42.29949500000001], [-71.210477, 42.29883100000001], [-71.207538, 42.296858], [-71.206054, 42.293398], [-71.205584, 42.29171099999999], [-71.205515, 42.290186000000006], [-71.20524, 42.289567999999996], [-71.204566, 42.289046000000006], [-71.203375, 42.288621], [-71.201344, 42.28855799999999], [-71.200018, 42.287595], [-71.196355, 42.28595699999998], [-71.195793, 42.286196], [-71.195524, 42.287572000000004], [-71.195006, 42.28816400000001], [-71.19429, 42.28828299999999], [-71.193087, 42.28795100000001], [-71.192117, 42.28727700000001], [-71.190886, 42.285823], [-71.190889, 42.28512599999999], [-71.191243, 42.28346400000001], [-71.191131, 42.282363999999994], [-71.19051, 42.28164799999999], [-71.188212, 42.280438000000004], [-71.196694, 42.269223999999994], [-71.19749800000001, 42.268792], [-71.198791, 42.268431], [-71.199523, 42.267796999999995], [-71.205024, 42.267058999999996], [-71.205727, 42.26757], [-71.208049, 42.26785100000001], [-71.209262, 42.267514000000006], [-71.211174, 42.267298000000004], [-71.212318, 42.26754300000001], [-71.214565, 42.26770199999999], [-71.217005, 42.26852299999999], [-71.217973, 42.268678], [-71.218311, 42.268458], [-71.218123, 42.267665], [-71.218675, 42.265387000000004], [-71.219875, 42.263532000000005], [-71.221567, 42.26342700000001], [-71.222488, 42.262881], [-71.223188, 42.262696999999996], [-71.22429, 42.26318100000001], [-71.22565600000001, 42.26413300000001], [-71.227284, 42.263909000000005], [-71.228685, 42.264309], [-71.229455, 42.263906999999996], [-71.230347, 42.261361999999984], [-71.232285, 42.258424999999995], [-71.232237, 42.256898], [-71.251416, 42.202613], [-71.254124, 42.2028], [-71.256403, 42.203672000000005], [-71.258194, 42.204071], [-71.258263, 42.20391000000001], [-71.259791, 42.204115000000016], [-71.261366, 42.204044], [-71.263711, 42.203328000000006], [-71.26767, 42.20088100000001], [-71.27168, 42.20024], [-71.27379, 42.19927], [-71.274963, 42.19907], [-71.275375, 42.19808100000001], [-71.275759, 42.198132000000015], [-71.276328, 42.197765000000004], [-71.27618, 42.197538], [-71.276859, 42.197142], [-71.278223, 42.195781999999994], [-71.277357, 42.195906], [-71.277904, 42.195471], [-71.277913, 42.194718], [-71.278135, 42.194524999999985], [-71.27827, 42.19401999999999], [-71.27949, 42.193650000000005], [-71.28094000000002, 42.19284], [-71.28291, 42.193200000000004], [-71.28329, 42.195460000000004], [-71.2842, 42.19538000000002], [-71.28458, 42.19519999999999], [-71.28549, 42.19393000000001], [-71.28612, 42.19349999999999], [-71.28672, 42.19225], [-71.287916, 42.19253899999998], [-71.288647, 42.193969], [-71.288918, 42.193318], [-71.288936, 42.191848], [-71.289476, 42.19135500000001], [-71.29002, 42.19135000000001], [-71.291536, 42.19074599999999], [-71.292428, 42.190694999999984], [-71.293374, 42.190403], [-71.294237, 42.18953200000001], [-71.294506, 42.189002], [-71.294544, 42.18827499999999], [-71.295111, 42.187617], [-71.294864, 42.18694700000001], [-71.295025, 42.18608700000001], [-71.294745, 42.185431], [-71.294466, 42.18520200000001], [-71.294106, 42.18507100000001], [-71.293004, 42.18516900000001], [-71.294519, 42.184641000000006], [-71.295282, 42.183375999999996], [-71.29789, 42.182759999999995], [-71.30046, 42.18477], [-71.304137, 42.187148], [-71.3054, 42.18665], [-71.30578, 42.186850000000014], [-71.306707, 42.187843], [-71.307695, 42.187069], [-71.308725, 42.186958000000004], [-71.308562, 42.186783000000005], [-71.308781, 42.18673599999999], [-71.30953, 42.18672999999998], [-71.310287, 42.187197000000005], [-71.311247, 42.187239999999996], [-71.312864, 42.186312], [-71.312913, 42.186139999999995], [-71.313626, 42.185612], [-71.314039, 42.185513], [-71.314654, 42.18495000000001], [-71.3159, 42.184619999999995], [-71.31779, 42.18375], [-71.322678, 42.181141999999994], [-71.323247, 42.181487999999995], [-71.324945, 42.18148599999998], [-71.325535, 42.181647000000005], [-71.32593, 42.182328999999996], [-71.326554, 42.182731], [-71.32629300000002, 42.18365899999999], [-71.325958, 42.183927], [-71.326012, 42.184092999999976], [-71.326319, 42.18423700000001], [-71.327366, 42.18410999999999], [-71.327788, 42.184203000000004], [-71.327864, 42.184375], [-71.327671, 42.18483800000001], [-71.32777, 42.185011999999986], [-71.329102, 42.184905], [-71.32961, 42.18505599999999], [-71.329417, 42.185548], [-71.328542, 42.18612500000001], [-71.32845, 42.186443000000004], [-71.328822, 42.186674], [-71.330497, 42.18684900000001], [-71.330628, 42.18694099999999], [-71.33072, 42.187894], [-71.332019, 42.18874299999999], [-71.333033, 42.188884], [-71.33440000000002, 42.188504000000016], [-71.335145, 42.18848399999998], [-71.335589, 42.18944800000001], [-71.335594, 42.19101100000001], [-71.335823, 42.19123999999999], [-71.336466, 42.191376], [-71.338377, 42.191207999999996], [-71.33881, 42.19105100000001], [-71.33908, 42.19060999999999], [-71.339406, 42.190645999999994], [-71.339478, 42.190956], [-71.339269, 42.191759000000005], [-71.339515, 42.19292999999999], [-71.339375, 42.19342800000001], [-71.340089, 42.19388099999998], [-71.339071, 42.1941], [-71.338974, 42.19437800000001], [-71.339511, 42.19457200000001], [-71.340232, 42.19442399999999], [-71.340571, 42.19466899999999], [-71.340557, 42.19490900000003], [-71.340095, 42.195351], [-71.338578, 42.19533499999999], [-71.338213, 42.195713], [-71.338283, 42.196034], [-71.339401, 42.196470999999995], [-71.339275, 42.19689199999999], [-71.34009, 42.19718299999999], [-71.339995, 42.197702000000014], [-71.340271, 42.197964999999996], [-71.340771, 42.19781500000002], [-71.34148, 42.19823000000001], [-71.342729, 42.19813399999999], [-71.342754, 42.198878], [-71.342368, 42.199301000000006], [-71.342514, 42.19958100000001], [-71.342878, 42.19978200000002], [-71.343569, 42.199811], [-71.343918, 42.198447999999985], [-71.344235, 42.19839799999999], [-71.344618, 42.198584], [-71.345088, 42.19928500000001], [-71.344259, 42.200269000000006], [-71.344072, 42.201107000000015], [-71.344301, 42.201416], [-71.345726, 42.202070000000006], [-71.346251, 42.202608999999995], [-71.346847, 42.20371399999999], [-71.346457, 42.204302], [-71.346541, 42.20464100000001], [-71.346912, 42.204767], [-71.348457, 42.204705999999995], [-71.349852, 42.205251000000004], [-71.3507, 42.20578300000002], [-71.35176, 42.206775000000015], [-71.352179, 42.207489]], [[-71.299901, 42.27029], [-71.299745, 42.26961300000001], [-71.295653, 42.272484000000006], [-71.296687, 42.272622000000005], [-71.2976, 42.27236400000001], [-71.298391, 42.271342], [-71.29977, 42.27051599999999], [-71.299901, 42.27029]]]}}