{"type": "Feature", "properties": {"district_name": "15th Middlesex", "chamber": "house", "vintage": "2001-2010"}, "geometry": {"type": "Polygon", "coordinates": [[[-71.14609803404092, 42.46579473465954], [-71.152297961986, 42.46369517750008], [-71.1545980042558, 42.45999526075869], [-71.15609802451571, 42.456995116227816], [-71.16239791157341, 42.45949510595793], [-71.1630980638117, 42.46029501460922], [-71.16939893989273, 42.4578949366906], [-71.17852402967283, 42.454001807253306], [-71.17989907691887, 42.45359489114124], [-71.18959891116526, 42.449794747729875], [-71.18587494332935, 42.445092016214524], [-71.18422096264702, 42.444843862885506], [-71.1842719651075, 42.44451821431678], [-71.18373103885624, 42.44448522075418], [-71.18319891835462, 42.44409496009435], [-71.18238701688219, 42.44420300645655], [-71.18239893808556, 42.44349520467367], [-71.17879899635804, 42.44109501105919], [-71.17769903785452, 42.4401950462347], [-71.18099898388822, 42.436994779826485], [-71.18199892550393, 42.43629476918059], [-71.18339905630941, 42.434894775688235], [-71.18380000669512, 42.434195918521226], [-71.1842990403635, 42.43389513062184], [-71.18459890092663, 42.43339517783306], [-71.18049898548388, 42.431094939684904], [-71.17819905542288, 42.430094861895505], [-71.17569790877207, 42.429395203468275], [-71.17429898902587, 42.428596198985694], [-71.17399807521852, 42.42829488210085], [-71.17403502605164, 42.42753707597047], [-71.17368405453962, 42.427073000536076], [-71.17039802949363, 42.42479495697691], [-71.168598059916, 42.4238951449184], [-71.16909793125006, 42.423794744030005], [-71.1688979751472, 42.42249495991399], [-71.16819802373418, 42.42219472959812], [-71.16519791542531, 42.422794852767964], [-71.16549789776575, 42.421395243411396], [-71.16339793568757, 42.42099525335119], [-71.16269803686437, 42.42179500541969], [-71.15889791777929, 42.41949599048657], [-71.15699797068582, 42.41909591750509], [-71.15779809121969, 42.41739621501142], [-71.15799793472041, 42.41649597715792], [-71.16339804915866, 42.41719610207448], [-71.1662979315458, 42.41859489966736], [-71.16679797539483, 42.41809501313621], [-71.16629794055083, 42.417695752055295], [-71.16709807402607, 42.41709601110314], [-71.16849800609091, 42.4179952645818], [-71.16899806512215, 42.417594956728365], [-71.16709801894237, 42.41609614943081], [-71.1682979348624, 42.41509580841122], [-71.16909800686895, 42.41529617128924], [-71.17059796474513, 42.41619624531223], [-71.17209802057373, 42.416795266465634], [-71.1735979311824, 42.417794897891696], [-71.17709797034286, 42.41949503030189], [-71.17809795955613, 42.42019497461105], [-71.17819793227099, 42.42099481265419], [-71.17899902071798, 42.42269518659108], [-71.17969891419088, 42.422795040491856], [-71.18129893806702, 42.42289513480849], [-71.18329901015416, 42.423295081076525], [-71.18909893022449, 42.421594748233325], [-71.19059900091754, 42.420894894418105], [-71.192499077097, 42.42159487778592], [-71.19269906843031, 42.420995047917934], [-71.19479903086773, 42.42139506114426], [-71.19599907738616, 42.421794922776336], [-71.19189102449577, 42.42559495562257], [-71.19469908202338, 42.42569528113045], [-71.19861190297802, 42.42704924346893], [-71.20219909622035, 42.42799485826214], [-71.20339899307855, 42.42749493005802], [-71.2048990093359, 42.427695151318474], [-71.20669906897999, 42.42899501329038], [-71.20779897768642, 42.431595085210056], [-71.20859900407372, 42.433195088802854], [-71.20909907521973, 42.433795031466744], [-71.2103990941637, 42.43499510637003], [-71.2120989382959, 42.43589513509339], [-71.21299896951577, 42.437295046600575], [-71.21379903377779, 42.43989486535877], [-71.21920006992745, 42.44349516297697], [-71.22240004474463, 42.446095116907834], [-71.22559999117304, 42.44679486391003], [-71.22699991417342, 42.44729502869963], [-71.22849994678559, 42.44819489556367], [-71.23220108171304, 42.449395852250454], [-71.23390006142013, 42.44949487596626], [-71.23689994276491, 42.44909496580393], [-71.23709995741696, 42.44539477062013], [-71.2392000751544, 42.44399513305836], [-71.24069991122776, 42.44149522543766], [-71.2420999157134, 42.439695020913675], [-71.24339996022911, 42.439295056319814], [-71.24299998712387, 42.43869492958615], [-71.24139997521259, 42.438195076079374], [-71.24260005604926, 42.4365947242777], [-71.23939990678602, 42.43459512868485], [-71.24140001252286, 42.43419507612364], [-71.24710002869531, 42.4278951796789], [-71.25078606027888, 42.42515795773943], [-71.25130007348817, 42.42379516241633], [-71.25140006086312, 42.420194869237235], [-71.25160009637585, 42.419295031477546], [-71.25730005076478, 42.421194937234944], [-71.25780203025177, 42.42119599441341], [-71.26240096877521, 42.423195171804196], [-71.26693390911458, 42.42422624220322], [-71.26649093553658, 42.42710620161923], [-71.26577302457777, 42.42838874969503], [-71.26988390301568, 42.445894818563126], [-71.27014408472898, 42.4480947976299], [-71.27210897746639, 42.45730725351941], [-71.27242001295117, 42.459556268611806], [-71.26515201660655, 42.47051527063441], [-71.26119694265856, 42.47618326254085], [-71.25650194338859, 42.47819507933779], [-71.25550193460273, 42.47939480369605], [-71.2534019328499, 42.48279497849976], [-71.25210203381914, 42.484494796881314], [-71.24074498475272, 42.48974924158332], [-71.22336204233052, 42.475286154553174], [-71.21196791873611, 42.46605083144896], [-71.21074097149358, 42.46658791362633], [-71.21039999097897, 42.46728082462597], [-71.2099930105939, 42.46926880844031], [-71.21020093836265, 42.470494810139144], [-71.20420001433952, 42.465795955314306], [-71.18828101961108, 42.47952402333955], [-71.18751602837357, 42.47924174594795], [-71.18520003296628, 42.47979472756514], [-71.18419903415202, 42.48019372883524], [-71.18209905044279, 42.48059419605814], [-71.18069894035382, 42.48039395158363], [-71.17909904312879, 42.480394008522666], [-71.17499893757152, 42.481193875391426], [-71.17429903074598, 42.48119414990393], [-71.17389905722769, 42.47989496285601], [-71.17309908872382, 42.479295149371374], [-71.16699907970796, 42.476994957605854], [-71.16729892109693, 42.476095005810514], [-71.16679897461074, 42.475194984625475], [-71.16559893946206, 42.475494787717786], [-71.16299904372691, 42.476894994545866], [-71.15889798469654, 42.4769948924288], [-71.15629803822559, 42.47759484198816], [-71.15599803980248, 42.47779482175971], [-71.1539979378618, 42.47659486312552], [-71.15219790677992, 42.474895261387005], [-71.15149799452999, 42.47449478108957], [-71.14999806876227, 42.47249503061479], [-71.1504980453109, 42.47169475742032], [-71.15019792555228, 42.47109517258872], [-71.14909798368122, 42.469794883386385], [-71.14839803454606, 42.46849524636301], [-71.14639809871738, 42.4663948891767], [-71.14609803404092, 42.46579473465954]]]}}