{"type": "Feature", "properties": {"district_name": "5th Barnstable District", "chamber": "house", "vintage": "2012-2020"}, "geometry": {"type": "Polygon", "coordinates": [[[-70.636129, 41.770342], [-70.63584000000002, 41.770717000000005], [-70.63507, 41.771154], [-70.634252, 41.771359999999994], [-70.633547, 41.77189500000001], [-70.632825, 41.77305099999999], [-70.63296799999999, 41.77358], [-70.631637, 41.77449000000001], [-70.630915, 41.77469100000001], [-70.63060999999999, 41.775102], [-70.63033899999999, 41.775187], [-70.630065, 41.775980999999994], [-70.630256, 41.77619699999999], [-70.630031, 41.77655399999999], [-70.630256, 41.77710299999998], [-70.620013, 41.780618], [-70.61522, 41.781763999999995], [-70.61204599999999, 41.78217200000001], [-70.60916, 41.78231299999999], [-70.60538, 41.782198], [-70.603274, 41.781961], [-70.603781, 41.78368], [-70.603298, 41.78645599999999], [-70.60327099999999, 41.787713], [-70.603495, 41.789127999999984], [-70.603798, 41.789939], [-70.604486, 41.790988], [-70.60472299999999, 41.79238599999999], [-70.605389, 41.79311500000001], [-70.60642399999999, 41.794834000000016], [-70.606803, 41.796316000000004], [-70.606783, 41.79785400000002], [-70.607336, 41.799001], [-70.60741, 41.799833], [-70.60786999999999, 41.800825], [-70.6079, 41.802042], [-70.608276, 41.803594999999994], [-70.607934, 41.80462], [-70.608902, 41.80608799999999], [-70.60993200000001, 41.8068], [-70.609738, 41.808098], [-70.610086, 41.809506999999996], [-70.610303, 41.80982100000003], [-70.609798, 41.810708], [-70.610155, 41.81129499999999], [-70.60867999999999, 41.812799999999996], [-70.606522, 41.81388899999999], [-70.605587, 41.814945], [-70.606161, 41.815031], [-70.607456, 41.81457400000001], [-70.608771, 41.814544], [-70.606295, 41.818054999999994], [-70.604179, 41.82005700000001], [-70.602793, 41.820534], [-70.601779, 41.82065100000001], [-70.600363, 41.821258], [-70.59821699999999, 41.822584000000006], [-70.597154, 41.82275599999999], [-70.596994, 41.823597], [-70.596432, 41.82454599999999], [-70.596304, 41.826128999999995], [-70.59584199999999, 41.82667399999999], [-70.595691, 41.82727699999999], [-70.594533, 41.82938100000001], [-70.594472, 41.82979099999998], [-70.58977399999999, 41.828554999999994], [-70.58935699999999, 41.82529499999999], [-70.58121299999999, 41.78169299999999], [-70.569124, 41.78560799999998], [-70.565281, 41.786705000000005], [-70.537401, 41.810761], [-70.53245, 41.804472999999994], [-70.531446, 41.80344600000001], [-70.525652, 41.798323], [-70.522308, 41.795989], [-70.519442, 41.793254], [-70.518254, 41.79164], [-70.51533599999999, 41.78936599999997], [-70.512484, 41.787614000000005], [-70.506824, 41.78474], [-70.502909, 41.78233399999999], [-70.50062299999999, 41.78066400000001], [-70.49777, 41.779547999999984], [-70.496691, 41.778873000000004], [-70.49456300000001, 41.77830900000001], [-70.49439699999999, 41.77791499999999], [-70.49525, 41.775179], [-70.49315299999999, 41.77584999999999], [-70.493094, 41.77575100000001], [-70.494993, 41.77513000000001], [-70.492931, 41.773258999999975], [-70.487899, 41.77133999999999], [-70.487048, 41.770835000000005], [-70.486783, 41.770193], [-70.48549899999999, 41.769343], [-70.484472, 41.768838], [-70.483232, 41.76792700000001], [-70.48080399999999, 41.766747999999986], [-70.475458, 41.765059], [-70.474578, 41.765856], [-70.47448299999999, 41.76577899999999], [-70.47533899999999, 41.764962000000004], [-70.474707, 41.764396000000005], [-70.474277, 41.764762999999995], [-70.474138, 41.764698], [-70.474629, 41.764258], [-70.474496, 41.763627], [-70.474144, 41.763012], [-70.471856, 41.761717000000004], [-70.464325, 41.75978200000001], [-70.457256, 41.75730700000002], [-70.449777, 41.754981000000015], [-70.446067, 41.753664], [-70.433905, 41.750452999999986], [-70.429649, 41.749188], [-70.428476, 41.74855699999997], [-70.428564, 41.74806800000001], [-70.42884099999999, 41.74768799999999], [-70.428601, 41.747530000000005], [-70.427714, 41.74846300000001], [-70.42553699999999, 41.747392999999995], [-70.42345499999999, 41.746805], [-70.41040000000001, 41.74396500000001], [-70.39012, 41.74057200000001], [-70.37620199999999, 41.73894699999999], [-70.374831, 41.73867699999999], [-70.374602, 41.73850499999999], [-70.373415, 41.738388000000015], [-70.36986499999999, 41.738277000000004], [-70.357345, 41.737141], [-70.352486, 41.73696200000001], [-70.34553, 41.73644299999999], [-70.341015, 41.73642199999999], [-70.33498999999999, 41.736122], [-70.329471, 41.736079], [-70.313405, 41.73553700000001], [-70.30806199999999, 41.73560899999998], [-70.300366, 41.735262999999996], [-70.297874, 41.73544399999998], [-70.29632, 41.735316999999995], [-70.295822, 41.73521799999999], [-70.29484699999999, 41.73469099999999], [-70.2916, 41.73438300000001], [-70.289936, 41.733933], [-70.288735, 41.733329000000005], [-70.287628, 41.73247799999999], [-70.28778199999999, 41.73231900000001], [-70.28814899999999, 41.732302000000004], [-70.28853699999999, 41.73287299999999], [-70.2902, 41.733625999999994], [-70.290025, 41.73328000000001], [-70.289343, 41.73273599999999], [-70.289673, 41.73274200000001], [-70.29127, 41.733791], [-70.29173899999999, 41.733867], [-70.291271, 41.733401], [-70.28887399999999, 41.731922999999966], [-70.288442, 41.73207700000001], [-70.288237, 41.731560999999985], [-70.287504, 41.730912999999994], [-70.285262, 41.72971599999998], [-70.28173699999999, 41.728485], [-70.27957599999999, 41.72806800000001], [-70.2757, 41.72646399999999], [-70.27474, 41.72572199999999], [-70.27414, 41.724596], [-70.274418, 41.724103], [-70.27488, 41.723790000000015], [-70.276624, 41.723372999999995], [-70.277504, 41.722896], [-70.278992, 41.72268199999999], [-70.280091, 41.72226500000001], [-70.28110199999999, 41.722293000000015], [-70.282517, 41.72280399999999], [-70.283996, 41.724132000000004], [-70.28486099999999, 41.724468], [-70.285579, 41.725526999999985], [-70.285366, 41.726104], [-70.28538, 41.72673500000001], [-70.286142, 41.727537], [-70.28689, 41.727515000000004], [-70.287308, 41.72703699999999], [-70.28872199999999, 41.726066], [-70.289155, 41.726115], [-70.289228, 41.72664200000001], [-70.28947, 41.72660899999999], [-70.289492, 41.72599999999999], [-70.289228, 41.725747000000005], [-70.288876, 41.725686999999986], [-70.28889800000002, 41.725555], [-70.289096, 41.72527], [-70.290005, 41.72479200000001], [-70.290694, 41.724189], [-70.290812, 41.723161999999995], [-70.29145, 41.721537], [-70.292468, 41.72125700000001], [-70.29296699999999, 41.721356], [-70.293707, 41.721229999999984], [-70.29526, 41.72184500000001], [-70.29688, 41.721889000000004], [-70.296718, 41.722131], [-70.296279, 41.722065], [-70.29633, 41.72227900000001], [-70.296059, 41.72247100000002], [-70.295722, 41.72246], [-70.29592699999999, 41.72265800000001], [-70.29558999999999, 41.723293999999974], [-70.296315, 41.724579], [-70.29651299999999, 41.724596], [-70.296425, 41.72419999999999], [-70.29590499999999, 41.72307999999998], [-70.29607299999999, 41.72274499999999], [-70.296843, 41.72234999999999], [-70.298169, 41.72237799999999], [-70.29899700000001, 41.72273500000001], [-70.29947299999999, 41.72319], [-70.299759, 41.723848999999994], [-70.30117299999999, 41.724826], [-70.301628, 41.725452000000004], [-70.302544, 41.725715999999984], [-70.30289499999999, 41.725645], [-70.30299099999999, 41.725315], [-70.30248499999999, 41.725474], [-70.301965, 41.725259999999984], [-70.301459, 41.724085], [-70.300822, 41.72377199999999], [-70.30014, 41.722899000000005], [-70.300045, 41.722415999999996], [-70.300184, 41.722306999999994], [-70.29921000000002, 41.721922], [-70.298975, 41.721593], [-70.29922499999999, 41.72136199999998], [-70.300727, 41.721296], [-70.300983, 41.721159], [-70.2994, 41.72112099999999], [-70.29767799999999, 41.721466], [-70.296836, 41.72093900000001], [-70.296872, 41.720516999999994], [-70.29774400000001, 41.72045099999999], [-70.298594, 41.72018200000001], [-70.299217, 41.720275], [-70.29959099999999, 41.72056600000001], [-70.300478, 41.720292], [-70.30204599999999, 41.720330000000004], [-70.30302800000001, 41.720479], [-70.303504, 41.720769999999995], [-70.30453, 41.720638], [-70.305131, 41.720884999999996], [-70.30701400000001, 41.72203199999999], [-70.30772499999999, 41.72306999999998], [-70.30767399999999, 41.72358], [-70.308055, 41.72446999999999], [-70.30861900000001, 41.725035], [-70.309564, 41.726847], [-70.310011, 41.726831000000004], [-70.311506, 41.72754399999999], [-70.312877, 41.72752200000001], [-70.314306, 41.72805499999998], [-70.315354, 41.72753900000001], [-70.315933, 41.72786199999999], [-70.31602099999999, 41.727790999999996], [-70.315815, 41.72774700000001], [-70.315764, 41.727473], [-70.315405, 41.727461999999996], [-70.315383, 41.727230999999996], [-70.316717, 41.72674200000001], [-70.31771300000001, 41.727011], [-70.318578, 41.72705000000001], [-70.318446, 41.727658999999996], [-70.318732, 41.727972000000015], [-70.318871, 41.727829], [-70.31882, 41.72725299999998], [-70.31915, 41.726972999999994], [-70.318431, 41.726473000000006], [-70.319113, 41.726424], [-70.321319, 41.725786999999976], [-70.321634, 41.72590699999999], [-70.321158, 41.72628599999998], [-70.321575, 41.726116], [-70.322037, 41.726336], [-70.322227, 41.726122000000004], [-70.321964, 41.726203999999996], [-70.32197099999999, 41.725863], [-70.321495, 41.725606000000006], [-70.321854, 41.725408000000016], [-70.32386199999999, 41.725298], [-70.32558399999999, 41.725598999999995], [-70.327452, 41.725695], [-70.327885, 41.72539599999999], [-70.328537, 41.725347], [-70.329497, 41.724946], [-70.331732, 41.72478599999999], [-70.33626799999999, 41.724906], [-70.34089200000001, 41.72392699999998], [-70.342174, 41.72405299999999], [-70.342734, 41.72359800000001], [-70.34367499999999, 41.722248999999984], [-70.343169, 41.722052000000005], [-70.344532, 41.720413], [-70.344445, 41.71964499999999], [-70.34436699999999, 41.719379], [-70.3433, 41.71973199999999], [-70.34222299999999, 41.719639], [-70.34083799999999, 41.719024999999995], [-70.34149, 41.71881600000001], [-70.342824, 41.71900199999999], [-70.343957, 41.718827], [-70.343783, 41.718782000000026], [-70.34377599999999, 41.718475], [-70.34434, 41.718316], [-70.34414199999999, 41.717783], [-70.344779, 41.71637199999999], [-70.344075, 41.71547799999999], [-70.34531299999999, 41.714938999999994], [-70.343847, 41.715401], [-70.341517, 41.714445999999995], [-70.340352, 41.71349099999999], [-70.337802, 41.71271799999999], [-70.338087, 41.71194400000001], [-70.33767399999999, 41.71182999999999], [-70.338364, 41.70979199999999], [-70.339275, 41.708064], [-70.340305, 41.707381000000005], [-70.3407, 41.70744099999998], [-70.34153599999999, 41.708203999999995], [-70.342174, 41.708560999999996], [-70.34267899999999, 41.709236], [-70.343546, 41.709689999999995], [-70.34373099999999, 41.709593000000034], [-70.343654, 41.70930699999999], [-70.3438, 41.709130999999985], [-70.343902, 41.708186999999995], [-70.344583, 41.70725899999999], [-70.344326, 41.706902], [-70.343777, 41.706655], [-70.341454, 41.706452999999996], [-70.341505, 41.705701], [-70.340772, 41.705179000000015], [-70.341072, 41.704103], [-70.34151899999999, 41.703867], [-70.341841, 41.703241000000006], [-70.34108599999999, 41.700743999999986], [-70.34063400000001, 41.699887], [-70.340919, 41.699484000000005], [-70.33993199999999, 41.69772199999999], [-70.339824, 41.69721199999999], [-70.340853, 41.697109], [-70.343507, 41.696222000000006], [-70.345047, 41.695055999999994], [-70.346239, 41.693493000000004], [-70.346847, 41.691175], [-70.34804799999999, 41.68926800000001], [-70.35205599999999, 41.68652600000002], [-70.35417699999999, 41.68348100000001], [-70.356372, 41.68189499999999], [-70.356096, 41.68146500000001], [-70.356939, 41.679277], [-70.35889499999999, 41.67879799999999], [-70.36008, 41.6788], [-70.3593, 41.677735], [-70.359291, 41.676286000000005], [-70.358981, 41.67573699999999], [-70.361913, 41.67271900000001], [-70.36457399999999, 41.67447599999999], [-70.36873299999999, 41.67645699999999], [-70.369581, 41.676705000000005], [-70.370875, 41.676764], [-70.377967, 41.676410000000004], [-70.382384, 41.676424], [-70.387558, 41.677167000000004], [-70.391689, 41.67818499999999], [-70.39472099999999, 41.678357000000005], [-70.39580699999999, 41.678674000000015], [-70.40060199999999, 41.681136], [-70.403459, 41.682413000000004], [-70.404844, 41.680754], [-70.406187, 41.679504], [-70.406894, 41.679155], [-70.40917999999999, 41.679027], [-70.410062, 41.67877399999999], [-70.41126299999999, 41.677951000000014], [-70.413, 41.676119], [-70.413378, 41.67515600000001], [-70.41344699999999, 41.674478], [-70.414585, 41.674745], [-70.41510500000001, 41.674657], [-70.415801, 41.67383999999999], [-70.417463, 41.67326899999999], [-70.418826, 41.67231899999998], [-70.41912599999999, 41.670733000000006], [-70.41905299999999, 41.670123], [-70.418724, 41.66946999999999], [-70.420562, 41.66867399999999], [-70.421375, 41.66757599999998], [-70.421697, 41.666698], [-70.422319, 41.666396], [-70.422151, 41.66602300000001], [-70.422349, 41.66528700000001], [-70.421763, 41.66487499999999], [-70.421536, 41.66433800000001], [-70.419574, 41.663816000000004], [-70.417729, 41.663692000000005], [-70.416888, 41.662875999999976], [-70.417211, 41.660758000000015], [-70.41748199999999, 41.660608999999994], [-70.417394, 41.660460999999984], [-70.41775299999999, 41.659791], [-70.417812, 41.65879199999999], [-70.418126, 41.658435999999995], [-70.41728499999999, 41.657804], [-70.417205, 41.65636600000001], [-70.416729, 41.655525999999995], [-70.416715, 41.65515799999999], [-70.41540499999999, 41.65423499999999], [-70.41545599999999, 41.653460999999986], [-70.41514699999999, 41.65294299999999], [-70.41532099999999, 41.65173300000001], [-70.41507899999999, 41.65161], [-70.41391899999999, 41.651803000000015], [-70.41288, 41.65145199999999], [-70.41270399999999, 41.651237], [-70.41497, 41.650779], [-70.418718, 41.649260999999996], [-70.42621199999999, 41.64751699999999], [-70.429966, 41.64638299999999], [-70.431488, 41.64701899999999], [-70.432678, 41.648227999999996], [-70.433052, 41.64877000000003], [-70.433261, 41.64992200000001], [-70.433844, 41.651002], [-70.43467199999999, 41.65146099999998], [-70.436998, 41.65384299999999], [-70.437431, 41.65570700000001], [-70.438247, 41.656282999999995], [-70.440181, 41.65672800000001], [-70.442698, 41.65699899999999], [-70.44397599999999, 41.65469299999999], [-70.44567599999999, 41.652972999999996], [-70.445641, 41.652417000000014], [-70.44520899999999, 41.65156999999999], [-70.445236, 41.650967000000016], [-70.445495, 41.65146500000001], [-70.446372, 41.65211899999999], [-70.44673999999999, 41.652666], [-70.447234, 41.653029], [-70.447897, 41.652347000000006], [-70.451059, 41.65691200000001], [-70.458737, 41.664041], [-70.47111199999999, 41.665963999999995], [-70.471688, 41.664435], [-70.472326, 41.66393299999999], [-70.47355400000001, 41.662178999999995], [-70.474978, 41.660537000000005], [-70.475371, 41.659745000000015], [-70.480554, 41.661024000000005], [-70.482171, 41.665975], [-70.47587899999999, 41.67674900000002], [-70.475123, 41.676791], [-70.474998, 41.67703199999998], [-70.47490499999999, 41.678620999999985], [-70.475269, 41.679683], [-70.47555299999999, 41.682421000000005], [-70.47805799999999, 41.68512900000001], [-70.49720000000002, 41.683482000000005], [-70.49677, 41.678087000000005], [-70.493847, 41.67667699999999], [-70.49386, 41.676112999999994], [-70.49368799999999, 41.67573699999999], [-70.493864, 41.67498400000001], [-70.493577, 41.673700000000004], [-70.49369399999999, 41.67279200000001], [-70.494018, 41.672283], [-70.49473900000001, 41.672052999999984], [-70.495362, 41.671519], [-70.49739199999999, 41.671410000000016], [-70.497429, 41.670888999999995], [-70.497074, 41.67059099999999], [-70.511426, 41.67602599999999], [-70.51344, 41.673775], [-70.51570000000001, 41.66787200000001], [-70.516375, 41.664986999999996], [-70.516458, 41.663945000000005], [-70.519344, 41.65676799999999], [-70.520048, 41.655623999999996], [-70.520912, 41.654816999999994], [-70.523175, 41.650439], [-70.53080899999999, 41.644110999999995], [-70.53320000000001, 41.64253399999998], [-70.535776, 41.641386000000004], [-70.53701699999999, 41.63987099999999], [-70.538076, 41.63900399999999], [-70.539735, 41.637105999999996], [-70.53987900000001, 41.63740599999999], [-70.567987, 41.645557], [-70.567576, 41.646135], [-70.567705, 41.646947999999995], [-70.56804199999999, 41.64748799999999], [-70.56884099999999, 41.64803999999999], [-70.568924, 41.64854500000002], [-70.568055, 41.648782999999995], [-70.567481, 41.649183000000015], [-70.566319, 41.651602000000004], [-70.566284, 41.65222099999998], [-70.566889, 41.654139000000015], [-70.566773, 41.655965], [-70.566553, 41.656513], [-70.56145, 41.66132199999999], [-70.560476, 41.661912], [-70.559152, 41.66307200000001], [-70.557628, 41.664970000000004], [-70.553086, 41.66869599999999], [-70.55247899999999, 41.66951800000001], [-70.550508, 41.671248999999996], [-70.54681099999999, 41.676511999999995], [-70.545924, 41.679928999999994], [-70.54530799999999, 41.680825], [-70.545273, 41.681965999999996], [-70.544573, 41.683775000000004], [-70.54284299999999, 41.68674], [-70.541983, 41.687879], [-70.541344, 41.689937], [-70.54100199999999, 41.690427000000014], [-70.541084, 41.69149200000002], [-70.540633, 41.692339], [-70.540649, 41.69359800000001], [-70.540385, 41.695350000000005], [-70.540964, 41.696504000000004], [-70.541731, 41.69879600000001], [-70.541715, 41.699702000000016], [-70.54493699999999, 41.69935799999999], [-70.547125, 41.69893700000001], [-70.548346, 41.69888900000001], [-70.548795, 41.699128], [-70.549942, 41.70020700000001], [-70.550923, 41.700739999999996], [-70.553434, 41.701759999999986], [-70.555543, 41.702344], [-70.556682, 41.703151], [-70.559231, 41.704045999999984], [-70.560926, 41.705470999999996], [-70.561396, 41.70645400000001], [-70.565337, 41.707172], [-70.566094, 41.707536], [-70.56663999999999, 41.708303], [-70.567163, 41.70857799999999], [-70.568863, 41.708974999999995], [-70.569509, 41.70894500000001], [-70.570664, 41.708442], [-70.57251, 41.706537999999995], [-70.573087, 41.704849], [-70.57359, 41.70442499999999], [-70.576287, 41.704077], [-70.576837, 41.703877], [-70.577474, 41.70414299999998], [-70.578417, 41.70506100000001], [-70.57979, 41.705163], [-70.58146599999999, 41.704659000000014], [-70.582439, 41.704617999999996], [-70.58327799999999, 41.704181], [-70.58402, 41.70417400000001], [-70.58334599999999, 41.709843000000006], [-70.583384, 41.71174099999998], [-70.586714, 41.711561], [-70.58675199999999, 41.711741999999994], [-70.58790499999999, 41.712531000000006], [-70.588038, 41.711871], [-70.588556, 41.711579000000015], [-70.591453, 41.71178799999999], [-70.59351300000002, 41.711619], [-70.594031, 41.711728], [-70.59487399999999, 41.712430000000005], [-70.596425, 41.713088000000006], [-70.59808199999999, 41.710604000000004], [-70.600745, 41.70864399999999], [-70.603471, 41.70697500000001], [-70.607587, 41.705847], [-70.60869, 41.705729000000005], [-70.609021, 41.709133], [-70.60900000000001, 41.71065299999999], [-70.60936099999999, 41.712223], [-70.609324, 41.71482099999999], [-70.60907499999999, 41.71582700000001], [-70.609162, 41.716902], [-70.609026, 41.717724], [-70.60770000000001, 41.719941000000006], [-70.60512299999999, 41.72070799999999], [-70.603869, 41.722123], [-70.60275899999999, 41.721656], [-70.601771, 41.721833], [-70.600049, 41.72172899999999], [-70.597915, 41.72200499999999], [-70.596125, 41.72128699999999], [-70.593503, 41.721213000000006], [-70.59273999999999, 41.72085899999999], [-70.592404, 41.72096600000001], [-70.591867, 41.72150299999999], [-70.59171599999999, 41.72201099999998], [-70.591863, 41.72253499999999], [-70.592163, 41.72290299999998], [-70.5918, 41.723731], [-70.591628, 41.723483], [-70.588382, 41.723542], [-70.58798399999999, 41.723355000000005], [-70.58561999999999, 41.72321400000001], [-70.58578299999999, 41.724748], [-70.58493, 41.72568399999997], [-70.584631, 41.725756000000004], [-70.58459599999999, 41.72652500000001], [-70.584476, 41.72659599999999], [-70.584262, 41.726506], [-70.584242, 41.72523899999999], [-70.584036, 41.73368800000001], [-70.584395, 41.735799], [-70.586269, 41.74226899999999], [-70.586227, 41.74262999999999], [-70.58592, 41.742988999999994], [-70.58591899999999, 41.74331900000001], [-70.58632, 41.74357099999998], [-70.586975, 41.74353999999998], [-70.58718700000001, 41.74417800000002], [-70.592271, 41.75194400000001], [-70.593265, 41.75271399999999], [-70.594994, 41.75296499999999], [-70.595511, 41.75227400000001], [-70.595815, 41.75216199999999], [-70.59646, 41.752703999999994], [-70.59810700000001, 41.752225], [-70.59823399999999, 41.752511], [-70.598711, 41.752332], [-70.599903, 41.75237900000002], [-70.60023699999999, 41.75267200000002], [-70.60019199999999, 41.75330500000002], [-70.600901, 41.754001999999986], [-70.602131, 41.754000000000005], [-70.602839, 41.754222000000006], [-70.60475699999999, 41.753805], [-70.605952, 41.752558000000015], [-70.606539, 41.75278000000001], [-70.607704, 41.753947], [-70.608305, 41.754168], [-70.608451, 41.75459200000001], [-70.60951899999999, 41.755535], [-70.610131, 41.75525700000001], [-70.61049799999999, 41.755345], [-70.6122, 41.756985000000014], [-70.612171, 41.757209999999986], [-70.614421, 41.75677000000001], [-70.614678, 41.756890999999996], [-70.614407, 41.757445000000004], [-70.614583, 41.757593], [-70.61516999999999, 41.75735199999999], [-70.61547, 41.75670899999998], [-70.61639199999999, 41.755523], [-70.617499, 41.75532500000002], [-70.617462, 41.75491299999999], [-70.61766, 41.754699], [-70.618335, 41.75514899999999], [-70.61777099999999, 41.75547799999999], [-70.620234, 41.755329000000025], [-70.62038799999999, 41.75508199999998], [-70.62012299999999, 41.754708999999984], [-70.620145, 41.754203999999994], [-70.620474, 41.75391200000001], [-70.620694, 41.75393999999999], [-70.620915, 41.75444999999999], [-70.620732, 41.754834999999986], [-70.621641, 41.75485999999999], [-70.621668, 41.75787999999999], [-70.62586999999999, 41.755199], [-70.629673, 41.760217000000004], [-70.630156, 41.761145000000006], [-70.631182, 41.76172199999999], [-70.631255, 41.76208399999998], [-70.63157, 41.76229800000001], [-70.63165, 41.762628], [-70.632274, 41.762623000000005], [-70.63255199999999, 41.762771000000015], [-70.632671, 41.76388199999999], [-70.634346, 41.76594800000001], [-70.63444, 41.766809999999985], [-70.635301, 41.768005999999986], [-70.63542699999999, 41.769009], [-70.63609699999999, 41.76999], [-70.636129, 41.770342]]]}}