{"type": "Feature", "properties": {"district_name": "6th Middlesex District", "chamber": "house", "vintage": "2022-present"}, "geometry": {"type": "Polygon", "coordinates": [[[-71.491426, 42.288162000000014], [-71.478536, 42.296766], [-71.472179, 42.29666599999999], [-71.470795, 42.296158], [-71.469013, 42.29460099999999], [-71.46802, 42.2941], [-71.46661, 42.293909000000006], [-71.464119, 42.294142], [-71.461803, 42.293428], [-71.460458, 42.29331000000001], [-71.458731, 42.29370500000001], [-71.451387, 42.297227999999976], [-71.449594, 42.29792399999999], [-71.447406, 42.29543399999999], [-71.445353, 42.29628700000001], [-71.441516, 42.29723500000001], [-71.440742, 42.29821900000001], [-71.439183, 42.299566999999996], [-71.437162, 42.30025600000002], [-71.434352, 42.300103000000014], [-71.42481900000001, 42.298406], [-71.419792, 42.297757000000004], [-71.414478, 42.29781899999999], [-71.408622, 42.29818600000001], [-71.407953, 42.29954], [-71.406892, 42.300523], [-71.406272, 42.301378], [-71.406215, 42.30182799999999], [-71.406686, 42.30154499999999], [-71.407199, 42.30249599999999], [-71.408497, 42.302270000000014], [-71.408781, 42.30321300000001], [-71.40866000000001, 42.303793], [-71.408888, 42.304600000000015], [-71.406737, 42.30504500000001], [-71.40714700000001, 42.306492], [-71.406961, 42.30801199999999], [-71.407485, 42.309684], [-71.406304, 42.309792], [-71.406563, 42.310309], [-71.406685, 42.311324000000006], [-71.407974, 42.31119300000002], [-71.40827100000001, 42.311944], [-71.407157, 42.31211900000002], [-71.40718400000002, 42.312557], [-71.406135, 42.31349199999999], [-71.4046, 42.313749], [-71.40363400000001, 42.314091000000005], [-71.403157, 42.31407800000002], [-71.40327, 42.314905999999986], [-71.402634, 42.31517600000001], [-71.400753, 42.31496299999999], [-71.400845, 42.31538800000002], [-71.395018, 42.314325000000025], [-71.37976300000001, 42.311988], [-71.387522, 42.30206899999999], [-71.402528, 42.293330000000005], [-71.3995, 42.28078300000001], [-71.397218, 42.27900600000001], [-71.395861, 42.272907999999994], [-71.390365, 42.27191600000001], [-71.397769, 42.261527999999984], [-71.398476, 42.26137700000001], [-71.419298, 42.25728099999999], [-71.460756, 42.279063], [-71.491426, 42.288162000000014]]]}}