{"type": "Feature", "properties": {"district_name": "7th Bristol", "chamber": "house", "vintage": "2001-2010"}, "geometry": {"type": "Polygon", "coordinates": [[[-71.1501890093117, 41.69660202318585], [-71.1489890301993, 41.695401976170466], [-71.14598901579133, 41.693401763938915], [-71.14038892010113, 41.68810191226518], [-71.13678807080636, 41.68510183897435], [-71.1378889893651, 41.68380207695624], [-71.13858901596109, 41.682701929015], [-71.13988896106132, 41.67840176341101], [-71.14818894543552, 41.672502240119385], [-71.14798906352306, 41.673601753196934], [-71.14998895986061, 41.67400183097703], [-71.15028903429605, 41.673101827071484], [-71.15328907244756, 41.67370187048164], [-71.15288903742413, 41.674701742206864], [-71.15418898026701, 41.67460215968201], [-71.15408901677057, 41.67480218573084], [-71.15668904127774, 41.675102110964794], [-71.16228900724116, 41.67620212076237], [-71.16080908317855, 41.67255294775109], [-71.16078907170353, 41.67130195620728], [-71.16058892875901, 41.6703019606567], [-71.15988905389327, 41.66840179624867], [-71.16088896726508, 41.66750217142303], [-71.16098905678359, 41.66720197489982], [-71.16221326828523, 41.665779673052306], [-71.17618961598379, 41.66831993785777], [-71.175921654425, 41.67154921079402], [-71.195676828859, 41.675225461865296], [-71.19529156821794, 41.676770236677925], [-71.19544499070032, 41.67816395088014], [-71.19529274056536, 41.68006779952656], [-71.19471274378327, 41.68139370496049], [-71.19276007295609, 41.68285490637179], [-71.19175287614777, 41.684063163261946], [-71.18958695876047, 41.685969409726155], [-71.18952535313859, 41.68679081804077], [-71.18891443483244, 41.68699172997841], [-71.18860947596568, 41.68683502591921], [-71.18818223019385, 41.6869694678099], [-71.18766373755251, 41.687457057095685], [-71.1864121576799, 41.68921043791598], [-71.18213997578354, 41.694111720440624], [-71.18177305505328, 41.69557827827223], [-71.18146820786961, 41.69584528188368], [-71.18116275404792, 41.69589619710356], [-71.18070503990207, 41.69568895698206], [-71.18015595497991, 41.69585229765623], [-71.17997238463833, 41.69667560904931], [-71.17862909723212, 41.69669208179098], [-71.17756072798063, 41.697315934094675], [-71.17725560011897, 41.69804266646901], [-71.17688914794782, 41.6982751615221], [-71.17133312848532, 41.70054278538493], [-71.17102756184462, 41.700791751950895], [-71.17093595382785, 41.70159505676568], [-71.17069199713247, 41.70179805719981], [-71.17023416361418, 41.70197792868096], [-71.16840286718023, 41.702138607044766], [-71.16837134298872, 41.70282391288945], [-71.16751699887527, 41.70420066114524], [-71.16705842375094, 41.70451557148552], [-71.16638779654781, 41.704888381940115], [-71.16501350465701, 41.70444597909286], [-71.16467753479215, 41.70447031687401], [-71.16470751691966, 41.704766956220396], [-71.16534869262637, 41.70550263519319], [-71.16544077576434, 41.70591538702592], [-71.16434104917273, 41.706558156359456], [-71.16409688450631, 41.706580503250414], [-71.16104521366385, 41.704998647440476], [-71.16070933607983, 41.70504097196208], [-71.16070929617689, 41.70582485093869], [-71.16018994971257, 41.7062307138556], [-71.15908973432816, 41.70874730225805], [-71.15905825294239, 41.709089902405076], [-71.1594862615888, 41.709343283948186], [-71.15945608868347, 41.70968645533447], [-71.15902842805268, 41.70996428621085], [-71.15881409165823, 41.71076158663875], [-71.1583563479471, 41.711607676101515], [-71.15835561046066, 41.71181532355142], [-71.15896644235842, 41.71197471790789], [-71.15948498606735, 41.712613831997736], [-71.15951517646393, 41.712937493086365], [-71.15924069986025, 41.713005882332034], [-71.15844659699927, 41.712777287411456], [-71.15774415409066, 41.71307004499335], [-71.15774445131447, 41.713259121154], [-71.15847654693842, 41.713848803742245], [-71.15842979890382, 41.714234133909216], [-71.15468895932875, 41.71350199395841], [-71.1547890610408, 41.71280226879869], [-71.15510603453632, 41.712341237624926], [-71.15498908987287, 41.7123020507815], [-71.15858891976886, 41.70680215230324], [-71.15948902412235, 41.70410208033587], [-71.16248902722047, 41.70450211354775], [-71.16318899560466, 41.70380190746752], [-71.16368899056735, 41.70300206698059], [-71.16618893411156, 41.700801855883114], [-71.16828890862124, 41.701201902406176], [-71.16798894341332, 41.70080206100773], [-71.16618904019903, 41.700602093688055], [-71.1658889591198, 41.700802101118185], [-71.16598894251753, 41.69970227371236], [-71.16628895698011, 41.69890183484235], [-71.16038907447384, 41.69790186604738], [-71.16068898839674, 41.6972021645462], [-71.1589890521688, 41.69820210896248], [-71.15738891302745, 41.69780227072156], [-71.15598902672458, 41.697202127344376], [-71.15248909080003, 41.695402030517215], [-71.1501890093117, 41.69660202318585]]]}}