{"type": "Feature", "properties": {"district_name": "3rd Plymouth District", "chamber": "house", "vintage": "2012-2020"}, "geometry": {"type": "Polygon", "coordinates": [[[-70.960392, 42.287698999999996], [-70.96019199999999, 42.29949800000001], [-70.94899099999999, 42.301298], [-70.937091, 42.311097999999994], [-70.927191, 42.310097999999996], [-70.917091, 42.314198000000005], [-70.905692, 42.316998999999996], [-70.894292, 42.372398999999994], [-70.851191, 42.372499], [-70.851016, 42.338266999999995], [-70.850523, 42.29348], [-70.823568, 42.293254999999995], [-70.812331, 42.29331199999999], [-70.80034599999999, 42.29311299999998], [-70.749488, 42.35177799999999], [-70.72921199999999, 42.373848], [-70.67569, 42.375097999999994], [-70.749487, 42.29535600000001], [-70.751049, 42.293114], [-70.74948599999999, 42.291165], [-70.732356, 42.25010099999999], [-70.720969, 42.23086300000001], [-70.744494, 42.22169500000001], [-70.745285, 42.220512], [-70.746873, 42.21910000000001], [-70.74694099999999, 42.218544999999985], [-70.750911, 42.219833], [-70.75309, 42.222365], [-70.755016, 42.221737999999995], [-70.755451, 42.215995000000014], [-70.75650300000001, 42.214496], [-70.757471, 42.212278], [-70.75929099999999, 42.212180000000004], [-70.760949, 42.21159], [-70.761578, 42.21160099999999], [-70.762722, 42.206407000000006], [-70.765036, 42.20683399999999], [-70.76811099999999, 42.208237000000004], [-70.768585, 42.20891099999999], [-70.76972099999999, 42.21145100000001], [-70.770859, 42.21241699999999], [-70.77167399999999, 42.213564999999996], [-70.772776, 42.214267], [-70.775972, 42.215678999999994], [-70.77963799999999, 42.215650999999994], [-70.783082, 42.216791999999984], [-70.784453, 42.217541], [-70.786003, 42.21857099999999], [-70.78793999999999, 42.220188], [-70.788502, 42.22099299999999], [-70.789102, 42.222743], [-70.82117, 42.20421800000001], [-70.826933, 42.200677999999996], [-70.82704799999999, 42.200771], [-70.838791, 42.194807000000004], [-70.852165, 42.19046199999999], [-70.870733, 42.18223], [-70.887603, 42.173334999999994], [-70.89351599999999, 42.16981399999999], [-70.924877, 42.15758], [-70.922589, 42.1729], [-70.922089, 42.17500000000001], [-70.921988, 42.176995999999995], [-70.921488, 42.178799999999995], [-70.91919899999999, 42.19362899999999], [-70.917686, 42.20519900000001], [-70.917388, 42.20610100000002], [-70.91718999999999, 42.208800999999994], [-70.91668899999999, 42.210401000000005], [-70.916125, 42.21643000000002], [-70.91485000000002, 42.224408], [-70.914886, 42.225109], [-70.91394199999999, 42.225072], [-70.91362699999999, 42.22492199999999], [-70.912464, 42.225065], [-70.91175299999999, 42.224868999999984], [-70.910631, 42.223394000000006], [-70.907984, 42.223330999999995], [-70.907363, 42.22246799999999], [-70.90164399999999, 42.222101], [-70.898365, 42.22235800000001], [-70.896627, 42.221634], [-70.895873, 42.221542], [-70.893686, 42.221626000000015], [-70.892223, 42.222346], [-70.891277, 42.223048999999996], [-70.890059, 42.224897999999996], [-70.886442, 42.22532499999999], [-70.886363, 42.22599300000001], [-70.888151, 42.22733900000001], [-70.88862499999999, 42.227892999999995], [-70.88889499999999, 42.229171], [-70.890236, 42.229378], [-70.891313, 42.23005900000001], [-70.89205799999999, 42.232164000000004], [-70.89330799999999, 42.23359799999999], [-70.892466, 42.234891], [-70.89228899999999, 42.235853999999996], [-70.89067299999999, 42.238560000000014], [-70.89114599999999, 42.239971000000004], [-70.89167599999999, 42.240908999999995], [-70.89, 42.241795999999994], [-70.890336, 42.24231800000001], [-70.89181599999999, 42.242723], [-70.89310200000001, 42.24246], [-70.894587, 42.242445000000004], [-70.89648199999999, 42.241972000000004], [-70.896982, 42.241675999999984], [-70.900688, 42.245343], [-70.902801, 42.24716999999999], [-70.903256, 42.24796299999999], [-70.90314599999999, 42.24931100000001], [-70.90580299999999, 42.249128000000006], [-70.90918599999999, 42.249414], [-70.91233199999999, 42.2492], [-70.91266, 42.24882899999999], [-70.912623, 42.24782200000002], [-70.913416, 42.246590000000005], [-70.912787, 42.245707], [-70.91251000000001, 42.24423200000001], [-70.91282, 42.24419399999999], [-70.915539, 42.244994], [-70.917197, 42.24381599999999], [-70.927328, 42.247909], [-70.931029, 42.247120999999986], [-70.931191, 42.2486], [-70.933491, 42.25], [-70.932435, 42.25264399999999], [-70.932203, 42.252781000000006], [-70.925091, 42.25390000000001], [-70.92330799999999, 42.25388600000001], [-70.92118099999999, 42.254264000000006], [-70.91932, 42.25470299999999], [-70.917081, 42.25560000000001], [-70.91819100000001, 42.26009999999997], [-70.91739, 42.263899], [-70.90899, 42.264399], [-70.90209, 42.267499], [-70.91349, 42.278698999999996], [-70.914091, 42.288799999999995], [-70.920791, 42.289398999999996], [-70.925491, 42.28959899999999], [-70.937691, 42.277499], [-70.960392, 42.287698999999996]]]}}