{"type": "Feature", "properties": {"district_name": "2nd Hampshire District", "chamber": "house", "vintage": "2022-present"}, "geometry": {"type": "Polygon", "coordinates": [[[-72.736646, 42.28424999999999], [-72.672091, 42.29188700000002], [-72.672169, 42.290962000000015], [-72.672035, 42.290192999999995], [-72.660216, 42.28925399999998], [-72.660468, 42.288695999999995], [-72.648766, 42.291824000000005], [-72.646138, 42.290468], [-72.643832, 42.28851900000001], [-72.64208, 42.288174000000005], [-72.640677, 42.284137000000015], [-72.637441, 42.287406], [-72.636196, 42.286113], [-72.634849, 42.28538800000001], [-72.633669, 42.285122], [-72.630232, 42.28492899999999], [-72.629022, 42.28526699999998], [-72.627927, 42.28592299999999], [-72.627382, 42.286492], [-72.624521, 42.28814800000001], [-72.622198, 42.289012], [-72.621085, 42.28962], [-72.619303, 42.290067], [-72.614701, 42.29019900000001], [-72.613704, 42.292395000000006], [-72.61129, 42.295806000000006], [-72.599228, 42.307849000000004], [-72.597169, 42.31059200000001], [-72.595111, 42.314488], [-72.593694, 42.31648299999999], [-72.593391, 42.31677500000001], [-72.592722, 42.317030999999986], [-72.588321, 42.317947000000004], [-72.586607, 42.31873499999999], [-72.585311, 42.319855], [-72.584238, 42.321365], [-72.584108, 42.321789], [-72.58438, 42.323941999999995], [-72.585786, 42.32603199999999], [-72.58633, 42.326533000000026], [-72.58746, 42.32712099999999], [-72.592946, 42.32776500000001], [-72.597972, 42.328806], [-72.603414, 42.32967899999999], [-72.608226, 42.331449], [-72.612283, 42.333339999999986], [-72.61711, 42.336060999999994], [-72.618318, 42.33692], [-72.61871000000001, 42.337476], [-72.61903, 42.33892900000001], [-72.620137, 42.34130799999999], [-72.621268, 42.342124999999996], [-72.623044, 42.34296399999999], [-72.624558, 42.34334200000001], [-72.633691, 42.344483000000004], [-72.635882, 42.344419000000016], [-72.637327, 42.34414499999998], [-72.638201, 42.344266000000005], [-72.63887, 42.344723], [-72.639129, 42.345426], [-72.639089, 42.34633999999999], [-72.638608, 42.34775599999998], [-72.637519, 42.349258], [-72.63677, 42.349806], [-72.634901, 42.35087100000001], [-72.63334, 42.351251], [-72.628242, 42.35174600000001], [-72.625972, 42.351687], [-72.61547, 42.350309], [-72.605903, 42.34951300000001], [-72.603285, 42.349515000000004], [-72.599326, 42.34988699999999], [-72.594495, 42.350847000000016], [-72.592245, 42.351827000000014], [-72.590851, 42.352782], [-72.58922, 42.354448], [-72.588151, 42.35657299999998], [-72.58753, 42.358608], [-72.587453, 42.361172], [-72.588285, 42.364434], [-72.590335, 42.368522999999996], [-72.59121, 42.370654000000016], [-72.591693, 42.372888], [-72.591766, 42.374848], [-72.591402, 42.376923999999995], [-72.589579, 42.38259800000003], [-72.587656, 42.387147000000006], [-72.586389, 42.38889999999999], [-72.586176, 42.38984799999999], [-72.586991, 42.39158699999998], [-72.590197, 42.39576099999999], [-72.590331, 42.396567000000005], [-72.589947, 42.397403999999995], [-72.588887, 42.39867200000002], [-72.587656, 42.399029999999996], [-72.584712, 42.399], [-72.583315, 42.398538], [-72.581412, 42.397490000000005], [-72.580693, 42.397305], [-72.580161, 42.397246], [-72.578381, 42.397538999999995], [-72.576673, 42.39853599999999], [-72.57598400000002, 42.39936200000002], [-72.575313, 42.400808], [-72.575153, 42.401897000000005], [-72.574767, 42.40509200000002], [-72.575327, 42.408374], [-72.576458, 42.411525], [-72.577916, 42.41392799999999], [-72.58114300000001, 42.422581000000015], [-72.544199, 42.42714999999998], [-72.546776, 42.40008700000001], [-72.531586, 42.401498999999994], [-72.53547, 42.36524099999999], [-72.536463, 42.36512200000001], [-72.53678, 42.35986599999999], [-72.535785, 42.35997200000003], [-72.540909, 42.319584000000006], [-72.537986, 42.32011099999998], [-72.535151, 42.30425199999999], [-72.531212, 42.303624], [-72.527961, 42.30145799999999], [-72.52789, 42.299838], [-72.53124, 42.297936], [-72.53364, 42.29728999999999], [-72.535081, 42.295542000000005], [-72.536336, 42.294930000000015], [-72.537637, 42.294643000000015], [-72.53968400000001, 42.29306600000001], [-72.540164, 42.292356000000005], [-72.53999, 42.28981000000002], [-72.540482, 42.28876400000001], [-72.540712, 42.287616], [-72.541358, 42.286492], [-72.543306, 42.28580500000001], [-72.546987, 42.285073000000004], [-72.558585, 42.280412000000005], [-72.555629, 42.25019300000001], [-72.553841, 42.24936600000002], [-72.552716, 42.24902500000002], [-72.547629, 42.24829100000001], [-72.54629, 42.24777700000003], [-72.544336, 42.246724999999984], [-72.538316, 42.249603999999984], [-72.531346, 42.253629], [-72.523618, 42.255268999999984], [-72.519934, 42.255083], [-72.517794, 42.255649], [-72.516758, 42.25631700000001], [-72.516034, 42.258268], [-72.515378, 42.25889], [-72.512856, 42.260053], [-72.511508, 42.260389999999994], [-72.508792, 42.26075300000001], [-72.507183, 42.26164500000001], [-72.506192, 42.261940999999986], [-72.500987, 42.262638], [-72.494226, 42.26325799999999], [-72.485816, 42.264418], [-72.483929, 42.26456300000001], [-72.478339, 42.26440000000002], [-72.471614, 42.26538899999999], [-72.463557, 42.264336999999976], [-72.457971, 42.265103999999994], [-72.457002, 42.26506700000001], [-72.455, 42.264564], [-72.44712, 42.227254], [-72.52429, 42.218734000000005], [-72.593448, 42.211557000000006], [-72.596133, 42.211774999999996], [-72.599481, 42.212474], [-72.602352, 42.21331500000001], [-72.603803, 42.21386699999999], [-72.606533, 42.215297], [-72.60949, 42.217466], [-72.610078, 42.218189], [-72.610749, 42.219419999999985], [-72.611654, 42.22294599999999], [-72.611959, 42.223611000000005], [-72.61273, 42.224653999999994], [-72.614115, 42.226064], [-72.615725, 42.22711500000001], [-72.622463, 42.23021099999999], [-72.623191, 42.230911000000006], [-72.623656, 42.23165599999999], [-72.62411, 42.23507299999999], [-72.623983, 42.235925], [-72.620071, 42.24452099999999], [-72.618009, 42.248368999999975], [-72.615071, 42.252013999999996], [-72.613621, 42.254248999999994], [-72.612579, 42.255310000000016], [-72.611248, 42.25725], [-72.607781, 42.26057999999999], [-72.600278, 42.265311], [-72.599917, 42.265741], [-72.599074, 42.267718000000016], [-72.59884, 42.27066800000001], [-72.599364, 42.275336], [-72.599959, 42.276845], [-72.600376, 42.27739299999998], [-72.600714, 42.27858700000001], [-72.600797, 42.279986000000015], [-72.601209, 42.281259], [-72.60432000000002, 42.284021], [-72.605056, 42.28440100000001], [-72.611529, 42.28542999999999], [-72.612708, 42.28592000000001], [-72.613138, 42.286265], [-72.634585, 42.273943], [-72.656536, 42.227739], [-72.66777, 42.225456], [-72.687678, 42.223241], [-72.686712, 42.225789000000006], [-72.685837, 42.23163099999999], [-72.685997, 42.234049], [-72.686484, 42.23553], [-72.68719, 42.236749], [-72.687279, 42.23801100000003], [-72.686808, 42.238904], [-72.685711, 42.24019], [-72.684423, 42.242385], [-72.682592, 42.244127000000006], [-72.701423, 42.25710899999999], [-72.700372, 42.257526999999996], [-72.700617, 42.258019000000004], [-72.699662, 42.258210000000005], [-72.699175, 42.25803699999998], [-72.698675, 42.258466], [-72.698798, 42.25867800000002], [-72.69944, 42.258525], [-72.699871, 42.25899600000002], [-72.699156, 42.25896700000001], [-72.699046, 42.259054000000006], [-72.69915500000002, 42.259393], [-72.698774, 42.259532999999976], [-72.698608, 42.25905], [-72.69837, 42.259135], [-72.698304, 42.25957400000001], [-72.697969, 42.259884], [-72.698529, 42.260137], [-72.698438, 42.26036500000001], [-72.698697, 42.260718], [-72.698387, 42.26157700000001], [-72.698487, 42.26205200000001], [-72.697911, 42.26243099999999], [-72.698363, 42.262727999999996], [-72.698172, 42.262896], [-72.697647, 42.262865000000005], [-72.696994, 42.26327000000001], [-72.696947, 42.263443], [-72.697298, 42.263866], [-72.696715, 42.263862], [-72.696545, 42.264017], [-72.696332, 42.26457800000001], [-72.695518, 42.265418000000004], [-72.695507, 42.26574], [-72.69569, 42.26599600000001], [-72.697159, 42.26725100000001], [-72.697495, 42.26704599999999], [-72.698052, 42.267046], [-72.698179, 42.26737299999997], [-72.697931, 42.26805000000001], [-72.698287, 42.268474], [-72.69846, 42.269330999999994], [-72.69926, 42.26963299999999], [-72.699611, 42.26958700000001], [-72.699746, 42.26918299999998], [-72.700778, 42.268929000000014], [-72.701203, 42.26898800000001], [-72.70147, 42.26927500000001], [-72.702102, 42.26900299999999], [-72.702483, 42.269017], [-72.702912, 42.269097000000016], [-72.7033, 42.269408000000006], [-72.704718, 42.26955599999999], [-72.705207, 42.26944100000001], [-72.705327, 42.26975400000001], [-72.70574300000001, 42.269877000000015], [-72.706526, 42.26973499999999], [-72.706943, 42.269935], [-72.707272, 42.269715999999995], [-72.707359, 42.26926900000001], [-72.707764, 42.269329], [-72.708899, 42.27022800000002], [-72.709826, 42.27165100000002], [-72.710362, 42.27262999999999], [-72.710497, 42.273663000000006], [-72.711199, 42.27408700000001], [-72.71207, 42.27511199999999], [-72.712088, 42.275335000000005], [-72.712421, 42.27557100000001], [-72.71241100000002, 42.275808000000005], [-72.712753, 42.275984999999984], [-72.71454200000001, 42.276014999999994], [-72.717051, 42.276628], [-72.718725, 42.27634599999998], [-72.721237, 42.276344], [-72.723283, 42.277109999999986], [-72.72403, 42.277618], [-72.724713, 42.277723000000016], [-72.725019, 42.27808800000001], [-72.7363, 42.27653899999999], [-72.736646, 42.28424999999999]]]}}