{"type": "Feature", "properties": {"district_name": "5th Suffolk District", "chamber": "house", "vintage": "2022-present"}, "geometry": {"type": "Polygon", "coordinates": [[[-71.10485, 42.30232], [-71.103303, 42.30382800000001], [-71.103079, 42.30478900000001], [-71.102713, 42.30526900000001], [-71.10269, 42.30596599999999], [-71.101977, 42.30598400000001], [-71.101486, 42.306574], [-71.100716, 42.30656599999998], [-71.100248, 42.307861999999986], [-71.099954, 42.30789800000001], [-71.09934, 42.308834000000004], [-71.099384, 42.309076], [-71.09807, 42.30972200000001], [-71.097796, 42.31141900000001], [-71.097488, 42.311856999999996], [-71.096391, 42.312391999999996], [-71.095145, 42.313282000000015], [-71.093977, 42.31269400000001], [-71.093603, 42.31215000000001], [-71.093104, 42.31232700000001], [-71.092028, 42.31366800000001], [-71.08993, 42.312628999999994], [-71.088331, 42.31461], [-71.08372400000002, 42.313236], [-71.083644, 42.313093], [-71.084258, 42.312598], [-71.085426, 42.312174999999996], [-71.086956, 42.310235], [-71.085298, 42.309415000000016], [-71.084739, 42.31014299999998], [-71.082804, 42.309331], [-71.080312, 42.312418], [-71.08097, 42.31277600000001], [-71.080766, 42.313495999999994], [-71.081632, 42.313681], [-71.083641, 42.31354499999999], [-71.083673, 42.314392999999995], [-71.08285, 42.316362], [-71.084424, 42.316772999999976], [-71.085492, 42.316741], [-71.086508, 42.317052999999994], [-71.086225, 42.318236999999975], [-71.082367, 42.317233], [-71.081789, 42.318269999999984], [-71.080863, 42.31775600000002], [-71.078962, 42.316249], [-71.078215, 42.315870999999994], [-71.077761, 42.318606], [-71.07774600000002, 42.320431], [-71.075522, 42.32057299999999], [-71.075399, 42.32124799999999], [-71.076373, 42.321439], [-71.074641, 42.323237999999996], [-71.075811, 42.324146], [-71.075076, 42.3253], [-71.074903, 42.325206999999985], [-71.073511, 42.325539000000006], [-71.071479, 42.326687000000014], [-71.069136, 42.32505100000001], [-71.065756, 42.32137399999999], [-71.063154, 42.320978000000004], [-71.061865, 42.32047699999999], [-71.061481, 42.32050000000001], [-71.060846, 42.319911000000005], [-71.061915, 42.31790500000002], [-71.063382, 42.31452400000001], [-71.064602, 42.314769000000005], [-71.064213, 42.314105], [-71.064431, 42.313741], [-71.064151, 42.31295800000001], [-71.064413, 42.31256900000001], [-71.061724, 42.310556000000005], [-71.060224, 42.31007200000002], [-71.05981, 42.31019], [-71.059574, 42.31055100000001], [-71.057896, 42.30995899999997], [-71.059796, 42.301537999999994], [-71.060149, 42.30215], [-71.061916, 42.301665], [-71.062293, 42.302308], [-71.067367, 42.301007000000006], [-71.066227, 42.30032599999999], [-71.072089, 42.29873], [-71.072927, 42.29957900000001], [-71.073641, 42.299371], [-71.074675, 42.300237], [-71.076309, 42.301073], [-71.077489, 42.30201199999999], [-71.078534, 42.303388], [-71.079027, 42.30299300000001], [-71.079526, 42.302917999999984], [-71.08069000000002, 42.303892], [-71.079561, 42.304621999999995], [-71.080563, 42.30543999999998], [-71.083191, 42.30367599999999], [-71.084389, 42.303525], [-71.084303, 42.30329], [-71.082236, 42.30169999999998], [-71.083716, 42.30091600000001], [-71.085727, 42.30195299999998], [-71.086992, 42.298142], [-71.090059, 42.297391], [-71.091437, 42.296865], [-71.094542, 42.29302100000001], [-71.096402, 42.293234999999996], [-71.103291, 42.299806], [-71.10383200000001, 42.300102], [-71.104661, 42.300271], [-71.104583, 42.301332], [-71.10485, 42.30232]]]}}