{"type": "Feature", "properties": {"district_name": "2nd Plymouth District", "chamber": "house", "vintage": "2012-2020"}, "geometry": {"type": "Polygon", "coordinates": [[[-70.918744, 41.85253300000001], [-70.91838, 41.853530000000006], [-70.91716699999999, 41.855536], [-70.91710599999999, 41.85629400000002], [-70.916754, 41.85706100000001], [-70.916799, 41.85742500000001], [-70.917239, 41.85790399999999], [-70.917523, 41.858650999999995], [-70.9162, 41.859754], [-70.91427399999999, 41.859587999999995], [-70.914185, 41.86034199999998], [-70.91337399999999, 41.860575999999995], [-70.912908, 41.861543000000005], [-70.91300799999999, 41.86183800000001], [-70.914003, 41.861835000000006], [-70.91458999999999, 41.86222600000001], [-70.914737, 41.862745999999994], [-70.914687, 41.86333199999999], [-70.915043, 41.86393], [-70.91541500000001, 41.86417999999999], [-70.914896, 41.86497200000001], [-70.915139, 41.865171000000004], [-70.915829, 41.86529899999999], [-70.91601, 41.86552599999998], [-70.915306, 41.866046000000004], [-70.916544, 41.86672799999999], [-70.916769, 41.867039999999996], [-70.916758, 41.867305999999985], [-70.916523, 41.86757100000003], [-70.915205, 41.86819199999999], [-70.91492, 41.868431], [-70.914624, 41.86904500000001], [-70.913437, 41.86976900000002], [-70.913231, 41.87031], [-70.913352, 41.87060899999997], [-70.914258, 41.87126099999998], [-70.91492199999999, 41.872065000000006], [-70.91626099999999, 41.872294], [-70.91645199999999, 41.872471], [-70.916151, 41.875240999999995], [-70.916549, 41.87655899999999], [-70.916072, 41.87723799999999], [-70.915528, 41.87765199999999], [-70.91512399999999, 41.877725999999996], [-70.914559, 41.877583000000016], [-70.914222, 41.877777], [-70.91409, 41.878027], [-70.914262, 41.87845699999998], [-70.91413399999999, 41.878612000000004], [-70.913307, 41.878643999999994], [-70.91178699999999, 41.878219000000016], [-70.910665, 41.87896699999999], [-70.91073, 41.879712999999995], [-70.90936599999999, 41.879884999999966], [-70.90957399999999, 41.881169], [-70.909318, 41.881592], [-70.90917, 41.882518], [-70.908029, 41.88319899999998], [-70.90615199999999, 41.88399499999999], [-70.905138, 41.885422000000005], [-70.905136, 41.885692], [-70.90572, 41.886461], [-70.905521, 41.887028], [-70.905557, 41.887922999999994], [-70.904718, 41.88974699999999], [-70.90478999999999, 41.890048], [-70.90414299999999, 41.89051799999999], [-70.903202, 41.890407], [-70.902379, 41.890498], [-70.901405, 41.891135000000006], [-70.901496, 41.89202999999999], [-70.90260099999999, 41.893181999999996], [-70.902476, 41.893530999999996], [-70.902087, 41.89388000000002], [-70.90073000000001, 41.89397400000001], [-70.898346, 41.89482399999999], [-70.897731, 41.895677], [-70.897559, 41.896228], [-70.89590299999999, 41.896546], [-70.894956, 41.89602000000001], [-70.894418, 41.89556400000001], [-70.893633, 41.894109], [-70.891324, 41.89292699999999], [-70.88944, 41.89159999999999], [-70.883509, 41.886181], [-70.882126, 41.88561900000002], [-70.881449, 41.88435599999999], [-70.881261, 41.883347], [-70.87951, 41.88075599999998], [-70.877157, 41.88163100000001], [-70.875547, 41.88197999999999], [-70.87241999999999, 41.882145], [-70.86972, 41.882609], [-70.865881, 41.882821], [-70.85906, 41.88360699999999], [-70.857856, 41.883407999999996], [-70.855311, 41.882221000000015], [-70.849971, 41.88188299999999], [-70.849535, 41.88205800000001], [-70.848618, 41.883186], [-70.846941, 41.884460999999995], [-70.84720899999999, 41.884833], [-70.846548, 41.885177000000006], [-70.846175, 41.88577], [-70.846096, 41.888013], [-70.845468, 41.890892], [-70.845676, 41.89174999999998], [-70.846132, 41.89245100000001], [-70.847234, 41.892205], [-70.848311, 41.892769], [-70.84951199999999, 41.89292599999999], [-70.851092, 41.89559399999998], [-70.855031, 41.89547599999999], [-70.85564099999999, 41.89681100000001], [-70.85584899999999, 41.898000000000025], [-70.856207, 41.89884999999998], [-70.853897, 41.89864000000001], [-70.851849, 41.90102499999999], [-70.85063199999999, 41.90194], [-70.849131, 41.902591999999984], [-70.84781199999999, 41.90272300000001], [-70.847252, 41.90294000000001], [-70.846144, 41.90369500000002], [-70.845691, 41.904421], [-70.84338, 41.904681], [-70.84055, 41.90454400000001], [-70.83998400000002, 41.90435799999999], [-70.838844, 41.9029], [-70.83713999999999, 41.901778], [-70.832769, 41.900331000000016], [-70.831589, 41.89954100000001], [-70.829826, 41.897843999999985], [-70.82853399999999, 41.89685599999999], [-70.822879, 41.893302999999996], [-70.821131, 41.89148100000001], [-70.818208, 41.88962600000002], [-70.817532, 41.88880299999999], [-70.816716, 41.887076000000015], [-70.815707, 41.886041999999996], [-70.81419799999999, 41.886427999999974], [-70.811554, 41.88640699999999], [-70.81075, 41.886591], [-70.80931199999999, 41.887392000000006], [-70.806889, 41.888270000000034], [-70.81550399999999, 41.913627999999996], [-70.829827, 41.92769900000002], [-70.771717, 41.946146999999996], [-70.758692, 41.947506999999995], [-70.75352699999999, 41.933241], [-70.75071799999999, 41.92601900000002], [-70.680534, 41.845529000000006], [-70.682211, 41.84558300000001], [-70.683633, 41.84493299999998], [-70.684878, 41.84402700000001], [-70.68792599999999, 41.841232999999995], [-70.68950199999999, 41.840091], [-70.689703, 41.839690000000004], [-70.689847, 41.83800699999999], [-70.690871, 41.837783000000016], [-70.692567, 41.836583], [-70.69365499999999, 41.836119], [-70.693879, 41.835879000000006], [-70.694423, 41.834519000000014], [-70.69487099999999, 41.83407100000001], [-70.69496699999999, 41.83259899999998], [-70.697271, 41.83056700000001], [-70.697431, 41.830103], [-70.697271, 41.829463000000004], [-70.697495, 41.829319], [-70.698311, 41.829654999999995], [-70.699063, 41.829511000000004], [-70.699799, 41.82971899999999], [-70.699975, 41.828838999999995], [-70.70024699999999, 41.82861499999999], [-70.700647, 41.82856700000001], [-70.70208699999999, 41.82867900000001], [-70.70269499999999, 41.82880700000001], [-70.703351, 41.82920700000001], [-70.703683, 41.829084], [-70.704807, 41.82940499999999], [-70.70579599999999, 41.829361000000006], [-70.706493, 41.829157], [-70.70687, 41.82869700000001], [-70.70706400000002, 41.827984000000015], [-70.70795799999999, 41.82706400000002], [-70.707898, 41.824917], [-70.70800799999999, 41.824528], [-70.708962, 41.823555999999996], [-70.709807, 41.82298600000001], [-70.710936, 41.821752999999994], [-70.711542, 41.82137800000001], [-70.711762, 41.82072999999999], [-70.712113, 41.820438], [-70.712589, 41.81964399999999], [-70.713702, 41.818476], [-70.714499, 41.81802000000001], [-70.7148, 41.817420000000006], [-70.714846, 41.81706399999999], [-70.714379, 41.816546], [-70.714698, 41.816414], [-70.714744, 41.816123000000005], [-70.715127, 41.815975], [-70.71551099999999, 41.815255000000015], [-70.715383, 41.814519], [-70.715543, 41.814087], [-70.715319, 41.812743000000005], [-70.716135, 41.81195900000001], [-70.716391, 41.81103099999999], [-70.717159, 41.81002300000001], [-70.717399, 41.809367], [-70.71661499999999, 41.80847099999998], [-70.71743099999999, 41.807894999999995], [-70.717671, 41.80730300000001], [-70.717703, 41.80560699999999], [-70.71682299999999, 41.80423100000001], [-70.716903, 41.804055000000005], [-70.717767, 41.803767], [-70.717879, 41.80357499999999], [-70.717591, 41.802151], [-70.717655, 41.80152700000001], [-70.631892, 41.80633], [-70.616478, 41.80543900000001], [-70.624476, 41.792553000000005], [-70.627312, 41.787843], [-70.62739499999999, 41.787342], [-70.62881999999999, 41.78707999999998], [-70.630068, 41.787240000000004], [-70.630692, 41.786855999999986], [-70.630516, 41.78604], [-70.629908, 41.785591999999994], [-70.629828, 41.78503200000001], [-70.630164, 41.78476], [-70.630132, 41.78456799999999], [-70.630612, 41.78437599999999], [-70.63058, 41.784184], [-70.630788, 41.78393099999998], [-70.630515, 41.783789], [-70.630577, 41.78321700000001], [-70.63078399999999, 41.78301299999998], [-70.630686, 41.782484000000004], [-70.63094099999999, 41.78243099999999], [-70.630652, 41.782102999999985], [-70.630763, 41.781853], [-70.630505, 41.78133999999999], [-70.63050299999999, 41.780907], [-70.630022, 41.780677], [-70.6293, 41.780713999999996], [-70.628963, 41.780374], [-70.629008, 41.779606], [-70.62942199999999, 41.779129999999995], [-70.629341, 41.778794999999995], [-70.630256, 41.77710299999998], [-70.630031, 41.77655399999999], [-70.630256, 41.77619699999999], [-70.630065, 41.775980999999994], [-70.630162, 41.77562900000001], [-70.63033899999999, 41.775187], [-70.63060999999999, 41.775102], [-70.630915, 41.77469100000001], [-70.631637, 41.77449000000001], [-70.63296799999999, 41.77358], [-70.632825, 41.77305099999999], [-70.633547, 41.77189500000001], [-70.634252, 41.771359999999994], [-70.63507, 41.771154], [-70.63584000000002, 41.770717000000005], [-70.636129, 41.770342], [-70.63609699999999, 41.76999], [-70.63542699999999, 41.769009], [-70.635301, 41.768005999999986], [-70.63444, 41.766809999999985], [-70.634346, 41.76594800000001], [-70.632671, 41.76388199999999], [-70.63255199999999, 41.762771000000015], [-70.632274, 41.762623000000005], [-70.63165, 41.762628], [-70.63157, 41.76229800000001], [-70.631255, 41.76208399999998], [-70.631182, 41.76172199999999], [-70.630156, 41.761145000000006], [-70.629673, 41.760217000000004], [-70.62501200000001, 41.75404], [-70.62515599999999, 41.75114399999999], [-70.621622, 41.748972], [-70.621014, 41.74830300000001], [-70.620785, 41.747530000000005], [-70.62195, 41.746058999999995], [-70.623193, 41.745614999999994], [-70.62598799999999, 41.74496899999999], [-70.632676, 41.73788100000002], [-70.633268, 41.73546499999999], [-70.63257999999999, 41.733656999999994], [-70.639332, 41.729048999999996], [-70.639476, 41.726473000000006], [-70.640756, 41.72485700000001], [-70.640276, 41.723609], [-70.64224399999999, 41.71922500000001], [-70.64370000000001, 41.717465000000004], [-70.67440400000001, 41.68960899999999], [-70.716006, 41.718647999999995], [-70.717654, 41.71837600000001], [-70.71855, 41.71930400000001], [-70.71995799999999, 41.72037600000001], [-70.72319, 41.721544], [-70.725174, 41.722648], [-70.726551, 41.723687999999996], [-70.727831, 41.72552799999998], [-70.728535, 41.726216], [-70.729111, 41.72651999999999], [-70.733463, 41.727896], [-70.735047, 41.72864800000001], [-70.73858299999999, 41.73123899999998], [-70.742041, 41.73060799999999], [-70.742564, 41.73067099999999], [-70.743498, 41.73119599999999], [-70.744192, 41.731913999999996], [-70.744563, 41.733014], [-70.744333, 41.733509000000005], [-70.743019, 41.734753000000005], [-70.742982, 41.73518299999999], [-70.743231, 41.735758], [-70.74372000000001, 41.736284000000005], [-70.746027, 41.73814900000001], [-70.747243, 41.738381], [-70.748926, 41.737857], [-70.75039199999999, 41.73794300000001], [-70.752152, 41.738854999999994], [-70.753928, 41.741015000000004], [-70.755624, 41.742215000000016], [-70.757416, 41.742391000000005], [-70.75954399999999, 41.742103], [-70.76, 41.741668000000004], [-70.76023599999999, 41.74071699999999], [-70.759303, 41.73947099999999], [-70.75956699999999, 41.73918], [-70.76024199999999, 41.73892099999998], [-70.761001, 41.73918899999999], [-70.76227399999999, 41.738848], [-70.76278400000001, 41.738509], [-70.762776, 41.738026], [-70.763545, 41.73766900000001], [-70.763571, 41.73720199999998], [-70.763865, 41.73678300000001], [-70.764263, 41.736717999999996], [-70.76409799999999, 41.73613599999997], [-70.764274, 41.735862], [-70.7647, 41.73577999999998], [-70.764664, 41.735538], [-70.764899, 41.735393], [-70.765621, 41.735246], [-70.76642199999999, 41.734199000000004], [-70.767017, 41.734052000000005], [-70.767564, 41.73364899999999], [-70.76835799999999, 41.733486], [-70.772792, 41.733782999999995], [-70.773239, 41.73408600000001], [-70.77261299999999, 41.73466199999999], [-70.772565, 41.73490099999999], [-70.772899, 41.73490099999999], [-70.773747, 41.734707999999976], [-70.773989, 41.73432400000001], [-70.77499, 41.73417899999999], [-70.775032, 41.73526400000001], [-70.774416, 41.737823], [-70.77425699999999, 41.739183], [-70.77434199999999, 41.739705000000015], [-70.77481, 41.74043700000001], [-70.77835499999999, 41.74349300000002], [-70.779121, 41.744516999999995], [-70.78142199999999, 41.74987199999998], [-70.78161399999999, 41.751560000000005], [-70.780715, 41.754512], [-70.780123, 41.758266], [-70.778063, 41.762741000000005], [-70.775851, 41.76625999999999], [-70.77435, 41.769738000000004], [-70.77440399999999, 41.77045700000001], [-70.775509, 41.77303699999999], [-70.77550099999999, 41.77627399999999], [-70.77649, 41.77997799999999], [-70.777008, 41.786436], [-70.777365, 41.787726], [-70.77825899999999, 41.789570999999995], [-70.778491, 41.79204399999999], [-70.778359, 41.793033], [-70.77784799999999, 41.79456599999999], [-70.777968, 41.79598], [-70.777771, 41.79676800000001], [-70.77753799999999, 41.79708799999999], [-70.776319, 41.79792899999999], [-70.774399, 41.80051999999998], [-70.772857, 41.80209500000001], [-70.771965, 41.80517299999998], [-70.771806, 41.80891400000001], [-70.89604299999999, 41.79429399999998], [-70.89864399999999, 41.81487700000002], [-70.893777, 41.82659100000002], [-70.893457, 41.827595999999986], [-70.893694, 41.828545], [-70.910984, 41.844686], [-70.91511299999999, 41.848834999999994], [-70.918689, 41.85204200000001], [-70.918744, 41.85253300000001]]]}}