{"type": "Feature", "properties": {"district_name": "8th Suffolk", "chamber": "house", "vintage": "2001-2010"}, "geometry": {"type": "Polygon", "coordinates": [[[-71.06050844892523, 42.37006716665208], [-71.06113468299719, 42.36984673633013], [-71.06113394384427, 42.36940559228251], [-71.0609490592128, 42.36906671143147], [-71.06036331662813, 42.368950812747535], [-71.06014770214209, 42.36861294745869], [-71.06014717593912, 42.3683062801711], [-71.06070219270265, 42.36776541918994], [-71.060702311456, 42.36755778607379], [-71.06042441405503, 42.36739186351394], [-71.0593028311051, 42.36778820021098], [-71.05889494248119, 42.3668970343261], [-71.06313305423397, 42.364566273268906], [-71.06359496389176, 42.36409705854095], [-71.06409490099495, 42.362096935851305], [-71.06400991133904, 42.3613009827055], [-71.0667370008896, 42.36128709762781], [-71.06668804946318, 42.35940586570865], [-71.0647450486111, 42.35943398208141], [-71.06471896956862, 42.35961281603155], [-71.06302396379877, 42.35960019427705], [-71.06284195029356, 42.35780511588792], [-71.0632959214456, 42.35759808127947], [-71.06233600274025, 42.35644993761778], [-71.06354299402453, 42.35507820505853], [-71.06489493105879, 42.352397084201094], [-71.06769492657828, 42.352396958032465], [-71.07092993435276, 42.35179012388116], [-71.08798706867442, 42.34739887281457], [-71.08895099417586, 42.34929575177508], [-71.09310396341084, 42.349115267333715], [-71.09323494810909, 42.35089324629074], [-71.09299606148936, 42.35129696446178], [-71.09404203030128, 42.353710062783705], [-71.09789994995312, 42.353027018112066], [-71.09903293076081, 42.35536216544707], [-71.09682103821223, 42.35612023599206], [-71.09709604092512, 42.35659722760897], [-71.09419600921234, 42.35749689003616], [-71.09429598061145, 42.35799690308645], [-71.09342509633274, 42.35828304534891], [-71.09379593711209, 42.35889711030016], [-71.09509606738986, 42.36029714216938], [-71.09569593880907, 42.36039715888312], [-71.09779602036187, 42.361797159917785], [-71.09889591626761, 42.361296839851256], [-71.09839607183133, 42.36079711922714], [-71.10119603498087, 42.359597100290706], [-71.10259604142672, 42.35889691279879], [-71.10339602632789, 42.3582970394013], [-71.10579600874382, 42.355997176387746], [-71.10534095193094, 42.355670953509794], [-71.10920692664823, 42.353624178049664], [-71.11069595578151, 42.35259727230005], [-71.1109959868566, 42.35259716227438], [-71.11709595447965, 42.355597032204756], [-71.11692894610178, 42.35871597359536], [-71.11699605585275, 42.361197046901204], [-71.10909602904368, 42.36389721205289], [-71.10839604732286, 42.363997238532036], [-71.10769590292236, 42.36439717278232], [-71.10639603533508, 42.36359710311903], [-71.10579603774262, 42.36399680136362], [-71.10539603763522, 42.36459692947482], [-71.10439699797237, 42.365197815208234], [-71.10119609143446, 42.36939672648254], [-71.10009601057202, 42.36879703465094], [-71.09759599296922, 42.367897031997266], [-71.09809593368549, 42.36689721092777], [-71.0975959076205, 42.36689714619759], [-71.0985959096987, 42.3640968132135], [-71.09949596884162, 42.364097132987105], [-71.0981959512725, 42.363397126685975], [-71.09379608735603, 42.36309695556419], [-71.09099592646815, 42.36269709918773], [-71.08769593238462, 42.362596971299396], [-71.08539592947663, 42.362297234781245], [-71.07579504342404, 42.361597135697224], [-71.07157104360674, 42.367234166208036], [-71.07079599460823, 42.36789805710779], [-71.06979497056929, 42.36909676009911], [-71.06409496274401, 42.368997092231005], [-71.06459189954171, 42.369476685257254], [-71.06279497713795, 42.36959703501063], [-71.06159504223565, 42.369496812264764], [-71.06159493754097, 42.37019678590188], [-71.06059501151957, 42.37019691377671], [-71.06050844892523, 42.37006716665208]]]}}