{"type": "Feature", "properties": {"district_name": "4th Berkshire", "chamber": "house", "vintage": "2001-2010"}, "geometry": {"type": "Polygon", "coordinates": [[[-73.22184895132497, 42.400484831419234], [-73.22878103914243, 42.37666116251473], [-73.23839500509645, 42.37155527569101], [-73.23641492570638, 42.36472478277882], [-73.1922169488939, 42.318556950598406], [-73.18073199057596, 42.32459818433072], [-73.16000298259092, 42.30443374771858], [-73.16087500754925, 42.28674227052835], [-73.1615330197928, 42.25987918890699], [-73.16157404924604, 42.24754498021337], [-73.1266550468117, 42.25200715866075], [-73.12454785686708, 42.25239380585544], [-73.12133398064238, 42.252624961841384], [-73.12102701118405, 42.25205582032041], [-73.12096496425958, 42.25127779766194], [-73.12133287852683, 42.25068392542669], [-73.12271296373886, 42.24971499633769], [-73.12289703592373, 42.2494298742538], [-73.12292786449333, 42.24865223174753], [-73.12308110107688, 42.24856114454177], [-73.12228004640704, 42.246800242029785], [-73.12169395267354, 42.24629695325024], [-73.12092303509569, 42.2446048432112], [-73.12055399944563, 42.24421722736045], [-73.1205229871778, 42.24389687552769], [-73.12093198815694, 42.24322981882713], [-73.09267604179621, 42.24559511774291], [-73.09103299819881, 42.234367259820495], [-73.03685395292027, 42.24036080325226], [-73.03639803423745, 42.2363239010654], [-73.00796700385489, 42.2385018617235], [-73.00565997793815, 42.24695182411381], [-73.00425995578236, 42.25134012625468], [-73.00184603169816, 42.25108977776069], [-73.00037802580194, 42.31235188457437], [-72.9995450377985, 42.31326487728822], [-72.9538140264585, 42.343867883103165], [-72.89563695523027, 42.34080881997149], [-72.8947599501436, 42.33147384380958], [-72.88518399509229, 42.332614972739], [-72.88075800980025, 42.26538186356842], [-72.91243601114608, 42.23931316175082], [-72.90740098519629, 42.23641374464961], [-72.90702403944175, 42.23633676098753], [-72.87454197609978, 42.217595899479726], [-72.87195802592504, 42.21633021994549], [-72.8761100401661, 42.20073919985456], [-72.89471387105702, 42.12766274471999], [-72.89554500872866, 42.123565759386025], [-72.9035850392815, 42.12509226695771], [-72.98182100108565, 42.136621113956295], [-72.97007396363144, 42.078501791774556], [-72.97906436050947, 42.038218641164335], [-73.05305483953123, 42.039826482376576], [-73.12457947470354, 42.042019827897114], [-73.23290313745886, 42.04504272759313], [-73.29626009354358, 42.04701990177176], [-73.42605068340389, 42.0504212025077], [-73.4366305043687, 42.05048915463239], [-73.49702199820574, 42.0495968452874], [-73.50823960013196, 42.08611751736936], [-73.48312849532974, 42.15489831568778], [-73.41083642650813, 42.35163003060569], [-73.35005300399516, 42.351778812849496], [-73.33081602436314, 42.35195898800572], [-73.33365203734658, 42.3688570010495], [-73.32940396026721, 42.369068171727235], [-73.329535984418, 42.37813280600643], [-73.32086295828448, 42.37800478648708], [-73.32310298913056, 42.391892958506844], [-73.31087892446567, 42.39202072801309], [-73.30886296387433, 42.404069251615844], [-73.30105497621075, 42.40424518291286], [-73.29051003896149, 42.40418124782621], [-73.29030201910071, 42.411061240502455], [-73.31285102812498, 42.41438385868878], [-73.33255095083567, 42.417484112152884], [-73.33535205276505, 42.4177839112751], [-73.33879999256186, 42.41849991083564], [-73.33545100765436, 42.431484157822425], [-73.31675094630374, 42.43138400607081], [-73.30215006414053, 42.438484029425], [-73.30024996771935, 42.439184040417295], [-73.29025001246136, 42.440484102444266], [-73.29104997932299, 42.44338408924358], [-73.29134996908898, 42.443784061929755], [-73.28984993684344, 42.44418389700537], [-73.28524994580228, 42.44498411024116], [-73.27994996489436, 42.44518378444219], [-73.27004904666948, 42.44508427655847], [-73.26724899606468, 42.44588422307359], [-73.26404906400877, 42.44728396703668], [-73.26154897877315, 42.44818386285127], [-73.26094902753626, 42.44758410853905], [-73.26014898651763, 42.44768413400851], [-73.25684904023333, 42.44878410957487], [-73.25402893226173, 42.44833973050699], [-73.2539490396081, 42.44858406881438], [-73.25194904384162, 42.44808381550295], [-73.25274905436186, 42.44488404881583], [-73.25484900942016, 42.44518410647026], [-73.2550490704281, 42.44408419125027], [-73.25764905547227, 42.44458424645673], [-73.25794905044849, 42.44478395233637], [-73.25814899643932, 42.44528402689291], [-73.26164892714954, 42.443283874812], [-73.26304895909472, 42.44358379158451], [-73.26334906597293, 42.442584195612675], [-73.26494896038172, 42.442484270554786], [-73.26704903941749, 42.44278410369327], [-73.26884902458602, 42.441884151503665], [-73.27094893803289, 42.44148381237104], [-73.27294903144802, 42.44018395762413], [-73.28414999179849, 42.433684089140854], [-73.28785006064825, 42.43228387764024], [-73.27934999743543, 42.43128379663634], [-73.27655004768917, 42.43198381473229], [-73.27514999458339, 42.431984025137204], [-73.26604900110652, 42.42998371916807], [-73.26484897398122, 42.430083730476916], [-73.25894896997188, 42.42948405389565], [-73.25974906191688, 42.4256842848172], [-73.26114906809765, 42.42318380019186], [-73.26024894021708, 42.41968522740264], [-73.26084906094083, 42.417185156652025], [-73.26424999655644, 42.407085068615196], [-73.22184895132497, 42.400484831419234]]]}}