{"type": "Feature", "properties": {"district_name": "1st Berkshire District", "chamber": "house", "vintage": "2012-2020"}, "geometry": {"type": "Polygon", "coordinates": [[[-73.38351, 42.425491000000015], [-73.369761, 42.462962999999995], [-73.363312, 42.479923], [-73.362768, 42.481955], [-73.362064, 42.48323500000001], [-73.356894, 42.49836], [-73.356031, 42.500018], [-73.352527, 42.510002], [-73.347303, 42.52415399999999], [-73.343792, 42.533297999999995], [-73.309828, 42.625080999999994], [-73.293887, 42.66745200000001], [-73.264957, 42.74593999999998], [-73.249554, 42.74583], [-73.24522499999999, 42.745509999999996], [-73.142485, 42.743587999999995], [-73.119571, 42.74330699999999], [-73.08988099999999, 42.74241400000002], [-73.07301799999999, 42.742084000000006], [-73.07128, 42.742205999999996], [-73.048041, 42.741481], [-73.022903, 42.741133000000005], [-73.02309199999999, 42.737810999999994], [-73.023709, 42.70269], [-72.99787800000001, 42.70126399999999], [-72.949742, 42.70510300000001], [-72.94883800000001, 42.704263000000005], [-72.94882199999999, 42.703464999999994], [-72.94980799999999, 42.701674999999994], [-72.950604, 42.700995], [-72.951533, 42.700581], [-72.953777, 42.69858600000001], [-72.95382, 42.69815700000001], [-72.951628, 42.695507000000006], [-72.951504, 42.694094], [-72.951955, 42.692673000000006], [-72.953659, 42.69074100000001], [-72.954608, 42.69010599999999], [-72.957404, 42.690146999999996], [-72.95838599999999, 42.690002999999955], [-72.960855, 42.688463999999996], [-72.962074, 42.687887], [-72.963156, 42.68765500000001], [-72.965246, 42.68765], [-72.97130299999999, 42.689008], [-72.973241, 42.68895299999999], [-72.974705, 42.68865999999996], [-72.975442, 42.687152999999995], [-72.976023, 42.686362], [-72.977564, 42.685660999999996], [-72.97742800000002, 42.684422000000005], [-72.977226, 42.68426399999999], [-72.977036, 42.683052999999994], [-72.97547399999999, 42.680518], [-72.975556, 42.67972100000001], [-72.97617500000001, 42.67911300000001], [-72.980824, 42.679046], [-72.982607, 42.679229], [-72.984877, 42.679185000000004], [-72.98939899999999, 42.67850800000001], [-72.989772, 42.678219000000006], [-72.98893, 42.676327], [-72.98855999999999, 42.67581700000001], [-72.98842499999999, 42.67483300000001], [-72.988648, 42.67443199999999], [-72.99009, 42.674120000000016], [-72.99492599999999, 42.67437400000002], [-72.995727, 42.673749000000015], [-72.995635, 42.67334200000001], [-72.994428, 42.67210399999999], [-72.988591, 42.66731700000001], [-72.98492, 42.66582899999998], [-72.982474, 42.665279000000005], [-72.981074, 42.66473299999999], [-72.97895799999999, 42.663304999999994], [-72.976872, 42.66148299999999], [-72.975686, 42.660918], [-72.975134, 42.66090999999999], [-72.974599, 42.661124000000015], [-72.973762, 42.661714999999994], [-72.97241199999999, 42.663039999999995], [-72.970238, 42.663936], [-72.96832599999999, 42.664224], [-72.966229, 42.663982999999995], [-72.964018, 42.66424999999999], [-72.963251, 42.664815], [-72.962929, 42.665774000000006], [-72.962338, 42.666823999999984], [-72.960886, 42.66732799999999], [-72.957048, 42.666799000000005], [-72.955111, 42.665869], [-72.95464000000001, 42.66504399999999], [-72.954529, 42.66233199999999], [-72.955742, 42.65840399999998], [-72.955589, 42.65459899999999], [-72.955304, 42.653774], [-72.954518, 42.65250400000001], [-72.954145, 42.651413000000005], [-72.953644, 42.651033], [-72.952826, 42.65086600000002], [-72.951039, 42.64100599999998], [-72.952024, 42.640972000000005], [-72.95393899999999, 42.64142000000001], [-72.955455, 42.641537], [-72.960381, 42.64134200000001], [-72.961867, 42.641681000000005], [-72.962813, 42.64153799999999], [-72.963616, 42.64086699999998], [-72.96482100000001, 42.63905899999999], [-72.966399, 42.63800199999999], [-72.96705299999999, 42.63730300000001], [-72.96712699999999, 42.635960000000004], [-72.966498, 42.634994000000006], [-72.966803, 42.633532], [-72.967117, 42.63326], [-72.968858, 42.63272099999999], [-72.969995, 42.63278700000001], [-72.970505, 42.633175], [-72.970918, 42.63392299999998], [-72.97139299999999, 42.63433399999999], [-72.972183, 42.634665], [-72.973263, 42.63480999999998], [-72.97385, 42.63469899999999], [-72.974156, 42.63443], [-72.974322, 42.633798999999996], [-72.974167, 42.63318299999999], [-72.974347, 42.632668], [-72.97475299999999, 42.63243500000001], [-72.975413, 42.63241699999998], [-72.981293, 42.63756499999999], [-72.983621, 42.638329], [-72.984808, 42.63853], [-72.985293, 42.638495000000006], [-72.98556599999999, 42.638255], [-72.98567299999999, 42.638071], [-72.98557400000001, 42.63740800000002], [-72.985925, 42.63687000000001], [-72.98727, 42.63647400000001], [-72.987267, 42.63615400000001], [-72.986404, 42.635003999999995], [-72.986417, 42.63470699999999], [-72.986694, 42.634511], [-72.988446, 42.634697], [-72.990284, 42.63415099999999], [-72.991862, 42.63398300000001], [-72.99531, 42.63326800000001], [-72.997513, 42.63368], [-72.997935, 42.63398699999999], [-72.99862499999999, 42.634921], [-73.00038599999999, 42.634942999999986], [-73.000852, 42.635124], [-73.001086, 42.63543200000001], [-73.001026, 42.635810000000006], [-73.000332, 42.636417], [-72.999963, 42.637001], [-73.000044, 42.63747999999999], [-73.00076, 42.63827800000001], [-73.001272, 42.63843700000001], [-73.00348699999999, 42.638408], [-73.006101, 42.640606], [-73.00683099999999, 42.64088999999998], [-73.007775, 42.640864], [-73.008861, 42.64126100000001], [-73.00900299999999, 42.64155799999999], [-73.009025, 42.642883], [-73.0096, 42.64321299999999], [-73.00961699999999, 42.643361000000006], [-73.008738, 42.644255], [-73.00877299999999, 42.64488399999998], [-73.00976899999999, 42.64570399999998], [-73.010296, 42.645737], [-73.01094499999999, 42.645472000000005], [-73.011394, 42.64553900000001], [-73.011659, 42.645835], [-73.011478, 42.64660200000001], [-73.011612, 42.64722200000001], [-73.054401, 42.649302999999996], [-73.063634, 42.64987700000001], [-73.067548, 42.594019999999986], [-73.084312, 42.594726], [-73.080486, 42.57362299999999], [-73.095553, 42.56124000000001], [-73.085424, 42.55950099999999], [-73.08855799999999, 42.54840900000001], [-73.103841, 42.55082199999999], [-73.10781399999999, 42.536487], [-73.146637, 42.541067000000005], [-73.162765, 42.51562800000001], [-73.182199, 42.485414999999996], [-73.31174299999999, 42.504608], [-73.315114, 42.49294600000002], [-73.319544, 42.493435999999996], [-73.33891, 42.418564999999994], [-73.38351, 42.425491000000015]]]}}