{"type": "Feature", "properties": {"district_name": "10th Plymouth District", "chamber": "house", "vintage": "2012-2020"}, "geometry": {"type": "Polygon", "coordinates": [[[-71.069498, 42.04971499999999], [-71.025776, 42.055088999999995], [-71.022924, 42.04217799999999], [-70.989431, 42.046295], [-70.991073, 42.048596], [-70.991784, 42.050841999999996], [-70.992216, 42.05134399999998], [-70.994946, 42.052534], [-71.00380299999999, 42.055527], [-71.007434, 42.05742700000001], [-71.008521, 42.05834300000001], [-71.010325, 42.058933999999994], [-71.01456, 42.061071999999996], [-71.01612899999999, 42.065405999999996], [-71.014567, 42.065715999999995], [-71.01534199999999, 42.06830799999997], [-71.013932, 42.06842899999999], [-71.012151, 42.068971000000005], [-71.01030899999999, 42.06899299999999], [-71.010412, 42.069945], [-71.009413, 42.07064299999999], [-71.00922, 42.07125799999999], [-71.009322, 42.071702], [-71.010171, 42.072502999999976], [-71.010396, 42.073615000000004], [-71.010344, 42.074497], [-71.012816, 42.07442799999999], [-71.01138, 42.077394999999996], [-71.01074899999999, 42.07824199999999], [-71.010144, 42.07882000000001], [-71.008699, 42.079536], [-71.008172, 42.080024999999985], [-71.00779, 42.08065500000001], [-71.005338, 42.082387000000004], [-71.005106, 42.08274999999999], [-71.004988, 42.08385000000001], [-71.008327, 42.083898999999995], [-71.00880099999999, 42.08682099999999], [-71.00465, 42.087361], [-71.005714, 42.08993600000001], [-71.00613, 42.091542000000004], [-71.006542, 42.091485999999996], [-71.007446, 42.09237299999999], [-71.00845799999999, 42.092696999999994], [-71.010116, 42.092893], [-71.01042199999999, 42.093226000000016], [-71.011282, 42.093138999999994], [-71.011997, 42.092815], [-71.011431, 42.094212], [-71.011664, 42.095118], [-71.014635, 42.09430899999999], [-71.014442, 42.090711], [-71.01923599999999, 42.09062899999999], [-71.019249, 42.09548399999999], [-71.019544, 42.097174999999986], [-71.02006999999999, 42.09893600000001], [-71.02187099999999, 42.10172300000001], [-71.01994499999999, 42.10253900000001], [-71.022087, 42.105535], [-71.021365, 42.105866000000006], [-71.022778, 42.10786399999999], [-71.02371099999999, 42.109837], [-71.025534, 42.117293], [-71.002029, 42.12650599999999], [-70.998594, 42.111636], [-70.979117, 42.114076999999995], [-70.978531, 42.113076], [-70.979682, 42.111485], [-70.980603, 42.110973], [-70.980702, 42.11048999999999], [-70.980103, 42.109856], [-70.980194, 42.108909000000004], [-70.97977999999999, 42.10860100000001], [-70.978612, 42.108360000000005], [-70.97838899999999, 42.10765699999998], [-70.97792799999999, 42.107159999999986], [-70.978004, 42.10655099999999], [-70.97761299999999, 42.106085], [-70.977727, 42.10487599999998], [-70.976259, 42.102204000000015], [-70.97686399999999, 42.101212000000004], [-70.976733, 42.100534999999994], [-70.976817, 42.099813], [-70.97644799999999, 42.09929699999999], [-70.97507200000001, 42.096228999999994], [-70.97519, 42.095731], [-70.974964, 42.095237999999995], [-70.974964, 42.094716], [-70.975355, 42.093844000000004], [-70.975224, 42.09308999999999], [-70.97544599999999, 42.09259099999999], [-70.975284, 42.091364], [-70.975966, 42.08955100000002], [-70.975205, 42.087880000000006], [-70.97551899999999, 42.08744600000001], [-70.97652699999999, 42.08719599999999], [-70.975205, 42.071203000000004], [-70.962656, 42.06562200000001], [-70.95070799999999, 42.06076000000001], [-70.94949199999999, 42.059911], [-70.949224, 42.060005000000004], [-70.948948, 42.060406], [-70.94828, 42.06039499999999], [-70.947582, 42.059974999999994], [-70.946162, 42.05776499999999], [-70.946354, 42.056929], [-70.946968, 42.055945999999985], [-70.946822, 42.055147000000005], [-70.94520299999999, 42.05452100000002], [-70.944566, 42.05399599999999], [-70.94691499999999, 42.05323800000001], [-70.95114199999999, 42.052415], [-70.950891, 42.051246], [-70.950949, 42.05080399999999], [-70.952438, 42.0491], [-70.954867, 42.047301999999995], [-70.95652299999999, 42.04216899999998], [-70.958591, 42.03362099999999], [-70.959586, 42.03293800000001], [-70.961332, 42.032084], [-70.969932, 42.031349000000006], [-70.978942, 42.02896699999999], [-70.981376, 42.029035], [-70.98334299999999, 42.02865200000001], [-70.978985, 42.00829299999998], [-70.978943, 42.00734699999999], [-70.990607, 42.00390799999999], [-71.002716, 41.99804100000001], [-71.054184, 41.98271599999999], [-71.06769, 42.04110000000001], [-71.06779, 42.04250000000002], [-71.069026, 42.04705999999998], [-71.069498, 42.04971499999999]]]}}