{"type": "Feature", "properties": {"district_name": "19th Suffolk", "chamber": "house", "vintage": "2001-2010"}, "geometry": {"type": "MultiPolygon", "coordinates": [[[[-70.97999333849206, 42.36473135075998], [-70.98088795034505, 42.36500378758299], [-70.98132015294061, 42.36561793725326], [-70.98088841400549, 42.365571541991], [-70.97983882630359, 42.36506713696766], [-70.97937688822871, 42.36516520464677], [-70.97922252629081, 42.365321490087744], [-70.97950004893238, 42.36571269061881], [-70.97940775031478, 42.366417310973695], [-70.97965525828596, 42.36658385992305], [-70.981320246822, 42.36671686311633], [-70.98138248756105, 42.366923085913655], [-70.97993285857453, 42.36696661485888], [-70.978914562659, 42.366668852487976], [-70.97811224103518, 42.365898839735664], [-70.97820351755203, 42.3651137473563], [-70.97857413452948, 42.36481888926916], [-70.97999333849206, 42.36473135075998]]], [[[-70.9982302322358, 42.37634621839459], [-70.99854050717249, 42.37554799626355], [-70.99934676955111, 42.37433161411071], [-70.99952951785019, 42.3735812335937], [-71.00024012958816, 42.37210109345131], [-71.00159954753028, 42.369699270195866], [-71.00166174653128, 42.36907665485397], [-71.00141571793513, 42.36873853742964], [-70.99968937579467, 42.36757079002261], [-70.99981276841123, 42.36727197951055], [-71.00009080451265, 42.367086944795304], [-71.00070744702207, 42.36702210130234], [-71.00181765960514, 42.36720077967546], [-71.00246593928391, 42.36704490920437], [-71.00274334671802, 42.36677039435028], [-71.00289793097244, 42.36628997339123], [-71.0037928791047, 42.36576097279169], [-71.00370073011115, 42.36553719467215], [-71.00218891919819, 42.36550983755898], [-71.00172740017398, 42.365148847477705], [-71.00169235235668, 42.364854416995875], [-71.01069402090388, 42.36529707027694], [-71.00669394192785, 42.37469703049847], [-70.99939396765413, 42.3775970651639], [-70.99820840741954, 42.377183951467885], [-70.9982302322358, 42.37634621839459]]], [[[-70.99904660747274, 42.427890527179024], [-70.99808293581887, 42.42779912005873], [-70.9962394334109, 42.42884552108539], [-70.9953217974958, 42.42888482386405], [-70.99497163229212, 42.42850854706424], [-70.99491281822252, 42.42705321188964], [-70.99505701992265, 42.42666166446045], [-70.99592042071576, 42.426038060797154], [-70.99586484163409, 42.42569796168988], [-70.99551192254737, 42.425644091479334], [-70.99457915446773, 42.426110396781596], [-70.99391954597547, 42.42620371215264], [-70.9921714907606, 42.425646843897916], [-70.99195251518441, 42.42508770389956], [-70.99222637928082, 42.424653401377626], [-70.99282808944655, 42.42443830280237], [-70.99407547315614, 42.42434813637226], [-70.99431253268642, 42.42412241521334], [-70.99382497219663, 42.42412027259155], [-70.99403390385964, 42.423350892829056], [-70.99189401593948, 42.42369595387648], [-70.99169407068241, 42.42289607189878], [-70.99069396511288, 42.42229577369706], [-70.99239502275319, 42.419896726457196], [-70.9938939133663, 42.41809601031106], [-70.99499502350845, 42.416196749488385], [-70.99749405416429, 42.41319624100488], [-71.000194046087, 42.409596169016595], [-70.99829392764627, 42.410695818040494], [-70.99329393331242, 42.408796823677996], [-70.99289503175393, 42.40989678928953], [-70.99299405622881, 42.41139619774519], [-70.99269391429085, 42.413196000017614], [-70.9910939914684, 42.4160957258948], [-70.99039395212694, 42.41629575966056], [-70.9898940379608, 42.41679601111742], [-70.98859398866692, 42.41869603250748], [-70.98683366791691, 42.41860660620652], [-70.98783825950011, 42.416930928079175], [-70.99061031157235, 42.41034359471052], [-70.99100867665479, 42.40615790988947], [-70.99069941820994, 42.40512739919918], [-70.98958585994265, 42.40272377303851], [-70.98862859580031, 42.40221817248521], [-70.98742508962913, 42.40247334322792], [-70.9848319423908, 42.40220349054323], [-70.9844618906732, 42.402335750988605], [-70.9839373852815, 42.402066132319895], [-70.98406019633667, 42.40090193776699], [-70.98368659055421, 42.39684615409152], [-70.98242051768719, 42.395688665979606], [-70.98180289611335, 42.39460947548403], [-70.98133832366891, 42.39289740253595], [-70.97994882442231, 42.39079570975094], [-70.97936172161141, 42.39044587641236], [-70.97553500880534, 42.38949444780866], [-70.97306734993155, 42.390176396276225], [-70.97137041704107, 42.39029577853182], [-70.96825302285691, 42.390016396017195], [-70.96723421184073, 42.38940342048293], [-70.96686404518879, 42.3887889506329], [-70.96689453683307, 42.38803172294191], [-70.96729551795757, 42.38782651339177], [-70.96892998453805, 42.38763600528889], [-70.96998027191363, 42.387275663611995], [-70.97250835034369, 42.3842780615773], [-70.9725066148692, 42.38032409296983], [-70.9721659482895, 42.37922192416875], [-70.9716103034846, 42.37782673014566], [-70.97028184495963, 42.37530993077892], [-70.96852317392386, 42.37232579270535], [-70.96775053720229, 42.36995219758959], [-70.96744157873829, 42.36951580860234], [-70.96716347218378, 42.36836777116005], [-70.96737872514538, 42.36720176170736], [-70.96885796486517, 42.36564490767793], [-70.96966005163192, 42.36437019044288], [-70.97008987736766, 42.36287655667962], [-70.97005828750608, 42.36155241002499], [-70.9695333645329, 42.358508116155775], [-70.96799298232474, 42.356397125384895], [-70.9689930000181, 42.35579685602338], [-70.96894459008857, 42.355531044994166], [-70.97092014557239, 42.35677243154858], [-70.97307923588265, 42.35773497462587], [-70.97453024062465, 42.35882646994754], [-70.97505405582048, 42.35940335865959], [-70.97551822437643, 42.36026920172161], [-70.97558041824931, 42.3620785111602], [-70.97521057631099, 42.36280550479861], [-70.97437840593541, 42.36392819840284], [-70.97410090938489, 42.364086164999605], [-70.97360733831957, 42.36404058494759], [-70.9729288136376, 42.36370099239781], [-70.97289647814314, 42.36180065481156], [-70.97264930688931, 42.361598080711076], [-70.97172402096218, 42.361578079172446], [-70.97104660095934, 42.362562481338934], [-70.9706161277416, 42.364317759348204], [-70.97021510040696, 42.36482007786638], [-70.96984562364266, 42.36619526785236], [-70.96996929864775, 42.366490684237746], [-70.97058690223892, 42.36681313306204], [-70.9716346263225, 42.36630871732525], [-70.97194379958157, 42.36635740260801], [-70.97243777953402, 42.36658305940803], [-70.97246881428245, 42.36706879337477], [-70.97219091778989, 42.367659461799676], [-70.9721303522738, 42.36855216732906], [-70.97166779021082, 42.36999219697634], [-70.97102024747684, 42.37097616757878], [-70.97105135626825, 42.37140845141587], [-70.9716686106228, 42.37146080426985], [-70.97194602651304, 42.37129384032562], [-70.97250217430155, 42.37207682912955], [-70.97290248375306, 42.37209667000797], [-70.97456889856643, 42.371572562868785], [-70.97506105663797, 42.37113141559804], [-70.97558631609257, 42.3711135548609], [-70.9768511091226, 42.37143384942671], [-70.97740656234379, 42.37134296889317], [-70.97734436611263, 42.37085765350734], [-70.98116925694706, 42.37080913979128], [-70.98234119889769, 42.37028437252244], [-70.98240259617276, 42.36996842097645], [-70.98274195385136, 42.36969198211837], [-70.98416068273264, 42.36923470244749], [-70.98437672228675, 42.36884404369424], [-70.98480791604223, 42.368656347121366], [-70.98610339243488, 42.368678464579936], [-70.98653464370203, 42.36792357728248], [-70.9870587366173, 42.36790510089025], [-70.9873057569292, 42.36801817163818], [-70.98718310959485, 42.36849759802111], [-70.98832432061903, 42.36847792224593], [-70.98928009588755, 42.3687044252361], [-70.99005188273028, 42.36895205382832], [-70.99076185380476, 42.36948018674269], [-70.99215027962731, 42.36997810981246], [-70.99480290266185, 42.370526022658076], [-70.99619250168683, 42.37116851558731], [-70.99671758272059, 42.3716727267365], [-70.99687263932961, 42.372904553561625], [-70.99662674575082, 42.373502729666946], [-70.99662787310224, 42.374529633617556], [-70.99598093193867, 42.37560152316536], [-70.99480850877123, 42.3763785079864], [-70.99363698180058, 42.37647126386399], [-70.99252574514146, 42.37692326474956], [-70.99243468350635, 42.37760933465265], [-70.99271210478607, 42.37791046310907], [-70.99286834775815, 42.379555874406336], [-70.99249902987476, 42.38067904122579], [-70.9924685672042, 42.38158932497948], [-70.99274681641795, 42.38190902962834], [-70.99351758883272, 42.38202158553615], [-70.99413234912615, 42.38256784008101], [-70.994156850863, 42.38303891621807], [-70.9934267894025, 42.38378800381443], [-70.99367369885512, 42.384018106265955], [-70.99287233453967, 42.38442814265289], [-70.99203837309196, 42.38428998751107], [-70.99000273483345, 42.384316426478996], [-70.98966319826368, 42.38465590549918], [-70.9897568422766, 42.38584301902717], [-70.98947869346728, 42.3860280279683], [-70.9870730237267, 42.38609667096163], [-70.98611595361731, 42.386464327778626], [-70.98574676292297, 42.386759215493505], [-70.9855626948957, 42.387996290041976], [-70.98423631238045, 42.388550781915065], [-70.9838203706034, 42.3892246914733], [-70.98448332878294, 42.389186025314295], [-70.98553228225556, 42.38872651335982], [-70.98648930531043, 42.389232132209976], [-70.98661273465702, 42.38968957941857], [-70.98639893050434, 42.3923681080165], [-70.98670759128632, 42.39273185116522], [-70.9893627402406, 42.39371259900164], [-70.99226256223838, 42.393256723191776], [-70.99365139165495, 42.39336750134713], [-70.99427119172634, 42.3932976368718], [-70.99434031419892, 42.39312576070936], [-70.99489406743203, 42.393196839692564], [-70.99669394191201, 42.39459679501206], [-70.99899399349671, 42.39819672362416], [-70.99649504689857, 42.40019795591622], [-70.9984940598241, 42.401597067293714], [-71.00059403813097, 42.40269722756876], [-71.00266698082078, 42.40422600156178], [-71.00519407081866, 42.405196822006985], [-71.00399406382822, 42.4060958748724], [-71.00489391294605, 42.40629612826495], [-71.00499398660467, 42.40609624556487], [-71.00569396968037, 42.406296191085694], [-71.00539393471252, 42.406895841476775], [-71.00919397487202, 42.408295727345575], [-71.00869409048306, 42.408796069618674], [-71.00799397135319, 42.409095799146556], [-71.00749408978804, 42.41139613451464], [-71.0090949563979, 42.411096877177606], [-71.01129401379347, 42.41179607635467], [-71.01169408442931, 42.41109611226464], [-71.01299395911093, 42.41159621652045], [-71.01469403851087, 42.411996145101625], [-71.01419395739379, 42.41269625547165], [-71.01819407083327, 42.41369605897527], [-71.01789391569424, 42.41449605261844], [-71.02229495496049, 42.41569601986522], [-71.02168897788606, 42.417025918826745], [-71.01919503177709, 42.41659577326463], [-71.01889601081002, 42.41719715380006], [-71.01679408163393, 42.416595848031264], [-71.0163940414763, 42.417196230899414], [-71.01489392810691, 42.41669588981927], [-71.01442193092119, 42.4177877410303], [-71.01239399124941, 42.417196236977304], [-71.01109398075039, 42.418196228779415], [-71.01039405362823, 42.4178961612838], [-71.00989407280117, 42.41739606121922], [-71.00899408285902, 42.41699610219473], [-71.00889407574368, 42.416795930170785], [-71.00799403806907, 42.41669586474738], [-71.00599397910473, 42.419496176210565], [-71.0053939234259, 42.419996073388575], [-71.00509399845492, 42.42059627996636], [-71.00509390761485, 42.420995779121945], [-71.00469392286445, 42.42159612152278], [-71.003994031779, 42.42189582747112], [-70.99913305974282, 42.42814635760173], [-70.99904660747274, 42.427890527179024]]]]}}