{"type": "Feature", "properties": {"district_name": "18th Suffolk District", "chamber": "house", "vintage": "2022-present"}, "geometry": {"type": "Polygon", "coordinates": [[[-71.17485, 42.350337], [-71.173916, 42.35346499999999], [-71.167608, 42.36009500000001], [-71.166158, 42.35990699999998], [-71.16421800000002, 42.35863100000001], [-71.16300800000002, 42.35846900000001], [-71.162285, 42.358564], [-71.160518, 42.359497], [-71.159278, 42.359902], [-71.155246, 42.35989500000001], [-71.152476, 42.360678000000014], [-71.148642, 42.36106899999999], [-71.147808, 42.361306000000006], [-71.146336, 42.362475], [-71.14524, 42.364150000000016], [-71.144492, 42.36482199999999], [-71.143294, 42.36508400000003], [-71.140642, 42.36442199999999], [-71.139692, 42.364475], [-71.13856, 42.36509900000002], [-71.136437, 42.36688899999999], [-71.135719, 42.367273999999995], [-71.134168, 42.367758999999985], [-71.132373, 42.36889099999999], [-71.131874, 42.36949700000001], [-71.131788, 42.370065000000004], [-71.132182, 42.37090100000001], [-71.133091, 42.371976], [-71.13315, 42.37256299999998], [-71.132962, 42.372940000000014], [-71.132457, 42.373382], [-71.13099700000001, 42.373892], [-71.128951, 42.37383500000001], [-71.127634, 42.37325899999999], [-71.126024, 42.37194799999999], [-71.124582, 42.369636000000014], [-71.123827, 42.369156999999994], [-71.122044, 42.368703], [-71.11896, 42.36876], [-71.11819, 42.36852900000001], [-71.117692, 42.368145999999996], [-71.117082, 42.367033], [-71.11687300000001, 42.365885000000006], [-71.116936, 42.363676999999996], [-71.116578, 42.359567], [-71.117165, 42.356997], [-71.117066, 42.355866], [-71.11653, 42.355028000000004], [-71.114916, 42.35386100000001], [-71.114087, 42.353450999999986], [-71.11246, 42.352903], [-71.110589, 42.352616], [-71.110283, 42.35408000000002], [-71.110431, 42.35446099999998], [-71.110379, 42.354877999999985], [-71.110233, 42.35525100000001], [-71.109577, 42.3559], [-71.108195, 42.35521200000001], [-71.106725, 42.355002999999996], [-71.106402, 42.355134], [-71.102642, 42.35864400000001], [-71.098178, 42.36078199999997], [-71.09886, 42.361184], [-71.097684, 42.361816000000005], [-71.09431, 42.359776], [-71.093489, 42.35888100000002], [-71.094065, 42.358699], [-71.093845, 42.358309999999996], [-71.093254, 42.358443000000015], [-71.093138, 42.358222999999995], [-71.095244, 42.357475], [-71.095092, 42.357236999999984], [-71.096886, 42.356627], [-71.096564, 42.35609000000001], [-71.098817, 42.355342], [-71.09789, 42.35311999999999], [-71.103032, 42.352514], [-71.103624, 42.349733], [-71.100555, 42.349357000000005], [-71.100764, 42.348101], [-71.100995, 42.34797], [-71.100564, 42.347918], [-71.101143, 42.347758], [-71.099802, 42.34765099999998], [-71.10282, 42.346187999999984], [-71.103352, 42.347156000000005], [-71.105067, 42.34669599999999], [-71.106001, 42.348404000000016], [-71.106894, 42.348588], [-71.10657, 42.349912], [-71.121311, 42.351674999999986], [-71.120729, 42.35461500000002], [-71.125088, 42.35523599999999], [-71.12514600000002, 42.354944], [-71.125014, 42.35492499999999], [-71.125175, 42.35435799999999], [-71.12474, 42.35430100000001], [-71.12495, 42.35335399999999], [-71.128031, 42.35372400000001], [-71.128344, 42.35260400000001], [-71.137341, 42.353590000000004], [-71.132404, 42.35571199999999], [-71.129718, 42.356654000000006], [-71.12968, 42.35708000000002], [-71.13083, 42.359024], [-71.131488, 42.35859500000002], [-71.131621, 42.358799000000005], [-71.13224, 42.358585000000005], [-71.133083, 42.358556], [-71.13316100000002, 42.35938800000001], [-71.132911, 42.359981999999995], [-71.130578, 42.36198600000001], [-71.130417, 42.36195699999999], [-71.130218, 42.36269399999998], [-71.132645, 42.363332], [-71.13381, 42.363381], [-71.138473, 42.36277700000001], [-71.13841, 42.362245], [-71.140782, 42.357977000000005], [-71.137979, 42.357608000000006], [-71.139066, 42.353791000000015], [-71.140681, 42.35400400000002], [-71.149082, 42.35615100000001], [-71.152384, 42.35090300000001], [-71.154025, 42.35137099999999], [-71.153568, 42.352148000000014], [-71.15443000000002, 42.352396], [-71.154939, 42.351603999999995], [-71.156621, 42.351890999999995], [-71.158071, 42.351915999999996], [-71.158059, 42.354074000000004], [-71.158594, 42.35381300000001], [-71.158899, 42.35418899999998], [-71.161848, 42.354727], [-71.162368, 42.35249300000001], [-71.161985, 42.352547], [-71.162138, 42.348989], [-71.163333, 42.349115000000005], [-71.163594, 42.34891], [-71.163712, 42.348533], [-71.164734, 42.34873], [-71.165209, 42.348555999999995], [-71.165674, 42.348231], [-71.16646, 42.346964], [-71.164878, 42.34642599999999], [-71.162118, 42.34637300000001], [-71.161311, 42.34757599999999], [-71.16043, 42.34732600000001], [-71.160751, 42.346702999999984], [-71.159378, 42.34632], [-71.159309, 42.345978], [-71.158103, 42.346091], [-71.157688, 42.34512099999999], [-71.157901, 42.34324800000001], [-71.159758, 42.340058], [-71.157878, 42.33973], [-71.155056, 42.34038499999999], [-71.154268, 42.340163], [-71.153192, 42.339149000000006], [-71.152587, 42.338896], [-71.152741, 42.338645999999976], [-71.150692, 42.33827399999999], [-71.150658, 42.33749500000001], [-71.152262, 42.337185], [-71.15126, 42.33634099999999], [-71.150601, 42.33625100000002], [-71.148847, 42.33935799999999], [-71.149612, 42.339474], [-71.151648, 42.340535], [-71.153111, 42.340696], [-71.154734, 42.341206], [-71.153417, 42.343289000000006], [-71.153457, 42.344143999999986], [-71.153274, 42.34464999999997], [-71.155147, 42.345229], [-71.153786, 42.34725599999999], [-71.153067, 42.346153999999984], [-71.150662, 42.34566499999999], [-71.15109, 42.345009999999995], [-71.15031900000001, 42.344796], [-71.150039, 42.34455300000001], [-71.15013, 42.343141], [-71.149361, 42.342932000000005], [-71.149529, 42.342258], [-71.149044, 42.342201], [-71.148633, 42.34181399999999], [-71.145923, 42.341897], [-71.145779, 42.341516], [-71.14686, 42.34137199999999], [-71.147571, 42.340610999999996], [-71.147143, 42.34058600000001], [-71.146744, 42.34026900000001], [-71.147065, 42.34001300000002], [-71.147142, 42.339517], [-71.146936, 42.339038], [-71.146356, 42.338860000000004], [-71.146215, 42.338632], [-71.146606, 42.33853700000002], [-71.146156, 42.33744200000002], [-71.148742, 42.336866], [-71.148295, 42.335806999999996], [-71.15005900000001, 42.33539299999999], [-71.150461, 42.334968], [-71.149853, 42.334635], [-71.157036, 42.33039], [-71.159325, 42.332767999999994], [-71.161295, 42.33378299999999], [-71.162732, 42.333961], [-71.167565, 42.333441], [-71.168191, 42.33479100000001], [-71.16857, 42.335143], [-71.168886, 42.33582599999999], [-71.169217, 42.33806800000001], [-71.168633, 42.338629], [-71.166808, 42.33928999999997], [-71.166683, 42.340104000000004], [-71.17485, 42.350337]]]}}