{"type": "Feature", "properties": {"district_name": "34th Middlesex District", "chamber": "house", "vintage": "2022-present"}, "geometry": {"type": "Polygon", "coordinates": [[[-71.134623, 42.404376000000006], [-71.134595, 42.405445000000014], [-71.134286, 42.406403999999995], [-71.132569, 42.40869599999999], [-71.132223, 42.40952300000001], [-71.132247, 42.41017800000001], [-71.132887, 42.41197299999998], [-71.132859, 42.412456999999996], [-71.132435, 42.415215999999994], [-71.131872, 42.415291], [-71.131614, 42.41551100000001], [-71.13155800000001, 42.416839], [-71.129986, 42.41756599999999], [-71.126853, 42.41815600000001], [-71.125809, 42.417999], [-71.126121, 42.417647], [-71.125289, 42.417565], [-71.123937, 42.41705799999997], [-71.121285, 42.417574], [-71.12046200000002, 42.41749300000002], [-71.11826, 42.41685400000001], [-71.117767, 42.417521], [-71.115467, 42.417528000000004], [-71.112483, 42.41690700000001], [-71.112979, 42.415952999999995], [-71.110588, 42.41553], [-71.110482, 42.417159000000005], [-71.110009, 42.417762], [-71.108118, 42.41684200000001], [-71.10652, 42.41562], [-71.105441, 42.415018], [-71.104024, 42.414904000000014], [-71.1041, 42.416355], [-71.098462, 42.41356999999999], [-71.092838, 42.411169], [-71.092024, 42.411024], [-71.084974, 42.411069000000005], [-71.084799, 42.41100099999999], [-71.084571, 42.410176000000014], [-71.083861, 42.408868999999996], [-71.082142, 42.406667000000006], [-71.081473, 42.405077999999996], [-71.081649, 42.404666], [-71.079428, 42.404305000000015], [-71.079756, 42.403262999999995], [-71.08208400000001, 42.403486], [-71.08532900000002, 42.39481899999999], [-71.085748, 42.39288299999997], [-71.086509, 42.393587000000004], [-71.090003, 42.391052], [-71.090346, 42.39061299999999], [-71.090778, 42.390838], [-71.092782, 42.38818700000001], [-71.093175, 42.38736099999998], [-71.096284, 42.388304], [-71.097146, 42.38912100000001], [-71.097398, 42.38876700000001], [-71.100302, 42.390099], [-71.100021, 42.390490999999976], [-71.100823, 42.390826], [-71.099087, 42.393123], [-71.099884, 42.39347599999999], [-71.098647, 42.395272000000006], [-71.097649, 42.39472799999999], [-71.097596, 42.39484300000002], [-71.098255, 42.395887], [-71.099608, 42.39712099999998], [-71.100489, 42.396253999999985], [-71.112374, 42.400226], [-71.113868, 42.400985000000006], [-71.114916, 42.40216699999999], [-71.116393, 42.401217], [-71.116909, 42.401303], [-71.117199, 42.404015], [-71.118342, 42.404225], [-71.119367, 42.40374600000001], [-71.12144, 42.404567000000014], [-71.120808, 42.40540299999999], [-71.12242, 42.406029], [-71.123482, 42.40446], [-71.121716, 42.403636999999996], [-71.12068100000002, 42.402855], [-71.12175, 42.40132899999998], [-71.122225, 42.401458000000005], [-71.124567, 42.39903400000001], [-71.124159, 42.398518], [-71.126012, 42.39706400000001], [-71.12736100000001, 42.39709599999998], [-71.13130000000001, 42.401579999999996], [-71.134623, 42.404376000000006]]]}}