{"type": "Feature", "properties": {"district_name": "9th Plymouth District", "chamber": "house", "vintage": "2012-2020"}, "geometry": {"type": "Polygon", "coordinates": [[[-71.03913299999999, 42.059261], [-71.039112, 42.06024599999999], [-71.038416, 42.060483000000005], [-71.03860499999999, 42.061402], [-71.038224, 42.065841000000006], [-71.03694899999999, 42.067803000000005], [-71.03765299999999, 42.069781000000006], [-71.036937, 42.069918], [-71.037077, 42.07090200000001], [-71.03766399999999, 42.071094999999985], [-71.03709599999999, 42.07378500000001], [-71.037576, 42.07631099999999], [-71.034183, 42.077653999999995], [-71.034939, 42.080779], [-71.026408, 42.081832], [-71.026883, 42.084424999999996], [-71.03166999999999, 42.08424500000001], [-71.031905, 42.08487199999999], [-71.033625, 42.084989], [-71.03376999999999, 42.08640399999999], [-71.032956, 42.08871], [-71.033509, 42.09029100000001], [-71.034161, 42.090162000000014], [-71.03733, 42.090149000000004], [-71.03913299999999, 42.10114300000001], [-71.035014, 42.10088700000001], [-71.025364, 42.10484699999999], [-71.02515, 42.105121999999994], [-71.02266, 42.106206], [-71.02204499999999, 42.106815], [-71.021365, 42.105866000000006], [-71.022087, 42.105535], [-71.01994499999999, 42.10253900000001], [-71.02187099999999, 42.10172300000001], [-71.02006999999999, 42.09893600000001], [-71.019544, 42.097174999999986], [-71.019249, 42.09548399999999], [-71.01923599999999, 42.09062899999999], [-71.014442, 42.090711], [-71.014635, 42.09430899999999], [-71.011664, 42.095118], [-71.011431, 42.094212], [-71.011997, 42.092815], [-71.011282, 42.093138999999994], [-71.01042199999999, 42.093226000000016], [-71.010116, 42.092893], [-71.00845799999999, 42.092696999999994], [-71.007446, 42.09237299999999], [-71.006542, 42.091485999999996], [-71.00613, 42.091542000000004], [-71.005714, 42.08993600000001], [-71.00465, 42.087361], [-71.00880099999999, 42.08682099999999], [-71.008327, 42.083898999999995], [-71.004988, 42.08385000000001], [-71.005106, 42.08274999999999], [-71.005338, 42.082387000000004], [-71.00779, 42.08065500000001], [-71.008172, 42.080024999999985], [-71.008699, 42.079536], [-71.010144, 42.07882000000001], [-71.01074899999999, 42.07824199999999], [-71.01138, 42.077394999999996], [-71.012816, 42.07442799999999], [-71.010344, 42.074497], [-71.010396, 42.073615000000004], [-71.010171, 42.072502999999976], [-71.009322, 42.071702], [-71.00922, 42.07125799999999], [-71.009413, 42.07064299999999], [-71.010412, 42.069945], [-71.01030899999999, 42.06899299999999], [-71.012151, 42.068971000000005], [-71.013932, 42.06842899999999], [-71.01534199999999, 42.06830799999997], [-71.014567, 42.065715999999995], [-71.01612899999999, 42.065405999999996], [-71.01456, 42.061071999999996], [-71.010325, 42.058933999999994], [-71.008521, 42.05834300000001], [-71.007434, 42.05742700000001], [-71.00380299999999, 42.055527], [-70.994946, 42.052534], [-70.992216, 42.05134399999998], [-70.991784, 42.050841999999996], [-70.991073, 42.048596], [-70.989431, 42.046295], [-71.022924, 42.04217799999999], [-71.025776, 42.055088999999995], [-71.036474, 42.053776], [-71.036992, 42.05446099999999], [-71.038798, 42.058305], [-71.03913299999999, 42.059261]]]}}