{"type": "Feature", "properties": {"district_name": "4th Bristol District", "chamber": "house", "vintage": "2012-2020"}, "geometry": {"type": "Polygon", "coordinates": [[[-71.347197, 41.82310099999999], [-71.344897, 41.82799999999999], [-71.342997, 41.82930000000002], [-71.34199699999999, 41.830200000000005], [-71.341197, 41.830600000000004], [-71.340696, 41.831202], [-71.33774199999999, 41.833635], [-71.335197, 41.83549999999999], [-71.340899, 41.842502], [-71.342198, 41.84430000000002], [-71.342098, 41.845200000000006], [-71.341298, 41.847100000000005], [-71.340597, 41.84860000000001], [-71.34029699999999, 41.84890000000001], [-71.337395, 41.85500100000001], [-71.337397, 41.85549999999999], [-71.333997, 41.862300000000005], [-71.337598, 41.87200199999999], [-71.337818, 41.87317099999999], [-71.34085700000001, 41.878721], [-71.340698, 41.88290000000001], [-71.339298, 41.89339899999998], [-71.339354, 41.894532999999996], [-71.339069, 41.895309], [-71.338656, 41.898610000000005], [-71.300719, 41.90366099999999], [-71.222494, 41.91224400000001], [-71.208162, 41.90885199999999], [-71.259289, 41.974216], [-71.221469, 41.98857699999999], [-71.221345, 41.98823200000001], [-71.220945, 41.988073], [-71.219932, 41.98625100000001], [-71.218749, 41.985994000000005], [-71.21854499999999, 41.985445], [-71.21794, 41.984682], [-71.217781, 41.984122000000006], [-71.217395, 41.983828], [-71.21717000000001, 41.98259400000002], [-71.216505, 41.98201199999999], [-71.216573, 41.981074000000014], [-71.216383, 41.98033500000002], [-71.216056, 41.979800999999995], [-71.21431799999999, 41.97921300000001], [-71.21413299999999, 41.979017999999996], [-71.213971, 41.97807999999999], [-71.21283, 41.977346], [-71.21147599999999, 41.976827], [-71.210023, 41.975437], [-71.20930299999999, 41.975472999999994], [-71.207455, 41.976352000000006], [-71.20716, 41.97606599999999], [-71.20671, 41.973693000000004], [-71.204993, 41.973578], [-71.203823, 41.97375200000001], [-71.201893, 41.96813199999998], [-71.200153, 41.96670999999999], [-71.199863, 41.96628300000001], [-71.198515, 41.961595999999986], [-71.19229899999999, 41.963488999999996], [-71.190908, 41.96439600000001], [-71.187767, 41.96705300000001], [-71.187146, 41.96637899999999], [-71.186955, 41.96594399999999], [-71.187001, 41.962022999999995], [-71.185934, 41.957412000000005], [-71.185535, 41.956618000000006], [-71.183584, 41.953872], [-71.18254999999999, 41.951586999999996], [-71.18204899999999, 41.95097399999999], [-71.179514, 41.94927599999998], [-71.17587700000001, 41.946473999999974], [-71.16363, 41.942415000000004], [-71.16192, 41.941382], [-71.160792, 41.940112000000006], [-71.15921399999999, 41.937235], [-71.158772, 41.93577], [-71.193893, 41.910765], [-71.18678799999999, 41.879338], [-71.203463, 41.881843], [-71.193489, 41.81620700000001], [-71.188326, 41.78632100000001], [-71.18765599999999, 41.784012000000004], [-71.186848, 41.779131], [-71.186746, 41.778863], [-71.186376, 41.778837], [-71.183641, 41.779093999999986], [-71.180651, 41.77355199999999], [-71.18159, 41.773008], [-71.183706, 41.77118599999999], [-71.18649200000002, 41.768161000000006], [-71.188186, 41.76580100000001], [-71.190102, 41.764618999999996], [-71.189064, 41.764161], [-71.188614, 41.763627], [-71.18915799999999, 41.76341199999998], [-71.190883, 41.76191100000001], [-71.191761, 41.76030099999997], [-71.192403, 41.759991], [-71.192731, 41.76000299999999], [-71.19297499999999, 41.759633], [-71.192594, 41.759586999999996], [-71.193281, 41.758577999999986], [-71.193005, 41.757539000000016], [-71.192005, 41.756949999999996], [-71.192211, 41.75624799999999], [-71.191051, 41.75586100000001], [-71.190867, 41.755435999999996], [-71.191043, 41.754802000000005], [-71.19094299999999, 41.754078999999976], [-71.192196, 41.753245], [-71.19192799999999, 41.752926], [-71.191997, 41.752479000000015], [-71.191661, 41.752264], [-71.192005, 41.75215], [-71.192463, 41.75229], [-71.193242, 41.75167999999999], [-71.19394299999999, 41.751535999999994], [-71.192849, 41.750228], [-71.192837, 41.74948599999999], [-71.195437, 41.749209000000015], [-71.196075, 41.75162499999998], [-71.20248, 41.75095100000001], [-71.203125, 41.75078999999998], [-71.20391099999999, 41.750305999999995], [-71.204235, 41.75065899999999], [-71.20482299999999, 41.75031899999998], [-71.204849, 41.75015599999998], [-71.205212, 41.750717], [-71.206113, 41.751270999999996], [-71.206533, 41.751353], [-71.206633, 41.751675999999996], [-71.20711399999999, 41.751535999999994], [-71.207717, 41.75168199999999], [-71.207695, 41.75352899999999], [-71.208107, 41.75340799999999], [-71.208336, 41.753745999999985], [-71.208291, 41.7544], [-71.208528, 41.75519200000001], [-71.208596, 41.75618600000001], [-71.208306, 41.756800000000005], [-71.208742, 41.75693600000001], [-71.208589, 41.758005999999995], [-71.208811, 41.75879], [-71.20916199999999, 41.75909299999999], [-71.209041, 41.75955099999999], [-71.209285, 41.76019400000001], [-71.209751, 41.76061799999999], [-71.209682, 41.76088000000001], [-71.210263, 41.76172899999999], [-71.21036300000002, 41.763248999999995], [-71.210737, 41.76358399999998], [-71.210905, 41.76355900000001], [-71.210974, 41.763349999999996], [-71.211226, 41.763534], [-71.211325, 41.76336999999999], [-71.21194, 41.76359299999998], [-71.22511399999999, 41.76160399999999], [-71.224171, 41.756325000000004], [-71.224599, 41.75281899999999], [-71.225089, 41.75103700000002], [-71.2245, 41.749506], [-71.223598, 41.745104000000005], [-71.223109, 41.738744000000004], [-71.222905, 41.732167], [-71.223027, 41.73172], [-71.22292500000002, 41.731023], [-71.222619, 41.73046000000001], [-71.222917, 41.730332], [-71.223207, 41.73054700000001], [-71.224199, 41.73057699999999], [-71.224657, 41.730374999999974], [-71.22452799999999, 41.731179000000004], [-71.224879, 41.73096], [-71.225199, 41.73101700000002], [-71.22538999999999, 41.73060400000001], [-71.22581699999999, 41.730672], [-71.226077, 41.730262], [-71.226603, 41.72986900000001], [-71.226129, 41.728837000000006], [-71.226518, 41.727880000000006], [-71.226479, 41.72760099999999], [-71.224555, 41.726819000000006], [-71.226708, 41.727133], [-71.227295, 41.72684200000002], [-71.226119, 41.726437], [-71.22547899999999, 41.726665999999994], [-71.22528, 41.72656199999998], [-71.225852, 41.72613199999999], [-71.225836, 41.72430800000001], [-71.226156, 41.72365399999998], [-71.225804, 41.72307999999998], [-71.225743, 41.72212199999999], [-71.225475, 41.721423999999985], [-71.225605, 41.72109299999999], [-71.22538399999999, 41.720877], [-71.225329, 41.72008099999999], [-71.225444, 41.71988000000001], [-71.225374, 41.71901700000001], [-71.225183, 41.718723999999995], [-71.225229, 41.718308], [-71.224863, 41.718072], [-71.22485499999999, 41.717756999999985], [-71.225411, 41.717256000000006], [-71.225121, 41.71679700000003], [-71.225235, 41.71658799999999], [-71.225182, 41.71569299999999], [-71.225593, 41.715284], [-71.225967, 41.71436300000002], [-71.225768, 41.71382599999999], [-71.226271, 41.713029], [-71.22621699999999, 41.712647000000004], [-71.22597999999999, 41.71250299999999], [-71.22608199999999, 41.712344999999985], [-71.249492, 41.738572999999995], [-71.260982, 41.752118], [-71.306279, 41.771266], [-71.30887899999999, 41.772079999999995], [-71.310366, 41.77299400000001], [-71.31777, 41.77611300000001], [-71.321596, 41.777901], [-71.32649599999999, 41.779801], [-71.328639, 41.78087199999998], [-71.32909599999999, 41.782719000000014], [-71.329315, 41.782593], [-71.32941799999999, 41.781884000000005], [-71.329582, 41.781836000000006], [-71.329803, 41.782038], [-71.32989599999999, 41.78262600000001], [-71.329663, 41.783077000000006], [-71.329854, 41.783406], [-71.329869, 41.784315], [-71.330232, 41.78471799999999], [-71.33039099999999, 41.785381000000015], [-71.329627, 41.787018], [-71.329652, 41.78773799999999], [-71.329432, 41.78827400000001], [-71.329681, 41.788498000000004], [-71.330415, 41.78865399999999], [-71.330235, 41.78888299999999], [-71.33051, 41.789125000000006], [-71.33089199999999, 41.789136000000006], [-71.330922, 41.789594], [-71.33125199999999, 41.789394], [-71.33236699999999, 41.790141], [-71.332448, 41.790476999999996], [-71.331803, 41.79093199999999], [-71.332199, 41.79105899999999], [-71.332448, 41.791436999999995], [-71.33304199999999, 41.791722], [-71.332602, 41.792046], [-71.33294, 41.792309], [-71.33272, 41.79253899999999], [-71.33305, 41.79268100000001], [-71.332771, 41.793077999999994], [-71.333395, 41.793119000000004], [-71.333754, 41.7939], [-71.33403299999999, 41.794011999999995], [-71.33429, 41.79439399999998], [-71.334136, 41.794653], [-71.335053, 41.79511699999999], [-71.336666, 41.795151000000004], [-71.337972, 41.79578700000001], [-71.339461, 41.79603999999999], [-71.339593, 41.796434], [-71.34043, 41.79719599999999], [-71.340305, 41.79776100000001], [-71.34124400000002, 41.798345000000005], [-71.34079, 41.799062000000006], [-71.341098, 41.799469999999985], [-71.34109099999999, 41.799875], [-71.341304, 41.800226], [-71.341048, 41.80118599999999], [-71.34066, 41.80164400000001], [-71.34089399999999, 41.802108000000004], [-71.33980199999999, 41.80420600000001], [-71.339568, 41.805004000000004], [-71.33979599999999, 41.805566000000006], [-71.338897, 41.80830000000001], [-71.339897, 41.810399999999994], [-71.347197, 41.82310099999999]]]}}