{"type": "Feature", "properties": {"district_name": "3rd Norfolk District", "chamber": "house", "vintage": "2012-2020"}, "geometry": {"type": "Polygon", "coordinates": [[[-71.035093, 42.135633999999996], [-71.027565, 42.15632099999999], [-71.026911, 42.15778399999999], [-71.02613199999999, 42.157477], [-71.026461, 42.155431], [-71.025548, 42.15420000000001], [-71.026697, 42.15326099999997], [-71.026522, 42.151967000000006], [-71.025781, 42.15112500000001], [-71.025578, 42.150597000000005], [-71.02508399999999, 42.150209], [-71.02357599999999, 42.149758999999996], [-71.020869, 42.149352], [-71.020237, 42.14903], [-71.019767, 42.147983], [-71.01890999999999, 42.14912], [-71.01848, 42.14930999999999], [-71.01788, 42.14927999999999], [-71.01832, 42.14901], [-71.01841999999999, 42.14861000000001], [-71.01804, 42.148249999999976], [-71.01714, 42.14812], [-71.01718, 42.14771], [-71.016864, 42.14763500000001], [-71.016896, 42.147336], [-71.01281999999999, 42.14693], [-71.01274, 42.146739999999994], [-71.01301, 42.145330000000016], [-71.01133999999999, 42.145269999999975], [-71.00935, 42.14573], [-71.0087, 42.145739999999996], [-71.00868, 42.14866999999999], [-71.00826, 42.150999999999975], [-71.00855, 42.15479], [-71.00352, 42.15477], [-71.003221, 42.156008], [-71.00470899999999, 42.156113999999995], [-71.0046, 42.16074000000001], [-71.00626, 42.160759999999996], [-71.006841, 42.163689999999974], [-71.00679, 42.167500000000004], [-71.007024, 42.16840499999999], [-70.976565, 42.16833099999999], [-70.9687, 42.219877999999994], [-70.96768399999999, 42.22066199999997], [-70.96801599999999, 42.221201], [-70.968066, 42.22169], [-70.967022, 42.223353], [-70.96665899999999, 42.223566999999996], [-70.96614400000001, 42.223576], [-70.964283, 42.224585], [-70.963728, 42.224694000000014], [-70.962891, 42.225499], [-70.960891, 42.226899], [-70.960596, 42.228539000000005], [-70.96038399999999, 42.22871499999999], [-70.960191, 42.23129899999999], [-70.96049099999999, 42.23509899999997], [-70.967991, 42.237998999999995], [-70.973018, 42.237098999999986], [-70.975668, 42.237258], [-70.97563, 42.237690999999984], [-70.976226, 42.23815799999999], [-70.97689199999999, 42.238402], [-70.9775, 42.238370999999994], [-70.97838899999999, 42.237925], [-70.97896, 42.23711699999999], [-70.979737, 42.23647599999999], [-70.980156, 42.23543799999998], [-70.980404, 42.23532], [-70.98061400000002, 42.23558200000001], [-70.981105, 42.235749000000006], [-71.00216999999999, 42.232208], [-71.008337, 42.22966900000001], [-71.01392, 42.23230999999998], [-71.013877, 42.232729000000006], [-71.015992, 42.23389900000001], [-71.01727000000001, 42.23491500000001], [-71.017871, 42.23581000000001], [-71.017622, 42.23568499999999], [-71.01706, 42.23618], [-71.017668, 42.23657700000001], [-71.017802, 42.237363], [-71.017124, 42.23757300000001], [-71.01615, 42.23695999999998], [-71.01501, 42.23791999999998], [-71.01619, 42.2391], [-71.01503, 42.23935], [-71.01398999999999, 42.239119999999986], [-71.01375999999999, 42.23972], [-71.01151399999999, 42.23993900000001], [-71.00971899999999, 42.24048900000001], [-71.0098, 42.24114000000003], [-71.00666, 42.24053], [-71.0044, 42.241509999999984], [-71.00500000000001, 42.23901], [-71.00395999999999, 42.23787999999998], [-71.00332999999999, 42.238880000000016], [-71.00323999999999, 42.23975999999999], [-71.00193999999999, 42.240029999999976], [-71.00094, 42.24089000000001], [-71.00092, 42.24116000000001], [-71.00031, 42.24154000000001], [-71.00265999999999, 42.24429], [-71.00305, 42.244119999999995], [-71.00327, 42.24426], [-71.00328999999999, 42.24491999999999], [-71.00312, 42.245459999999994], [-71.00269, 42.245719999999984], [-71.00238999999999, 42.245349999999995], [-71.00209, 42.24529999999999], [-71.00039, 42.245790000000014], [-71.00019, 42.245409999999985], [-70.99762, 42.24677], [-70.99743000000001, 42.247110000000006], [-70.99804999999999, 42.247960000000006], [-70.99853999999999, 42.24828], [-70.99794, 42.24879], [-70.99772999999999, 42.25008], [-70.99716, 42.24992], [-70.99517000000002, 42.25004999999999], [-70.98885, 42.249100000000006], [-70.98704, 42.24911000000001], [-70.98499, 42.24871000000001], [-70.98404, 42.249519999999976], [-70.98573999999999, 42.25025000000001], [-70.98490000000001, 42.251784000000015], [-70.98581999999999, 42.251964], [-70.98477600000001, 42.25350100000002], [-70.983977, 42.253659], [-70.982492, 42.25429900000001], [-70.975392, 42.253699000000005], [-70.97009100000001, 42.249799], [-70.9644, 42.248073999999995], [-70.9648, 42.246727], [-70.96540999999999, 42.24679099999997], [-70.967124, 42.244256], [-70.96596199999999, 42.243991], [-70.966093, 42.243537999999994], [-70.966663, 42.24310499999999], [-70.966493, 42.24294999999999], [-70.966723, 42.24151499999999], [-70.966877, 42.241494], [-70.966669, 42.24041199999998], [-70.966999, 42.23973600000001], [-70.963629, 42.238932999999996], [-70.96336, 42.240514000000005], [-70.960398, 42.24032599999998], [-70.95975899999999, 42.239989999999985], [-70.95881299999999, 42.239817], [-70.95779, 42.240132], [-70.957251, 42.24012800000001], [-70.954858, 42.23933599999999], [-70.953135, 42.238415], [-70.95218, 42.238218999999994], [-70.951319, 42.23759], [-70.95149099999999, 42.23737999999999], [-70.95119799999999, 42.23713800000001], [-70.95056, 42.236941], [-70.949966, 42.23721900000001], [-70.949961, 42.237939999999995], [-70.949935, 42.23806299999999], [-70.94985, 42.23821699999999], [-70.94977999999999, 42.23823799999999], [-70.949934, 42.237978], [-70.949249, 42.237053999999986], [-70.949325, 42.236539], [-70.949749, 42.23621199999998], [-70.950064, 42.23632399999999], [-70.95087199999999, 42.236224], [-70.951526, 42.236518999999994], [-70.952095, 42.236514], [-70.952018, 42.236065], [-70.95160299999999, 42.235739], [-70.952103, 42.23559600000001], [-70.952187, 42.235427], [-70.951579, 42.23551400000001], [-70.951295, 42.23521299999999], [-70.951217, 42.234926], [-70.951579, 42.234614000000015], [-70.95154, 42.23436199999999], [-70.95121, 42.233990000000006], [-70.951148, 42.233639], [-70.95127099999999, 42.23348399999999], [-70.950878, 42.233107999999994], [-70.950756, 42.23370899999999], [-70.950256, 42.23415500000001], [-70.95064, 42.233594000000004], [-70.95054, 42.23327599999999], [-70.950671, 42.23308], [-70.95007799999999, 42.23279300000001], [-70.949986, 42.23248400000001], [-70.95004, 42.232285000000005], [-70.95059300000001, 42.23221699999999], [-70.950363, 42.23163099999999], [-70.94999299999999, 42.231507], [-70.94950899999999, 42.23169099999999], [-70.949347, 42.231616999999986], [-70.94993199999999, 42.231359], [-70.95057, 42.231491999999974], [-70.950901, 42.23117199999999], [-70.95005499999999, 42.230911000000006], [-70.949885, 42.23062199999999], [-70.94829299999999, 42.230734000000005], [-70.948266, 42.23051600000001], [-70.950079, 42.230410000000006], [-70.951636, 42.230064000000034], [-70.95134399999999, 42.229775000000004], [-70.95189500000001, 42.228528999999995], [-70.95103, 42.22707], [-70.94807, 42.22683999999999], [-70.9462, 42.227289999999996], [-70.94601, 42.226789999999994], [-70.94534999999999, 42.22612], [-70.94523, 42.22494000000001], [-70.94306999999999, 42.22281999999999], [-70.94516, 42.2216], [-70.94395, 42.22021999999999], [-70.94548, 42.21940999999999], [-70.947267, 42.21880200000002], [-70.948228, 42.217828999999995], [-70.95208, 42.21709], [-70.956412, 42.217264], [-70.955799, 42.212880000000006], [-70.955609, 42.20911999999999], [-70.954793, 42.20597199999998], [-70.95624, 42.20682999999999], [-70.95718, 42.20775], [-70.95665, 42.206680000000006], [-70.95612, 42.20482000000001], [-70.955889, 42.20210699999999], [-70.955659, 42.19449699999999], [-70.959631, 42.195775], [-70.960739, 42.19340000000001], [-70.960308, 42.193341000000004], [-70.962437, 42.19077], [-70.962437, 42.19048], [-70.962074, 42.18882000000001], [-70.96228099999999, 42.18793800000001], [-70.9556, 42.18899], [-70.95518, 42.18083999999998], [-70.95537999999999, 42.17672999999999], [-70.95721, 42.176899999999996], [-70.96439, 42.178430000000006], [-70.964451, 42.17827], [-70.963318, 42.178053], [-70.96306899999999, 42.177716], [-70.963222, 42.17725000000002], [-70.96369899999999, 42.176837000000006], [-70.96376, 42.176295], [-70.96279899999999, 42.175001], [-70.96279, 42.174448000000005], [-70.959081, 42.169515], [-70.95812699999999, 42.16763900000001], [-70.955356, 42.15847], [-70.94896299999999, 42.14815600000001], [-71.002354, 42.127224], [-71.002029, 42.12650599999999], [-71.02185899999999, 42.118745], [-71.026997, 42.123748999999975], [-71.027579, 42.126662], [-71.027233, 42.132948999999996], [-71.035093, 42.135633999999996]]]}}