{"type": "Feature", "properties": {"district_name": "5th Plymouth District", "chamber": "house", "vintage": "2022-present"}, "geometry": {"type": "Polygon", "coordinates": [[[-70.940768, 42.151365], [-70.893516, 42.169814], [-70.887603, 42.173334999999994], [-70.870733, 42.18223], [-70.861437, 42.18635299999998], [-70.860856, 42.185989], [-70.859374, 42.18547799999998], [-70.85775000000001, 42.18381300000001], [-70.856174, 42.18297600000001], [-70.855182, 42.182131], [-70.85434, 42.181650999999995], [-70.853098, 42.18034600000001], [-70.852192, 42.179758], [-70.851638, 42.178885], [-70.851394, 42.177280999999994], [-70.840239, 42.17806600000002], [-70.83452200000002, 42.17725900000001], [-70.830925, 42.178178], [-70.830245, 42.178661], [-70.829962, 42.17809500000002], [-70.828331, 42.17673400000001], [-70.827241, 42.17524300000001], [-70.826165, 42.174451000000005], [-70.825035, 42.174184], [-70.822465, 42.174142], [-70.82082, 42.17356], [-70.818336, 42.17316999999999], [-70.814063, 42.168062], [-70.81325500000001, 42.16652500000001], [-70.810203, 42.164706], [-70.808439, 42.164263000000005], [-70.804157, 42.162144000000005], [-70.801371, 42.161696000000006], [-70.798039, 42.162147999999995], [-70.794856, 42.161719], [-70.793298, 42.16175200000001], [-70.79141, 42.16138200000001], [-70.78808200000002, 42.160161000000016], [-70.788845, 42.158849], [-70.788967, 42.15729000000001], [-70.788614, 42.156786], [-70.789157, 42.15599600000001], [-70.789318, 42.15513399999998], [-70.789012, 42.15427300000002], [-70.78863, 42.15215500000002], [-70.787842, 42.151357000000004], [-70.787742, 42.15074999999999], [-70.78707, 42.15034699999999], [-70.7865, 42.15068], [-70.786367, 42.151111000000014], [-70.785881, 42.151277000000015], [-70.785737, 42.15024300000002], [-70.785152, 42.149875], [-70.785726, 42.149302000000006], [-70.786489, 42.14657699999999], [-70.787693, 42.145458], [-70.787836, 42.145100000000006], [-70.787572, 42.144693000000004], [-70.786283, 42.143988], [-70.785629, 42.143305], [-70.783222, 42.142209000000015], [-70.782828, 42.14142499999997], [-70.783061, 42.139908], [-70.782864, 42.13900400000001], [-70.78114, 42.13772600000001], [-70.780624, 42.137163], [-70.780474, 42.13654900000002], [-70.780561, 42.13621299999999], [-70.781494, 42.13487200000001], [-70.779873, 42.132349], [-70.779932, 42.13197700000001], [-70.780169, 42.131727], [-70.781846, 42.13125300000001], [-70.782179, 42.13092100000001], [-70.78228200000001, 42.130383], [-70.78192, 42.129847], [-70.781597, 42.12968200000001], [-70.779628, 42.12981600000002], [-70.779242, 42.129634], [-70.778822, 42.12782800000001], [-70.779502, 42.12671500000001], [-70.778854, 42.125865999999995], [-70.77793, 42.125199999999985], [-70.777897, 42.12492300000002], [-70.778431, 42.12425300000001], [-70.778495, 42.12300099999999], [-70.779483, 42.121980000000015], [-70.779481, 42.121778], [-70.779299, 42.121482999999984], [-70.77737, 42.12062600000001], [-70.777361, 42.11985899999999], [-70.777847, 42.11931300000001], [-70.777875, 42.11885599999999], [-70.777148, 42.11809], [-70.776624, 42.117177999999974], [-70.779003, 42.11558599999999], [-70.77978, 42.115862], [-70.78094, 42.116752999999996], [-70.78143, 42.116845], [-70.782603, 42.11665], [-70.782991, 42.11620300000002], [-70.782959, 42.115931999999994], [-70.78228200000001, 42.11497500000001], [-70.782077, 42.11432000000001], [-70.782142, 42.11409800000001], [-70.782928, 42.113381999999994], [-70.782892, 42.11222800000001], [-70.783007, 42.112005999999994], [-70.783777, 42.111738999999965], [-70.785199, 42.11202000000001], [-70.786326, 42.111307], [-70.786716, 42.111290999999994], [-70.787823, 42.11165100000001], [-70.788332, 42.11160400000001], [-70.788547, 42.11128299999999], [-70.787988, 42.11047800000001], [-70.788167, 42.11008299999999], [-70.788682, 42.110057000000005], [-70.789682, 42.11069000000001], [-70.790234, 42.11061799999999], [-70.7905, 42.11032899999999], [-70.790528, 42.110082999999996], [-70.78995, 42.10896299999999], [-70.790052, 42.108698], [-70.790507, 42.108691], [-70.791741, 42.10924399999999], [-70.79226, 42.10906499999999], [-70.792173, 42.108528], [-70.790935, 42.107648], [-70.789293, 42.106812], [-70.789398, 42.106516], [-70.789704, 42.10642299999999], [-70.791001, 42.10643700000001], [-70.792276, 42.10611699999998], [-70.792674, 42.10617], [-70.793718, 42.106833], [-70.795047, 42.10940699999999], [-70.796765, 42.111075], [-70.798438, 42.112386], [-70.79947300000002, 42.11246], [-70.79992, 42.112061], [-70.80066, 42.10963300000001], [-70.801109, 42.109716000000006], [-70.801944, 42.11062700000001], [-70.802809, 42.111227000000014], [-70.80385, 42.111477000000015], [-70.804847, 42.111265], [-70.807167, 42.10846500000001], [-70.80991400000002, 42.106329999999986], [-70.810598, 42.105394], [-70.812157, 42.104149], [-70.812293, 42.10388300000002], [-70.811968, 42.10253100000001], [-70.809883, 42.100731], [-70.809885, 42.10046200000001], [-70.810536, 42.10023399999999], [-70.810623, 42.10000800000001], [-70.80961100000002, 42.099388999999995], [-70.809817, 42.098982], [-70.810316, 42.098834000000004], [-70.810717, 42.09831600000001], [-70.811166, 42.098043], [-70.813176, 42.098186999999996], [-70.814103, 42.098862999999994], [-70.814937, 42.098824], [-70.816277, 42.099433999999995], [-70.81702800000001, 42.099061000000006], [-70.818601, 42.099670999999994], [-70.819482, 42.099714999999996], [-70.819649, 42.09947099999999], [-70.819864, 42.09948700000001], [-70.820592, 42.09992499999998], [-70.82091800000002, 42.100545000000004], [-70.821242, 42.10072900000001], [-70.822259, 42.10072900000002], [-70.823542, 42.100413], [-70.826319, 42.10039200000001], [-70.828893, 42.099622999999994], [-70.831448, 42.098516999999994], [-70.833717, 42.097935000000014], [-70.834162, 42.097589], [-70.835504, 42.09732199999997], [-70.835995, 42.097132], [-70.836247, 42.096774], [-70.837165, 42.09691], [-70.83791000000001, 42.096738000000016], [-70.838504, 42.09609900000002], [-70.839157, 42.09495800000001], [-70.84008, 42.094538000000014], [-70.84059200000002, 42.094535000000015], [-70.8419, 42.09493999999999], [-70.843157, 42.094743000000015], [-70.844731, 42.095003000000005], [-70.845142, 42.09516499999999], [-70.845405, 42.09548200000001], [-70.846571, 42.095859], [-70.847095, 42.096241], [-70.848142, 42.09629199999999], [-70.850642, 42.094927999999996], [-70.851153, 42.094953], [-70.852084, 42.09531900000001], [-70.853039, 42.095264], [-70.85367200000002, 42.09541399999999], [-70.854537, 42.09482299999999], [-70.855137, 42.094166], [-70.854976, 42.093339], [-70.855486, 42.09242300000001], [-70.857481, 42.09137200000001], [-70.858824, 42.09104199999999], [-70.859452, 42.090667], [-70.85965800000001, 42.09023100000001], [-70.861101, 42.089653], [-70.861281, 42.089225], [-70.862187, 42.089162], [-70.863102, 42.089544999999994], [-70.864303, 42.089794000000005], [-70.864512, 42.090412], [-70.865295, 42.090624000000005], [-70.86610500000002, 42.088662000000014], [-70.866275, 42.085894], [-70.863007, 42.081643999999976], [-70.861808, 42.07881600000001], [-70.859568, 42.079423999999996], [-70.857696, 42.080304], [-70.856978, 42.08037900000001], [-70.857259, 42.07985899999999], [-70.857043, 42.079105999999996], [-70.857569, 42.07846700000002], [-70.858651, 42.078323], [-70.85911, 42.07804399999999], [-70.859815, 42.077076], [-70.85996, 42.076736], [-70.859867, 42.076333999999996], [-70.860238, 42.076231], [-70.860475, 42.075747000000014], [-70.860681, 42.07566400000002], [-70.860908, 42.074922], [-70.860986, 42.07450099999999], [-70.86065500000001, 42.073439], [-70.859651, 42.072791], [-70.859767, 42.071092], [-70.85961, 42.07079999999999], [-70.859073, 42.07050900000001], [-70.860014, 42.06998600000001], [-70.862089, 42.068222000000006], [-70.863577, 42.06496300000001], [-70.868776, 42.065891], [-70.871172, 42.063766], [-70.873064, 42.061646999999994], [-70.876295, 42.05617299999999], [-70.87672200000002, 42.055200000000006], [-70.880297, 42.05366600000001], [-70.882007, 42.05316500000002], [-70.883019, 42.05306900000001], [-70.884003, 42.053175], [-70.885368, 42.05383699999999], [-70.887144, 42.05605], [-70.888005, 42.058848999999995], [-70.888259, 42.05926900000001], [-70.888783, 42.059707999999986], [-70.890781, 42.06068], [-70.891475, 42.061452], [-70.894225, 42.061263999999994], [-70.895067, 42.061042000000015], [-70.899395, 42.05861800000001], [-70.903842, 42.05757700000001], [-70.906699, 42.05555], [-70.90846, 42.062885000000016], [-70.909395, 42.068182], [-70.912962, 42.084417], [-70.902412, 42.08589700000001], [-70.931487, 42.116549], [-70.940768, 42.151365]]]}}