{"type": "Feature", "properties": {"district_name": "34th Middlesex District", "chamber": "house", "vintage": "2012-2020"}, "geometry": {"type": "Polygon", "coordinates": [[[-71.134512, 42.404199000000006], [-71.134379, 42.406063], [-71.133805, 42.407068], [-71.132758, 42.408403], [-71.13229700000001, 42.40943000000001], [-71.132273, 42.410126999999996], [-71.132762, 42.41162699999999], [-71.132317, 42.415215999999994], [-71.131939, 42.41527900000001], [-71.131653, 42.415594999999975], [-71.131467, 42.416765999999996], [-71.13116, 42.417043000000035], [-71.130087, 42.417503], [-71.126991, 42.418117999999986], [-71.125818, 42.418088], [-71.126165, 42.417653], [-71.125289, 42.417565], [-71.123937, 42.41705799999997], [-71.121285, 42.41757399999999], [-71.12046200000002, 42.41749300000002], [-71.11825999999999, 42.41685400000001], [-71.117767, 42.417521], [-71.115467, 42.417528000000004], [-71.112483, 42.41690700000001], [-71.112979, 42.41595299999999], [-71.11058799999999, 42.41553], [-71.11048199999999, 42.417159000000005], [-71.11000899999999, 42.417761999999996], [-71.10811799999999, 42.41684200000001], [-71.10652, 42.41562], [-71.105441, 42.41501799999999], [-71.104024, 42.414904000000014], [-71.1041, 42.416355], [-71.098462, 42.41356999999999], [-71.092838, 42.411169], [-71.092024, 42.411024], [-71.084974, 42.411069000000005], [-71.084799, 42.41100099999999], [-71.084571, 42.410176000000014], [-71.083861, 42.408868999999996], [-71.08214199999999, 42.406667000000006], [-71.081473, 42.405077999999996], [-71.081649, 42.404666], [-71.079428, 42.404305000000015], [-71.079756, 42.403262999999995], [-71.08208400000001, 42.403486], [-71.08532900000002, 42.39481899999999], [-71.085748, 42.39288299999997], [-71.08650899999999, 42.393587000000004], [-71.090215, 42.390764999999995], [-71.090623, 42.390964], [-71.091859, 42.38950200000001], [-71.093175, 42.38736099999998], [-71.096284, 42.388304], [-71.097146, 42.389120999999996], [-71.097398, 42.38876700000001], [-71.100302, 42.390099], [-71.100021, 42.390490999999976], [-71.10082299999999, 42.390826], [-71.099087, 42.393123], [-71.099884, 42.39347599999999], [-71.098647, 42.395272000000006], [-71.09764899999999, 42.39472799999999], [-71.097596, 42.39484300000002], [-71.098255, 42.395887], [-71.099499, 42.39703499999998], [-71.100334, 42.39615], [-71.112374, 42.400226], [-71.11401, 42.400987999999984], [-71.115346, 42.40272799999999], [-71.115541, 42.40514499999999], [-71.119328, 42.40652499999999], [-71.119456, 42.406327], [-71.121668, 42.407088], [-71.123482, 42.40446], [-71.12171599999999, 42.40363699999999], [-71.12068099999999, 42.402855], [-71.12174999999999, 42.40132899999998], [-71.122225, 42.401458000000005], [-71.124567, 42.39903400000001], [-71.12415899999999, 42.398518], [-71.126012, 42.39706400000001], [-71.127375, 42.39708499999998], [-71.131292, 42.401568999999995], [-71.134512, 42.404199000000006]]]}}