{"type": "Feature", "properties": {"district_name": "26th Middlesex", "chamber": "house", "vintage": "2001-2010"}, "geometry": {"type": "Polygon", "coordinates": [[[-71.08393951414875, 42.39907367508937], [-71.08356986335419, 42.39900819304886], [-71.08307577230282, 42.39798120901199], [-71.08258175059042, 42.397521958224125], [-71.08017384908983, 42.3967642817354], [-71.07875438197539, 42.39651939441798], [-71.07782857972863, 42.396014094600346], [-71.07631610471441, 42.39569061931448], [-71.07597717713375, 42.394894871982636], [-71.07591456811836, 42.39415753515404], [-71.07495860329786, 42.39247273034753], [-71.07419208656866, 42.390701965719316], [-71.07669608768029, 42.387096008689454], [-71.07679592089899, 42.38669574963537], [-71.07709593177387, 42.38649597240303], [-71.07939594955644, 42.38329601588699], [-71.07989602831981, 42.38279593439904], [-71.08089595962556, 42.38239614579074], [-71.08059596079514, 42.380996793375594], [-71.07569607717897, 42.38019727091718], [-71.07439693620194, 42.377298053837265], [-71.07379494630314, 42.37529718982745], [-71.07319492059877, 42.37399686002786], [-71.07299506066525, 42.37389708678702], [-71.0729950261136, 42.373396869327976], [-71.07069509267431, 42.37239686782871], [-71.06709496032663, 42.37189722033242], [-71.06429507247242, 42.369496943133136], [-71.06459189954171, 42.369476685257254], [-71.06409496274401, 42.368997092231005], [-71.06979497056929, 42.36909676009911], [-71.07079599460823, 42.36789805710779], [-71.07157104360674, 42.367234166208036], [-71.07579504342404, 42.361597135697224], [-71.08539592947663, 42.362297234781245], [-71.08769593238462, 42.362596971299396], [-71.09099592646815, 42.36269709918773], [-71.09379608735603, 42.36309695556419], [-71.0981959512725, 42.363397126685975], [-71.09949596884162, 42.364097132987105], [-71.0985959096987, 42.3640968132135], [-71.0975959076205, 42.36689714619759], [-71.09809593368549, 42.36689721092777], [-71.09759599296922, 42.367897031997266], [-71.10009601057202, 42.36879703465094], [-71.10119609143446, 42.36939672648254], [-71.10199609313102, 42.368396803561296], [-71.10709599430274, 42.37009674643248], [-71.10669598003714, 42.37069688728236], [-71.10749598824933, 42.370997272307406], [-71.10709597560711, 42.37159684725791], [-71.10599607385487, 42.37119695945518], [-71.10369598495599, 42.373996265023486], [-71.10269600263065, 42.373996191710035], [-71.10549606753708, 42.376295927931274], [-71.10729598384277, 42.37809590279619], [-71.10289599930425, 42.37909586942297], [-71.10238409349486, 42.380064157358625], [-71.10412200406718, 42.3803137855478], [-71.10377109458737, 42.38084318676421], [-71.1042960802803, 42.3809957911666], [-71.10309602602953, 42.38289575696802], [-71.10169597439109, 42.38249591916717], [-71.10039595704194, 42.38419575558246], [-71.09929607273503, 42.38319599174105], [-71.10049599055203, 42.38139622138791], [-71.09779605754748, 42.38049610021128], [-71.09649602975446, 42.37989623500838], [-71.09589605354653, 42.37969606656351], [-71.09209593800384, 42.379396248052196], [-71.09129607601682, 42.37959597329345], [-71.08979605818188, 42.380296232643346], [-71.09049598740908, 42.38199576208909], [-71.09129598651778, 42.38339573947294], [-71.09379599869256, 42.385795971102944], [-71.09349600680581, 42.3862962522668], [-71.09509599968935, 42.38709583553605], [-71.09619601089963, 42.388195795502526], [-71.09319603805442, 42.38729619872877], [-71.09279592838818, 42.38819619157399], [-71.09058392982523, 42.391154205709995], [-71.08979607336173, 42.3907957882296], [-71.08879595013391, 42.391796033218654], [-71.0864800007801, 42.393336786072254], [-71.08571308594556, 42.392851251241396], [-71.08569598872215, 42.39389607498477], [-71.08393951414875, 42.39907367508937]]]}}