{"type": "Feature", "properties": {"district_name": "10th Suffolk District", "chamber": "house", "vintage": "2022-present"}, "geometry": {"type": "Polygon", "coordinates": [[[-71.191234, 42.283002], [-71.178636, 42.29459500000001], [-71.164702, 42.30382999999999], [-71.16642, 42.304747], [-71.16612, 42.30531], [-71.16415, 42.30420999999999], [-71.16346, 42.304399999999994], [-71.16296, 42.30525000000001], [-71.16282, 42.30581], [-71.16252, 42.3061], [-71.16338, 42.3069], [-71.16397, 42.30795000000002], [-71.16324, 42.31015], [-71.16273, 42.31016999999999], [-71.16115, 42.30962000000001], [-71.16235, 42.30913], [-71.16263, 42.30865999999999], [-71.16261, 42.30825999999998], [-71.16233, 42.307790000000004], [-71.161549, 42.30707], [-71.160201, 42.306140000000006], [-71.159119, 42.30589399999999], [-71.158511, 42.30557700000001], [-71.15868, 42.30604000000001], [-71.15857, 42.30668000000001], [-71.15782, 42.30699], [-71.15499, 42.30612999999999], [-71.15427, 42.30576000000001], [-71.153439, 42.30581699999998], [-71.153455, 42.306328000000015], [-71.152501, 42.305280999999994], [-71.151762, 42.303756], [-71.150984, 42.303448999999986], [-71.150845, 42.303743000000004], [-71.149199, 42.30510899999998], [-71.147518, 42.305794000000006], [-71.140135, 42.302147000000005], [-71.13650200000001, 42.306204], [-71.13186300000001, 42.31317800000001], [-71.124269, 42.321856], [-71.123711, 42.32271600000002], [-71.12336700000002, 42.322571], [-71.121528, 42.323882], [-71.120112, 42.32283499999998], [-71.119539, 42.322745], [-71.119364, 42.321538000000004], [-71.118506, 42.32125700000001], [-71.11657000000001, 42.321021], [-71.109773, 42.32197799999998], [-71.113084, 42.317484000000015], [-71.116468, 42.31858299999999], [-71.116736, 42.317636], [-71.116899, 42.31575300000001], [-71.11717800000001, 42.315407], [-71.1185, 42.31449799999999], [-71.114397, 42.31162100000001], [-71.114853, 42.310393999999995], [-71.115472, 42.30967500000001], [-71.116722, 42.309096999999994], [-71.118393, 42.30875099999997], [-71.120727, 42.30900900000002], [-71.121671, 42.30865600000001], [-71.120783, 42.30835900000002], [-71.12241900000001, 42.30668300000002], [-71.122022, 42.306507], [-71.123579, 42.304137999999995], [-71.123556, 42.302923], [-71.124893, 42.302566], [-71.125399, 42.302878], [-71.125816, 42.30232200000001], [-71.125504, 42.302001], [-71.125631, 42.30060699999999], [-71.12518300000002, 42.299667], [-71.124526, 42.29922400000001], [-71.123637, 42.298913], [-71.122582, 42.297823], [-71.121626, 42.297621], [-71.12050900000001, 42.297842], [-71.120304, 42.29668699999999], [-71.120361, 42.29640600000001], [-71.12066, 42.296129], [-71.12016, 42.295951999999986], [-71.12280400000002, 42.294005], [-71.124217, 42.29258099999999], [-71.126229, 42.29002899999999], [-71.127139, 42.28916099999999], [-71.125965, 42.28848200000001], [-71.135535, 42.279548999999996], [-71.140308, 42.275428999999995], [-71.146811, 42.27039], [-71.151124, 42.26666600000001], [-71.154063, 42.269009], [-71.154676, 42.269296999999995], [-71.158643, 42.26956600000001], [-71.160005, 42.26702300000001], [-71.160424, 42.26682300000002], [-71.158567, 42.26545800000001], [-71.157609, 42.263433000000006], [-71.155958, 42.256484999999984], [-71.158584, 42.255155000000016], [-71.171322, 42.26534599999999], [-71.171379, 42.26590499999998], [-71.171695, 42.266277999999986], [-71.17356, 42.266705], [-71.17431700000002, 42.26717900000001], [-71.174596, 42.26789399999999], [-71.174501, 42.268651], [-71.173529, 42.26943800000003], [-71.172953, 42.270298], [-71.174822, 42.27353], [-71.174825, 42.27420099999999], [-71.174418, 42.275042], [-71.174764, 42.275842000000004], [-71.176364, 42.27664500000001], [-71.177461, 42.27686800000001], [-71.183048, 42.27585299999999], [-71.183257, 42.27599300000001], [-71.185357, 42.279591], [-71.187773, 42.280227000000004], [-71.18993, 42.281289], [-71.190974, 42.282123999999996], [-71.191234, 42.283002]]]}}