{"type": "Feature", "properties": {"district_name": "4th Worcester District", "chamber": "house", "vintage": "2012-2020"}, "geometry": {"type": "Polygon", "coordinates": [[[-71.842326, 42.51263000000001], [-71.83712299999999, 42.548551], [-71.832831, 42.54900200000001], [-71.83088, 42.54901800000001], [-71.829067, 42.548641999999994], [-71.82292799999999, 42.546794], [-71.821281, 42.546539], [-71.81924699999999, 42.54659899999999], [-71.81421399999999, 42.54725300000001], [-71.8079, 42.54716399999999], [-71.806546, 42.54747200000001], [-71.80466299999999, 42.548261999999994], [-71.803752, 42.548897], [-71.80012599999999, 42.552110000000006], [-71.798699, 42.552594000000006], [-71.797118, 42.552551000000015], [-71.78936999999999, 42.550931], [-71.786023, 42.551047000000004], [-71.77134199999999, 42.559248], [-71.76917999999999, 42.558142000000004], [-71.764287, 42.55505600000001], [-71.761588, 42.55190399999999], [-71.761951, 42.549808000000006], [-71.760362, 42.54762200000001], [-71.757766, 42.548567999999996], [-71.754166, 42.54605199999999], [-71.749679, 42.54520199999998], [-71.749149, 42.54905000000001], [-71.74986899999999, 42.54975900000001], [-71.74776899999999, 42.549935], [-71.75045, 42.553461999999996], [-71.75409599999999, 42.559456], [-71.755875, 42.56117000000001], [-71.75724699999999, 42.562068], [-71.76295, 42.56392400000001], [-71.74506199999999, 42.573901000000006], [-71.74108300000002, 42.570263000000004], [-71.720349, 42.552195000000005], [-71.711231, 42.535354000000005], [-71.702236, 42.53389499999997], [-71.712384, 42.52132899999999], [-71.71674, 42.518971], [-71.728385, 42.475128000000005], [-71.830019, 42.49218600000001], [-71.822318, 42.50427500000001], [-71.842326, 42.51263000000001]]]}}