{"type": "Feature", "properties": {"district_name": "24th Middlesex", "chamber": "house", "vintage": "2001-2010"}, "geometry": {"type": "Polygon", "coordinates": [[[-71.13439808154897, 42.40379707022184], [-71.13359696026731, 42.403396149722965], [-71.13019693092582, 42.40039578467782], [-71.12729699237116, 42.396995754354705], [-71.12669697628958, 42.396596003090046], [-71.12499700849263, 42.39459578936081], [-71.12409693329673, 42.39369594871871], [-71.12329698400455, 42.39319592794875], [-71.12469693917437, 42.39239587700962], [-71.12539699259484, 42.39239590745195], [-71.1255969572923, 42.39179618831924], [-71.12609695960802, 42.391096153560994], [-71.1269969981782, 42.3902961414706], [-71.12790306735762, 42.39011226687011], [-71.1279269593443, 42.38966388731419], [-71.12935993134043, 42.38987501847983], [-71.12769704766379, 42.387295971814616], [-71.130997061781, 42.38609572432353], [-71.13069696246487, 42.38549607433401], [-71.13169700090455, 42.384996247616236], [-71.13239693299238, 42.385395735242454], [-71.13419704758084, 42.38369599725901], [-71.1442970426549, 42.38839618919939], [-71.1429970321841, 42.38889575273281], [-71.14159704093026, 42.39079605998705], [-71.14099702125162, 42.39209621910371], [-71.14419693461087, 42.39259624321873], [-71.15059808617342, 42.394895814328706], [-71.15319798931728, 42.395595768219394], [-71.15629805330241, 42.395696222364954], [-71.15839796126942, 42.3943959463517], [-71.15759804348333, 42.391595952825575], [-71.15709798353228, 42.39079603318128], [-71.15729796777897, 42.38929597133066], [-71.1582980068384, 42.38669601171038], [-71.16039793317428, 42.38649573175646], [-71.15989806831062, 42.385096003202015], [-71.15799808972555, 42.382296125131816], [-71.15584395482665, 42.381393921773494], [-71.15567194680234, 42.38054208308699], [-71.15576707769615, 42.38038987810443], [-71.15629793644733, 42.38049612298837], [-71.15454805872356, 42.37524618110169], [-71.15659795604368, 42.37559610946486], [-71.16099793980668, 42.376795848662184], [-71.16369807374464, 42.37679589634173], [-71.16399790804255, 42.37699595982186], [-71.16679797846709, 42.37729612838029], [-71.1696980088529, 42.37789586829764], [-71.17549806106133, 42.37949574404244], [-71.17949796426136, 42.380395983910795], [-71.18369803088345, 42.38059609968628], [-71.1871979854059, 42.380495951860134], [-71.18922097038497, 42.38079627610854], [-71.19355791587809, 42.38525979125212], [-71.1951989510564, 42.38669615160991], [-71.1956990840244, 42.38749591436224], [-71.1953989404224, 42.38819621188626], [-71.19689895066462, 42.39049588177416], [-71.19709890851564, 42.391496274588214], [-71.19799903425007, 42.39259585351866], [-71.19769898213613, 42.39319600062422], [-71.19649892391651, 42.39389618313046], [-71.19639907475202, 42.39429598479908], [-71.19679897695609, 42.395395935010235], [-71.19899904329392, 42.39699576718126], [-71.19939890812724, 42.39819586310112], [-71.20159899380815, 42.401395883603676], [-71.20239896868365, 42.40349615384623], [-71.21089907161675, 42.406195009963014], [-71.20804600852084, 42.409159278211035], [-71.2076990124395, 42.40969518545065], [-71.20273597910712, 42.41469305123879], [-71.19390009260304, 42.413196264421224], [-71.19478506688729, 42.414456745622466], [-71.19528007788958, 42.41561490726461], [-71.19161592038203, 42.414231108116695], [-71.18689899568437, 42.412794817588164], [-71.18330004110841, 42.4114970133733], [-71.18162206045837, 42.411064754218884], [-71.17862099303476, 42.410601775658726], [-71.17346000275514, 42.409289171104035], [-71.16619998430949, 42.40658720876936], [-71.1645990920766, 42.40619712870902], [-71.15806992915304, 42.403538981981015], [-71.15781290948716, 42.40392814581658], [-71.15943408386671, 42.40476515185494], [-71.1614030826384, 42.40520027609046], [-71.16227694784007, 42.40569912073414], [-71.16099895331334, 42.40679707602215], [-71.15773590829907, 42.40780923167928], [-71.15659807528426, 42.40869598989654], [-71.15609793221536, 42.4102958612545], [-71.15429801411797, 42.41109621556429], [-71.15318199574526, 42.41110298638033], [-71.15039804560806, 42.405296230046595], [-71.14809896017073, 42.40579675427978], [-71.1474979094129, 42.406395849457226], [-71.14619808163714, 42.404496211745126], [-71.14579806465295, 42.40349624117071], [-71.14389799292681, 42.40409581404868], [-71.14189691648318, 42.4053961319476], [-71.1383199461149, 42.402578890730666], [-71.1368969836556, 42.40119585974976], [-71.13629704868043, 42.401096060108095], [-71.13439808154897, 42.40379707022184]]]}}