{"type": "Feature", "properties": {"district_name": "4th Hampden District", "chamber": "house", "vintage": "2022-present"}, "geometry": {"type": "Polygon", "coordinates": [[[-72.853897, 42.11500600000001], [-72.851868, 42.122907000000005], [-72.851642, 42.123033], [-72.85142, 42.123509], [-72.851292, 42.124659000000015], [-72.850929, 42.12499300000001], [-72.850188, 42.125072999999986], [-72.849439, 42.12490200000001], [-72.847759, 42.126070999999996], [-72.84701800000002, 42.126413], [-72.846211, 42.126495000000006], [-72.844612, 42.126070999999996], [-72.843815, 42.126063], [-72.843324, 42.126207000000015], [-72.842792, 42.12671099999999], [-72.842746, 42.127137999999995], [-72.8437, 42.12860900000001], [-72.844131, 42.12986399999999], [-72.844251, 42.13136899999999], [-72.843936, 42.13226399999999], [-72.843424, 42.132481999999996], [-72.842526, 42.13222100000001], [-72.84083100000001, 42.13219599999999], [-72.840342, 42.13242300000002], [-72.839215, 42.133375999999984], [-72.837676, 42.13353399999999], [-72.836604, 42.133945000000004], [-72.836117, 42.13433799999999], [-72.835909, 42.134775999999995], [-72.836384, 42.13646099999999], [-72.83633, 42.13680500000002], [-72.836118, 42.13719], [-72.835517, 42.137443000000005], [-72.833276, 42.138021], [-72.831301, 42.138264999999976], [-72.83049, 42.138097999999985], [-72.828936, 42.13698599999999], [-72.812875, 42.155848000000006], [-72.80751400000001, 42.157340000000005], [-72.802506, 42.16288600000001], [-72.797892, 42.165860999999985], [-72.785762, 42.200474], [-72.781039, 42.19974900000001], [-72.782111, 42.217271], [-72.791987, 42.217302], [-72.793414, 42.236853999999994], [-72.812576, 42.23495400000001], [-72.81440500000001, 42.25681900000002], [-72.735758, 42.266518], [-72.7363, 42.27653899999999], [-72.725019, 42.27808800000001], [-72.724713, 42.277723000000016], [-72.72403, 42.277618], [-72.723283, 42.277109999999986], [-72.721237, 42.276344], [-72.718725, 42.27634599999998], [-72.717051, 42.276628], [-72.71454200000001, 42.276014999999994], [-72.714125, 42.27609399999999], [-72.71258, 42.27590199999999], [-72.711199, 42.27408700000001], [-72.710497, 42.273663000000006], [-72.710247, 42.27232300000001], [-72.708899, 42.27022800000002], [-72.707764, 42.269329], [-72.707359, 42.26926900000001], [-72.707272, 42.269715999999995], [-72.706943, 42.269935], [-72.706526, 42.26973499999999], [-72.7055, 42.26983], [-72.705207, 42.26944100000001], [-72.704718, 42.26955599999999], [-72.7033, 42.269408000000006], [-72.702912, 42.269097000000016], [-72.702483, 42.269017], [-72.702102, 42.26900299999999], [-72.70147, 42.26927500000001], [-72.701203, 42.26898800000001], [-72.700778, 42.268929000000014], [-72.699746, 42.26918299999998], [-72.699742, 42.26945500000001], [-72.699389, 42.26965], [-72.698499, 42.26937699999999], [-72.698287, 42.268474], [-72.697931, 42.26805000000001], [-72.698155, 42.267155000000024], [-72.697858, 42.26702099999999], [-72.69708, 42.267214999999986], [-72.69569, 42.26599600000001], [-72.695467, 42.26558699999998], [-72.696332, 42.26457800000001], [-72.696637, 42.263897], [-72.697298, 42.263866], [-72.696947, 42.263443], [-72.697085, 42.26317000000001], [-72.697647, 42.262865000000005], [-72.698172, 42.262896], [-72.698363, 42.262727999999996], [-72.697911, 42.26243099999999], [-72.698487, 42.26205200000001], [-72.698387, 42.26157700000001], [-72.698683, 42.26060800000001], [-72.698438, 42.26036500000001], [-72.698529, 42.260137], [-72.698021, 42.25994299999999], [-72.697985, 42.259786000000005], [-72.698304, 42.25957400000001], [-72.698306, 42.259252], [-72.698521, 42.259041], [-72.698774, 42.259532999999976], [-72.69915500000002, 42.259393], [-72.699046, 42.259054000000006], [-72.699156, 42.25896700000001], [-72.699785, 42.25905900000001], [-72.699886, 42.258913], [-72.69944, 42.258525], [-72.698798, 42.25867800000002], [-72.698675, 42.258466], [-72.699175, 42.25803699999998], [-72.699662, 42.258210000000005], [-72.700617, 42.258019000000004], [-72.700372, 42.257526999999996], [-72.701423, 42.25710899999999], [-72.682592, 42.244127000000006], [-72.684423, 42.242385], [-72.685711, 42.24019], [-72.686808, 42.238904], [-72.687279, 42.23801100000003], [-72.68719, 42.236749], [-72.686484, 42.23553], [-72.685997, 42.234049], [-72.685837, 42.23163099999999], [-72.686712, 42.225789000000006], [-72.687678, 42.223241], [-72.66777, 42.225456], [-72.670033, 42.216503999999986], [-72.690515, 42.213076], [-72.686266, 42.18904699999999], [-72.686774, 42.18599100000001], [-72.686861, 42.18339000000001], [-72.684891, 42.16293700000001], [-72.685538, 42.15457100000001], [-72.686653, 42.15070299999999], [-72.687974, 42.149374], [-72.689152, 42.146324], [-72.686691, 42.143885], [-72.687192, 42.142315999999994], [-72.686872, 42.13996199999999], [-72.68919, 42.13935899999999], [-72.692603, 42.138917000000006], [-72.695215, 42.13889800000001], [-72.699437, 42.13915600000001], [-72.699217, 42.134031], [-72.698998, 42.133118], [-72.700299, 42.13253000000002], [-72.702967, 42.130919], [-72.703846, 42.130675000000004], [-72.704152, 42.131443000000004], [-72.703336, 42.132955], [-72.703392, 42.13311000000001], [-72.704567, 42.133223], [-72.705188, 42.13255899999999], [-72.708209, 42.133290999999986], [-72.708754, 42.133261000000005], [-72.709071, 42.13305300000001], [-72.709675, 42.13219599999999], [-72.709543, 42.129726999999995], [-72.70911700000002, 42.128974], [-72.714167, 42.127739999999996], [-72.716593, 42.12815], [-72.719153, 42.127401], [-72.720646, 42.127275000000004], [-72.720925, 42.127086], [-72.720942, 42.12684500000002], [-72.720231, 42.12598400000001], [-72.72017, 42.12569799999999], [-72.720383, 42.125446], [-72.721239, 42.125094999999995], [-72.721698, 42.12454999999999], [-72.723299, 42.12524899999999], [-72.722862, 42.126237], [-72.722908, 42.12661399999999], [-72.723485, 42.127146], [-72.72489, 42.127614], [-72.724929, 42.12784799999999], [-72.72529, 42.128014], [-72.725567, 42.128837000000004], [-72.72761800000002, 42.13049399999999], [-72.727903, 42.131746000000014], [-72.728803, 42.13301500000002], [-72.729617, 42.133426], [-72.73183, 42.13515699999998], [-72.73332, 42.13578], [-72.734235, 42.136386], [-72.735371, 42.136053000000004], [-72.735901, 42.13569900000001], [-72.73763, 42.13674400000001], [-72.73859, 42.13655500000001], [-72.73917, 42.136644], [-72.739367, 42.135742], [-72.735611, 42.133356], [-72.737993, 42.131190999999994], [-72.739803, 42.131301], [-72.740782, 42.128978000000004], [-72.730231, 42.126389999999994], [-72.727268, 42.12546999999999], [-72.726428, 42.125047999999985], [-72.723956, 42.12352700000001], [-72.714164, 42.11486299999999], [-72.714482, 42.114487], [-72.713976, 42.11250600000002], [-72.712399, 42.112071000000014], [-72.707087, 42.10891400000001], [-72.703842, 42.107687], [-72.69468, 42.10622299999999], [-72.695461, 42.104741999999995], [-72.695682, 42.10312], [-72.696307, 42.102349999999994], [-72.700659, 42.093253], [-72.701963, 42.09103800000001], [-72.702866, 42.08773300000001], [-72.70565, 42.08214399999997], [-72.705989, 42.08079700000001], [-72.837212, 42.10221800000001], [-72.839319, 42.111726999999995], [-72.853897, 42.11500600000001]]]}}