{"type": "Feature", "properties": {"district_name": "7th Norfolk District", "chamber": "house", "vintage": "2022-present"}, "geometry": {"type": "Polygon", "coordinates": [[[-71.130749, 42.227911], [-71.130101, 42.228667999999985], [-71.129202, 42.22896699999999], [-71.128803, 42.229803000000004], [-71.128252, 42.230184], [-71.12753, 42.231115], [-71.126609, 42.23126400000001], [-71.125952, 42.231817], [-71.12523000000002, 42.23205700000002], [-71.124524, 42.232904000000005], [-71.124719, 42.233745000000006], [-71.124462, 42.234161000000014], [-71.124053, 42.23432200000001], [-71.122938, 42.23424900000003], [-71.122604, 42.23443700000001], [-71.12246400000001, 42.234931], [-71.122638, 42.23537999999999], [-71.124084, 42.23638800000001], [-71.124763, 42.237429], [-71.125681, 42.237900999999994], [-71.126377, 42.23916200000001], [-71.109347, 42.24798999999999], [-71.109544, 42.255411999999986], [-71.113326, 42.25899], [-71.11146000000001, 42.26076900000001], [-71.110465, 42.261124], [-71.108954, 42.261296], [-71.107461, 42.26065199999999], [-71.105887, 42.260863], [-71.105001, 42.26080399999999], [-71.103929, 42.25978100000001], [-71.103285, 42.25972999999999], [-71.102691, 42.259884], [-71.100731, 42.26106999999999], [-71.098864, 42.26259], [-71.097483, 42.263089], [-71.096432, 42.264736999999975], [-71.095256, 42.265786], [-71.094633, 42.266771000000006], [-71.093908, 42.267140000000005], [-71.094546, 42.264923000000024], [-71.095731, 42.262463], [-71.10358, 42.247360000000036], [-71.10679, 42.241986000000004], [-71.103786, 42.24213699999999], [-71.099828, 42.24288999999998], [-71.099323, 42.243381], [-71.099004, 42.24413899999999], [-71.098561, 42.244492], [-71.09755, 42.24302000000002], [-71.09349, 42.24537], [-71.09351, 42.25692000000001], [-71.08819, 42.25802999999999], [-71.08747, 42.25838], [-71.08698, 42.257960000000004], [-71.08434, 42.25925000000001], [-71.08297, 42.25873000000001], [-71.0812, 42.25836999999999], [-71.08057, 42.26068], [-71.07894, 42.26357], [-71.076195, 42.267160999999994], [-71.073296, 42.26923899999999], [-71.0731, 42.269641], [-71.073264, 42.27031699999998], [-71.07168, 42.270855000000005], [-71.070415, 42.27061300000001], [-71.068778, 42.27070999999998], [-71.068375, 42.270827], [-71.067704, 42.271490000000014], [-71.065769, 42.271201], [-71.065097, 42.270658999999995], [-71.064781, 42.270167000000015], [-71.065033, 42.26928600000001], [-71.064695, 42.26860700000002], [-71.063102, 42.26734400000001], [-71.061828, 42.26720800000001], [-71.06097900000002, 42.26745399999999], [-71.053691, 42.271816], [-71.053494, 42.272458], [-71.054102, 42.27344299999999], [-71.054996, 42.274167999999996], [-71.055575, 42.27505200000002], [-71.055585, 42.275709], [-71.055245, 42.27634299999998], [-71.054401, 42.27701900000001], [-71.052597, 42.277669], [-71.049802, 42.2781], [-71.048583, 42.27791399999999], [-71.047116, 42.277083], [-71.04488, 42.276266], [-71.044421, 42.276313], [-71.042782, 42.277102], [-71.041635, 42.26839], [-71.04185, 42.267550000000014], [-71.041672, 42.26642699999999], [-71.03138800000002, 42.25921200000001], [-71.032078, 42.25834900000001], [-71.06109, 42.242383999999994], [-71.053021, 42.229173], [-71.093189, 42.21393600000002], [-71.08272700000002, 42.204289999999986], [-71.082475, 42.20437400000001], [-71.082244, 42.20474900000001], [-71.081612, 42.20466], [-71.080747, 42.204948], [-71.079186, 42.20461399999999], [-71.07776, 42.204789], [-71.076997, 42.20452000000001], [-71.075143, 42.20473899999998], [-71.074471, 42.204224], [-71.073314, 42.20422000000001], [-71.069679, 42.20450799999998], [-71.067968, 42.20498899999998], [-71.065118, 42.20544800000003], [-71.064914, 42.205105], [-71.065058, 42.205073], [-71.06184, 42.199619999999996], [-71.06113, 42.19732], [-71.060629, 42.19478899999999], [-71.05936, 42.19167], [-71.051992, 42.180933], [-71.04879, 42.17536], [-71.046595, 42.17095599999999], [-71.04147, 42.16269], [-71.041326, 42.162583000000005], [-71.038452, 42.166068], [-71.028738, 42.161045999999985], [-71.028059, 42.162090000000006], [-71.025931, 42.162434], [-71.026945, 42.160687], [-71.026682, 42.160404], [-71.026943, 42.16014200000001], [-71.026803, 42.15976099999998], [-71.02714, 42.15943999999998], [-71.027179, 42.157913], [-71.026911, 42.15778399999999], [-71.027565, 42.15632099999999], [-71.035093, 42.13563400000001], [-71.04012, 42.137194], [-71.114002, 42.211861], [-71.130749, 42.227911]]]}}