{"type": "Feature", "properties": {"district_name": "19th Worcester District", "chamber": "house", "vintage": "2022-present"}, "geometry": {"type": "Polygon", "coordinates": [[[-71.689715, 42.318819999999995], [-71.685951, 42.332100999999994], [-71.68042, 42.332656], [-71.672887, 42.33249], [-71.66964800000001, 42.33282599999999], [-71.667731, 42.33325200000001], [-71.665736, 42.333909], [-71.660396, 42.336478], [-71.658525, 42.33606799999998], [-71.656535, 42.33598700000001], [-71.653303, 42.334036], [-71.652365, 42.332728], [-71.650093, 42.330259999999996], [-71.649511, 42.32881299999999], [-71.64837, 42.326817000000005], [-71.649071, 42.32666199999999], [-71.649903, 42.32621499999998], [-71.650589, 42.326397], [-71.650801, 42.323691999999994], [-71.644588, 42.320937], [-71.643875, 42.321275], [-71.64351, 42.32205399999999], [-71.641448, 42.323078], [-71.641209, 42.323502000000005], [-71.641234, 42.324214000000005], [-71.640569, 42.32406199999999], [-71.639343, 42.322973999999995], [-71.63344, 42.32733999999999], [-71.630843, 42.328889], [-71.630082, 42.33084199999997], [-71.628537, 42.332840999999995], [-71.62681, 42.334578], [-71.625767, 42.336300000000016], [-71.625042, 42.33689900000002], [-71.622949, 42.33796500000001], [-71.61826, 42.342589], [-71.61755, 42.341967999999994], [-71.616047, 42.341463999999995], [-71.611529, 42.338993], [-71.604663, 42.336746000000005], [-71.604099, 42.336769000000004], [-71.603591, 42.33167600000001], [-71.605266, 42.33016], [-71.60371, 42.328548000000005], [-71.601885, 42.32697099999999], [-71.597363, 42.321016000000014], [-71.592502, 42.317901], [-71.58521, 42.31095199999999], [-71.569085, 42.32037299999999], [-71.551126, 42.326395000000005], [-71.516527, 42.33033600000001], [-71.50821600000002, 42.327928], [-71.486797, 42.33018899999999], [-71.486744, 42.329936999999994], [-71.485419, 42.33042], [-71.484117, 42.330057000000004], [-71.483556, 42.329691], [-71.482344, 42.329705], [-71.477012, 42.331038], [-71.474992, 42.331812], [-71.47427, 42.332215], [-71.47166, 42.334501], [-71.471154, 42.33471500000001], [-71.470173, 42.33339299999998], [-71.469547, 42.333285], [-71.469373, 42.33310800000002], [-71.469169, 42.33246900000001], [-71.469467, 42.33197200000001], [-71.469522, 42.33125], [-71.46929, 42.33091300000002], [-71.469269, 42.330463000000016], [-71.469086, 42.330255000000015], [-71.468788, 42.33028399999999], [-71.468238, 42.329741999999996], [-71.467718, 42.329609], [-71.467119, 42.329109], [-71.466214, 42.328696], [-71.46626, 42.32819499999997], [-71.465882, 42.32705500000001], [-71.465626, 42.326722999999994], [-71.465608, 42.325703999999995], [-71.46584600000001, 42.32461100000001], [-71.467582, 42.322786000000015], [-71.467474, 42.32205900000001], [-71.466284, 42.319815000000006], [-71.465002, 42.31872600000001], [-71.464403, 42.31780700000001], [-71.463808, 42.31581199999999], [-71.4638, 42.31328900000001], [-71.463534, 42.312792], [-71.463059, 42.31219299999999], [-71.461155, 42.311126], [-71.464723, 42.30903200000001], [-71.466438, 42.30855600000001], [-71.467207, 42.30817699999999], [-71.468509, 42.30677099999999], [-71.471615, 42.30783600000001], [-71.473641, 42.30792999999998], [-71.473878, 42.30869700000001], [-71.474866, 42.31017099999999], [-71.475129, 42.31034900000001], [-71.476121, 42.310446], [-71.47599, 42.311399999999985], [-71.477639, 42.311207], [-71.477969, 42.310807], [-71.479169, 42.31059300000001], [-71.48083200000002, 42.310735000000015], [-71.481668, 42.31058799999999], [-71.481753, 42.310911], [-71.484096, 42.310853], [-71.48421, 42.309915000000004], [-71.48635, 42.31044899999999], [-71.505882, 42.272938000000025], [-71.505928, 42.266578], [-71.506091, 42.264392999999984], [-71.506275, 42.26430500000001], [-71.506932, 42.264334000000005], [-71.507471, 42.26410099999999], [-71.508985, 42.26448600000001], [-71.510194, 42.265387], [-71.510085, 42.266044], [-71.510216, 42.266156], [-71.51054, 42.266227], [-71.511374, 42.266004], [-71.511704, 42.26636800000002], [-71.51327, 42.26737099999999], [-71.513882, 42.26758499999999], [-71.515566, 42.267782], [-71.516207, 42.267573000000006], [-71.517168, 42.267738], [-71.518587, 42.26762000000001], [-71.518911, 42.267718000000016], [-71.519228, 42.267633999999994], [-71.519187, 42.267496], [-71.519664, 42.26714599999999], [-71.520642, 42.26659800000001], [-71.521143, 42.266497999999984], [-71.521672, 42.266645000000004], [-71.52251200000002, 42.266436000000006], [-71.523412, 42.26598599999998], [-71.524931, 42.265904999999975], [-71.527995, 42.266524999999994], [-71.532144, 42.26614699999998], [-71.534854, 42.264977000000016], [-71.535444, 42.265038], [-71.535948, 42.264755999999984], [-71.536837, 42.264574999999994], [-71.538072, 42.26453800000001], [-71.538658, 42.26361], [-71.539632, 42.262793], [-71.54097000000002, 42.26320299999999], [-71.541752, 42.26399500000001], [-71.541977, 42.263897], [-71.54275100000001, 42.264051000000016], [-71.542963, 42.26380799999999], [-71.543289, 42.264017], [-71.543668, 42.26393000000001], [-71.544307, 42.264441000000005], [-71.543982, 42.26456099999999], [-71.544202, 42.264823000000014], [-71.54477, 42.26475299999999], [-71.544687, 42.264444], [-71.54583, 42.264701], [-71.546022, 42.26489600000001], [-71.545862, 42.26523000000001], [-71.546639, 42.26542500000001], [-71.546908, 42.265262], [-71.547171, 42.265372], [-71.547289, 42.265643], [-71.547586, 42.265450000000016], [-71.547958, 42.26553900000001], [-71.547955, 42.26576500000001], [-71.548181, 42.265767], [-71.547949, 42.265937000000015], [-71.548045, 42.26601299999999], [-71.548757, 42.265928000000024], [-71.549453, 42.266095], [-71.549949, 42.265892999999984], [-71.550755, 42.26625500000001], [-71.551488, 42.266234000000004], [-71.55176300000001, 42.26635799999999], [-71.551918, 42.266824], [-71.552412, 42.267431], [-71.552947, 42.26762200000001], [-71.553498, 42.26760500000001], [-71.554498, 42.26788400000001], [-71.554861, 42.26754799999999], [-71.555284, 42.26746], [-71.555463, 42.26783399999999], [-71.555813, 42.26776999999999], [-71.556584, 42.268134], [-71.557291, 42.26779299999998], [-71.557285, 42.26759400000001], [-71.557729, 42.26767200000001], [-71.557879, 42.267400000000016], [-71.558335, 42.267390999999996], [-71.558581, 42.267867999999986], [-71.559781, 42.26758200000002], [-71.560584, 42.267864], [-71.562194, 42.267651], [-71.586759, 42.25954500000002], [-71.599318, 42.225958999999996], [-71.62107, 42.230869999999996], [-71.644438, 42.226625999999996], [-71.648405, 42.245145], [-71.650171, 42.247797999999996], [-71.649399, 42.247917], [-71.649543, 42.24822399999999], [-71.649882, 42.248700999999976], [-71.65092400000002, 42.24953700000002], [-71.651325, 42.250604], [-71.649016, 42.25123299999999], [-71.645785, 42.252524000000015], [-71.641604, 42.25344700000001], [-71.640908, 42.25375399999998], [-71.639909, 42.25451300000001], [-71.641519, 42.25650999999999], [-71.641232, 42.256627000000016], [-71.639854, 42.256714], [-71.638823, 42.25704199999999], [-71.638216, 42.257066000000016], [-71.637914, 42.256919999999994], [-71.637002, 42.255892], [-71.636887, 42.255544999999984], [-71.635448, 42.255805], [-71.635911, 42.25660700000001], [-71.635943, 42.256944000000004], [-71.635561, 42.257272], [-71.63511300000002, 42.25732399999999], [-71.634641, 42.257132999999996], [-71.633994, 42.25620299999999], [-71.633922, 42.256944999999995], [-71.63433, 42.25763799999998], [-71.63520700000001, 42.257857], [-71.635391, 42.258240000000015], [-71.63576000000002, 42.25851899999999], [-71.635844, 42.258959000000004], [-71.635566, 42.260852], [-71.636135, 42.26159899999999], [-71.63606500000002, 42.261831], [-71.636381, 42.26199], [-71.636126, 42.262248], [-71.635826, 42.262201], [-71.635772, 42.262364], [-71.635972, 42.262526000000015], [-71.635703, 42.262956], [-71.635087, 42.263153999999986], [-71.63521, 42.263395000000024], [-71.63481000000002, 42.2638], [-71.63487, 42.264353000000014], [-71.634339, 42.26468], [-71.634085, 42.26512699999999], [-71.634023, 42.265484000000015], [-71.634392, 42.26566499999999], [-71.63455400000001, 42.266241999999984], [-71.635523, 42.26676], [-71.635076, 42.26787399999999], [-71.63416, 42.267943999999986], [-71.634167, 42.26811500000001], [-71.633851, 42.268383], [-71.633882, 42.26929199999999], [-71.632588, 42.269690999999995], [-71.63248, 42.270162000000006], [-71.632649, 42.271185], [-71.632402, 42.271834000000005], [-71.632366, 42.272758], [-71.624927, 42.274284], [-71.62684200000001, 42.276624999999996], [-71.628024, 42.27850399999999], [-71.627383, 42.280078], [-71.625977, 42.28180100000002], [-71.62594, 42.28287999999999], [-71.626202, 42.28408199999999], [-71.653374, 42.282588999999994], [-71.654349, 42.28370700000001], [-71.65452100000002, 42.28412], [-71.670115, 42.27876299999999], [-71.676996, 42.286148000000004], [-71.680421, 42.30517100000001], [-71.684362, 42.311370999999994], [-71.689715, 42.318819999999995]]]}}