{"type": "Feature", "properties": {"district_name": "9th Hampden District", "chamber": "house", "vintage": "2022-present"}, "geometry": {"type": "Polygon", "coordinates": [[[-72.608279, 42.12921599999999], [-72.540815, 42.15754900000001], [-72.540703, 42.156206], [-72.540323, 42.15534600000001], [-72.539482, 42.15487199999999], [-72.538244, 42.154774999999994], [-72.537593, 42.15499200000001], [-72.537222, 42.155308], [-72.536463, 42.156963999999995], [-72.535801, 42.15747799999999], [-72.533377, 42.15736600000001], [-72.528736, 42.158305], [-72.524004, 42.160562], [-72.521499, 42.16121700000002], [-72.520146, 42.16128199999997], [-72.516782, 42.16082799999999], [-72.513414, 42.16090700000001], [-72.511565, 42.160484], [-72.510754, 42.16048299999998], [-72.509242, 42.160819], [-72.506221, 42.162046000000004], [-72.505275, 42.16220800000001], [-72.497045, 42.16133800000001], [-72.493145, 42.16122], [-72.490864, 42.161561999999996], [-72.4894, 42.162097], [-72.489051, 42.161984], [-72.488926, 42.16156500000002], [-72.489384, 42.16044100000001], [-72.489887, 42.159684], [-72.48972, 42.15921], [-72.489465, 42.159042], [-72.488898, 42.15906400000001], [-72.487629, 42.159946], [-72.486786, 42.159839000000005], [-72.486662, 42.159351], [-72.487004, 42.15905999999998], [-72.487822, 42.15875100000001], [-72.48812200000002, 42.158305], [-72.4881, 42.15796200000001], [-72.487185, 42.157297], [-72.484595, 42.156524000000005], [-72.484463, 42.15596500000001], [-72.48392, 42.153229000000024], [-72.485247, 42.153082999999995], [-72.48494, 42.15156100000001], [-72.488061, 42.151191000000004], [-72.487998, 42.15146300000001], [-72.490306, 42.153605999999996], [-72.49168, 42.15276400000001], [-72.493299, 42.149201000000005], [-72.495837, 42.14130599999999], [-72.503759, 42.14004099999998], [-72.505034, 42.139684], [-72.505295, 42.13928800000001], [-72.505136, 42.138777], [-72.505522, 42.13862000000001], [-72.504808, 42.13573199999999], [-72.503861, 42.13309300000001], [-72.508042, 42.13269400000003], [-72.508165, 42.13260700000001], [-72.507928, 42.132103000000015], [-72.507182, 42.132001], [-72.505382, 42.13211099999999], [-72.504098, 42.13268200000002], [-72.502121, 42.132976000000006], [-72.501693, 42.133359], [-72.499893, 42.13346800000001], [-72.498768, 42.134502], [-72.497838, 42.134612000000004], [-72.497261, 42.135234], [-72.496685, 42.135540999999996], [-72.495818, 42.13560199999999], [-72.495712, 42.12926400000001], [-72.496613, 42.126032], [-72.497422, 42.126142], [-72.4984, 42.125781], [-72.501012, 42.125766], [-72.502, 42.124999], [-72.503352, 42.124731000000004], [-72.503872, 42.124137000000026], [-72.504145, 42.124165999999995], [-72.504333, 42.12489300000002], [-72.509365, 42.124262], [-72.509355, 42.123684999999995], [-72.510328, 42.12342], [-72.511036, 42.12668099999999], [-72.515608, 42.12621300000001], [-72.514261, 42.128381000000005], [-72.51312, 42.12903800000001], [-72.51512100000001, 42.130569], [-72.514881, 42.130648], [-72.51489800000002, 42.131062], [-72.518563, 42.13069500000001], [-72.518891, 42.13200499999999], [-72.519793, 42.13187800000001], [-72.519742, 42.13166100000001], [-72.526066, 42.130961], [-72.526528, 42.13119799999998], [-72.528258, 42.129763], [-72.53024, 42.129598000000016], [-72.532692, 42.129920000000006], [-72.53471, 42.130790999999995], [-72.536724, 42.12662600000001], [-72.53766, 42.125648], [-72.538493, 42.124983000000014], [-72.54286, 42.12277800000001], [-72.544412, 42.12160600000001], [-72.545565, 42.12265000000001], [-72.546604, 42.12419599999999], [-72.545443, 42.12461199999999], [-72.545341, 42.12446800000001], [-72.544844, 42.12464], [-72.545438, 42.125631], [-72.545889, 42.125622], [-72.545577, 42.12622599999999], [-72.545515, 42.126836000000004], [-72.546188, 42.133634999999984], [-72.561623, 42.12878500000002], [-72.566928, 42.12636600000001], [-72.566915, 42.126670000000004], [-72.569085, 42.125604], [-72.574933, 42.121846], [-72.576728, 42.12102899999999], [-72.583636, 42.11849000000001], [-72.58279300000001, 42.117549999999994], [-72.582248, 42.115935000000015], [-72.585958, 42.116482], [-72.588483, 42.114585999999996], [-72.589488, 42.11537899999999], [-72.594997, 42.11112600000002], [-72.597123, 42.113388], [-72.59591800000001, 42.114335999999994], [-72.595019, 42.117394000000004], [-72.595927, 42.118227999999995], [-72.595779, 42.118342999999996], [-72.598496, 42.120604], [-72.600254, 42.120066], [-72.603055, 42.117991], [-72.604589, 42.119445000000006], [-72.605302, 42.120841999999996], [-72.605405, 42.12138499999999], [-72.607521, 42.12296099999999], [-72.608148, 42.126947], [-72.608279, 42.12921599999999]]]}}