{"type": "Feature", "properties": {"district_name": "2nd Middlesex District", "chamber": "house", "vintage": "2022-present"}, "geometry": {"type": "Polygon", "coordinates": [[[-71.542323, 42.550333999999985], [-71.533031, 42.55272999999999], [-71.533318, 42.55290699999999], [-71.532431, 42.553797], [-71.531476, 42.55405699999999], [-71.529628, 42.55521300000001], [-71.529461, 42.55574599999999], [-71.5292, 42.55590699999999], [-71.52788, 42.556226], [-71.527642, 42.55657], [-71.526687, 42.557133999999984], [-71.526612, 42.557459999999985], [-71.526231, 42.557531], [-71.526181, 42.557734999999994], [-71.525616, 42.557694], [-71.525543, 42.558149], [-71.525257, 42.558259000000014], [-71.525222, 42.558467], [-71.524504, 42.558692000000015], [-71.524622, 42.559112], [-71.524447, 42.55966499999998], [-71.523796, 42.55964399999999], [-71.523187, 42.559826], [-71.520892, 42.56431099999999], [-71.516325, 42.566627000000004], [-71.506411, 42.572172000000016], [-71.503037, 42.575468], [-71.498006, 42.57686199999999], [-71.496174, 42.59143199999999], [-71.493528, 42.61740400000001], [-71.417642, 42.653774], [-71.40709, 42.616432], [-71.403672, 42.618467], [-71.403083, 42.61981699999999], [-71.40206, 42.62133399999998], [-71.402036, 42.62166400000001], [-71.400862, 42.62197999999999], [-71.400198, 42.621278], [-71.400086, 42.62147800000001], [-71.399576, 42.621582999999994], [-71.398995, 42.621523], [-71.398067, 42.621701], [-71.396561, 42.622542], [-71.389853, 42.62721199999999], [-71.379368, 42.62551899999999], [-71.357704, 42.62060000000002], [-71.354997, 42.620312000000006], [-71.350857, 42.62047299999999], [-71.350596, 42.620367999999985], [-71.351193, 42.619817999999995], [-71.351781, 42.619847], [-71.352091, 42.61944], [-71.352217, 42.618851], [-71.353389, 42.618794], [-71.355322, 42.619034000000006], [-71.357599, 42.61888199999999], [-71.356961, 42.617863], [-71.358957, 42.61685799999999], [-71.35707, 42.615174], [-71.359908, 42.61293299999999], [-71.362098, 42.61498399999999], [-71.364411, 42.61399599999999], [-71.36469100000001, 42.61409], [-71.365138, 42.61460700000001], [-71.365283, 42.61503200000001], [-71.367049, 42.614858000000005], [-71.368058, 42.61390200000002], [-71.369901, 42.613077999999994], [-71.369464, 42.612456], [-71.368768, 42.61185199999999], [-71.367687, 42.609832000000004], [-71.367661, 42.609575], [-71.368069, 42.60908100000001], [-71.367775, 42.606572], [-71.366442, 42.604778999999986], [-71.366225, 42.604035999999994], [-71.365552, 42.602898], [-71.365714, 42.602632], [-71.365689, 42.60225100000001], [-71.36495, 42.60087500000001], [-71.363245, 42.60109899999999], [-71.36078, 42.60085999999999], [-71.385844, 42.58703100000004], [-71.388615, 42.585819], [-71.397668, 42.58266800000001], [-71.388373, 42.54994600000002], [-71.38474, 42.538699], [-71.423794, 42.52618899999999], [-71.428535, 42.528803999999994], [-71.435017, 42.52217], [-71.443939, 42.509059], [-71.473528, 42.50017700000001], [-71.500053, 42.509266000000004], [-71.50281, 42.506868999999995], [-71.50908400000002, 42.51004300000001], [-71.51144, 42.508857000000006], [-71.51482, 42.511523999999994], [-71.517807, 42.51561600000001], [-71.531377, 42.520352], [-71.53878, 42.54303], [-71.542323, 42.550333999999985]]]}}