{"type": "Feature", "properties": {"district_name": "19th Suffolk District", "chamber": "house", "vintage": "2012-2020"}, "geometry": {"type": "Polygon", "coordinates": [[[-71.022347, 42.41570299999999], [-71.021639, 42.41716400000002], [-71.019914, 42.41667000000001], [-71.01964900000002, 42.41758200000001], [-71.018658, 42.419093000000004], [-71.01210499999999, 42.417230999999994], [-71.011194, 42.41838500000001], [-71.00875599999999, 42.41688299999999], [-71.00791, 42.41675499999999], [-71.005076, 42.42060199999999], [-71.005053, 42.421431000000005], [-71.00402199999999, 42.42190499999999], [-70.99924, 42.428347], [-70.998221, 42.428084999999996], [-70.99604, 42.42904699999998], [-70.994592, 42.42888799999999], [-70.994481, 42.42662500000001], [-70.992527, 42.42633300000001], [-70.991759, 42.42519000000001], [-70.99216299999999, 42.42433599999999], [-70.994276, 42.42426999999999], [-70.994464, 42.42352199999999], [-70.993946, 42.423162], [-70.992673, 42.42383100000001], [-70.99230299999999, 42.423809999999996], [-70.992102, 42.423638000000004], [-70.99204, 42.423066999999996], [-70.99069899999999, 42.422301999999995], [-70.99525799999999, 42.41638700000001], [-71.00017199999999, 42.40962399999999], [-70.998246, 42.41090200000003], [-70.994353, 42.412239], [-70.993393, 42.41281499999997], [-70.99130000000001, 42.416159], [-70.990535, 42.41690499999999], [-70.99000199999999, 42.416778], [-70.990286, 42.417218999999996], [-70.989072, 42.418743000000006], [-70.987664, 42.418842999999995], [-70.987012, 42.41872299999999], [-70.98722699999999, 42.41834699999999], [-70.987025, 42.418237], [-70.987676, 42.41738799999999], [-70.98836899999999, 42.41609299999999], [-70.99040699999999, 42.411205], [-70.990985, 42.40868599999998], [-70.990984, 42.40688900000001], [-70.99061999999999, 42.405288], [-70.98993899999999, 42.403188000000014], [-70.98921399999999, 42.402665000000006], [-70.988959, 42.40228199999999], [-70.988419, 42.402142999999995], [-70.98798699999999, 42.40241999999999], [-70.987685, 42.402431], [-70.984128, 42.407105], [-70.95949399999999, 42.407498000000004], [-70.924593, 42.386798], [-70.917892, 42.385997], [-70.96704799999999, 42.356953999999995], [-70.967257, 42.357069], [-70.96882, 42.35586600000001], [-70.968935, 42.35592500000001], [-70.972893, 42.35359699999999], [-70.985593, 42.356796999999986], [-70.986597, 42.36457199999999], [-71.000736, 42.364818], [-71.000695, 42.36464], [-71.010449, 42.36503399999999], [-71.006123, 42.376052], [-71.00020599999999, 42.37775400000002], [-70.999347, 42.37766500000001], [-70.99931099999999, 42.37779299999999], [-70.99669399999999, 42.37874100000001], [-70.994648, 42.38114999999999], [-70.994681, 42.38270899999999], [-70.994239, 42.384647000000015], [-70.988281, 42.38710700000001], [-70.987038, 42.386910999999984], [-70.986667, 42.38707200000001], [-70.986053, 42.388116000000004], [-70.98728899999999, 42.388734], [-70.987511, 42.38922900000001], [-70.987571, 42.390581999999995], [-70.987113, 42.391985], [-70.987442, 42.39274200000001], [-70.98977099999999, 42.393240000000006], [-70.99381799999999, 42.392924], [-70.995361, 42.393813], [-70.996475, 42.396308000000005], [-70.998768, 42.396973], [-71.000683, 42.39681700000001], [-70.996811, 42.40046400000001], [-70.999952, 42.40221799999999], [-71.002381, 42.404086000000014], [-71.002206, 42.40417699999999], [-71.00522, 42.40528299999999], [-71.005003, 42.406009], [-71.00881199999999, 42.407431999999986], [-71.00828899999999, 42.407925999999996], [-71.009252, 42.40833], [-71.008736, 42.408879999999996], [-71.008706, 42.409932], [-71.00881199999999, 42.41044000000001], [-71.00926, 42.411204999999995], [-71.011234, 42.41178099999999], [-71.011635, 42.411161], [-71.014695, 42.41199600000001], [-71.014408, 42.41263099999998], [-71.018278, 42.41370899999999], [-71.017888, 42.41448400000001], [-71.022347, 42.41570299999999]]]}}