{"type": "Feature", "properties": {"district_name": "9th Suffolk District", "chamber": "house", "vintage": "2012-2020"}, "geometry": {"type": "Polygon", "coordinates": [[[-71.103624, 42.349733], [-71.103017, 42.352638000000006], [-71.09919599999999, 42.35279699999999], [-71.094042, 42.35371000000001], [-71.093237, 42.35164399999999], [-71.092874, 42.35138399999999], [-71.09319099999999, 42.35098], [-71.09288, 42.350405], [-71.09287599999999, 42.349154999999996], [-71.08870999999999, 42.349252], [-71.088151, 42.348136], [-71.087758, 42.34729999999999], [-71.089264, 42.34688700000001], [-71.089765, 42.34466], [-71.087161, 42.34427799999999], [-71.08825999999999, 42.346399], [-71.08745499999999, 42.34663499999999], [-71.086831, 42.34542399999999], [-71.084353, 42.345071], [-71.084143, 42.34518399999999], [-71.084406, 42.34603900000002], [-71.08479299999999, 42.346268999999985], [-71.085602, 42.34788399999999], [-71.073067, 42.351243], [-71.071815, 42.34867700000001], [-71.076538, 42.34485000000001], [-71.077962, 42.34578599999999], [-71.079972, 42.344149999999985], [-71.078097, 42.34289000000001], [-71.07659199999999, 42.341336], [-71.073157, 42.34316], [-71.07141399999999, 42.34166099999999], [-71.07160499999999, 42.34154900000001], [-71.070707, 42.34079], [-71.069671, 42.341343], [-71.069295, 42.340998], [-71.065001, 42.3396], [-71.063796, 42.34054], [-71.062052, 42.344041999999995], [-71.06129299999999, 42.34387100000001], [-71.06062899999999, 42.345072], [-71.060513, 42.34471099999998], [-71.060906, 42.343775], [-71.060609, 42.34371799999999], [-71.05936799999999, 42.34509499999999], [-71.058757, 42.345554], [-71.058143, 42.34564699999999], [-71.059394, 42.343759000000006], [-71.059952, 42.342320000000015], [-71.060001, 42.340054999999985], [-71.059697, 42.336801], [-71.060042, 42.33656399999998], [-71.06058399999999, 42.335446], [-71.063553, 42.330791000000005], [-71.071305, 42.332332999999984], [-71.072007, 42.33260999999999], [-71.071714, 42.332252999999994], [-71.072839, 42.32762399999999], [-71.071479, 42.326687000000014], [-71.07318099999999, 42.32571099999999], [-71.074666, 42.326595000000005], [-71.07681099999999, 42.328295], [-71.078192, 42.327103000000015], [-71.07736299999999, 42.326521], [-71.07818000000002, 42.325885000000014], [-71.07773499999999, 42.32557300000001], [-71.078654, 42.32486699999999], [-71.08031799999999, 42.32599], [-71.080891, 42.328497000000006], [-71.083469, 42.328708000000006], [-71.08298599999999, 42.330831], [-71.081738, 42.331942], [-71.080625, 42.333367], [-71.082026, 42.33435499999998], [-71.082323, 42.334047999999996], [-71.084862, 42.335421999999994], [-71.08358299999999, 42.336769000000004], [-71.083983, 42.337340000000005], [-71.081969, 42.33841599999999], [-71.084459, 42.340067], [-71.084784, 42.339979], [-71.084681, 42.34029299999998], [-71.083151, 42.34162199999999], [-71.085796, 42.343332000000004], [-71.086598, 42.34261199999999], [-71.090204, 42.343188999999995], [-71.09048899999999, 42.34207900000001], [-71.09195199999999, 42.339825999999995], [-71.092461, 42.33958699999998], [-71.09321299999999, 42.34061200000002], [-71.093205, 42.340943], [-71.095675, 42.34013800000001], [-71.09631499999999, 42.33973900000001], [-71.096885, 42.339026], [-71.097387, 42.339528000000016], [-71.099829, 42.340653999999994], [-71.099795, 42.34080399999999], [-71.09906200000002, 42.34061], [-71.09863399999999, 42.340700000000005], [-71.097348, 42.341585], [-71.096493, 42.34184299999999], [-71.098955, 42.346814999999985], [-71.09811499999999, 42.347637000000006], [-71.101143, 42.347758], [-71.10056399999999, 42.347918], [-71.100995, 42.34797], [-71.100764, 42.348101], [-71.100555, 42.349357000000005], [-71.103624, 42.349733]]]}}