{"type": "Feature", "properties": {"district_name": "5th Norfolk District", "chamber": "house", "vintage": "2022-present"}, "geometry": {"type": "Polygon", "coordinates": [[[-71.04949, 42.206669000000005], [-71.047857, 42.20626], [-71.046978, 42.206561], [-71.045595, 42.206267], [-71.044883, 42.206483999999996], [-71.044938, 42.215384], [-71.033, 42.227884], [-71.01079, 42.228667999999985], [-71.00217, 42.232208], [-70.981105, 42.235749000000006], [-70.980662, 42.235641999999984], [-70.980404, 42.23532], [-70.980156, 42.23543799999998], [-70.979737, 42.23647600000001], [-70.97896, 42.23711699999999], [-70.978389, 42.237925], [-70.977817, 42.23827099999999], [-70.97713, 42.238415], [-70.976226, 42.23815799999999], [-70.975868, 42.237846999999995], [-70.974944, 42.23752999999999], [-70.974965, 42.23735899999999], [-70.973408, 42.237356999999996], [-70.972758, 42.237146], [-70.967991, 42.237998999999995], [-70.960491, 42.23509899999997], [-70.960191, 42.23129899999999], [-70.960384, 42.22871499999999], [-70.960596, 42.228539000000005], [-70.960891, 42.226899], [-70.962891, 42.225499], [-70.963728, 42.224694000000014], [-70.964283, 42.224585], [-70.965414, 42.22389899999999], [-70.967022, 42.223353], [-70.968066, 42.22169000000002], [-70.968016, 42.221201], [-70.967684, 42.22066199999997], [-70.9687, 42.219877999999994], [-70.98067, 42.139593], [-70.98302, 42.141509999999975], [-70.986727, 42.14511299999999], [-70.99173, 42.144180000000006], [-70.995251, 42.144079999999995], [-70.997909, 42.144259999999996], [-70.9986, 42.144450000000006], [-70.99879, 42.14467999999999], [-70.99878, 42.14504999999999], [-70.99796, 42.151900000000005], [-70.9978, 42.15232], [-71.0031, 42.15471000000001], [-71.00855, 42.15479], [-71.00826, 42.150999999999975], [-71.00868, 42.14866999999999], [-71.0087, 42.145739999999996], [-71.00935, 42.14573], [-71.01134, 42.145269999999975], [-71.01301, 42.145330000000016], [-71.01274, 42.146739999999994], [-71.01282, 42.14693], [-71.016896, 42.14733600000001], [-71.016864, 42.14763500000001], [-71.01718, 42.14771], [-71.01714, 42.14812], [-71.01804, 42.148249999999976], [-71.01842, 42.14861000000001], [-71.01832, 42.14901], [-71.01788, 42.14927999999999], [-71.01848, 42.14930999999999], [-71.01891000000002, 42.14912], [-71.019767, 42.147983], [-71.020376, 42.149135], [-71.021715, 42.14954400000002], [-71.024715, 42.15001800000001], [-71.025578, 42.150597000000005], [-71.025781, 42.15112500000001], [-71.026522, 42.151967000000006], [-71.02651, 42.152508000000005], [-71.026726, 42.152950000000004], [-71.026544, 42.153475], [-71.025548, 42.15420000000001], [-71.026461, 42.155431], [-71.026132, 42.157477], [-71.026911, 42.15778399999999], [-71.021994, 42.16900499999999], [-71.021984, 42.16941700000001], [-71.02162, 42.170166], [-71.021695, 42.170418], [-71.022428, 42.170546], [-71.021298, 42.17340999999999], [-71.021614, 42.17409899999999], [-71.021034, 42.17460299999999], [-71.020816, 42.175015000000016], [-71.021134, 42.17589799999999], [-71.021054, 42.176210999999995], [-71.020574, 42.176565], [-71.020628, 42.17757], [-71.019878, 42.177938000000005], [-71.019994, 42.178514], [-71.019665, 42.178529], [-71.019549, 42.17879400000002], [-71.019751, 42.179013999999995], [-71.019746, 42.179326], [-71.020167, 42.179622], [-71.019898, 42.18029399999999], [-71.020164, 42.180970999999985], [-71.019691, 42.18125899999999], [-71.019646, 42.18147999999999], [-71.019941, 42.181895999999995], [-71.019456, 42.183246], [-71.019229, 42.18351100000001], [-71.019459, 42.18378900000001], [-71.018988, 42.184057], [-71.019411, 42.18425999999999], [-71.019312, 42.184435000000015], [-71.019468, 42.184650999999995], [-71.019273, 42.184988], [-71.019345, 42.185189999999984], [-71.01909, 42.18535399999999], [-71.019517, 42.185947999999996], [-71.01913, 42.186851000000004], [-71.029591, 42.19153], [-71.047271, 42.194592], [-71.04949, 42.206669000000005]]]}}