{"type": "Feature", "properties": {"district_name": "13th Worcester", "chamber": "house", "vintage": "2001-2010"}, "geometry": {"type": "Polygon", "coordinates": [[[-71.98950295212688, 42.31015526370594], [-71.99375890933241, 42.31933926945435], [-71.97191892035787, 42.328875157332156], [-71.95374300455563, 42.33338680235168], [-71.94290999309531, 42.337883260285935], [-71.94159807831274, 42.33866706177814], [-71.92082991475864, 42.34735513004603], [-71.91836602846067, 42.34796281502312], [-71.90508590878888, 42.349499222227124], [-71.9013740261796, 42.341723028194366], [-71.90548605488513, 42.340475199372975], [-71.90345398775777, 42.33569110760509], [-71.9108780451587, 42.33330716960598], [-71.900816988151, 42.313591892242805], [-71.90011703880849, 42.313292173571355], [-71.89121702237038, 42.295791753899046], [-71.88821691040881, 42.296491785292645], [-71.88151699374285, 42.29759177017941], [-71.88011691537538, 42.29829189185859], [-71.87861707708426, 42.297492201808026], [-71.87911702584168, 42.29529213913496], [-71.87921702823503, 42.29389184303052], [-71.88171694444613, 42.29219212527522], [-71.87531702749679, 42.28669211894106], [-71.86481706019032, 42.292891873903145], [-71.82411605487734, 42.31779172073794], [-71.82071601002373, 42.319592283167346], [-71.81951602716384, 42.31919217728799], [-71.8210160820916, 42.316792093019785], [-71.81971607594768, 42.315491984304096], [-71.81881598525088, 42.3139921201997], [-71.8181159863694, 42.313492146326894], [-71.81811591032518, 42.313892209976], [-71.81781604166903, 42.31449173477013], [-71.81401598318676, 42.31379207438469], [-71.81181602977337, 42.31409178512659], [-71.80771602568844, 42.31499187556614], [-71.8054150113178, 42.314591756395735], [-71.80181497748839, 42.31189195241826], [-71.8017149781715, 42.31079216456555], [-71.80101495566772, 42.310292086715585], [-71.80011491815424, 42.31209221847574], [-71.79981507165316, 42.31529184961578], [-71.79891496045312, 42.31489188053551], [-71.797614925331, 42.31489187840079], [-71.79711492822433, 42.31509179464981], [-71.79901503392718, 42.30859181872594], [-71.80071497975163, 42.30519214846962], [-71.80111507697124, 42.302491900081435], [-71.80081506115971, 42.29989195813035], [-71.80121497503796, 42.29939181359674], [-71.80171494276081, 42.29909227887282], [-71.80211492442275, 42.29849196401027], [-71.80221496999312, 42.29809219463981], [-71.8026150433514, 42.29759204457028], [-71.8026149239721, 42.296892064741385], [-71.8048979503987, 42.29932020393156], [-71.80661498757752, 42.299491750519664], [-71.8069150654645, 42.300491970078035], [-71.80721506801956, 42.30409178212394], [-71.80901494535131, 42.30249174989857], [-71.81061593364505, 42.30309175632169], [-71.81141597668866, 42.302892084029274], [-71.81201601995191, 42.3032922129717], [-71.81211603331278, 42.302591961742145], [-71.81341596716301, 42.30239205087919], [-71.8160160746306, 42.304591778244124], [-71.81681594092753, 42.30409216255201], [-71.81661599484214, 42.30329200898867], [-71.81541601487449, 42.30229204697776], [-71.81571602756574, 42.30169195924903], [-71.81471608029986, 42.299792269362385], [-71.815815957555, 42.295892093392716], [-71.81681599629782, 42.295391926089465], [-71.81641609467755, 42.29389178288363], [-71.81581606232086, 42.2932919183418], [-71.81551597323708, 42.29189222231706], [-71.81391607594685, 42.290892206232456], [-71.81311601049703, 42.29109189691803], [-71.81191498311777, 42.29009189048542], [-71.81147490380654, 42.291949948070474], [-71.81081497246254, 42.29179193262673], [-71.81134409252734, 42.28823376594382], [-71.81098499989946, 42.28810475359012], [-71.81101504448412, 42.286892087745905], [-71.80691496270768, 42.28659194527847], [-71.8068149712635, 42.28609198872918], [-71.80761495838703, 42.284791727069845], [-71.80841507808879, 42.282591727435864], [-71.80821491843216, 42.27879187659306], [-71.80881504597355, 42.27759174066743], [-71.81231504048925, 42.27409192991662], [-71.81291502214323, 42.27369191378721], [-71.81391494391019, 42.272392751928635], [-71.8160149361264, 42.27019306679317], [-71.81891506253608, 42.2640928229948], [-71.81901506915798, 42.26349327676694], [-71.81841491379491, 42.263192782914594], [-71.81571493800627, 42.26339323582646], [-71.81571503800596, 42.26379274480412], [-71.81421497044258, 42.26399324221699], [-71.81431498540427, 42.26449319450705], [-71.81291496672178, 42.26459324233674], [-71.81271506408793, 42.26549296368067], [-71.81281502874481, 42.26579316723193], [-71.80681508107133, 42.265193205927126], [-71.80721499493201, 42.26369313380053], [-71.80691500942145, 42.26369281059799], [-71.80751503162165, 42.26019297187681], [-71.80951495945813, 42.26049313420694], [-71.81181497894733, 42.26039294680554], [-71.8120150404079, 42.261293264418114], [-71.81291503236847, 42.26119290744663], [-71.81651500377907, 42.26129276965829], [-71.81911508612932, 42.26169296035639], [-71.81941506546328, 42.26109285756729], [-71.82251599780466, 42.2618927790858], [-71.82641604669796, 42.26229308039213], [-71.82761599259017, 42.26259295726946], [-71.82801599832106, 42.2598931557663], [-71.829115967929, 42.26009313476738], [-71.82951597264272, 42.258792741118796], [-71.8307160139374, 42.25919273518969], [-71.83631606592894, 42.26329198292467], [-71.83351603486464, 42.264192016899], [-71.83591600974516, 42.265492144515754], [-71.83641595819377, 42.26559196506411], [-71.83681590694923, 42.26519185039366], [-71.83621606793382, 42.26479184792313], [-71.83941594110595, 42.26309211485698], [-71.8386160779156, 42.2622920807029], [-71.84111596872908, 42.261392255404544], [-71.84141598170058, 42.2618921578267], [-71.8441160120581, 42.261692216348244], [-71.84381593258831, 42.26059193526516], [-71.84451591291904, 42.26039177028552], [-71.84531601379035, 42.26039217586808], [-71.84591591423256, 42.26059181330326], [-71.84821593704089, 42.26229206332045], [-71.84911599089527, 42.262692216488325], [-71.85021605969203, 42.26299216112731], [-71.85121601016525, 42.26289175717844], [-71.85301600727159, 42.26529174189021], [-71.85471593292839, 42.27019203183478], [-71.85431596183366, 42.27389181786868], [-71.85571594020412, 42.27369224177968], [-71.8582160579716, 42.27229181095404], [-71.85971599506212, 42.27209187407203], [-71.86131607648424, 42.26999195387476], [-71.86111605216419, 42.26869221174252], [-71.86121602394046, 42.267392083919184], [-71.8620159800407, 42.26599184305636], [-71.8767169011554, 42.26669181069144], [-71.88271704766944, 42.278191917061626], [-71.88461701623454, 42.28309221914568], [-71.88541707224212, 42.28459191638802], [-71.88931698192796, 42.284492110919665], [-71.88991705702293, 42.284292009111404], [-71.9023169803457, 42.283891945776716], [-71.9409259275937, 42.28220395849565], [-71.94262192967017, 42.28241181629593], [-71.96067006785371, 42.28156321218195], [-71.96723108391242, 42.31068292936615], [-71.98950295212688, 42.31015526370594]]]}}