{"type": "Feature", "properties": {"district_name": "4th Hampden District", "chamber": "house", "vintage": "2012-2020"}, "geometry": {"type": "Polygon", "coordinates": [[[-72.853897, 42.11500600000001], [-72.851868, 42.122907000000005], [-72.851642, 42.123033], [-72.85141999999999, 42.123509], [-72.851292, 42.124659000000015], [-72.85061, 42.12508199999999], [-72.84908899999999, 42.125153000000005], [-72.84701799999999, 42.126413], [-72.846211, 42.126495000000006], [-72.84381499999999, 42.126062999999995], [-72.843177, 42.12630099999999], [-72.842827, 42.126722], [-72.84289799999999, 42.127323999999994], [-72.843612, 42.12841399999999], [-72.844122, 42.12978100000001], [-72.84419799999999, 42.131448999999996], [-72.843943, 42.132169], [-72.843428, 42.132332999999996], [-72.84083100000001, 42.13219599999999], [-72.84034199999999, 42.13242300000002], [-72.839215, 42.133375999999984], [-72.837676, 42.13353399999999], [-72.836604, 42.133945000000004], [-72.836117, 42.13433799999999], [-72.835891, 42.13498099999999], [-72.836506, 42.136532999999986], [-72.83646, 42.136807000000005], [-72.83615300000001, 42.137173], [-72.834886, 42.137682000000005], [-72.83335, 42.13803699999999], [-72.831383, 42.138231], [-72.830047, 42.13792900000002], [-72.828906, 42.137012], [-72.81287499999999, 42.155848000000006], [-72.80751400000001, 42.157340000000005], [-72.802506, 42.16288600000001], [-72.79789199999999, 42.165860999999985], [-72.78576199999999, 42.200474], [-72.686861, 42.183389999999996], [-72.68483599999999, 42.162992], [-72.68567999999999, 42.153839999999995], [-72.686568, 42.150782], [-72.688063, 42.14914400000001], [-72.689064, 42.146243], [-72.68677, 42.143753], [-72.687192, 42.142315999999994], [-72.686358, 42.13594699999999], [-72.690176, 42.128755999999996], [-72.690906, 42.12251899999999], [-72.691192, 42.121771999999986], [-72.691159, 42.12100199999999], [-72.692495, 42.117013000000014], [-72.693028, 42.112669], [-72.694492, 42.106563], [-72.695461, 42.104741999999995], [-72.69568199999999, 42.10312], [-72.69630699999999, 42.102349999999994], [-72.700659, 42.093253], [-72.70196299999999, 42.09103800000001], [-72.702866, 42.08773300000001], [-72.70564999999999, 42.08214399999997], [-72.705989, 42.08079700000001], [-72.837212, 42.10221800000001], [-72.83933999999999, 42.11169299999998], [-72.853897, 42.11500600000001]]]}}