{"type": "Feature", "properties": {"district_name": "2nd Barnstable District", "chamber": "house", "vintage": "2012-2020"}, "geometry": {"type": "Polygon", "coordinates": [[[-70.46760499999999, 41.63422], [-70.466304, 41.637082], [-70.45847599999999, 41.637471000000005], [-70.454361, 41.639193999999996], [-70.452557, 41.638748000000014], [-70.453165, 41.640603999999996], [-70.45309, 41.641797000000004], [-70.45171200000001, 41.64248200000001], [-70.446514, 41.65033999999999], [-70.447897, 41.652347000000006], [-70.447234, 41.653029], [-70.44673999999999, 41.652666], [-70.446372, 41.65211899999999], [-70.445495, 41.65146500000001], [-70.445236, 41.650967000000016], [-70.44520899999999, 41.65156999999999], [-70.445641, 41.652417000000014], [-70.44567599999999, 41.652972999999996], [-70.44397599999999, 41.65469299999999], [-70.442698, 41.65699899999999], [-70.438662, 41.656406000000004], [-70.437573, 41.655891999999994], [-70.437347, 41.655502000000006], [-70.43712, 41.654007], [-70.43467199999999, 41.65146099999998], [-70.433844, 41.651002], [-70.433261, 41.64992200000001], [-70.433052, 41.64877000000003], [-70.432678, 41.648227999999996], [-70.431488, 41.64701899999999], [-70.429966, 41.64638299999999], [-70.42621199999999, 41.64751699999999], [-70.418718, 41.649260999999996], [-70.41497, 41.650779], [-70.41270399999999, 41.651237], [-70.41288, 41.65145199999999], [-70.41391899999999, 41.651803000000015], [-70.41507899999999, 41.65161], [-70.41532099999999, 41.65173300000001], [-70.41514699999999, 41.65294299999999], [-70.41545599999999, 41.653460999999986], [-70.41540499999999, 41.65423499999999], [-70.416715, 41.65515799999999], [-70.416729, 41.655525999999995], [-70.417205, 41.65636600000001], [-70.41728499999999, 41.657804], [-70.418126, 41.658435999999995], [-70.417812, 41.65879199999999], [-70.41775299999999, 41.659791], [-70.417394, 41.660460999999984], [-70.41748199999999, 41.660608999999994], [-70.417211, 41.660758000000015], [-70.416888, 41.662875999999976], [-70.417729, 41.663692000000005], [-70.419574, 41.663816000000004], [-70.421536, 41.66433800000001], [-70.421763, 41.66487499999999], [-70.422349, 41.66528700000001], [-70.422151, 41.66602300000001], [-70.422319, 41.666396], [-70.421697, 41.666698], [-70.421375, 41.66757599999998], [-70.420562, 41.66867399999999], [-70.418724, 41.66946999999999], [-70.41905299999999, 41.670123], [-70.41912599999999, 41.670733000000006], [-70.418826, 41.67231899999998], [-70.417463, 41.67326899999999], [-70.415801, 41.67383999999999], [-70.41510500000001, 41.674657], [-70.414585, 41.674745], [-70.41344699999999, 41.674478], [-70.413378, 41.67515600000001], [-70.413, 41.676119], [-70.41126299999999, 41.677951000000014], [-70.410062, 41.67877399999999], [-70.40917999999999, 41.679027], [-70.406894, 41.679155], [-70.406187, 41.679504], [-70.404844, 41.680754], [-70.403459, 41.682413000000004], [-70.40060199999999, 41.681136], [-70.39580699999999, 41.678674000000015], [-70.39472099999999, 41.678357000000005], [-70.391689, 41.67818499999999], [-70.387558, 41.677167000000004], [-70.382384, 41.676424], [-70.377967, 41.676410000000004], [-70.370875, 41.676764], [-70.369581, 41.676705000000005], [-70.36873299999999, 41.67645699999999], [-70.36457399999999, 41.67447599999999], [-70.361913, 41.67271900000001], [-70.357641, 41.67694], [-70.35678, 41.676429999999996], [-70.356192, 41.676386000000015], [-70.35596799999999, 41.67647799999998], [-70.35556199999999, 41.677149], [-70.354977, 41.6774], [-70.353409, 41.677932999999996], [-70.35324100000001, 41.67765899999998], [-70.35279299999999, 41.67748800000001], [-70.351967, 41.678171999999996], [-70.350257, 41.67852200000001], [-70.349492, 41.678954000000004], [-70.346514, 41.68148400000002], [-70.34049399999999, 41.682046000000014], [-70.34003, 41.68192599999997], [-70.339533, 41.682364000000014], [-70.339479, 41.682757999999986], [-70.3404, 41.684398], [-70.340268, 41.68476299999999], [-70.33913799999999, 41.684374999999996], [-70.334501, 41.683310999999996], [-70.32947399999999, 41.683702000000004], [-70.326435, 41.682128000000006], [-70.317356, 41.67825700000001], [-70.31679299999999, 41.67605900000002], [-70.31689899999999, 41.67541300000001], [-70.31657799999999, 41.67476800000001], [-70.31669099999999, 41.673334999999994], [-70.316281, 41.672332999999995], [-70.31535699999999, 41.67277799999998], [-70.314908, 41.673176], [-70.312918, 41.676398000000006], [-70.288639, 41.665732], [-70.287924, 41.665354], [-70.287806, 41.66491], [-70.287562, 41.66475199999999], [-70.287039, 41.66477900000001], [-70.286828, 41.66510100000001], [-70.28569, 41.66441600000002], [-70.279037, 41.661442], [-70.276179, 41.659933], [-70.2664, 41.673024], [-70.265931, 41.673082000000015], [-70.265678, 41.67356399999999], [-70.25639799999999, 41.675789], [-70.253038, 41.67637299999999], [-70.24921599999999, 41.677516], [-70.245089, 41.678344999999986], [-70.228286, 41.682364000000014], [-70.227625, 41.680292000000016], [-70.227779, 41.67918299999999], [-70.227724, 41.67764800000002], [-70.224631, 41.677867], [-70.223579, 41.676570999999974], [-70.223122, 41.67646799999999], [-70.222754, 41.676754999999986], [-70.22290699999999, 41.677904], [-70.22229899999999, 41.677825000000006], [-70.22307099999999, 41.683096], [-70.221356, 41.68350299999997], [-70.219599, 41.68369300000001], [-70.216974, 41.681019], [-70.216712, 41.680583999999975], [-70.213124, 41.667306999999994], [-70.211912, 41.665738], [-70.219036, 41.66252000000001], [-70.219925, 41.66104800000001], [-70.221029, 41.66006100000001], [-70.221364, 41.65954300000001], [-70.221994, 41.658122999999996], [-70.221936, 41.656794], [-70.222357, 41.656048], [-70.22380799999999, 41.65516900000001], [-70.225214, 41.654039999999995], [-70.226964, 41.653438000000016], [-70.227978, 41.652802], [-70.230772, 41.64985899999999], [-70.229918, 41.64968799999999], [-70.23405400000001, 41.644270000000006], [-70.236905, 41.634890000000006], [-70.236789, 41.633299], [-70.237257, 41.63262499999999], [-70.23577, 41.63194099999999], [-70.233901, 41.63046699999999], [-70.249248, 41.624684000000016], [-70.25301499999999, 41.620774000000004], [-70.25487799999999, 41.61240399999999], [-70.262812, 41.60744599999999], [-70.271761, 41.608899], [-70.27543899999999, 41.62511099999999], [-70.290661, 41.616242], [-70.31327499999999, 41.61462400000002], [-70.374572, 41.60929299999999], [-70.40225099999999, 41.59999099999999], [-70.40111000000002, 41.606671999999996], [-70.401392, 41.606864], [-70.401386, 41.60668600000001], [-70.401517, 41.606702999999996], [-70.401539, 41.60711999999999], [-70.40270199999999, 41.60707600000001], [-70.407179, 41.607555000000005], [-70.410851, 41.60737999999999], [-70.419899, 41.60611899999998], [-70.4263, 41.604675], [-70.427784, 41.60489], [-70.430535, 41.605729], [-70.4372, 41.605329999999995], [-70.437322, 41.604813], [-70.438566, 41.603697999999994], [-70.438924, 41.603155], [-70.439853, 41.602605999999994], [-70.440043, 41.60228699999999], [-70.440738, 41.59884499999998], [-70.441374, 41.59756], [-70.441418, 41.596973000000006], [-70.441593, 41.59682499999999], [-70.44201000000001, 41.596819], [-70.442734, 41.597170000000006], [-70.44241199999999, 41.597818], [-70.44172499999999, 41.598543], [-70.441411, 41.599592], [-70.441623, 41.600415], [-70.441893, 41.600783], [-70.442208, 41.60091399999999], [-70.442632, 41.600728], [-70.443071, 41.5993], [-70.44299, 41.598828], [-70.443809, 41.59751599999999], [-70.443721, 41.59684600000002], [-70.443933, 41.59578100000001], [-70.444423, 41.594601], [-70.444313, 41.593673], [-70.444569, 41.592673999999974], [-70.444467, 41.59261399999999], [-70.44509599999999, 41.59159299999999], [-70.44590000000001, 41.590883999999996], [-70.445973, 41.59065399999998], [-70.446441, 41.590269], [-70.447041, 41.590061], [-70.44700399999999, 41.58995600000003], [-70.448883, 41.589089], [-70.450198, 41.588941], [-70.450102, 41.587701], [-70.451448, 41.58704799999999], [-70.451697, 41.58741300000001], [-70.45207599999999, 41.58747000000002], [-70.452308, 41.58698800000003], [-70.452153, 41.586725], [-70.453008, 41.58633600000002], [-70.458592, 41.588668000000006], [-70.46498199999999, 41.59673999999998], [-70.46105, 41.606363], [-70.45734, 41.610761999999994], [-70.452641, 41.615958000000006], [-70.450828, 41.61608499999999], [-70.450396, 41.61683999999998], [-70.450316, 41.617539999999984], [-70.45060699999999, 41.61859200000001], [-70.45047699999999, 41.61890700000001], [-70.449461, 41.618886999999994], [-70.449322, 41.619074], [-70.44943099999999, 41.619358], [-70.4499, 41.61970499999999], [-70.44969499999999, 41.62016099999999], [-70.44981200000001, 41.620694], [-70.4496, 41.62094099999999], [-70.44903699999999, 41.621001], [-70.448803, 41.62136300000002], [-70.448964, 41.62221400000002], [-70.448847, 41.622703], [-70.44908099999999, 41.62300999999998], [-70.449096, 41.62344400000002], [-70.449963, 41.624626], [-70.450124, 41.62559599999999], [-70.45084899999999, 41.626655], [-70.45074, 41.628286], [-70.450864, 41.628806999999995], [-70.451347, 41.62920200000001], [-70.451538, 41.62990000000001], [-70.451267, 41.630674], [-70.451589, 41.631551999999985], [-70.451589, 41.63227100000001], [-70.45232899999999, 41.632919], [-70.452491, 41.634759], [-70.452739, 41.635028], [-70.455991, 41.63432999999998], [-70.456488, 41.635029], [-70.460399, 41.63358900000001], [-70.464567, 41.632613], [-70.465816, 41.63312099999999], [-70.466495, 41.633706], [-70.46760499999999, 41.63422]]]}}