{"type": "Feature", "properties": {"district_name": "1st Barnstable District", "chamber": "house", "vintage": "2022-present"}, "geometry": {"type": "Polygon", "coordinates": [[[-70.265778, 41.673514000000004], [-70.25964, 41.69223200000001], [-70.260542, 41.704584], [-70.260678, 41.705084], [-70.261677, 41.706857], [-70.262174, 41.707280999999995], [-70.263505, 41.707945], [-70.263905, 41.70838800000001], [-70.263406, 41.70901500000001], [-70.263089, 41.709134], [-70.262374, 41.710201000000005], [-70.262337, 41.71053100000001], [-70.262073, 41.71062899999999], [-70.261038, 41.71188899999999], [-70.26113, 41.71403599999999], [-70.259423, 41.71399200000001], [-70.258157, 41.71543900000001], [-70.25713, 41.71598199999999], [-70.255796, 41.71634400000001], [-70.255092, 41.717211], [-70.254169, 41.717748000000014], [-70.253915, 41.717689000000014], [-70.252697, 41.718667], [-70.252739, 41.719104000000016], [-70.252482, 41.71955899999999], [-70.251323, 41.720152], [-70.25081, 41.720980000000026], [-70.250912, 41.72154000000001], [-70.250325, 41.72182500000002], [-70.250186, 41.72230899999999], [-70.249856, 41.72233], [-70.249665, 41.72262100000001], [-70.248462, 41.722878], [-70.24774400000001, 41.723224], [-70.247217, 41.723812], [-70.246015, 41.724153], [-70.244293, 41.724434], [-70.243656, 41.724275], [-70.242952, 41.724369], [-70.239259, 41.725516000000006], [-70.239278, 41.72604700000002], [-70.240143, 41.72587900000001], [-70.241086, 41.725455], [-70.241381, 41.725731999999994], [-70.241333, 41.72628400000001], [-70.240659, 41.727337999999996], [-70.240735, 41.72772999999998], [-70.240589, 41.72814700000001], [-70.240084, 41.72894899999999], [-70.23643, 41.73260700000001], [-70.235199, 41.733513], [-70.234327, 41.73372200000001], [-70.232898, 41.734376000000005], [-70.226374, 41.737837], [-70.226075, 41.73807899999999], [-70.225972, 41.73847000000001], [-70.224918, 41.738780000000006], [-70.224504, 41.739213], [-70.223405, 41.73966], [-70.221329, 41.740949], [-70.21693, 41.742873], [-70.213786, 41.74373400000001], [-70.212894, 41.744267999999984], [-70.208611, 41.745701999999994], [-70.194203, 41.750265], [-70.192235, 41.751099], [-70.188657, 41.752307], [-70.18851, 41.752213000000005], [-70.188712, 41.75204300000001], [-70.188607, 41.75182799999998], [-70.187799, 41.751806], [-70.187155, 41.750905000000024], [-70.186847, 41.750775], [-70.185714, 41.75057899999999], [-70.184379, 41.750606000000005], [-70.183261, 41.750959], [-70.179477, 41.751630999999996], [-70.178432, 41.752098000000004], [-70.172823, 41.753718000000006], [-70.171644, 41.754413000000014], [-70.170379, 41.75441], [-70.168121, 41.75505900000002], [-70.167781, 41.755004], [-70.165518, 41.756093], [-70.163945, 41.75614399999999], [-70.163534, 41.755875], [-70.16289, 41.75575899999999], [-70.16087700000001, 41.756093], [-70.160636, 41.756379], [-70.158726, 41.756063], [-70.15607200000001, 41.756703], [-70.155832, 41.757013], [-70.155484, 41.757152], [-70.155932, 41.756505000000004], [-70.155871, 41.756194000000015], [-70.153851, 41.756441], [-70.15416000000002, 41.757029], [-70.153368, 41.756716], [-70.150594, 41.75715100000001], [-70.143866, 41.75972699999999], [-70.143161, 41.75970400000001], [-70.141124, 41.76026300000001], [-70.140751, 41.76023500000001], [-70.140183, 41.75987400000001], [-70.139054, 41.759736000000004], [-70.138402, 41.759335], [-70.137903, 41.759302000000005], [-70.136239, 41.75962500000001], [-70.134742, 41.760365], [-70.134244, 41.760459000000004], [-70.133745, 41.760194999999975], [-70.131861, 41.75993], [-70.130285, 41.759452], [-70.125473, 41.759544999999996], [-70.124508, 41.75935599999999], [-70.123823, 41.759479999999975], [-70.123594, 41.75941400000001], [-70.123297, 41.758791], [-70.122988, 41.758787000000005], [-70.121744, 41.75885900000001], [-70.121528, 41.75952400000001], [-70.121141, 41.759703000000016], [-70.120368, 41.760595], [-70.119922, 41.760820999999986], [-70.118866, 41.76102199999999], [-70.118813, 41.76078800000001], [-70.118195, 41.76074800000001], [-70.116453, 41.761082000000016], [-70.115449, 41.760915999999995], [-70.114769, 41.761049999999976], [-70.11425900000002, 41.76085599999999], [-70.114478, 41.759991], [-70.11432, 41.75970000000001], [-70.114319, 41.760042], [-70.113929, 41.76091099999999], [-70.114249, 41.761199], [-70.114917, 41.761300999999996], [-70.114837, 41.761462], [-70.11126, 41.76267100000001], [-70.110145, 41.762803], [-70.109382, 41.762606], [-70.108701, 41.76263899999998], [-70.105064, 41.763667], [-70.099935, 41.76553899999999], [-70.098582, 41.76582799999999], [-70.095817, 41.766989], [-70.09528700000001, 41.76703100000001], [-70.092249, 41.768238999999994], [-70.091801, 41.768288999999996], [-70.091377, 41.768487], [-70.091153, 41.769010000000016], [-70.09077, 41.769253000000006], [-70.090282, 41.76924000000001], [-70.089095, 41.768778], [-70.089045, 41.768944000000005], [-70.088266, 41.768917], [-70.087694, 41.768436999999984], [-70.086951, 41.76853899999999], [-70.087009, 41.76880700000001], [-70.08648, 41.76888299999999], [-70.08616, 41.76873600000002], [-70.086338, 41.768466], [-70.085737, 41.76840599999999], [-70.082902, 41.76909399999998], [-70.080524, 41.77009499999998], [-70.076996, 41.77190399999999], [-70.073131, 41.77308000000001], [-70.07276, 41.773010000000006], [-70.072149, 41.773184], [-70.071396, 41.773161], [-70.070815, 41.773399], [-70.070218, 41.77335800000001], [-70.069735, 41.77317200000001], [-70.069795, 41.772528], [-70.069173, 41.772191], [-70.067053, 41.77234599999999], [-70.06421, 41.773039000000004], [-70.060856, 41.774249999999995], [-70.06045, 41.774575999999996], [-70.058632, 41.77482500000001], [-70.054276, 41.776292], [-70.05264, 41.77709300000001], [-70.052075, 41.77711000000001], [-70.05107, 41.77745600000001], [-70.050696, 41.77774699999999], [-70.048995, 41.77807000000001], [-70.045855, 41.77929400000001], [-70.044498, 41.779629], [-70.041681, 41.780814000000014], [-70.040992, 41.78129700000001], [-70.035707, 41.78334199999998], [-70.034357, 41.784117000000045], [-70.03275, 41.78474199999999], [-70.031777, 41.78535599999999], [-70.031292, 41.785354000000005], [-70.029002, 41.78680399999998], [-70.027053, 41.78722], [-70.027083, 41.787364000000004], [-70.026779, 41.78737600000001], [-70.02651, 41.78759099999999], [-70.02636000000001, 41.787514], [-70.026135, 41.787718999999996], [-70.025764, 41.787677999999985], [-70.025099, 41.78809900000001], [-70.024348, 41.787573], [-70.02422, 41.78764300000001], [-70.024259, 41.788127999999986], [-70.02388, 41.788339], [-70.023461, 41.78809799999999], [-70.023114, 41.78824699999999], [-70.022149, 41.787487999999996], [-70.021199, 41.787135000000006], [-70.020455, 41.787227], [-70.020626, 41.786812000000005], [-70.020168, 41.786552999999984], [-70.019476, 41.786459], [-70.019084, 41.78619199999999], [-70.018876, 41.786], [-70.018835, 41.78533099999999], [-70.019375, 41.785028], [-70.019391, 41.784843], [-70.019102, 41.784828], [-70.01789, 41.785430999999996], [-70.017339, 41.785151000000006], [-70.017744, 41.784855], [-70.01772, 41.784696999999994], [-70.017268, 41.784807], [-70.016956, 41.784482999999994], [-70.016578, 41.784721000000005], [-70.01626100000001, 41.78463], [-70.016233, 41.78447499999999], [-70.016476, 41.78428199999999], [-70.016389, 41.78411700000003], [-70.016006, 41.78415], [-70.015742, 41.78439100000002], [-70.015517, 41.784108], [-70.014978, 41.78385099999999], [-70.014602, 41.78412300000001], [-70.013905, 41.78348199999999], [-70.013736, 41.783713], [-70.013456, 41.78376299999999], [-70.013109, 41.783460999999996], [-70.01323, 41.78323600000001], [-70.013135, 41.78307499999999], [-70.012501, 41.782762000000005], [-70.012577, 41.782386999999986], [-70.012434, 41.78222499999999], [-70.012086, 41.78238999999998], [-70.011788, 41.78225799999999], [-70.012068, 41.781860000000016], [-70.011864, 41.781589000000004], [-70.011355, 41.781716], [-70.011455, 41.78152999999999], [-70.011165, 41.780834999999996], [-70.010218, 41.779219], [-70.005365, 41.768815000000004], [-70.005377, 41.764625999999986], [-69.993179, 41.747792], [-69.99503, 41.74564600000002], [-69.997254, 41.741349], [-70.00075, 41.73795600000002], [-70.002259, 41.73568599999998], [-69.991763, 41.72904200000003], [-69.991779, 41.72893200000001], [-70.011042, 41.728137], [-70.02444, 41.727759999999996], [-70.026913, 41.72679900000002], [-70.026974, 41.72640400000002], [-70.026575, 41.725634], [-70.028199, 41.72441799999999], [-70.03029, 41.724433], [-70.03064900000001, 41.72404399999999], [-70.031511, 41.72382500000001], [-70.032791, 41.72405599999999], [-70.034613, 41.725754], [-70.03595, 41.72638699999999], [-70.037499, 41.726743000000006], [-70.038447, 41.726778], [-70.040024, 41.725516999999975], [-70.040824, 41.725099], [-70.041679, 41.72496600000001], [-70.043356, 41.725118], [-70.043232, 41.723833], [-70.043806, 41.72354599999999], [-70.049809, 41.72179800000001], [-70.052808, 41.721571], [-70.057022, 41.72189], [-70.063902, 41.723143], [-70.066825, 41.723326000000014], [-70.069832, 41.723213], [-70.071617, 41.722958999999996], [-70.075537, 41.72182100000001], [-70.081881, 41.72510800000001], [-70.084354, 41.725928999999994], [-70.086219, 41.726244], [-70.086963, 41.72593400000002], [-70.09405, 41.724502], [-70.096371, 41.71600100000002], [-70.133847, 41.70613700000001], [-70.117548, 41.65522299999999], [-70.119312, 41.655281], [-70.122129, 41.65503600000001], [-70.122621, 41.654929], [-70.122589, 41.654770000000006], [-70.123358, 41.65480799999998], [-70.125506, 41.65437800000001], [-70.129624, 41.653158000000005], [-70.134471, 41.652063], [-70.13475600000001, 41.65183300000001], [-70.136162, 41.65151999999999], [-70.136828, 41.65120799999999], [-70.141067, 41.650408000000006], [-70.14193, 41.650573], [-70.143212, 41.650299000000004], [-70.145283, 41.650310000000005], [-70.146776, 41.650514], [-70.148218, 41.650399000000014], [-70.153305, 41.65111999999999], [-70.153737, 41.651362], [-70.154498, 41.65147699999999], [-70.156515, 41.65136300000001], [-70.156169, 41.65061600000001], [-70.156284, 41.65057699999998], [-70.157015, 41.651354], [-70.15771, 41.651377999999994], [-70.158621, 41.65043800000001], [-70.191827, 41.647495], [-70.191061, 41.645259], [-70.220092, 41.636005999999995], [-70.219903, 41.63480499999999], [-70.233901, 41.63046699999999], [-70.23577, 41.63194099999999], [-70.237257, 41.63262499999999], [-70.236789, 41.633299], [-70.236905, 41.634890000000006], [-70.23405400000001, 41.644270000000006], [-70.229918, 41.64968799999999], [-70.230772, 41.64985899999999], [-70.227978, 41.652802], [-70.226964, 41.653438000000016], [-70.225214, 41.654039999999995], [-70.223808, 41.65516900000001], [-70.222357, 41.656048], [-70.221936, 41.656794], [-70.221994, 41.658123], [-70.221364, 41.65954300000001], [-70.221029, 41.66006100000001], [-70.219925, 41.66104800000001], [-70.219036, 41.66252000000001], [-70.211912, 41.665738], [-70.213124, 41.667306999999994], [-70.216598, 41.68029499999999], [-70.216974, 41.681019], [-70.219599, 41.68369300000001], [-70.221356, 41.68350300000001], [-70.223071, 41.683096], [-70.222299, 41.67782500000001], [-70.222907, 41.677904], [-70.222754, 41.676754999999986], [-70.223122, 41.67646799999999], [-70.223579, 41.67657100000001], [-70.224631, 41.677867], [-70.227724, 41.67764800000002], [-70.227779, 41.67918300000001], [-70.227625, 41.680292000000016], [-70.228286, 41.682364000000014], [-70.245089, 41.678344999999986], [-70.249216, 41.677516], [-70.253038, 41.67637299999999], [-70.256398, 41.675789], [-70.265778, 41.673514000000004]]]}}