{"type": "Feature", "properties": {"district_name": "9th Bristol District", "chamber": "house", "vintage": "2012-2020"}, "geometry": {"type": "Polygon", "coordinates": [[[-71.07667, 41.68748600000001], [-71.06663, 41.68561900000001], [-71.027763, 41.704194], [-71.027727, 41.704077], [-71.011896, 41.711777999999995], [-70.965484, 41.73390199999999], [-70.97751199999999, 41.67867099999999], [-70.972785, 41.660505999999984], [-70.942695, 41.66295999999999], [-70.94280499999999, 41.662445999999996], [-70.943255, 41.66174], [-70.939105, 41.66226200000001], [-70.937972, 41.66016700000001], [-70.93638, 41.65656299999999], [-70.939216, 41.656228000000006], [-70.938351, 41.65456600000001], [-70.93694200000002, 41.65250699999999], [-70.93607, 41.652671999999995], [-70.93408699999999, 41.648416999999995], [-70.937089, 41.648070000000004], [-70.93685800000002, 41.64680399999998], [-70.938368, 41.64664199999999], [-70.937994, 41.64565900000001], [-70.939185, 41.645517], [-70.939049, 41.64524199999999], [-70.941251, 41.64501399999999], [-70.94060999999999, 41.643246], [-70.951222, 41.64220199999999], [-70.953504, 41.646280000000004], [-70.956172, 41.649128999999995], [-70.957307, 41.64864999999999], [-70.95694999999999, 41.647980000000004], [-70.95711299999999, 41.647791000000026], [-70.960884, 41.646739999999994], [-70.960638, 41.64625999999999], [-70.964404, 41.645297], [-70.96414399999999, 41.644037], [-70.964604, 41.64400800000001], [-70.960454, 41.640225], [-70.95975299999999, 41.63683299999999], [-70.949731, 41.620932999999994], [-70.93642299999999, 41.614370000000015], [-70.934652, 41.61003799999999], [-70.933009, 41.610986], [-70.932324, 41.608112], [-70.931433, 41.60841300000001], [-70.931468, 41.608315999999995], [-70.92728199999999, 41.60880399999998], [-70.924782, 41.604803999999994], [-70.910185, 41.579097000000004], [-70.896936, 41.556905000000015], [-70.864314, 41.507397000000005], [-70.879213, 41.50010599999999], [-70.91481, 41.483092], [-70.95682099999999, 41.46247200000001], [-70.97450900000001, 41.454138], [-71.00413, 41.48403099999999], [-71.016759, 41.498290999999995], [-71.021757, 41.503716999999995], [-71.028694, 41.51404499999999], [-71.029945, 41.517869000000005], [-71.032708, 41.52777300000001], [-71.026287, 41.53050700000001], [-71.02883899999999, 41.53652699999998], [-71.02964899999999, 41.538849], [-71.031438, 41.546380000000006], [-71.031352, 41.546766999999996], [-71.030188, 41.54816], [-71.030175, 41.548604], [-71.030875, 41.550736], [-71.031015, 41.552057000000005], [-71.02959899999999, 41.555243000000004], [-71.02904, 41.557363999999986], [-71.02911499999999, 41.55822200000001], [-71.029731, 41.56055500000001], [-71.031578, 41.566058], [-71.03217099999999, 41.56905299999999], [-71.03282999999999, 41.570458], [-71.03457399999999, 41.57332199999998], [-71.040947, 41.582268], [-71.04446, 41.586428], [-71.045053, 41.58784300000001], [-71.04481299999999, 41.58989699999999], [-71.04109, 41.59294599999999], [-71.03960099999999, 41.593837], [-71.03899899999999, 41.59573100000002], [-71.037307, 41.597921], [-71.03681399999999, 41.598175], [-71.038321, 41.608090999999995], [-71.038072, 41.610203999999996], [-71.036822, 41.615254999999976], [-71.036531, 41.617643], [-71.03740499999999, 41.621514], [-71.03781699999999, 41.622256000000014], [-71.038538, 41.62290100000002], [-71.036637, 41.62409499999999], [-71.038517, 41.62804399999998], [-71.040675, 41.63042399999999], [-71.04221799999999, 41.63251999999999], [-71.043067, 41.633277], [-71.044718, 41.63643600000001], [-71.04505, 41.63676500000001], [-71.04642299999999, 41.63738200000001], [-71.048874, 41.64014799999999], [-71.04946199999999, 41.64135999999999], [-71.051658, 41.648340000000005], [-71.05319, 41.651150000000015], [-71.053905, 41.65280500000002], [-71.059527, 41.66077399999999], [-71.061362, 41.663666000000006], [-71.063763, 41.666849], [-71.075118, 41.678069], [-71.07667, 41.68748600000001]]]}}