{"type": "Feature", "properties": {"district_name": "16th Worcester", "chamber": "house", "vintage": "2001-2010"}, "geometry": {"type": "Polygon", "coordinates": [[[-71.74281396122217, 42.23379301962172], [-71.74711390920918, 42.23159272409023], [-71.7794150205205, 42.21749408707056], [-71.78531494837097, 42.21459407709074], [-71.79341495055911, 42.21089419895159], [-71.79661492245336, 42.20979377698099], [-71.79831492664863, 42.21229392571335], [-71.79881503364676, 42.213492846164925], [-71.80261499752879, 42.21919310316226], [-71.80651506737487, 42.22369274320199], [-71.8096679076468, 42.23095482782052], [-71.81611508115199, 42.23059288359543], [-71.81911494013993, 42.230192947713014], [-71.81891492004661, 42.23069317480027], [-71.81991504312501, 42.230792801464496], [-71.81761494321448, 42.23829312492995], [-71.82401493176259, 42.239192992545576], [-71.8263159498995, 42.2392928185412], [-71.82731603873944, 42.241593073413185], [-71.82511500016395, 42.24199321253423], [-71.82251494684773, 42.24349280484702], [-71.82061508469329, 42.24349305806103], [-71.821114910372, 42.24409318254063], [-71.81931499259083, 42.24409313457239], [-71.8193149890946, 42.24439305352413], [-71.81581496442878, 42.246493128502365], [-71.8148150594237, 42.2454931595934], [-71.81345307722607, 42.244584768866915], [-71.80551507899983, 42.25599276968216], [-71.80621496621168, 42.25619290632714], [-71.80571500375007, 42.256692781627436], [-71.80701494686068, 42.25809322799139], [-71.80631506743396, 42.25829316391691], [-71.80471500051917, 42.25949313167616], [-71.80171501185502, 42.25719290212481], [-71.80041492635388, 42.256492949215755], [-71.79981503611376, 42.25589300663459], [-71.79891492048213, 42.255392867249164], [-71.79811497470085, 42.25529310474492], [-71.79773496905091, 42.25542125862266], [-71.79790105993996, 42.25518674894678], [-71.79780304683072, 42.25467720642918], [-71.79711493095152, 42.25399306599005], [-71.79511500049074, 42.25599296288682], [-71.79281499562359, 42.2545932532987], [-71.79161504963335, 42.25459293113905], [-71.79171491909132, 42.25539282184864], [-71.78911499278671, 42.25559296319838], [-71.78921502616522, 42.256392855440474], [-71.78501492988899, 42.25579283594508], [-71.77971493766901, 42.256092841422095], [-71.7778150125386, 42.255992794072554], [-71.77511503610965, 42.256192860254664], [-71.77421495445753, 42.256093171212235], [-71.77151500132452, 42.25639274407063], [-71.76671403461592, 42.257993029546554], [-71.76471402889514, 42.2591928082137], [-71.76371408807105, 42.25699274625228], [-71.76231399518024, 42.25179277372985], [-71.7616139126526, 42.25049286643854], [-71.7644139366858, 42.2499929777438], [-71.76591406896729, 42.250392956760564], [-71.76681405898223, 42.25049327816905], [-71.7676139941402, 42.250392950175076], [-71.76741407151911, 42.24869296829821], [-71.7682140191079, 42.24869278575606], [-71.76811408506721, 42.24749280658738], [-71.76631395458736, 42.24719314413164], [-71.76461391687889, 42.24669290525168], [-71.76291395713541, 42.245793131272826], [-71.76241394501858, 42.245292914169326], [-71.7614139612831, 42.24489287689904], [-71.75511393025505, 42.240992978906334], [-71.75451395882453, 42.240893026507415], [-71.75271405748607, 42.24139272865133], [-71.75251403787858, 42.240892941818935], [-71.74941408559309, 42.24019298043264], [-71.74751406139464, 42.23639273940724], [-71.74281396122217, 42.23379301962172]]]}}