{"type": "Feature", "properties": {"district_name": "3rd Middlesex District", "chamber": "house", "vintage": "2022-present"}, "geometry": {"type": "Polygon", "coordinates": [[[-71.660633, 42.418231999999996], [-71.65674, 42.430957], [-71.642426, 42.479502999999994], [-71.633876, 42.47622500000001], [-71.54890300000001, 42.44730799999999], [-71.54339400000002, 42.46645199999998], [-71.498546, 42.463775], [-71.430389, 42.436937], [-71.442626, 42.406946999999995], [-71.46944300000001, 42.40259300000001], [-71.472689, 42.389984999999996], [-71.475505, 42.380632000000006], [-71.603065, 42.367267], [-71.607759, 42.370022], [-71.580135, 42.386953000000005], [-71.630418, 42.40953700000001], [-71.660633, 42.418231999999996]]]}}