{"type": "Feature", "properties": {"district_name": "8th Suffolk District", "chamber": "house", "vintage": "2012-2020"}, "geometry": {"type": "Polygon", "coordinates": [[[-71.117099, 42.355594], [-71.116929, 42.358715999999994], [-71.116995, 42.36117300000001], [-71.112329, 42.36267699999998], [-71.110928, 42.361735], [-71.110326, 42.362213999999994], [-71.108719, 42.36124100000001], [-71.105104, 42.364520999999996], [-71.102432, 42.36286299999999], [-71.10193199999999, 42.363418], [-71.09852699999999, 42.36140400000001], [-71.097684, 42.361816000000005], [-71.094852, 42.36016600000001], [-71.090227, 42.362452], [-71.090021, 42.362691000000005], [-71.085219, 42.36237800000001], [-71.082484, 42.361972000000016], [-71.083683, 42.362202999999994], [-71.084389, 42.362713], [-71.083472, 42.363851], [-71.082022, 42.36639799999999], [-71.07673, 42.36574600000001], [-71.075565, 42.367002], [-71.075363, 42.366908], [-71.07311299999999, 42.369131], [-71.07073799999999, 42.367995], [-71.069795, 42.36909700000001], [-71.066195, 42.36909700000001], [-71.066039, 42.368901], [-71.065731, 42.368961000000006], [-71.065827, 42.36909700000001], [-71.063921, 42.369015999999995], [-71.062994, 42.368391], [-71.059795, 42.368767], [-71.058525, 42.36695199999999], [-71.063294, 42.36431], [-71.063835, 42.362792000000006], [-71.06375500000001, 42.36124100000001], [-71.06638199999999, 42.36119699999999], [-71.066306, 42.359354999999994], [-71.06287499999999, 42.359483000000004], [-71.062642, 42.357977000000005], [-71.063169, 42.357748], [-71.061956, 42.356534], [-71.063419, 42.355059999999966], [-71.064562, 42.352382999999996], [-71.067533, 42.352513], [-71.071057, 42.35180299999998], [-71.085602, 42.34788399999999], [-71.08479299999999, 42.346268999999985], [-71.084406, 42.34603900000002], [-71.084143, 42.34518399999999], [-71.084353, 42.345071], [-71.086831, 42.34542399999999], [-71.08745499999999, 42.34663499999999], [-71.08825999999999, 42.346399], [-71.087161, 42.34427799999999], [-71.089765, 42.34466], [-71.089264, 42.34688700000001], [-71.087758, 42.34729999999999], [-71.088151, 42.348136], [-71.08870999999999, 42.349252], [-71.09287599999999, 42.349154999999996], [-71.09288, 42.350405], [-71.09319099999999, 42.35098], [-71.092874, 42.35138399999999], [-71.093237, 42.35164399999999], [-71.094042, 42.35371000000001], [-71.09919599999999, 42.35279699999999], [-71.108798, 42.35239699999999], [-71.111001, 42.352597], [-71.117099, 42.355594]]]}}