{"type": "Feature", "properties": {"district_name": "5th Essex District", "chamber": "house", "vintage": "2012-2020"}, "geometry": {"type": "MultiPolygon", "coordinates": [[[[-70.58051499999999, 42.63574299999999], [-70.579385, 42.63709199999998], [-70.577596, 42.638481], [-70.575088, 42.63978], [-70.574158, 42.63992399999999], [-70.57336099999999, 42.63983999999999], [-70.573307, 42.63957500000001], [-70.573655, 42.6393], [-70.573492, 42.638789], [-70.573701, 42.638115], [-70.57412699999999, 42.637767000000004], [-70.573902, 42.63738299999999], [-70.573995, 42.636936000000006], [-70.57475400000001, 42.636240999999984], [-70.575637, 42.63588700000001], [-70.575752, 42.634958], [-70.57767299999999, 42.63487699999998], [-70.578261, 42.634571999999984], [-70.578927, 42.634572], [-70.58045299999999, 42.635532], [-70.58051499999999, 42.63574299999999]]], [[[-70.59218899999999, 42.629470999999995], [-70.591725, 42.62949999999999], [-70.59078699999999, 42.62900399999999], [-70.59020699999999, 42.62896299999999], [-70.588814, 42.62997299999999], [-70.588155, 42.63010399999999], [-70.58792199999999, 42.62874699999999], [-70.587372, 42.62766100000001], [-70.58744999999999, 42.627137000000005], [-70.588037, 42.62641299999999], [-70.588889, 42.626343000000006], [-70.589207, 42.626419], [-70.590105, 42.62715399999999], [-70.591948, 42.627610999999995], [-70.59214899999999, 42.62781], [-70.59196399999999, 42.62880800000001], [-70.59218899999999, 42.629470999999995]]], [[[-70.593932, 42.66058799999999], [-70.593638, 42.660965], [-70.59298799999999, 42.661366], [-70.59204199999999, 42.66123499999999], [-70.59148499999999, 42.661378000000006], [-70.589828, 42.66252199999998], [-70.589192, 42.66276500000001], [-70.587992, 42.66300299999999], [-70.587395, 42.662551999999984], [-70.58738699999999, 42.66194799999999], [-70.58763499999999, 42.66131900000002], [-70.589323, 42.65987700000001], [-70.589942, 42.658449999999995], [-70.59017399999999, 42.658479], [-70.590476, 42.658844000000016], [-70.591313, 42.65872799999999], [-70.593288, 42.659169], [-70.593792, 42.659787999999985], [-70.593661, 42.66015], [-70.593932, 42.66058799999999]]], [[[-70.620476, 42.664871000000005], [-70.62025899999999, 42.665170999999994], [-70.61990999999999, 42.665139999999994], [-70.619925, 42.664685000000006], [-70.62034299999999, 42.664547999999996], [-70.620476, 42.664871000000005]]], [[[-70.818629, 42.62488099999999], [-70.81185099999999, 42.625316999999995], [-70.81237899999999, 42.635633000000006], [-70.813076, 42.64053299999999], [-70.81694499999999, 42.64128500000001], [-70.814464, 42.64665000000001], [-70.815161, 42.646668999999996], [-70.81603, 42.647136999999994], [-70.81545299999999, 42.647481], [-70.813781, 42.64789899999998], [-70.810605, 42.649430999999986], [-70.810249, 42.649725], [-70.809919, 42.650943], [-70.809113, 42.65125099999999], [-70.808762, 42.651838], [-70.807794, 42.652326], [-70.80790999999999, 42.652571999999985], [-70.807662, 42.65288600000001], [-70.807721, 42.653245], [-70.807523, 42.65318499999999], [-70.807473, 42.653389999999995], [-70.80790499999999, 42.653655], [-70.807479, 42.65468399999999], [-70.805539, 42.654869], [-70.805638, 42.65464099999999], [-70.805522, 42.654575], [-70.805696, 42.65441599999999], [-70.80543, 42.65434299999999], [-70.804711, 42.65476100000002], [-70.80416, 42.65476399999999], [-70.803589, 42.654993000000005], [-70.80346, 42.655226], [-70.80385199999999, 42.65532199999999], [-70.803987, 42.65550899999999], [-70.80366599999999, 42.655657000000005], [-70.803825, 42.65594], [-70.803359, 42.656047], [-70.80279, 42.65590300000001], [-70.802667, 42.656093999999996], [-70.80287299999999, 42.65642099999999], [-70.80336299999999, 42.656304000000006], [-70.80346, 42.65646599999998], [-70.803305, 42.65668099999999], [-70.80222499999999, 42.656646], [-70.80202299999999, 42.656900000000014], [-70.80127999999999, 42.656954], [-70.800686, 42.65728500000001], [-70.800321, 42.656916], [-70.800395, 42.65654300000001], [-70.799754, 42.656361], [-70.798817, 42.65680299999999], [-70.79836499999999, 42.657316000000016], [-70.798065, 42.657068], [-70.79856099999999, 42.65622200000001], [-70.797855, 42.656026], [-70.79661, 42.656071], [-70.79643899999999, 42.655863000000004], [-70.79650699999999, 42.65515999999999], [-70.796026, 42.65503499999998], [-70.79554499999999, 42.65526500000001], [-70.795546, 42.65601900000001], [-70.79432899999999, 42.655892999999985], [-70.794024, 42.65602600000001], [-70.79403099999999, 42.65643299999999], [-70.79428, 42.656734], [-70.7955, 42.65690199999998], [-70.79592500000001, 42.65722100000001], [-70.795937, 42.657912], [-70.795417, 42.658072000000004], [-70.794353, 42.658086], [-70.79418799999999, 42.65825299999998], [-70.79438499999999, 42.658648], [-70.795493, 42.659116], [-70.79553299999999, 42.659791], [-70.7945, 42.65984799999999], [-70.79348499999999, 42.659011000000014], [-70.79250200000001, 42.65888499999999], [-70.79090000000001, 42.659588000000014], [-70.790559, 42.66002999999999], [-70.790784, 42.66055799999999], [-70.791241, 42.66080300000001], [-70.791837, 42.66080300000001], [-70.792968, 42.660487999999994], [-70.793409, 42.660562000000006], [-70.793634, 42.660909999999994], [-70.79360299999999, 42.661882999999996], [-70.79403599999999, 42.662804], [-70.794021, 42.66318299999999], [-70.792762, 42.66327100000001], [-70.79313499999999, 42.662271], [-70.793123, 42.66209], [-70.792735, 42.66183100000002], [-70.790086, 42.661915], [-70.788893, 42.66282999999999], [-70.788598, 42.663335000000004], [-70.789016, 42.663711000000006], [-70.790419, 42.663557999999995], [-70.790922, 42.66378399999999], [-70.790852, 42.664637000000006], [-70.78936999999999, 42.665625], [-70.78931, 42.666681000000004], [-70.78951099999999, 42.66671300000001], [-70.789684, 42.66721], [-70.789456, 42.66781499999999], [-70.789103, 42.667967], [-70.786831, 42.667773000000004], [-70.785696, 42.66795300000002], [-70.78504199999999, 42.66837399999999], [-70.784166, 42.67013300000001], [-70.780984, 42.671242], [-70.77791599999999, 42.673005], [-70.77161699999999, 42.673324], [-70.768914, 42.67365400000001], [-70.766649, 42.67431699999999], [-70.762556, 42.67585100000001], [-70.76149699999999, 42.67574499999999], [-70.759507, 42.67493700000001], [-70.751373, 42.67070099999999], [-70.74732399999999, 42.667131999999995], [-70.73382099999999, 42.65130500000001], [-70.72669599999999, 42.662441], [-70.721542, 42.671014000000014], [-70.70898, 42.690916], [-70.696088, 42.691415000000006], [-70.68794199999999, 42.692296], [-70.666326, 42.69309900000001], [-70.639606, 42.69503599999997], [-70.64044299999999, 42.68721399999999], [-70.640135, 42.68739600000001], [-70.638787, 42.687617999999986], [-70.63905799999999, 42.688041999999996], [-70.638964, 42.6883], [-70.637996, 42.688751], [-70.63731299999999, 42.689715], [-70.636282, 42.690625999999995], [-70.633568, 42.69179], [-70.63045199999999, 42.692758000000005], [-70.629901, 42.692779], [-70.62777, 42.692310000000006], [-70.626748, 42.69180600000001], [-70.626748, 42.691023], [-70.626532, 42.69084600000001], [-70.626269, 42.689787], [-70.626595, 42.68934999999999], [-70.62645599999999, 42.688825000000016], [-70.62476, 42.687760000000004], [-70.62362800000001, 42.687563999999995], [-70.623392, 42.687692000000006], [-70.623265, 42.68811899999999], [-70.622986, 42.68825299999999], [-70.620645, 42.68843499999999], [-70.620065, 42.68830399999999], [-70.619576, 42.687706999999996], [-70.619892, 42.686343], [-70.619759, 42.68524199999998], [-70.62016200000001, 42.684948], [-70.61999899999999, 42.684656999999994], [-70.621145, 42.68331299999999], [-70.622693, 42.68223700000001], [-70.62297199999999, 42.68157600000002], [-70.622885, 42.680488000000004], [-70.622536, 42.67981300000001], [-70.622644, 42.679424], [-70.621914, 42.678219000000006], [-70.62115399999999, 42.67773], [-70.620635, 42.67711100000001], [-70.620634, 42.676755000000014], [-70.620898, 42.67652600000001], [-70.62082, 42.67621699999999], [-70.621207, 42.67595899999998], [-70.621882, 42.676390999999995], [-70.622463, 42.676144000000015], [-70.621766, 42.67681599999999], [-70.622177, 42.677589000000005], [-70.62267299999999, 42.677941999999994], [-70.62312299999999, 42.677796], [-70.623092, 42.677639000000006], [-70.623502, 42.677440000000004], [-70.623347, 42.677194], [-70.62378, 42.67676000000001], [-70.62378799999999, 42.676612], [-70.623199, 42.676296], [-70.622113, 42.67487000000001], [-70.621578, 42.674495], [-70.621678, 42.674065999999996], [-70.62084, 42.672906999999995], [-70.62087799999999, 42.67265000000002], [-70.62154400000001, 42.67210000000002], [-70.621838, 42.671595999999994], [-70.62172000000001, 42.669368999999996], [-70.621898, 42.66927199999999], [-70.622332, 42.66947700000001], [-70.62299, 42.669481999999995], [-70.623153, 42.668947999999986], [-70.62178, 42.667567000000005], [-70.620764, 42.66686999999999], [-70.62059400000001, 42.666534999999996], [-70.62070899999999, 42.666272000000006], [-70.62105799999999, 42.666231], [-70.621578, 42.66658399999999], [-70.622422, 42.666589999999985], [-70.62353, 42.667389], [-70.623646, 42.66704099999997], [-70.62338199999999, 42.66588700000002], [-70.62373099999999, 42.665806], [-70.623761, 42.665570999999986], [-70.623272, 42.665119], [-70.622126, 42.664888], [-70.62188499999999, 42.66453500000001], [-70.62204, 42.66420900000001], [-70.622652, 42.66385799999999], [-70.622659, 42.66335399999999], [-70.622937, 42.66295399999999], [-70.623341, 42.663812], [-70.623565, 42.66369199999999], [-70.623735, 42.663136], [-70.62324699999999, 42.66296299999999], [-70.623673, 42.66286200000002], [-70.623555, 42.66175599999999], [-70.623269, 42.66123300000001], [-70.622323, 42.660607], [-70.621393, 42.660346], [-70.62128400000002, 42.659879], [-70.621586, 42.65956000000001], [-70.62148499999999, 42.659363000000006], [-70.620447, 42.65895899999999], [-70.61913799999999, 42.658820000000006], [-70.618053, 42.65899700000001], [-70.618185, 42.659257000000004], [-70.618015, 42.659565], [-70.617852, 42.65951299999999], [-70.617813, 42.65922100000002], [-70.617055, 42.65937200000001], [-70.617125, 42.659821], [-70.61763499999999, 42.659611000000005], [-70.61775899999999, 42.65987499999999], [-70.617465, 42.660028], [-70.61744999999999, 42.66035199999998], [-70.617071, 42.660754000000004], [-70.61668399999999, 42.66092100000001], [-70.615375, 42.66084499999999], [-70.614677, 42.661156999999974], [-70.613818, 42.66122700000002], [-70.61201299999999, 42.660798000000014], [-70.612059, 42.660644000000005], [-70.613562, 42.660934], [-70.614035, 42.660833000000004], [-70.614375, 42.660283], [-70.614948, 42.65991899999998], [-70.614514, 42.65949799999998], [-70.61473099999999, 42.65939100000001], [-70.615366, 42.65958900000001], [-70.614823, 42.659155999999996], [-70.61542, 42.65935], [-70.61631799999999, 42.659026], [-70.616334, 42.65872], [-70.61586, 42.658267], [-70.61502399999999, 42.658756000000004], [-70.61514, 42.658902999999995], [-70.614598, 42.65881199999998], [-70.614474, 42.65850799999998], [-70.615574, 42.658042], [-70.615163, 42.657700999999996], [-70.614791, 42.657648], [-70.614342, 42.657893], [-70.614032, 42.658387999999995], [-70.611918, 42.659606], [-70.611881, 42.66006199999998], [-70.611283, 42.659943999999996], [-70.61058700000001, 42.660215], [-70.610013, 42.660223], [-70.609347, 42.65953900000001], [-70.608603, 42.659054000000005], [-70.606867, 42.65867799999998], [-70.605001, 42.65906899999999], [-70.602522, 42.659256], [-70.60161599999999, 42.66006599999999], [-70.600826, 42.660257], [-70.600633, 42.66045400000001], [-70.600354, 42.660408], [-70.599865, 42.659883], [-70.598478, 42.659898], [-70.59626399999999, 42.66110000000001], [-70.595846, 42.661034], [-70.59535699999999, 42.66050499999999], [-70.59559, 42.660101000000026], [-70.59562, 42.65964100000001], [-70.596565, 42.658831000000006], [-70.59717599999999, 42.65875499999999], [-70.597409, 42.65808500000001], [-70.597107, 42.657824], [-70.59520200000001, 42.657661], [-70.594674, 42.656498], [-70.594611, 42.656002999999984], [-70.59482799999999, 42.655365999999994], [-70.59544799999999, 42.654578000000015], [-70.596392, 42.65388], [-70.597259, 42.65291799999999], [-70.597336, 42.65246199999999], [-70.597204, 42.651964], [-70.596406, 42.651272999999996], [-70.595732, 42.651346], [-70.595468, 42.651196], [-70.595097, 42.65087699999998], [-70.59500299999999, 42.650347], [-70.59374799999999, 42.65030600000001], [-70.59316799999999, 42.649981], [-70.592269, 42.64994799999999], [-70.591827, 42.648905000000006], [-70.591788, 42.64813999999999], [-70.592097, 42.647203999999974], [-70.593065, 42.646187], [-70.59346699999999, 42.645144999999985], [-70.595348, 42.64312399999997], [-70.595316, 42.641081], [-70.595145, 42.64080400000001], [-70.594696, 42.64056299999999], [-70.59379, 42.64044500000001], [-70.593565, 42.640601], [-70.593186, 42.64143], [-70.59221099999999, 42.641858000000006], [-70.592079, 42.641715999999995], [-70.592133, 42.64144], [-70.591854, 42.641097], [-70.59065300000002, 42.640259], [-70.591945, 42.638948], [-70.591729, 42.638073], [-70.592015, 42.637330999999996], [-70.591875, 42.63694100000001], [-70.592742, 42.63648800000001], [-70.59429, 42.634706000000016], [-70.596187, 42.634315], [-70.596435, 42.63466700000001], [-70.598193, 42.63506100000001], [-70.59854899999999, 42.635425000000005], [-70.59906, 42.63550399999998], [-70.600563, 42.635469], [-70.60409299999999, 42.634776], [-70.60491400000001, 42.63472399999999], [-70.605193, 42.63504], [-70.60580399999999, 42.635012999999994], [-70.609923, 42.633568], [-70.610929, 42.632766000000004], [-70.610703, 42.631855], [-70.611779, 42.631443999999995], [-70.61222900000001, 42.631671999999995], [-70.612206, 42.632091], [-70.61172599999999, 42.63268300000001], [-70.61157899999999, 42.633365], [-70.61201299999999, 42.633629000000006], [-70.611008, 42.63432700000001], [-70.611325, 42.63426400000001], [-70.61219899999999, 42.63363999999999], [-70.61205199999999, 42.63333999999999], [-70.61459099999999, 42.63322799999999], [-70.614715, 42.63291999999999], [-70.616828, 42.63184099999999], [-70.620358, 42.631435], [-70.6209, 42.63074300000001], [-70.620938, 42.630539999999996], [-70.62062, 42.630216], [-70.62052, 42.630280000000006], [-70.620784, 42.63071799999999], [-70.620149, 42.631392999999996], [-70.616913, 42.63165499999999], [-70.616147, 42.63194099999999], [-70.61497, 42.632727], [-70.61439, 42.632878999999996], [-70.61439, 42.633114000000006], [-70.613995, 42.633016000000005], [-70.61171100000001, 42.633368000000004], [-70.611912, 42.632563], [-70.613267, 42.632427000000014], [-70.613855, 42.63213999999999], [-70.61623, 42.630544], [-70.618776, 42.628468000000005], [-70.619534, 42.62729600000001], [-70.619379, 42.62663999999999], [-70.618332, 42.626361999999986], [-70.61806399999999, 42.62602999999999], [-70.606399, 42.622500999999986], [-70.595005, 42.62148699999999], [-70.567854, 42.61845700000001], [-70.576846, 42.61680299999999], [-70.59810700000001, 42.613856999999996], [-70.620026, 42.609914999999994], [-70.624522, 42.60560599999998], [-70.630696, 42.597137000000004], [-70.640444, 42.58433399999999], [-70.642438, 42.582596999999986], [-70.64510299999999, 42.580827], [-70.647925, 42.57932700000001], [-70.65200100000001, 42.57848000000003], [-70.664718, 42.578195], [-70.671443, 42.578419999999994], [-70.679251, 42.580107999999996], [-70.689225, 42.579226999999996], [-70.701037, 42.576278999999985], [-70.705947, 42.574380000000005], [-70.70932499999999, 42.572489], [-70.713002, 42.57069399999998], [-70.71394, 42.57172399999999], [-70.71562899999999, 42.57241899999999], [-70.716093, 42.573891], [-70.71594700000001, 42.574858000000006], [-70.715166, 42.575959], [-70.717111, 42.58150600000001], [-70.723516, 42.58432500000002], [-70.73384399999999, 42.58810599999999], [-70.740455, 42.58999599999999], [-70.74565, 42.59957600000001], [-70.77345, 42.598248000000005], [-70.800797, 42.595323999999984], [-70.800889, 42.602011999999995], [-70.809456, 42.607347], [-70.81611199999999, 42.618798999999996], [-70.818579, 42.621706], [-70.818629, 42.62488099999999]]]]}}