{"type": "Feature", "properties": {"district_name": "1st Bristol", "chamber": "house", "vintage": "2001-2010"}, "geometry": {"type": "Polygon", "coordinates": [[[-71.16169290405013, 42.02619880715579], [-71.15669308662925, 41.999999249307], [-71.12059095947085, 41.997700141607915], [-71.11716705865284, 41.99666684113265], [-71.11516807742541, 41.99643786340915], [-71.10999105835047, 41.995400117274784], [-71.1017909531201, 41.99480013563331], [-71.12019098270432, 41.97219996427261], [-71.12449091030261, 41.96740014592412], [-71.14286391326868, 41.947945183505404], [-71.15227799953001, 41.937706902788904], [-71.15729201524437, 41.93449994060393], [-71.15869193390985, 41.93599983205874], [-71.15949205938084, 41.93829978583869], [-71.1600299261799, 41.9393699902512], [-71.1622919542963, 41.941599985862915], [-71.16343201375518, 41.94226172778284], [-71.16517208740791, 41.94291790745867], [-71.17612894684801, 41.94632015893329], [-71.1796690081022, 41.94931083669453], [-71.18243106536752, 41.95105790332139], [-71.18281202061502, 41.95153107476829], [-71.18360600716449, 41.953385175011704], [-71.18609297510909, 41.9571999192659], [-71.18630591711248, 41.95774183532696], [-71.18714601824293, 41.96048680812406], [-71.1874050438394, 41.962127833384976], [-71.18717601609477, 41.96573588752622], [-71.18735902757844, 41.966354248214685], [-71.18799303795412, 41.967299089258205], [-71.1924569142979, 41.96360009471846], [-71.19889401095216, 41.96169893968548], [-71.2003300748087, 41.96666697500144], [-71.20259409295042, 41.96909875111744], [-71.20283295614932, 41.97030582986027], [-71.20429401802657, 41.9742992556168], [-71.20509401193182, 41.974198908628985], [-71.20709396243788, 41.974299145012026], [-71.2073939674727, 41.976498995473214], [-71.20802094520911, 41.976349233432835], [-71.20820398480613, 41.97647799935436], [-71.2078939980628, 41.97689924225217], [-71.20838708515674, 41.97671480599579], [-71.20974497699403, 41.97557820586441], [-71.21034007355283, 41.97547110734004], [-71.2114389645365, 41.97659987950867], [-71.21169791864135, 41.976494175707074], [-71.21209500797558, 41.976899204276755], [-71.21293500144617, 41.97734079995385], [-71.21324003506643, 41.97776022379136], [-71.21424704518427, 41.978126257887965], [-71.21464394965648, 41.97853802955476], [-71.21491898598477, 41.979683273075], [-71.2151169814871, 41.979843009802885], [-71.21613893513639, 41.97982811245748], [-71.21639508279226, 41.980098850198374], [-71.21650495118946, 41.980659017071034], [-71.21627702317336, 41.98107880225784], [-71.21682592014326, 41.98178805537719], [-71.21688700472026, 41.98225413246239], [-71.21726796217914, 41.982657977262924], [-71.21767998968491, 41.98417606763838], [-71.21862597822324, 41.98617490229463], [-71.22001506863351, 41.98643490928179], [-71.22022893420701, 41.987326768543554], [-71.2206950717522, 41.98809882354058], [-71.20889497877835, 41.99299874393079], [-71.2024939842253, 41.99539911084894], [-71.19139406374477, 42.00009872229576], [-71.19709398857083, 42.00649905388783], [-71.2162949139063, 42.02709902897028], [-71.21479508788089, 42.02739916275052], [-71.21549508367782, 42.029298928775326], [-71.21509506965002, 42.0292990587233], [-71.21559490955576, 42.033598832770586], [-71.21719608189096, 42.03349926331629], [-71.21748305094108, 42.0344852800545], [-71.21809607122215, 42.03449917171375], [-71.2178960375715, 42.035099084488174], [-71.21819599739861, 42.035498788711934], [-71.21106507716637, 42.044923253281404], [-71.22247203593048, 42.04042674573523], [-71.22339602756445, 42.03989891183621], [-71.2355659983907, 42.03531797799207], [-71.24949705942517, 42.029704237083806], [-71.24949704118265, 42.02951573418669], [-71.25589694089854, 42.02689890176396], [-71.26229699938945, 42.02439876433166], [-71.26229699738133, 42.02419899825247], [-71.26101704326395, 42.022795753916114], [-71.26019708387736, 42.02089883450902], [-71.25549397317853, 42.023154902712974], [-71.25449705083592, 42.023498837984654], [-71.2543490819344, 42.02278106199964], [-71.25325100327505, 42.022644215737316], [-71.25283901066199, 42.02243793303907], [-71.25230495544528, 42.02198773611291], [-71.25196896864375, 42.02140010707962], [-71.25164799152186, 42.02122497084758], [-71.25148092105324, 42.02076712100973], [-71.24998503735146, 42.020095930035446], [-71.24993999604438, 42.01936318420109], [-71.24954300476315, 42.01870675486454], [-71.24859607197558, 42.01786793328173], [-71.2476499705335, 42.0173492827111], [-71.24502496223973, 42.0170519778112], [-71.24354490616359, 42.016188848794336], [-71.2423089932489, 42.01476972639217], [-71.24154596105369, 42.01267191536507], [-71.24168400526666, 42.01087211376776], [-71.24137796434941, 42.008804025493475], [-71.2418060434231, 42.0083621443723], [-71.24179604450107, 42.00789900685735], [-71.24049603432225, 42.007999044886176], [-71.24169599892686, 42.007499256724024], [-71.24140899716369, 42.00557695715846], [-71.24099707569745, 42.00450912616514], [-71.24049600149563, 42.00379897509911], [-71.24699609029472, 41.994398824740664], [-71.25439594864673, 41.98479879405223], [-71.25599601713274, 41.98179902490299], [-71.2575830055617, 41.979767078002794], [-71.26139594607625, 41.97419918530046], [-71.26979694955698, 41.9857992642057], [-71.27509703653539, 41.9935988548319], [-71.27529705343738, 41.994098934942926], [-71.27639692761483, 41.995098781103046], [-71.28179691912105, 42.00469891618765], [-71.28189696133069, 42.00549928006828], [-71.28249798723745, 42.006298905051615], [-71.28689809658574, 42.014899199280585], [-71.2893700273757, 42.05592795703887], [-71.28590406990527, 42.06261209745887], [-71.28689398810326, 42.06758825957276], [-71.28746107459288, 42.07765779388434], [-71.28399399641242, 42.0847081730312], [-71.27151607577673, 42.09890178796029], [-71.25746907010485, 42.10376672665448], [-71.25538291947558, 42.104713258049664], [-71.25245508253872, 42.105759222019856], [-71.24654402741888, 42.106370894928965], [-71.23879898109881, 42.10663091239193], [-71.23880791471248, 42.1047818907591], [-71.23818796023099, 42.10385314065463], [-71.22899293961885, 42.09565510224145], [-71.22717099550617, 42.093981237776724], [-71.22651000923992, 42.09312885239085], [-71.22538208825556, 42.0923321729142], [-71.21188994327561, 42.080298774338594], [-71.20575591820469, 42.0751687452044], [-71.20112308120018, 42.07880195466763], [-71.19743802848976, 42.08212799645698], [-71.19594195344649, 42.083207804672824], [-71.19356202285796, 42.079429079510184], [-71.18421206842685, 42.06692677118299], [-71.17801390233903, 42.05797089674284], [-71.19230304472815, 42.052290839223126], [-71.19236105013334, 42.05161517813749], [-71.19103896566797, 42.04852291498598], [-71.19074907468116, 42.0459589899884], [-71.19094695114468, 42.04392196079341], [-71.1895949592298, 42.04189873462488], [-71.18853596610435, 42.04075580849504], [-71.18799500766636, 42.03919900665279], [-71.18679491783219, 42.03939887049532], [-71.18629401795897, 42.038299089812774], [-71.18603304403989, 42.035621002651204], [-71.18617004099526, 42.034552788594695], [-71.18659392189731, 42.033198945752986], [-71.18749406192899, 42.03149921564194], [-71.18542194103512, 42.030983154563], [-71.18339393548337, 42.02979924571601], [-71.16169290405013, 42.02619880715579]]]}}