{"type": "Feature", "properties": {"district_name": "5th Middlesex District", "chamber": "house", "vintage": "2022-present"}, "geometry": {"type": "Polygon", "coordinates": [[[-71.402528, 42.293330000000005], [-71.387522, 42.30206899999999], [-71.37768700000001, 42.314668999999995], [-71.381757, 42.32846899999999], [-71.388832, 42.336269], [-71.388345, 42.336948], [-71.388541, 42.33731999999999], [-71.388873, 42.337445000000024], [-71.390135, 42.337353], [-71.391212, 42.33696100000001], [-71.392681, 42.33568900000001], [-71.394544, 42.335559999999994], [-71.395078, 42.336057000000004], [-71.394837, 42.33821300000001], [-71.394948, 42.338652999999994], [-71.392749, 42.338547], [-71.390557, 42.33798899999999], [-71.389432, 42.337872000000004], [-71.38692, 42.33838], [-71.385051, 42.33813399999999], [-71.383139, 42.33887099999999], [-71.38162, 42.33917300000001], [-71.381141, 42.33911700000001], [-71.380047, 42.33862300000001], [-71.379703, 42.33911899999999], [-71.379435, 42.33921100000001], [-71.378176, 42.339034], [-71.376962, 42.339316], [-71.37424, 42.339317], [-71.374006, 42.339109], [-71.374254, 42.33826000000001], [-71.37551, 42.337079999999986], [-71.374472, 42.33670600000001], [-71.372918, 42.337729], [-71.37231100000001, 42.33832199999999], [-71.371688, 42.339829999999964], [-71.371187, 42.34056], [-71.369321, 42.34179599999999], [-71.368166, 42.342767], [-71.367505, 42.343151], [-71.364453, 42.344103], [-71.36087100000002, 42.34580299999999], [-71.359686, 42.34707], [-71.359394, 42.34761999999999], [-71.359293, 42.348317000000016], [-71.358936, 42.348686], [-71.359025, 42.346791], [-71.358764, 42.345364000000004], [-71.35857, 42.34208700000001], [-71.357472, 42.34193], [-71.356807, 42.34101600000001], [-71.35489500000001, 42.340136], [-71.353805, 42.34006800000002], [-71.353694, 42.33964800000001], [-71.354669, 42.338781999999995], [-71.354869, 42.338337], [-71.35441600000001, 42.33686500000001], [-71.35056100000001, 42.334836], [-71.350116, 42.33489800000002], [-71.349515, 42.335884], [-71.348347, 42.33656899999999], [-71.346868, 42.336746000000005], [-71.34636, 42.33643299999998], [-71.345905, 42.33500000000001], [-71.345397, 42.334155], [-71.343702, 42.33378], [-71.342479, 42.333258000000015], [-71.341203, 42.33307699999999], [-71.339689, 42.33727400000001], [-71.33811, 42.339464000000014], [-71.337768, 42.339805000000005], [-71.335648, 42.339073], [-71.334042, 42.338142999999995], [-71.332957, 42.33692799999999], [-71.332356, 42.33561100000001], [-71.332104, 42.33378500000001], [-71.330826, 42.33196599999999], [-71.328757, 42.33168100000001], [-71.327444, 42.321113999999994], [-71.327327, 42.313746], [-71.32975, 42.312991000000004], [-71.323662, 42.297415], [-71.308484, 42.270794], [-71.302922, 42.24827400000001], [-71.332496, 42.249075000000005], [-71.332676, 42.248449999999984], [-71.332434, 42.247729000000014], [-71.332908, 42.24783800000001], [-71.342459, 42.25045499999999], [-71.341777, 42.253537], [-71.344932, 42.25384], [-71.348409, 42.254704000000004], [-71.350829, 42.25589599999999], [-71.351776, 42.255816], [-71.353372, 42.256874], [-71.353681, 42.25679299999999], [-71.354399, 42.257686], [-71.354493, 42.258039000000004], [-71.354267, 42.258361], [-71.354443, 42.25862699999999], [-71.355, 42.258662000000015], [-71.355453, 42.259001999999995], [-71.35623200000002, 42.25922500000001], [-71.356686, 42.259983999999996], [-71.356487, 42.261016], [-71.35671, 42.26134499999999], [-71.357098, 42.261435000000006], [-71.357141, 42.261882], [-71.356599, 42.262206], [-71.35645, 42.26248900000001], [-71.356656, 42.263314], [-71.356907, 42.263495], [-71.376833, 42.269489], [-71.395861, 42.272907999999994], [-71.397218, 42.27900600000001], [-71.3995, 42.28078300000001], [-71.402528, 42.293330000000005]]]}}