{"type": "Feature", "properties": {"district_name": "State House Districts not defined", "chamber": "house", "vintage": "2022-present"}, "geometry": {"type": "MultiPolygon", "coordinates": [[[[-70.749487, 42.29535600000001], [-70.67569, 42.375097999999994], [-70.658723, 42.375097999999994], [-70.690393, 42.27899900000001], [-70.689025, 42.27238999999998], [-70.688773, 42.268331], [-70.688704, 42.263468], [-70.68406100000001, 42.25383599999999], [-70.676029, 42.250102000000005], [-70.66281, 42.24485099999999], [-70.648622, 42.23736000000001], [-70.640113, 42.22837199999999], [-70.63633, 42.21638599999999], [-70.63633, 42.20290299999999], [-70.639165, 42.19091899999998], [-70.642946, 42.178185], [-70.624482, 42.15722500000002], [-70.62258, 42.154424], [-70.608381, 42.13847900000001], [-70.499477, 42.130739000000005], [-70.414803, 42.125097999999994], [-70.411454, 42.125099], [-70.374474, 42.12155], [-70.322522, 42.11791500000001], [-70.27743, 42.114344999999986], [-70.253194, 42.125102999999996], [-70.249472, 42.126926000000005], [-70.229175, 42.131189], [-70.215587, 42.132785000000005], [-70.206221, 42.13305399999999], [-70.1954, 42.13154900000001], [-70.184474, 42.13383700000001], [-70.172542, 42.13451500000001], [-70.150676, 42.131465], [-70.135694, 42.12734900000001], [-70.130377, 42.126929000000004], [-70.124471, 42.12604100000001], [-70.120691, 42.12510099999998], [-70.067098, 42.105326999999996], [-70.040302, 42.09163400000001], [-70.011591, 42.073378], [-69.996279, 42.059687], [-69.969482, 42.029254], [-69.954169, 42.00795500000001], [-69.94821, 42.000105999999995], [-69.940645, 41.992345], [-69.929109, 41.97847599999998], [-69.923027, 41.967760999999996], [-69.917706, 41.95924699999999], [-69.909178, 41.94206200000001], [-69.902402, 41.922145999999984], [-69.89530500000001, 41.90675300000001], [-69.880018, 41.86197800000001], [-69.877762, 41.85284599999999], [-69.876263, 41.84896999999999], [-69.874498, 41.842448000000005], [-69.87315, 41.838648000000006], [-69.872379, 41.831586], [-69.869499, 41.82662700000001], [-69.866525, 41.81701100000002], [-69.86557500000002, 41.80767099999999], [-69.865779, 41.795636], [-69.865595, 41.790980000000005], [-69.862511, 41.773522], [-69.862366, 41.76631799999999], [-69.860058, 41.758503000000005], [-69.859846, 41.75011000000002], [-69.85913000000001, 41.73649999999999], [-69.858861, 41.720383], [-69.85895, 41.706916], [-69.86054, 41.69232599999999], [-69.862098, 41.68497099999998], [-69.862876, 41.67315300000002], [-69.868125, 41.65679100000001], [-69.871064, 41.65256699999999], [-69.874459, 41.645026000000016], [-69.884485, 41.630303000000005], [-69.889012, 41.625195999999995], [-69.888835, 41.625113], [-69.88942, 41.622694], [-69.891662, 41.617186000000004], [-69.898562, 41.60609599999999], [-69.907546, 41.596033000000006], [-69.915399, 41.58924300000001], [-69.916197, 41.58428899999998], [-69.919766, 41.574033], [-69.921517, 41.57090000000001], [-69.921345, 41.562282], [-69.924632, 41.54464599999999], [-69.928994, 41.53215200000001], [-69.936401, 41.52193600000001], [-69.946613, 41.512152], [-69.958172, 41.50466], [-69.96743, 41.50011599999999], [-69.968606, 41.50011599999999], [-69.971289, 41.49887200000001], [-69.979776, 41.496567], [-69.988306, 41.49449599999999], [-69.994377, 41.493663], [-69.998169, 41.493399], [-69.999458, 41.49111800000001], [-69.999458, 41.490527], [-70.013862, 41.47743899999999], [-70.023677, 41.471948], [-70.040313, 41.46596], [-70.055437, 41.46410999999999], [-70.073742, 41.465019999999996], [-70.084904, 41.467493], [-70.101508, 41.474444], [-70.114394, 41.484083000000005], [-70.122595, 41.494499000000005], [-70.124461, 41.498521], [-70.124924, 41.500115], [-70.126677, 41.50369799999999], [-70.127962, 41.509674], [-70.128764, 41.51769199999999], [-70.128554, 41.52473200000001], [-70.126792, 41.530878000000016], [-70.122559, 41.537833], [-70.116719, 41.54499300000001], [-70.10952, 41.551482], [-70.102029, 41.556352000000004], [-70.086572, 41.562447999999996], [-70.080316, 41.564454], [-70.073586, 41.57770800000001], [-70.068572, 41.58522], [-70.063352, 41.59017299999999], [-70.064699, 41.59323000000001], [-70.068046, 41.602954000000004], [-70.068569, 41.610697], [-70.077934, 41.61252799999999], [-70.093772, 41.60832400000001], [-70.109368, 41.605591], [-70.124462, 41.600849], [-70.12695200000002, 41.600203], [-70.138491, 41.59869200000001], [-70.148926, 41.599133], [-70.160357, 41.59937], [-70.163439, 41.597952], [-70.170602, 41.595588000000006], [-70.1815, 41.593547000000015], [-70.189375, 41.59049600000001], [-70.198237, 41.58734200000001], [-70.20804, 41.584149999999994], [-70.220282, 41.57233699999998], [-70.22555800000002, 41.56856100000001], [-70.231947, 41.56559500000001], [-70.241092, 41.56210999999999], [-70.249463, 41.560146], [-70.255691, 41.559146], [-70.267429, 41.558372999999996], [-70.278898, 41.559315999999995], [-70.289965, 41.561639], [-70.299331, 41.565916999999985], [-70.31125400000002, 41.57106200000001], [-70.320214, 41.568946000000004], [-70.331549, 41.567898], [-70.346337, 41.56845300000001], [-70.351936, 41.566649000000005], [-70.364206, 41.562196000000014], [-70.387281, 41.557681], [-70.395164, 41.556722], [-70.397122, 41.554401999999996], [-70.405051, 41.546195000000004], [-70.411202, 41.540744], [-70.417304, 41.534822000000005], [-70.423896, 41.528732], [-70.432904, 41.52206300000001], [-70.440131, 41.517479], [-70.448567, 41.513093000000005], [-70.457634, 41.50934100000001], [-70.466436, 41.50616000000001], [-70.472473, 41.504765000000006], [-70.483967, 41.502545999999995], [-70.48974, 41.501856], [-70.498209, 41.502565], [-70.502832, 41.500635], [-70.539279, 41.508126], [-70.602979, 41.511801999999996], [-70.624473, 41.500108999999995], [-70.627355, 41.498359999999984], [-70.640223, 41.491977], [-70.646412, 41.489323], [-70.65000900000001, 41.488009000000005], [-70.653136, 41.492786], [-70.65732, 41.49835199999999], [-70.658182, 41.500108999999995], [-70.664005, 41.508430000000004], [-70.668001, 41.51198800000001], [-70.655122, 41.51512600000001], [-70.654494, 41.515417], [-70.653814, 41.516278], [-70.653835, 41.51663500000001], [-70.654295, 41.51760100000001], [-70.654302, 41.518052000000004], [-70.653778, 41.51976100000001], [-70.653493, 41.520243000000015], [-70.651561, 41.522163], [-70.650947, 41.52329300000001], [-70.650055, 41.52415499999999], [-70.650033, 41.52460499999999], [-70.649389, 41.525316999999994], [-70.649563, 41.52546600000002], [-70.649002, 41.52606500000001], [-70.6489, 41.526433000000004], [-70.64841, 41.526855], [-70.648366, 41.527173999999995], [-70.647752, 41.52772800000002], [-70.647185, 41.52793500000002], [-70.647387, 41.528093000000005], [-70.646217, 41.52938000000001], [-70.646224, 41.52971999999999], [-70.645866, 41.53027399999999], [-70.644674, 41.531536999999986], [-70.642196, 41.533764999999995], [-70.63901, 41.53581100000002], [-70.634697, 41.537708999999985], [-70.634741, 41.537851], [-70.633711, 41.538163999999995], [-70.633535, 41.53838300000002], [-70.631803, 41.538734000000005], [-70.631796, 41.53884899999999], [-70.629676, 41.539485000000006], [-70.62678300000002, 41.539911999999994], [-70.62641, 41.540192000000005], [-70.622991, 41.54122100000001], [-70.620544, 41.54134299999999], [-70.618082, 41.54185000000002], [-70.617826, 41.54150400000001], [-70.617636, 41.54153199999998], [-70.61776, 41.541799999999995], [-70.617585, 41.541828], [-70.617227, 41.54178999999998], [-70.617176, 41.54152100000001], [-70.616701, 41.541745999999996], [-70.616723, 41.542031999999985], [-70.616285, 41.54226199999999], [-70.615101, 41.542378000000014], [-70.61399, 41.542208999999986], [-70.611879, 41.542874], [-70.610564, 41.54302800000002], [-70.60946100000001, 41.542956999999994], [-70.608225, 41.54247999999999], [-70.607239, 41.54282100000001], [-70.606596, 41.542837999999996], [-70.603307, 41.541889000000005], [-70.603249, 41.542015000000006], [-70.602263, 41.54199400000001], [-70.601437, 41.542186000000015], [-70.597346, 41.54386199999999], [-70.597514, 41.54412599999999], [-70.596601, 41.544433000000005], [-70.596601, 41.54470800000001], [-70.595206, 41.54487800000001], [-70.59525, 41.545175], [-70.594512, 41.545027], [-70.59381, 41.54509800000001], [-70.593825, 41.54529599999999], [-70.592743, 41.54536800000001], [-70.59183, 41.54523599999999], [-70.591852, 41.545439], [-70.588958, 41.545177], [-70.588827, 41.545753000000005], [-70.588776, 41.54515500000001], [-70.588469, 41.545347], [-70.586415, 41.54543], [-70.581892, 41.544662], [-70.580555, 41.54424], [-70.580495, 41.54452500000001], [-70.580014, 41.54474200000001], [-70.578984, 41.544899], [-70.579035, 41.545036], [-70.578114, 41.54525600000001], [-70.57818, 41.545404], [-70.576595, 41.545745000000004], [-70.576646, 41.54592000000002], [-70.57631000000002, 41.54603600000001], [-70.57533, 41.546206], [-70.574366, 41.546162], [-70.574351, 41.54668399999998], [-70.573854, 41.54689799999999], [-70.571816, 41.54720499999999], [-70.570837, 41.547173000000015], [-70.57085200000002, 41.547337], [-70.570222, 41.54773300000003], [-70.569309, 41.54794700000001], [-70.568323, 41.54775500000001], [-70.568206, 41.547990999999996], [-70.567782, 41.54792], [-70.567782, 41.54802400000001], [-70.567373, 41.54798499999999], [-70.567351, 41.548106], [-70.566277, 41.54803500000001], [-70.566218, 41.548183], [-70.56518, 41.54823300000001], [-70.564764, 41.54811200000001], [-70.564654, 41.548303999999995], [-70.563668, 41.54824399999999], [-70.56358, 41.548364], [-70.561644, 41.54831], [-70.560942, 41.548013], [-70.56093500000001, 41.54825499999999], [-70.559568, 41.54831], [-70.558472, 41.548698999999985], [-70.556331, 41.54873799999999], [-70.556294, 41.548963], [-70.55514, 41.54892400000001], [-70.555169, 41.54907300000002], [-70.554745, 41.549155], [-70.553934, 41.549111], [-70.553963, 41.549302999999995], [-70.55283800000001, 41.549501], [-70.552889, 41.549665], [-70.552355, 41.549797000000005], [-70.551756, 41.54972], [-70.551793, 41.549884999999996], [-70.551391, 41.54995599999999], [-70.550426, 41.549808000000006], [-70.550455, 41.549989000000004], [-70.550178, 41.55009900000001], [-70.549425, 41.550039], [-70.549469, 41.55029700000001], [-70.54789, 41.550549], [-70.548007, 41.550776], [-70.54782, 41.55076600000001], [-70.547863, 41.550918], [-70.546519, 41.55209599999999], [-70.545003, 41.55158099999998], [-70.538821, 41.551256], [-70.535123, 41.550415], [-70.532851, 41.549569000000005], [-70.531894, 41.549009000000005], [-70.530301, 41.547691], [-70.529308, 41.54646099999998], [-70.528181, 41.547479], [-70.526961, 41.547547999999985], [-70.526852, 41.547394], [-70.525953, 41.548118], [-70.521911, 41.54902299999998], [-70.515277, 41.55010800000001], [-70.505107, 41.551467], [-70.501549, 41.55171000000001], [-70.500801, 41.55190900000001], [-70.496951, 41.552081], [-70.494658, 41.55176600000001], [-70.493948, 41.551813], [-70.493033, 41.552047000000016], [-70.489991, 41.55335000000001], [-70.487958, 41.553726999999995], [-70.486157, 41.55385999999999], [-70.483797, 41.555096], [-70.478945, 41.556905000000015], [-70.47538, 41.55901999999999], [-70.473086, 41.561365], [-70.46982, 41.56410000000001], [-70.468782, 41.564615999999994], [-70.465012, 41.56795499999999], [-70.463945, 41.56922899999999], [-70.461907, 41.57117299999999], [-70.461994, 41.571239], [-70.461746, 41.571508], [-70.459057, 41.57399500000002], [-70.458355, 41.57498899999999], [-70.457376, 41.57599900000001], [-70.457537, 41.576223999999996], [-70.457237, 41.577321999999995], [-70.455118, 41.57929399999999], [-70.450681, 41.58485600000001], [-70.450104, 41.586228], [-70.450198, 41.588941], [-70.448883, 41.589089], [-70.446441, 41.590269], [-70.444693, 41.592158000000005], [-70.44435000000001, 41.593332999999994], [-70.444423, 41.594601], [-70.443933, 41.59578100000002], [-70.443721, 41.59684600000002], [-70.443809, 41.59751599999999], [-70.44299, 41.598828], [-70.443071, 41.5993], [-70.442632, 41.600728], [-70.442208, 41.60091399999999], [-70.441893, 41.600783], [-70.441623, 41.600415], [-70.441411, 41.599592], [-70.441725, 41.598543], [-70.442412, 41.597818], [-70.442734, 41.597170000000006], [-70.44201000000001, 41.596819], [-70.441593, 41.596824999999995], [-70.441418, 41.596973000000006], [-70.441374, 41.59756], [-70.440738, 41.59884499999998], [-70.440043, 41.60228699999999], [-70.439853, 41.602605999999994], [-70.438924, 41.603155], [-70.438566, 41.603697999999994], [-70.437322, 41.604813], [-70.4372, 41.605330000000016], [-70.430535, 41.605729], [-70.427784, 41.60489], [-70.4263, 41.604675], [-70.419899, 41.60611899999998], [-70.410851, 41.60737999999999], [-70.407179, 41.607555000000005], [-70.402702, 41.60707600000001], [-70.401539, 41.60712], [-70.401517, 41.606703], [-70.401386, 41.60668600000001], [-70.401392, 41.606864], [-70.40111000000002, 41.60667200000001], [-70.402251, 41.59999100000002], [-70.374572, 41.60929299999999], [-70.313275, 41.61462400000002], [-70.290661, 41.616242], [-70.275439, 41.62511099999999], [-70.271761, 41.608899], [-70.262812, 41.607445999999996], [-70.254878, 41.61240399999999], [-70.253015, 41.620774], [-70.249248, 41.624684000000016], [-70.234684, 41.630223999999984], [-70.219903, 41.63480499999999], [-70.220092, 41.636005999999995], [-70.191061, 41.645259], [-70.191827, 41.647495], [-70.158621, 41.65043800000001], [-70.15771, 41.651377999999994], [-70.157015, 41.651354], [-70.156284, 41.65057699999998], [-70.156169, 41.65061600000001], [-70.156515, 41.65136300000001], [-70.154498, 41.65147699999999], [-70.153737, 41.651362], [-70.153305, 41.65111999999999], [-70.148218, 41.650399000000014], [-70.146776, 41.650514], [-70.145283, 41.650310000000005], [-70.143212, 41.650299000000004], [-70.14193, 41.650573], [-70.141067, 41.650408000000006], [-70.136828, 41.65120799999999], [-70.136162, 41.65151999999999], [-70.13475600000001, 41.65183300000001], [-70.134471, 41.652063], [-70.129624, 41.653158000000005], [-70.126693, 41.654113], [-70.123358, 41.65480799999998], [-70.122589, 41.654770000000006], [-70.122621, 41.654929], [-70.122129, 41.65503600000001], [-70.119312, 41.655281], [-70.117548, 41.65522299999999], [-70.117592, 41.655378000000006], [-70.116431, 41.65525399999999], [-70.116114, 41.654248], [-70.11552, 41.654337], [-70.115322, 41.65543199999999], [-70.114768, 41.655431999999976], [-70.114649, 41.656052999999986], [-70.114213, 41.656466999999985], [-70.108947, 41.65750299999999], [-70.107521, 41.658213], [-70.101621, 41.659574], [-70.100433, 41.659574], [-70.100195, 41.659811], [-70.09481, 41.661053], [-70.090731, 41.66117199999999], [-70.089583, 41.660757000000004], [-70.089108, 41.660994], [-70.088949, 41.661821999999994], [-70.087405, 41.662058999999985], [-70.08648800000002, 41.66203000000001], [-70.083436, 41.662601999999985], [-70.075691, 41.66333], [-70.07245000000002, 41.66333000000001], [-70.070185, 41.662758999999994], [-70.067155, 41.66224799999999], [-70.065891, 41.661697000000004], [-70.064758, 41.659916999999986], [-70.064176, 41.65998200000001], [-70.062456, 41.66024400000001], [-70.062846, 41.66077700000001], [-70.06175100000002, 41.662989999999986], [-70.06107, 41.66307300000001], [-70.061081, 41.664107000000016], [-70.060877, 41.66342800000001], [-70.060562, 41.66341700000001], [-70.057362, 41.664426], [-70.051507, 41.664726], [-70.047635, 41.66527800000001], [-70.046107, 41.66553300000001], [-70.045316, 41.666183], [-70.042287, 41.66683200000001], [-70.041496, 41.666858000000005], [-70.041247, 41.66668700000001], [-70.040229, 41.666578], [-70.039384, 41.666712999999994], [-70.037962, 41.66642600000001], [-70.037491, 41.66731400000002], [-70.037103, 41.666735999999986], [-70.037271, 41.66757599999998], [-70.036897, 41.66796], [-70.037185, 41.66819799999999], [-70.03372000000002, 41.667943], [-70.032072, 41.667640999999996], [-70.031194, 41.667827], [-70.029136, 41.667728], [-70.02907, 41.66803500000001], [-70.027562, 41.668392], [-70.027627, 41.668507], [-70.027188, 41.66870500000001], [-70.026264, 41.668764], [-70.025423, 41.66913799999999], [-70.024947, 41.669171], [-70.024896, 41.669385], [-70.023731, 41.669774000000004], [-70.022079, 41.669854], [-70.021849, 41.669988000000004], [-70.018067, 41.66988899999999], [-70.017367, 41.669648000000024], [-70.016708, 41.67086400000001], [-70.015829, 41.671468], [-70.015595, 41.671819000000006], [-70.01246, 41.67221299999998], [-70.009063, 41.672014], [-70.006449, 41.67139800000002], [-70.003836, 41.670474000000006], [-70.002892, 41.669854], [-70.001798, 41.669760999999994], [-69.998762, 41.668277], [-69.993443, 41.664984999999994], [-69.990936, 41.66302099999999], [-69.989037, 41.661054000000014], [-69.987432, 41.659082999999995], [-69.985822, 41.657819], [-69.984106, 41.657105999999985], [-69.983522, 41.657261000000005], [-69.980888, 41.65709100000001], [-69.98089, 41.656775], [-69.980532, 41.656298], [-69.978556, 41.654793000000005], [-69.977822, 41.654526], [-69.977119, 41.653955], [-69.975523, 41.65379100000001], [-70.02007, 41.546685], [-70.006584, 41.537135000000006], [-69.992849, 41.541736], [-69.953691, 41.620658999999996], [-69.946518, 41.647912000000005], [-69.946028, 41.648922], [-69.944754, 41.650667999999996], [-69.944308, 41.65179400000001], [-69.943613, 41.65224899999999], [-69.94299, 41.65309], [-69.941651, 41.656071], [-69.94106, 41.657845], [-69.940724, 41.658216], [-69.939491, 41.66072299999999], [-69.938965, 41.66233400000001], [-69.938629, 41.662907999999995], [-69.936467, 41.665761], [-69.934215, 41.66815700000001], [-69.933195, 41.66966800000001], [-69.931722, 41.676988000000016], [-69.930499, 41.68114000000002], [-69.930331, 41.682309], [-69.929796, 41.68351100000001], [-69.929657, 41.685093], [-69.929408, 41.685779], [-69.929459, 41.686383], [-69.929078, 41.687141], [-69.928748, 41.688601], [-69.928719, 41.690067], [-69.928265, 41.692246000000004], [-69.928396, 41.69267500000001], [-69.928206, 41.69428300000001], [-69.928147, 41.69715999999999], [-69.928337, 41.697748000000004], [-69.927977, 41.70716399999999], [-69.928321, 41.71116599999999], [-69.928181, 41.71662299999998], [-69.928271, 41.72173200000001], [-69.928094, 41.72246700000001], [-69.923562, 41.72205699999999], [-69.924303, 41.734299000000014], [-69.924443, 41.743951000000024], [-69.92488, 41.75164800000001], [-69.92549200000002, 41.754788000000026], [-69.925587, 41.75752400000001], [-69.926475, 41.761701999999985], [-69.926528, 41.76369100000001], [-69.926219, 41.76604799999999], [-69.928538, 41.780927], [-69.928696, 41.78474699999999], [-69.929778, 41.798286000000004], [-69.930398, 41.801291], [-69.930572, 41.804421000000005], [-69.93098, 41.80583300000001], [-69.930712, 41.808408], [-69.930782, 41.808944000000004], [-69.932067, 41.81155300000002], [-69.935354, 41.816264000000004], [-69.935394, 41.816507], [-69.934757, 41.81750000000001], [-69.934736, 41.819239], [-69.93550900000001, 41.82542500000002], [-69.93862, 41.839428000000005], [-69.950179, 41.87510699999999], [-69.951017, 41.878484], [-69.952234, 41.880784], [-69.952905, 41.88454800000002], [-69.955619, 41.892379999999996], [-69.957701, 41.89663800000002], [-69.958144, 41.898179999999996], [-69.961408, 41.906563], [-69.967249, 41.920307000000015], [-69.969681, 41.927763000000006], [-69.971112, 41.930977], [-69.97289200000002, 41.934045000000005], [-69.978841, 41.946604000000015], [-69.983311, 41.944619], [-69.984464, 41.94700000000001], [-69.986084, 41.94954200000002], [-69.990555, 41.957461], [-69.991373, 41.958510000000025], [-69.993273, 41.96156100000002], [-69.995041, 41.963921], [-69.995645, 41.96523299999999], [-70.00034, 41.972303000000004], [-70.001589, 41.97451099999999], [-70.001919, 41.97546700000001], [-70.002059, 41.975522], [-70.002118, 41.97513700000001], [-70.002302, 41.97521400000001], [-70.004374, 41.977988], [-70.009401, 41.98537399999999], [-70.011363, 41.98914599999999], [-70.012863, 41.990635], [-70.01375300000001, 41.991794000000006], [-70.013885, 41.99232099999998], [-70.016098, 41.994983999999995], [-70.016289, 41.995632000000015], [-70.01798, 41.998350000000016], [-70.019562, 41.999926], [-70.019993, 42.000664], [-70.023339, 42.004688999999985], [-70.024369, 42.006474000000004], [-70.025914, 42.008593999999995], [-70.026885, 42.009588], [-70.028304, 42.011433], [-70.029621, 42.01262399999999], [-70.03071, 42.014210999999996], [-70.034161, 42.018275], [-70.036616, 42.02066000000001], [-70.033725, 42.023767], [-70.036606, 42.02684800000001], [-70.045877, 42.035866000000006], [-70.053293, 42.041186], [-70.060014, 42.04665800000001], [-70.07956200000001, 42.05733300000001], [-70.08744800000001, 42.06142700000001], [-70.101064, 42.06671100000001], [-70.107285, 42.068746000000004], [-70.113093, 42.07132299999999], [-70.117771, 42.072022], [-70.12447, 42.07341], [-70.135981, 42.07625699999999], [-70.139786, 42.07755100000001], [-70.153566, 42.080504000000005], [-70.160775, 42.08285999999998], [-70.181347, 42.085419], [-70.185298, 42.08560899999999], [-70.2015, 42.085494], [-70.208865, 42.085066000000005], [-70.217788, 42.08387300000001], [-70.221403, 42.08321000000001], [-70.232082, 42.080249], [-70.233922, 42.079527000000006], [-70.237504, 42.077737000000006], [-70.241139, 42.075553000000006], [-70.244574, 42.07279299999999], [-70.24879, 42.067702000000004], [-70.249592, 42.06578999999999], [-70.250188, 42.06336700000001], [-70.248424, 42.05949], [-70.245211, 42.05695599999998], [-70.241179, 42.055583], [-70.238584, 42.055032], [-70.235691, 42.05381500000001], [-70.232093, 42.05151600000001], [-70.22776, 42.047748000000006], [-70.221325, 42.041947], [-70.21928, 42.037741999999994], [-70.216999, 42.03365000000001], [-70.212267, 42.02855000000001], [-70.19869, 42.01821400000001], [-70.196212, 42.01762200000001], [-70.192571, 42.01702000000001], [-70.186358, 42.01706500000001], [-70.183083, 42.01738599999998], [-70.181763, 42.017843000000006], [-70.176349, 42.019184], [-70.173679, 42.02040399999999], [-70.168568, 42.02449400000001], [-70.163518, 42.029774999999994], [-70.162446, 42.03193100000001], [-70.162063, 42.034014000000006], [-70.162684, 42.035819000000004], [-70.163798, 42.037181000000004], [-70.165368, 42.037940000000006], [-70.147545, 42.03949100000002], [-70.147534, 42.056726000000005], [-70.143682, 42.05604500000001], [-70.140014, 42.05476700000002], [-70.133834, 42.05303500000001], [-70.129144, 42.05143500000001], [-70.117753, 42.045791], [-70.112845, 42.042909], [-70.106232, 42.037684], [-70.100853, 42.03241100000001], [-70.094132, 42.02291799999999], [-70.090247, 42.014998999999996], [-70.087769, 42.007742000000015], [-70.086745, 41.991600000000005], [-70.085262, 41.955936], [-70.085397, 41.93562699999999], [-70.082652, 41.87039599999998], [-70.040979, 41.87582299999999], [-70.040504, 41.865774], [-70.040719, 41.85426300000001], [-70.040724, 41.835992000000005], [-70.041185, 41.816371000000004], [-70.039764, 41.81536100000002], [-70.010208, 41.801084], [-70.012065, 41.800409], [-70.013943, 41.79945399999999], [-70.015446, 41.79830299999998], [-70.016746, 41.79696399999999], [-70.017225, 41.79612900000001], [-70.018147, 41.795052], [-70.019101, 41.79438600000002], [-70.023275, 41.79034], [-70.023722, 41.789496], [-70.023767, 41.78860099999999], [-70.023114, 41.78824699999999], [-70.023461, 41.78809799999999], [-70.02388, 41.788339], [-70.024168, 41.788205], [-70.024302, 41.78805599999999], [-70.02422, 41.78764300000001], [-70.024348, 41.787573], [-70.025099, 41.78809900000001], [-70.025764, 41.787677999999985], [-70.026135, 41.787718999999996], [-70.02636000000001, 41.787514], [-70.02651, 41.78759099999999], [-70.026779, 41.78737600000001], [-70.027083, 41.787364000000004], [-70.027053, 41.78722], [-70.028974, 41.786815000000004], [-70.031292, 41.785354000000005], [-70.031777, 41.78535599999999], [-70.03275, 41.78474199999999], [-70.034357, 41.784117000000045], [-70.035707, 41.78334199999998], [-70.040992, 41.78129700000001], [-70.041681, 41.780814000000014], [-70.044498, 41.779629], [-70.045855, 41.77929400000001], [-70.048995, 41.77807000000001], [-70.050696, 41.77774699999999], [-70.05107, 41.77745600000001], [-70.052075, 41.77711000000001], [-70.05264, 41.77709300000001], [-70.054276, 41.776292], [-70.058632, 41.77482500000001], [-70.06045, 41.774575999999996], [-70.060856, 41.774249999999995], [-70.06421, 41.773039000000004], [-70.067053, 41.77234599999999], [-70.069173, 41.772191], [-70.069795, 41.772528], [-70.069735, 41.77317200000001], [-70.070218, 41.77335800000001], [-70.070815, 41.773399], [-70.071396, 41.773161], [-70.072149, 41.773184], [-70.07276, 41.773010000000006], [-70.073131, 41.77308000000001], [-70.076996, 41.77190399999999], [-70.080524, 41.77009499999998], [-70.082902, 41.76909399999998], [-70.085737, 41.76840599999999], [-70.086338, 41.768466], [-70.08616, 41.76873600000002], [-70.08648, 41.76888299999999], [-70.087009, 41.76880700000001], [-70.086951, 41.76853899999999], [-70.087694, 41.768436999999984], [-70.088266, 41.768917], [-70.089045, 41.768944000000005], [-70.089095, 41.768778], [-70.090282, 41.76924000000001], [-70.09077, 41.769253000000006], [-70.091153, 41.769010000000016], [-70.091377, 41.768487], [-70.091801, 41.768288999999996], [-70.092249, 41.768238999999994], [-70.09528700000001, 41.76703100000001], [-70.095817, 41.766989], [-70.098582, 41.76582799999999], [-70.099935, 41.76553899999999], [-70.105064, 41.763667], [-70.108701, 41.76263899999998], [-70.109382, 41.762606], [-70.110145, 41.762803], [-70.11126, 41.76267100000001], [-70.114837, 41.761462], [-70.114917, 41.761300999999996], [-70.114249, 41.761199], [-70.113929, 41.76091099999999], [-70.114319, 41.760042], [-70.11432, 41.75970000000001], [-70.114478, 41.759991], [-70.11425900000002, 41.76085599999999], [-70.114769, 41.761049999999976], [-70.115449, 41.760915999999995], [-70.116453, 41.761082000000016], [-70.118195, 41.76074800000001], [-70.118813, 41.76078800000001], [-70.118866, 41.76102199999999], [-70.119922, 41.760820999999986], [-70.120368, 41.760595], [-70.121141, 41.759703000000016], [-70.121528, 41.75952400000001], [-70.121744, 41.75885900000001], [-70.122988, 41.758787000000005], [-70.123297, 41.758791], [-70.123594, 41.75941400000001], [-70.123823, 41.759479999999975], [-70.124508, 41.75935599999999], [-70.125473, 41.759544999999996], [-70.130285, 41.759452], [-70.131861, 41.75993], [-70.133745, 41.760194999999975], [-70.134244, 41.760459000000004], [-70.134742, 41.760365], [-70.136239, 41.75962500000001], [-70.137903, 41.759302000000005], [-70.138402, 41.759335], [-70.139054, 41.759736000000004], [-70.140183, 41.75987400000001], [-70.140751, 41.76023500000001], [-70.141124, 41.76026300000001], [-70.143161, 41.75970400000001], [-70.143866, 41.75972699999999], [-70.150594, 41.75715100000001], [-70.153368, 41.756716], [-70.15416000000002, 41.757029], [-70.153851, 41.756441], [-70.155871, 41.756194000000015], [-70.155932, 41.756505000000004], [-70.155484, 41.757152], [-70.155832, 41.757013], [-70.15607200000001, 41.756703], [-70.158726, 41.756063], [-70.160636, 41.756379], [-70.16087700000001, 41.756093], [-70.16289, 41.75575899999999], [-70.163534, 41.755875], [-70.163945, 41.75614399999999], [-70.165518, 41.756093], [-70.167781, 41.755004], [-70.168121, 41.75505900000002], [-70.170379, 41.75441], [-70.171644, 41.754413000000014], [-70.172823, 41.753718000000006], [-70.178432, 41.752098000000004], [-70.179477, 41.751630999999996], [-70.183261, 41.750959], [-70.184379, 41.750606000000005], [-70.185714, 41.75057899999999], [-70.186847, 41.750775], [-70.187155, 41.750905000000024], [-70.187799, 41.751806], [-70.188607, 41.75182799999998], [-70.188712, 41.75204300000001], [-70.18851, 41.752213000000005], [-70.188657, 41.752307], [-70.192235, 41.751099], [-70.194203, 41.750265], [-70.208611, 41.745701999999994], [-70.212894, 41.744267999999984], [-70.213786, 41.74373400000001], [-70.21693, 41.742873], [-70.221329, 41.740949], [-70.223405, 41.73966], [-70.224504, 41.739213], [-70.224918, 41.738780000000006], [-70.225972, 41.73847000000001], [-70.226075, 41.73807899999999], [-70.226374, 41.737837], [-70.232898, 41.734376000000005], [-70.234327, 41.73372200000001], [-70.235199, 41.733513], [-70.237367, 41.73172300000003], [-70.240084, 41.72894899999999], [-70.240589, 41.72814700000001], [-70.240735, 41.72772999999998], [-70.240659, 41.727337999999996], [-70.241333, 41.72628400000001], [-70.241381, 41.725731999999994], [-70.241086, 41.725455], [-70.240143, 41.72587900000001], [-70.239278, 41.72604700000002], [-70.239259, 41.725516000000006], [-70.242952, 41.724369], [-70.243656, 41.724275], [-70.244293, 41.724434], [-70.246015, 41.724153], [-70.247217, 41.723812], [-70.24774400000001, 41.723224], [-70.248462, 41.722878], [-70.249665, 41.72262100000001], [-70.249856, 41.72233], [-70.250186, 41.72230899999999], [-70.250325, 41.72182500000002], [-70.250912, 41.72154000000001], [-70.25081, 41.720980000000026], [-70.251323, 41.720152], [-70.252174, 41.71982800000001], [-70.252636, 41.71938399999999], [-70.252697, 41.718667], [-70.253915, 41.717689000000014], [-70.254169, 41.717748000000014], [-70.255092, 41.717211], [-70.255796, 41.71634400000001], [-70.25713, 41.71598199999999], [-70.258157, 41.71543900000001], [-70.259423, 41.71399200000001], [-70.263025, 41.714016000000015], [-70.26384, 41.714258], [-70.267666, 41.716933], [-70.272289, 41.72134600000001], [-70.274085, 41.72358200000001], [-70.273284, 41.723671000000024], [-70.272881, 41.723903000000014], [-70.27288, 41.724762], [-70.273473, 41.725271000000006], [-70.27673300000001, 41.72698500000001], [-70.278361, 41.727609000000015], [-70.278614, 41.727896], [-70.278791, 41.72858600000001], [-70.281355, 41.72995300000002], [-70.28396200000002, 41.73078400000001], [-70.28793, 41.73271299999998], [-70.288815, 41.733378000000016], [-70.290948, 41.734268], [-70.294847, 41.73469099999999], [-70.296027, 41.735273], [-70.297874, 41.73544399999998], [-70.300366, 41.735262999999996], [-70.308062, 41.73560899999998], [-70.313405, 41.73553700000001], [-70.340656, 41.736407], [-70.343443, 41.736589000000016], [-70.344584, 41.736839], [-70.346888, 41.736794], [-70.362498, 41.73771900000001], [-70.364167, 41.73798800000001], [-70.363389, 41.738116999999995], [-70.364162, 41.73824799999999], [-70.368316, 41.73825399999999], [-70.37208600000001, 41.738749000000006], [-70.374744, 41.738926], [-70.37568, 41.739371999999996], [-70.377108, 41.73939699999999], [-70.377945, 41.739669], [-70.381211, 41.73983899999999], [-70.388911, 41.740659], [-70.390056, 41.740639000000016], [-70.393187, 41.741269], [-70.395896, 41.74156500000001], [-70.397683, 41.74249499999999], [-70.401834, 41.742883], [-70.404287, 41.743434000000015], [-70.406539, 41.743481], [-70.408357, 41.74375499999999], [-70.409289, 41.744059000000014], [-70.410154, 41.744066999999994], [-70.413692, 41.744842999999996], [-70.415609, 41.745660999999984], [-70.418966, 41.746086999999996], [-70.424798, 41.74732000000001], [-70.4255, 41.748019], [-70.425768, 41.748909999999995], [-70.426921, 41.75010199999999], [-70.427181, 41.749357], [-70.42878, 41.747648000000005], [-70.428482, 41.74834200000001], [-70.42753, 41.749731000000004], [-70.427554, 41.749924], [-70.42906, 41.749718000000016], [-70.429928, 41.749765], [-70.43716, 41.75139899999999], [-70.446558, 41.75408199999999], [-70.446382, 41.7542], [-70.44656, 41.75435700000001], [-70.448893, 41.75535699999999], [-70.450571, 41.755666999999995], [-70.452861, 41.756429], [-70.457417, 41.75755900000001], [-70.459242, 41.75812800000002], [-70.460055, 41.758613000000004], [-70.462933, 41.759255999999986], [-70.466857, 41.76054800000001], [-70.467395, 41.76093699999999], [-70.47308, 41.762537], [-70.47376, 41.763232], [-70.474311, 41.76454799999999], [-70.474138, 41.764698], [-70.474608, 41.76493999999998], [-70.475134, 41.76480200000002], [-70.475339, 41.764962000000004], [-70.474483, 41.765779], [-70.474578, 41.765856], [-70.476611, 41.76426200000001], [-70.477042, 41.76445799999998], [-70.476891, 41.765488], [-70.477275, 41.76581800000002], [-70.478837, 41.76620400000001], [-70.482552, 41.767574999999994], [-70.486382, 41.76992800000001], [-70.486934, 41.77095399999998], [-70.487192, 41.770922], [-70.488625, 41.77170199999997], [-70.490902, 41.772482999999994], [-70.48931600000002, 41.77284500000002], [-70.489029, 41.772808], [-70.488796, 41.77248999999999], [-70.488001, 41.772714], [-70.488736, 41.773352999999986], [-70.490794, 41.773099], [-70.492187, 41.77337799999998], [-70.493029, 41.773326000000004], [-70.494993, 41.77513000000001], [-70.493094, 41.77575100000001], [-70.493188, 41.77591099999998], [-70.494971, 41.775297], [-70.494834, 41.77665699999999], [-70.49441, 41.77812599999999], [-70.49406, 41.77825], [-70.500849, 41.781447], [-70.508331, 41.78574499999999], [-70.512484, 41.787614000000005], [-70.515336, 41.78936599999997], [-70.518254, 41.79164], [-70.519442, 41.793254], [-70.522308, 41.795989], [-70.525652, 41.79832300000002], [-70.531446, 41.80344600000001], [-70.53245, 41.804472999999994], [-70.537005, 41.810277], [-70.537501, 41.810675], [-70.525164, 41.821523], [-70.520343, 41.837859], [-70.516363, 41.85803699999999], [-70.516381, 41.87510499999999], [-70.516638, 41.88736200000001], [-70.517068, 41.89611900000001], [-70.517669, 41.90366099999999], [-70.518871, 41.91177799999999], [-70.520588, 41.917275000000004], [-70.522863, 41.92248500000001], [-70.528504, 41.93211200000002], [-70.534267, 41.94105800000002], [-70.53964, 41.94796500000001], [-70.552005, 41.966852999999986], [-70.559478, 41.97582800000001], [-70.569636, 41.985088], [-70.579026, 41.993208], [-70.59129, 41.999761000000014], [-70.597423, 42.00674200000001], [-70.598554, 42.01367700000001], [-70.602953, 42.025846999999985], [-70.608105, 42.037786000000004], [-70.614905, 42.049111], [-70.622529, 42.06013200000001], [-70.626033, 42.06655999999999], [-70.628724, 42.073549], [-70.629803, 42.077186000000005], [-70.631049, 42.08310599999999], [-70.635498, 42.09398000000001], [-70.639289, 42.09976300000001], [-70.643261, 42.104434000000005], [-70.651571, 42.110898], [-70.665672, 42.12497299999999], [-70.669571, 42.129395], [-70.675077, 42.13619899999999], [-70.678461, 42.14074799999999], [-70.684741, 42.151], [-70.691099, 42.163671], [-70.694278, 42.17105699999999], [-70.699515, 42.19117800000002], [-70.702351, 42.199456], [-70.732356, 42.25010099999999], [-70.749486, 42.291165], [-70.751049, 42.293114], [-70.749487, 42.29535600000001]]], [[[-70.851191, 42.372499], [-70.74947, 42.37333999999999], [-70.729212, 42.373848], [-70.749488, 42.351777999999996], [-70.800346, 42.29311299999998], [-70.812331, 42.29331199999999], [-70.823568, 42.293254999999995], [-70.850523, 42.29348], [-70.851016, 42.338267], [-70.851191, 42.372499]]], [[[-70.905993, 42.43829699999999], [-70.905993, 42.44519699999999], [-70.901493, 42.449597000000004], [-70.881629, 42.452399], [-70.85935500000001, 42.454552], [-70.838616, 42.455459000000005], [-70.831179, 42.457196], [-70.82486, 42.459129], [-70.821063, 42.460374], [-70.81074, 42.46441], [-70.799948, 42.468907], [-70.790094, 42.47386600000001], [-70.773358, 42.481939], [-70.749489, 42.492722000000015], [-70.736119, 42.50010699999999], [-70.732355, 42.505812], [-70.730652, 42.52355199999999], [-70.726835, 42.54356800000001], [-70.722544, 42.557264], [-70.719049, 42.56335], [-70.716188, 42.56756400000001], [-70.713002, 42.570694], [-70.709325, 42.572489], [-70.705947, 42.574380000000005], [-70.701037, 42.576278999999985], [-70.689225, 42.57922700000001], [-70.679251, 42.580107999999996], [-70.671443, 42.578419999999994], [-70.664718, 42.578195], [-70.65200100000001, 42.57848000000003], [-70.647925, 42.57932700000001], [-70.645103, 42.580827], [-70.642438, 42.582596999999986], [-70.640444, 42.58433399999999], [-70.630696, 42.597137000000004], [-70.624522, 42.60560599999999], [-70.620026, 42.609914999999994], [-70.59810700000001, 42.613856999999996], [-70.576846, 42.61680299999999], [-70.567854, 42.61845700000001], [-70.566756, 42.62492099999999], [-70.565936, 42.635155000000005], [-70.565592, 42.65695199999999], [-70.56747400000002, 42.66749099999998], [-70.570043, 42.676446999999996], [-70.577274, 42.68281299999998], [-70.58707, 42.689209999999996], [-70.605453, 42.692065], [-70.628263, 42.69421], [-70.639606, 42.695035999999995], [-70.666326, 42.69309900000001], [-70.687942, 42.692296], [-70.696088, 42.691415000000006], [-70.70898, 42.690916], [-70.722743, 42.691771], [-70.73709, 42.695973], [-70.747461, 42.70138800000001], [-70.759124, 42.708492], [-70.7747, 42.72020400000001], [-70.775454, 42.722213999999994], [-70.781154, 42.73195200000003], [-70.78426, 42.736898000000004], [-70.790752, 42.75052899999997], [-70.791218, 42.753172], [-70.792999, 42.757731], [-70.794618, 42.762698], [-70.799698, 42.776329999999994], [-70.801476, 42.782748], [-70.803987, 42.793813], [-70.804059, 42.796453], [-70.805698, 42.80544099999999], [-70.805999, 42.80934099999998], [-70.805871, 42.812579], [-70.807341, 42.818661], [-70.809845, 42.825084999999994], [-70.810315, 42.827234999999995], [-70.811194, 42.833530999999994], [-70.811748, 42.842074999999966], [-70.812224, 42.844588], [-70.813593, 42.849951000000004], [-70.813978, 42.85381699999999], [-70.814116, 42.857254], [-70.814131, 42.862679000000014], [-70.813832, 42.872298000000015], [-70.792495, 42.87329100000001], [-70.749494, 42.87469399999999], [-70.735005, 42.87468500000001], [-70.738642, 42.869254999999995], [-70.746282, 42.860842999999996], [-70.74883, 42.858831], [-70.747134, 42.853712], [-70.746262, 42.850166000000016], [-70.746166, 42.84755500000001], [-70.745522, 42.844442999999984], [-70.743971, 42.843174000000005], [-70.74146, 42.839664000000006], [-70.739038, 42.83581799999999], [-70.737393, 42.832607], [-70.736248, 42.82919400000001], [-70.735789, 42.82701900000001], [-70.734874, 42.824477], [-70.734409, 42.818552999999994], [-70.734312, 42.81517300000001], [-70.734488, 42.81175800000001], [-70.733892, 42.808814], [-70.73388700000001, 42.806236], [-70.733655, 42.80365900000002], [-70.734148, 42.79860500000001], [-70.73478, 42.795590999999995], [-70.737225, 42.787955999999994], [-70.731839, 42.77835699999999], [-70.73097, 42.77521200000001], [-70.730647, 42.773338], [-70.728045, 42.76788700000001], [-70.726856, 42.764039000000004], [-70.725848, 42.75902000000001], [-70.721974, 42.754270999999996], [-70.720288, 42.75186299999997], [-70.71927, 42.750095], [-70.71696, 42.74351699999999], [-70.714324, 42.73191100000002], [-70.70258, 42.72416199999999], [-70.68293, 42.72883], [-70.66131400000002, 42.73660999999999], [-70.641664, 42.739723000000005], [-70.625943, 42.739723999999995], [-70.590572, 42.73349999999999], [-70.549306, 42.724163999999995], [-70.529655, 42.70704799999999], [-70.513934, 42.680594], [-70.506074, 42.65102999999999], [-70.502143, 42.635470999999995], [-70.502143, 42.624579], [-70.511968, 42.60590700000001], [-70.521793, 42.593458999999996], [-70.531618, 42.584123], [-70.545374, 42.570119], [-70.566989, 42.56078300000001], [-70.582709, 42.553004], [-70.596464, 42.540556], [-70.60629, 42.53121999999999], [-70.617339, 42.500099], [-70.640006, 42.43166], [-70.648072, 42.40562799999999], [-70.749487, 42.400820000000024], [-70.851436, 42.393209000000006], [-70.854528, 42.39950700000001], [-70.859212, 42.404324], [-70.867911, 42.41037500000002], [-70.88062400000001, 42.41766199999999], [-70.888486, 42.422849], [-70.896544, 42.433972], [-70.905993, 42.43829699999999]]], [[[-70.911743, 41.58184], [-70.878749, 41.591791999999984], [-70.897281, 41.61340400000001], [-70.904081, 41.62100399999999], [-70.90600600000002, 41.623850000000026], [-70.903188, 41.62452], [-70.903025, 41.624341000000015], [-70.903078, 41.62405700000001], [-70.902573, 41.623780000000004], [-70.899759, 41.62403800000003], [-70.895797, 41.624013999999974], [-70.89561000000002, 41.62430600000002], [-70.89333, 41.624887], [-70.893177, 41.624957999999985], [-70.89333, 41.62516600000002], [-70.893259, 41.625348], [-70.892045, 41.626295], [-70.891773, 41.626911], [-70.891745, 41.627421], [-70.890539, 41.628483], [-70.89037, 41.629245999999995], [-70.889893, 41.62969200000001], [-70.889886, 41.630733], [-70.889082, 41.631196], [-70.889255, 41.63219300000001], [-70.88887, 41.632278], [-70.887575, 41.63210200000001], [-70.88711, 41.632168], [-70.886746, 41.63251100000001], [-70.886134, 41.63242000000002], [-70.885739, 41.632028000000005], [-70.885373, 41.63204499999999], [-70.884863, 41.631739], [-70.884623, 41.63175699999999], [-70.884384, 41.631386], [-70.883309, 41.631433], [-70.882649, 41.631007], [-70.882192, 41.63111199999998], [-70.88101100000002, 41.63084600000001], [-70.879059, 41.629817999999965], [-70.878849, 41.62922699999999], [-70.877855, 41.628997], [-70.878031, 41.628892], [-70.877937, 41.628817999999995], [-70.877191, 41.628791], [-70.876908, 41.628647000000015], [-70.876928, 41.628448999999996], [-70.872965, 41.627607], [-70.87273800000001, 41.62719000000003], [-70.871995, 41.62704099999999], [-70.869681, 41.625073], [-70.869464, 41.62454999999999], [-70.869564, 41.62437899999999], [-70.869092, 41.62364099999999], [-70.869159, 41.623473], [-70.868624, 41.62302400000001], [-70.868796, 41.62201199999999], [-70.869246, 41.621336], [-70.86961800000002, 41.621230999999995], [-70.869129, 41.620696999999986], [-70.868828, 41.61963600000001], [-70.869129, 41.618576], [-70.869349, 41.61844799999999], [-70.869239, 41.618242], [-70.869291, 41.61770300000003], [-70.869425, 41.61763899999999], [-70.869279, 41.61731900000001], [-70.869433, 41.617093], [-70.868887, 41.61595700000001], [-70.868933, 41.61578900000001], [-70.869293, 41.61563499999999], [-70.869138, 41.615455000000004], [-70.869035, 41.61450299999998], [-70.868713, 41.614190000000015], [-70.868686, 41.613811999999996], [-70.867922, 41.61334], [-70.867688, 41.613011000000014], [-70.867566, 41.61269499999998], [-70.867815, 41.61258000000001], [-70.867525, 41.61223200000001], [-70.867372, 41.611577999999994], [-70.866113, 41.610014], [-70.866395, 41.609392000000014], [-70.866061, 41.60912], [-70.865474, 41.607775], [-70.864603, 41.60656200000002], [-70.864199, 41.604971000000006], [-70.863328, 41.60353899999999], [-70.863479, 41.60220499999998], [-70.86494200000001, 41.601287000000006], [-70.866412, 41.600754], [-70.866352, 41.60021600000002], [-70.865855, 41.599629], [-70.864033, 41.598300999999985], [-70.863918, 41.59770099999999], [-70.864276, 41.597281999999986], [-70.863651, 41.59636900000002], [-70.86169, 41.595273], [-70.859839, 41.593632], [-70.859727, 41.593379000000006], [-70.860136, 41.59318], [-70.859882, 41.59301099999999], [-70.859967, 41.592879], [-70.859727, 41.59256799999999], [-70.859993, 41.59230300000001], [-70.85974200000001, 41.592273999999996], [-70.859986, 41.591964], [-70.859609, 41.59201], [-70.859347, 41.591480999999995], [-70.85907, 41.590023], [-70.858705, 41.58928699999999], [-70.8589, 41.589173000000024], [-70.858555, 41.588978], [-70.857662, 41.587970999999996], [-70.857486, 41.587367999999984], [-70.85761900000001, 41.58724900000001], [-70.857498, 41.587109], [-70.85763, 41.586389], [-70.857101, 41.58402199999999], [-70.85696, 41.58357500000002], [-70.856687, 41.58331000000002], [-70.854361, 41.58207999999998], [-70.853886, 41.582057999999996], [-70.852899, 41.58250299999999], [-70.852937, 41.584149999999994], [-70.853369, 41.585944000000026], [-70.853202, 41.58763500000002], [-70.853005, 41.588239], [-70.852508, 41.588563000000015], [-70.85218, 41.589282], [-70.850974, 41.590337], [-70.85085, 41.591039], [-70.849865, 41.591991], [-70.850556, 41.59271499999999], [-70.850237, 41.593268], [-70.849165, 41.593901], [-70.848517, 41.59379599999999], [-70.848713, 41.594223], [-70.847641, 41.594843000000004], [-70.847347, 41.595394000000006], [-70.846434, 41.595578], [-70.84524, 41.59556200000001], [-70.844646, 41.595088], [-70.843873, 41.59479400000001], [-70.843778, 41.59455499999999], [-70.843089, 41.594238], [-70.842995, 41.594035], [-70.842582, 41.593928], [-70.842282, 41.593617000000016], [-70.84229, 41.59302499999999], [-70.841904, 41.592762], [-70.841754, 41.593117], [-70.842026, 41.593528], [-70.842178, 41.594243000000006], [-70.84271, 41.594608], [-70.843305, 41.59566100000001], [-70.843217, 41.596083000000014], [-70.841735, 41.596334000000006], [-70.841777, 41.59651199999999], [-70.841575, 41.596542000000014], [-70.841545, 41.596362000000006], [-70.83927, 41.596308], [-70.837962, 41.59596199999999], [-70.837728, 41.595617], [-70.837877, 41.59458899999999], [-70.837662, 41.59384500000001], [-70.837478, 41.593731999999996], [-70.837592, 41.59345700000001], [-70.83707900000002, 41.593306000000005], [-70.83656300000001, 41.59289899999998], [-70.836504, 41.59214699999999], [-70.834968, 41.590693], [-70.834988, 41.590503000000005], [-70.834805, 41.590436999999994], [-70.834913, 41.590314000000006], [-70.834641, 41.590180000000004], [-70.834249, 41.58929700000001], [-70.831244, 41.586218999999986], [-70.831039, 41.585740000000015], [-70.830358, 41.58516099999999], [-70.830433, 41.584978], [-70.829417, 41.584172], [-70.829078, 41.584167], [-70.828008, 41.583401], [-70.827905, 41.58354099999998], [-70.827581, 41.58313599999999], [-70.827158, 41.58333299999999], [-70.82551, 41.582848999999996], [-70.823576, 41.582696000000006], [-70.822251, 41.58235000000001], [-70.821717, 41.58245699999999], [-70.821494, 41.58297699999999], [-70.821755, 41.58399], [-70.821689, 41.58583200000001], [-70.821192, 41.586967999999985], [-70.819898, 41.58837900000002], [-70.818597, 41.588923], [-70.816951, 41.58928000000001], [-70.81641800000001, 41.59019599999999], [-70.816191, 41.591338], [-70.815818, 41.59178800000001], [-70.816162, 41.59168900000001], [-70.816494, 41.591893999999996], [-70.817332, 41.59178800000001], [-70.817698, 41.592129000000014], [-70.818254, 41.592351], [-70.820089, 41.596114000000014], [-70.822919, 41.599244999999996], [-70.823165, 41.599814], [-70.823957, 41.600005000000024], [-70.824374, 41.60035999999998], [-70.82489, 41.601462], [-70.826028, 41.601580000000006], [-70.827116, 41.602080000000015], [-70.82773, 41.602187], [-70.828816, 41.60374200000001], [-70.829825, 41.60443399999998], [-70.830412, 41.60573000000001], [-70.83069, 41.605830000000005], [-70.831097, 41.60647500000001], [-70.831531, 41.60664800000003], [-70.831889, 41.606446999999996], [-70.831549, 41.604959000000015], [-70.831897, 41.603882999999996], [-70.831456, 41.602971], [-70.831979, 41.602454], [-70.831971, 41.601919], [-70.831823, 41.601831999999995], [-70.832214, 41.601764], [-70.832768, 41.602197000000004], [-70.83361900000001, 41.60185700000001], [-70.834124, 41.602033], [-70.834561, 41.60275299999999], [-70.83463, 41.603163999999985], [-70.83556600000001, 41.60359099999999], [-70.835332, 41.60387300000001], [-70.835535, 41.60385200000002], [-70.835115, 41.604341], [-70.835304, 41.604466000000016], [-70.835448, 41.60404700000001], [-70.835643, 41.604046], [-70.835833, 41.60459], [-70.835749, 41.604879999999994], [-70.83604500000001, 41.60517999999999], [-70.836544, 41.60501100000001], [-70.837136, 41.605225000000004], [-70.837257, 41.604935999999995], [-70.840391, 41.605277], [-70.844428, 41.60628], [-70.847402, 41.60749599999999], [-70.84956, 41.60911699999997], [-70.849334, 41.610093000000006], [-70.850566, 41.61094400000002], [-70.851339, 41.61118499999999], [-70.851801, 41.611973], [-70.851693, 41.61213699999999], [-70.852248, 41.612218000000006], [-70.852618, 41.612545], [-70.852792, 41.61284900000001], [-70.852705, 41.61296499999999], [-70.852923, 41.613013999999986], [-70.853093, 41.61341900000001], [-70.85297, 41.61361099999999], [-70.85397700000001, 41.61379500000001], [-70.853713, 41.61436499999999], [-70.853983, 41.61441399999999], [-70.854573, 41.61598499999999], [-70.854219, 41.618408], [-70.854682, 41.619175000000006], [-70.854749, 41.620071], [-70.855254, 41.6202], [-70.855442, 41.620651999999986], [-70.855209, 41.621767000000006], [-70.855325, 41.62217700000001], [-70.856421, 41.622472], [-70.856564, 41.62261100000001], [-70.856516, 41.622825000000006], [-70.856773, 41.62274099999999], [-70.857208, 41.622899000000025], [-70.857551, 41.623136], [-70.857934, 41.623880000000014], [-70.859283, 41.62381100000002], [-70.859393, 41.623917000000006], [-70.859766, 41.623825999999994], [-70.859872, 41.62362600000001], [-70.860365, 41.624091], [-70.84932, 41.624472000000004], [-70.842264, 41.624457], [-70.839175, 41.61476100000001], [-70.813274, 41.607960000000006], [-70.804856, 41.612776000000004], [-70.801026, 41.61657300000001], [-70.800336, 41.61874100000001], [-70.801544, 41.621168999999995], [-70.803891, 41.62506699999999], [-70.774624, 41.634933000000004], [-70.762944, 41.639025000000004], [-70.75748, 41.64131999999999], [-70.756354, 41.642074999999984], [-70.755568, 41.64310400000001], [-70.754006, 41.64579499999999], [-70.752498, 41.65038799999999], [-70.751867, 41.660342000000014], [-70.750847, 41.669590999999976], [-70.749206, 41.66850500000001], [-70.699574, 41.643719000000004], [-70.690964, 41.66045700000001], [-70.659556, 41.65921], [-70.660339, 41.625106], [-70.654394, 41.625107], [-70.654276, 41.605216000000006], [-70.647207, 41.57853899999999], [-70.648153, 41.57145199999999], [-70.65623, 41.56651400000001], [-70.664171, 41.542882999999996], [-70.697498, 41.527158], [-70.749476, 41.55639], [-70.758464, 41.560930999999975], [-70.763776, 41.55660700000001], [-70.864314, 41.507397000000005], [-70.896936, 41.556905000000015], [-70.911743, 41.58184]]], [[[-71.116404, 41.484567999999996], [-71.041373, 41.48420000000001], [-71.041236, 41.480332000000004], [-71.033164, 41.480332000000004], [-71.033164, 41.484162000000005], [-71.00413, 41.48403099999999], [-70.97450900000001, 41.454138], [-70.999482, 41.442372], [-71.051854, 41.416729], [-71.053451, 41.41695899999999], [-71.072404, 41.42557], [-71.085038, 41.433467], [-71.088571, 41.431315], [-71.116404, 41.484567999999996]]]]}}