{"type": "Feature", "properties": {"district_name": "3rd Suffolk", "chamber": "house", "vintage": "2001-2010"}, "geometry": {"type": "Polygon", "coordinates": [[[-71.0593028311051, 42.36778820021098], [-71.05709378499252, 42.368766656767015], [-71.05619943099542, 42.36899896812765], [-71.05521160191479, 42.369089124671234], [-71.05330089343201, 42.3688802806931], [-71.05215785624775, 42.369134669056685], [-71.05160272734676, 42.36890180733783], [-71.05163363080071, 42.36845065797543], [-71.05104779022065, 42.36808318860984], [-71.0510475571749, 42.36771406915892], [-71.05083161232214, 42.367510661016745], [-71.04965950270483, 42.367720463761906], [-71.04944375070335, 42.36749060325262], [-71.04947407961414, 42.367120478062674], [-71.04999873571616, 42.36691321461056], [-71.05002943955151, 42.3665700993902], [-71.04928975051554, 42.36636745604115], [-71.04928997764011, 42.36606979419253], [-71.0500602225081, 42.36600247924274], [-71.05003002059341, 42.36582286135544], [-71.04907419652461, 42.36552484037623], [-71.04904349664207, 42.36522818257673], [-71.04950571945972, 42.365129278494315], [-71.05040095502363, 42.36524869371711], [-71.05064778715042, 42.365135996732675], [-71.05064780696456, 42.36494693596735], [-71.04935216926386, 42.364609884958305], [-71.04944419138702, 42.3637797279809], [-71.04895122276449, 42.36364443581681], [-71.0490745670363, 42.36273281746746], [-71.0505553271399, 42.36298506789892], [-71.05061701380349, 42.36255204428514], [-71.0495369980936, 42.36222877444645], [-71.04944456418954, 42.36202303813552], [-71.04953734442402, 42.36185965674097], [-71.05015431986484, 42.361866573028585], [-71.05033992289049, 42.36113356210434], [-71.04913680787031, 42.36081319204293], [-71.04901303040774, 42.36053642553121], [-71.04762530641675, 42.360623822446485], [-71.04765641228347, 42.36017323219418], [-71.05055533301642, 42.35991395209624], [-71.05052450615855, 42.35955427348062], [-71.0486434730408, 42.359642004312335], [-71.04855130620071, 42.358869075833034], [-71.04926022096298, 42.35861302276202], [-71.04925978972193, 42.35790179104553], [-71.04959968524588, 42.35763416069596], [-71.0492909271485, 42.356964484725474], [-71.05138889685969, 42.35328824408679], [-71.05197560184294, 42.35276386053066], [-71.05182035576935, 42.35229847974559], [-71.0519450513758, 42.35193603985697], [-71.05388754298727, 42.34866765274533], [-71.05493526355578, 42.34724418133164], [-71.0554613686528, 42.34674937175628], [-71.05715615332234, 42.346312517134805], [-71.05765001321865, 42.345925041343136], [-71.05835830560197, 42.34592157002747], [-71.05946865267889, 42.34550494243322], [-71.06085700611644, 42.344209896796265], [-71.06113439876549, 42.34334048023574], [-71.06073307146852, 42.342996836136734], [-71.06036350996105, 42.342967289465186], [-71.05999279178384, 42.3444147856676], [-71.0595920800027, 42.34480037763877], [-71.0583969400295, 42.34533146819849], [-71.05999499519447, 42.3422968535434], [-71.05969492608145, 42.33669699953713], [-71.06059508629426, 42.3356971728929], [-71.0664950482924, 42.326097104329754], [-71.06739496986239, 42.32409676744559], [-71.06819499959667, 42.321196884716684], [-71.0693950585135, 42.32139720160714], [-71.06928799408915, 42.32206076965345], [-71.0705089286414, 42.32181212984756], [-71.07069502299352, 42.322796957785066], [-71.07279495530898, 42.32229723957291], [-71.07299507937987, 42.32269693177968], [-71.07089503872056, 42.323296811269685], [-71.07179500519794, 42.324597152959726], [-71.07059506703924, 42.325096842561976], [-71.07219506909752, 42.326296826664226], [-71.0714949488758, 42.326496785484245], [-71.07299493090053, 42.32749719453206], [-71.07179495992689, 42.332196774861394], [-71.07350008488048, 42.33349785471742], [-71.07419601870609, 42.33300189630816], [-71.07789508367125, 42.335997195788906], [-71.07519491904857, 42.337896998698135], [-71.07060505904015, 42.340726001205105], [-71.0717949849962, 42.34149681384116], [-71.07155696973854, 42.34164391734843], [-71.07329506881295, 42.34309703494506], [-71.07541107392888, 42.341937863779435], [-71.07683508446893, 42.3436429834173], [-71.07609498412319, 42.34389684056461], [-71.07679503901004, 42.34469673641492], [-71.07545792948349, 42.34591902265067], [-71.07369609570331, 42.347098071814074], [-71.07199497431556, 42.34859693254653], [-71.07331907466097, 42.35123520621066], [-71.06769492657828, 42.352396958032465], [-71.06489493105879, 42.352397084201094], [-71.06354299402453, 42.35507820505853], [-71.06233600274025, 42.35644993761778], [-71.0632959214456, 42.35759808127947], [-71.06284195029356, 42.35780511588792], [-71.06302396379877, 42.35960019427705], [-71.06471896956862, 42.35961281603155], [-71.0647450486111, 42.35943398208141], [-71.06668804946318, 42.35940586570865], [-71.0667370008896, 42.36128709762781], [-71.06400991133904, 42.3613009827055], [-71.06409490099495, 42.362096935851305], [-71.06359496389176, 42.36409705854095], [-71.06313305423397, 42.364566273268906], [-71.05889494248119, 42.3668970343261], [-71.0593028311051, 42.36778820021098]]]}}