{"type": "Feature", "properties": {"district_name": "23rd Middlesex District", "chamber": "house", "vintage": "2022-present"}, "geometry": {"type": "Polygon", "coordinates": [[[-71.202612, 42.41482599999999], [-71.185558, 42.432312999999986], [-71.182277, 42.43627900000001], [-71.130019, 42.435545], [-71.129041, 42.435599], [-71.127146, 42.43888699999999], [-71.125154, 42.43923299999999], [-71.125736, 42.438893], [-71.12613, 42.43836000000001], [-71.126346, 42.436437], [-71.126808, 42.43549199999999], [-71.125816, 42.428844], [-71.125991, 42.42835199999998], [-71.126508, 42.427794000000006], [-71.122905, 42.425352], [-71.121262, 42.42648500000001], [-71.120426, 42.42671600000001], [-71.120583, 42.427408], [-71.119555, 42.427564], [-71.119047, 42.42715199999999], [-71.118705, 42.42616300000001], [-71.117766, 42.426259], [-71.117415, 42.42491100000001], [-71.118308, 42.424771000000014], [-71.11812, 42.424034999999996], [-71.117411, 42.424078000000016], [-71.116747, 42.42282399999999], [-71.115458, 42.421878], [-71.114969, 42.421262000000006], [-71.114661, 42.42116199999999], [-71.114555, 42.42096800000001], [-71.115093, 42.420228], [-71.112596, 42.418935000000005], [-71.109703, 42.418222000000014], [-71.110482, 42.417159000000005], [-71.110588, 42.41553], [-71.112979, 42.415952999999995], [-71.112483, 42.41690700000001], [-71.11617, 42.417590000000004], [-71.117767, 42.417521], [-71.11826, 42.41685400000001], [-71.12046200000002, 42.41749300000002], [-71.121285, 42.417574], [-71.123937, 42.41705799999997], [-71.125289, 42.417565], [-71.126121, 42.417647], [-71.125809, 42.417999], [-71.127435, 42.418135], [-71.129986, 42.41756599999999], [-71.131414, 42.416975999999984], [-71.131629, 42.416622], [-71.131614, 42.41551100000001], [-71.131872, 42.415291], [-71.132435, 42.415215999999994], [-71.132859, 42.412456999999996], [-71.132818, 42.411683999999994], [-71.132247, 42.41017800000001], [-71.132317, 42.409170999999986], [-71.134286, 42.406403999999995], [-71.134595, 42.405445000000014], [-71.134635, 42.404258999999996], [-71.134514, 42.404167000000015], [-71.134742, 42.40291799999999], [-71.136253, 42.401071], [-71.136969, 42.40148799999999], [-71.14707200000001, 42.409534], [-71.149061, 42.412650000000006], [-71.151393, 42.414655999999994], [-71.154917, 42.41601400000001], [-71.163323, 42.41723999999999], [-71.166289, 42.41852900000001], [-71.166885, 42.418063999999994], [-71.166342, 42.417619], [-71.167219, 42.41706300000001], [-71.16857, 42.417941], [-71.16909, 42.41755], [-71.167115, 42.416159], [-71.168482, 42.415072], [-71.17666, 42.41919300000001], [-71.178325, 42.420174], [-71.178401, 42.419357000000005], [-71.178668, 42.418925], [-71.180801, 42.417869], [-71.1802, 42.41702900000001], [-71.18008, 42.41640399999999], [-71.180445, 42.415384999999986], [-71.182054, 42.413725], [-71.181634, 42.410881999999994], [-71.183899, 42.411424000000004], [-71.187233, 42.41257399999999], [-71.194291, 42.415321000000006], [-71.194492, 42.41499000000001], [-71.195355, 42.41526499999999], [-71.194257, 42.41339], [-71.202612, 42.41482599999999]]]}}