{"type": "Feature", "properties": {"district_name": "12th Essex", "chamber": "house", "vintage": "2001-2010"}, "geometry": {"type": "Polygon", "coordinates": [[[-70.93610280622735, 42.54705007790285], [-70.93263474787044, 42.54563710867496], [-70.93164426512114, 42.54554558299626], [-70.9300974240668, 42.54500454917533], [-70.92879945920652, 42.54477419029398], [-70.92728341484262, 42.5441781301755], [-70.92623210899761, 42.54404293546304], [-70.92527311166548, 42.54340178748452], [-70.92490165872991, 42.54237195925884], [-70.9244068274854, 42.54179500966676], [-70.92394395385027, 42.54180282679464], [-70.92391192998743, 42.54216333706719], [-70.92425178432777, 42.54273444682045], [-70.9238504332121, 42.54293950198705], [-70.9229529024245, 42.54294570142631], [-70.92267474186112, 42.543075972180084], [-70.92261373702074, 42.54329792237668], [-70.91389398090503, 42.541595218952295], [-70.91289305545386, 42.532294947345335], [-70.91309297815111, 42.53059502975186], [-70.91269398103559, 42.52789615679318], [-70.91539398965239, 42.528796066636595], [-70.91705406390784, 42.52692686664051], [-70.91661391985095, 42.52668775487101], [-70.91817991405148, 42.52488501455129], [-70.91790400938517, 42.52424275233455], [-70.91709304776784, 42.52439507633486], [-70.91729303517198, 42.52409505732959], [-70.91749305029367, 42.52259487981906], [-70.91889293555026, 42.52289509572419], [-70.91939306027808, 42.52159504273543], [-70.9210939468649, 42.519596007929074], [-70.92239296153775, 42.51869494909288], [-70.92659301876795, 42.51499500624448], [-70.92824100164741, 42.51333320048585], [-70.93829495447231, 42.50479578922171], [-70.93976405986895, 42.50339007920988], [-70.94029302872941, 42.50267187782545], [-70.95029407722589, 42.49539521274014], [-70.95069398072495, 42.4948952203482], [-70.95479394619838, 42.495695101882305], [-70.95729406144697, 42.49669494352408], [-70.9584939721788, 42.49699486611842], [-70.9599939410548, 42.49799500479916], [-70.9687940469042, 42.50299523057659], [-70.97826907111492, 42.507337260372324], [-70.9869959431096, 42.51169599683402], [-70.98577502462321, 42.51187173510995], [-70.98869596077157, 42.513496192707244], [-70.99389593496234, 42.515895822181285], [-70.99967007268103, 42.5191720826744], [-71.00542693066227, 42.522715233686434], [-71.01079601387003, 42.528795176193924], [-71.0170969933414, 42.535295117981846], [-71.0076959652875, 42.53899424127339], [-71.00599598733137, 42.53839393104684], [-71.00609700851243, 42.53739508262479], [-71.00699297357815, 42.53655717900489], [-71.00685597197572, 42.536198175358855], [-71.00701194341895, 42.53605199278694], [-71.00599601146166, 42.536593982679754], [-71.00569606885637, 42.535694136379995], [-71.00189594604923, 42.53659379527595], [-71.00209599929042, 42.53739419238084], [-71.00379608348199, 42.540294149336894], [-71.00629603358603, 42.54669384701088], [-71.0069969729147, 42.54889514892776], [-71.00694199825402, 42.54979403893197], [-71.00609598582278, 42.54979379582834], [-71.00199699585929, 42.54899520609013], [-71.003896072499, 42.55389399653837], [-71.00259594166792, 42.55839414367628], [-70.99939591944032, 42.56259402176728], [-70.97949704535749, 42.55659527678258], [-70.94549608296252, 42.54779499445368], [-70.9395939097279, 42.54599521993653], [-70.93759392617186, 42.54749398129404], [-70.93610280622735, 42.54705007790285]]]}}