{"type": "Feature", "properties": {"district_name": "24th Middlesex District", "chamber": "house", "vintage": "2012-2020"}, "geometry": {"type": "Polygon", "coordinates": [[[-71.211261, 42.406074], [-71.202642, 42.41482900000001], [-71.194257, 42.41339], [-71.195194, 42.415141000000006], [-71.194521, 42.414936999999995], [-71.19429099999999, 42.415321000000006], [-71.187233, 42.41257399999999], [-71.183899, 42.411424000000004], [-71.181634, 42.410881999999994], [-71.182054, 42.413725], [-71.18044499999999, 42.415384999999986], [-71.18008, 42.41640399999999], [-71.1802, 42.41702900000001], [-71.180801, 42.417869], [-71.178668, 42.418925], [-71.178401, 42.419357000000005], [-71.178325, 42.420174], [-71.17666, 42.41919300000001], [-71.168482, 42.415072], [-71.167115, 42.416159], [-71.16909, 42.41755], [-71.16857, 42.417941], [-71.167219, 42.41706300000001], [-71.166342, 42.41761899999999], [-71.166885, 42.418063999999994], [-71.16628899999999, 42.41852900000001], [-71.163121, 42.41718900000001], [-71.154917, 42.41601400000001], [-71.15328699999999, 42.41544100000001], [-71.15570199999999, 42.41349], [-71.153205, 42.411282000000014], [-71.15092700000001, 42.406712000000006], [-71.15058599999999, 42.405405999999985], [-71.148201, 42.40577599999999], [-71.147616, 42.40605999999998], [-71.147413, 42.40648199999999], [-71.146119, 42.404533], [-71.142264, 42.40576300000001], [-71.136969, 42.40148799999999], [-71.13627699999999, 42.401083000000014], [-71.13492099999999, 42.402561999999996], [-71.134579, 42.40346199999998], [-71.134514, 42.40417199999998], [-71.131292, 42.401568999999995], [-71.127375, 42.39708499999998], [-71.128824, 42.39620399999999], [-71.128654, 42.39605699999999], [-71.128744, 42.396010000000004], [-71.129463, 42.396626999999995], [-71.130854, 42.39578500000002], [-71.132153, 42.395762], [-71.13221300000001, 42.39727600000001], [-71.136815, 42.39756399999999], [-71.136873, 42.39649399999999], [-71.138223, 42.39642699999998], [-71.138311, 42.39543800000001], [-71.139625, 42.39582299999999], [-71.140631, 42.39588500000001], [-71.140479, 42.39406400000001], [-71.13285499999999, 42.39347599999999], [-71.132728, 42.39068599999999], [-71.14428, 42.392638], [-71.146564, 42.393351], [-71.14976, 42.39481999999999], [-71.15316899999999, 42.39564300000001], [-71.156302, 42.395852], [-71.15838699999999, 42.39459300000001], [-71.157118, 42.39056000000001], [-71.157091, 42.389894999999996], [-71.157688, 42.38753100000001], [-71.15798400000001, 42.387042999999984], [-71.158381, 42.386776], [-71.160332, 42.386444], [-71.157971, 42.382805], [-71.157792, 42.38221100000001], [-71.15541999999999, 42.381510000000006], [-71.15514, 42.38130299999999], [-71.155333, 42.380907999999984], [-71.155051, 42.38020000000001], [-71.15625, 42.38064600000001], [-71.154468, 42.37506799999999], [-71.155414, 42.375156999999994], [-71.160774, 42.376628000000004], [-71.164508, 42.37688899999999], [-71.16954900000002, 42.37768599999999], [-71.17080299999999, 42.378319], [-71.171229, 42.37827899999999], [-71.17473199999999, 42.37928000000001], [-71.179495, 42.38019500000001], [-71.185165, 42.38044100000001], [-71.186779, 42.380363], [-71.189159, 42.38071700000001], [-71.19511700000001, 42.386991], [-71.19530999999999, 42.387570999999994], [-71.19510199999999, 42.387908], [-71.195194, 42.388271], [-71.195757, 42.389111], [-71.196621, 42.38967600000001], [-71.19672200000001, 42.390083], [-71.196606, 42.39074299999999], [-71.196876, 42.391286999999984], [-71.19753899999999, 42.391765], [-71.197617, 42.392264000000004], [-71.197902, 42.39258699999999], [-71.197771, 42.39312100000001], [-71.196676, 42.393776999999986], [-71.196406, 42.394330999999994], [-71.19697699999999, 42.39551800000001], [-71.19849599999999, 42.396277000000005], [-71.199191, 42.396957000000015], [-71.199592, 42.39757499999998], [-71.199747, 42.39841399999999], [-71.200279, 42.39877699999998], [-71.200433, 42.399396], [-71.201397, 42.400187999999986], [-71.201799, 42.401238], [-71.201807, 42.402346], [-71.20254, 42.40308799999999], [-71.202679, 42.40371400000001], [-71.211261, 42.406074]]]}}