{"type": "Feature", "properties": {"district_name": "9th Bristol", "chamber": "house", "vintage": "2001-2010"}, "geometry": {"type": "MultiPolygon", "coordinates": [[[[-70.95439401822603, 41.5905835201652], [-70.95491200808316, 41.59099792597617], [-70.95503429029189, 41.59133783520588], [-70.9546687476665, 41.59225390102433], [-70.95415134432787, 41.59225366742614], [-70.9536935323674, 41.591549736241724], [-70.95274924226428, 41.591043802500394], [-70.9527187963518, 41.59074709175893], [-70.95341937945636, 41.59042914898143], [-70.95439401822603, 41.5905835201652]]], [[[-70.9963499278859, 41.84637314867267], [-70.99529402439138, 41.84509277791442], [-70.99071796749814, 41.841445107089974], [-70.98956593210035, 41.839413017715216], [-70.99058992199393, 41.83632485195329], [-70.98898999553516, 41.83557321235226], [-70.98633397559209, 41.83333288407563], [-70.98330897400335, 41.82915672501268], [-70.98444502664144, 41.82781301469046], [-70.9736769978652, 41.82263005915355], [-70.96993298730162, 41.8202942786138], [-70.9677890842394, 41.818502137634155], [-70.96623703717182, 41.81663000227914], [-70.96390093856263, 41.81235806462209], [-70.96350100977874, 41.812486169126664], [-70.96164492358085, 41.811445943410696], [-70.96022102425898, 41.811381812583896], [-70.95898896726561, 41.810693945852286], [-70.95839698432482, 41.81074178072122], [-70.95814093239021, 41.81035790864801], [-70.95809293618012, 41.80936615280168], [-70.95732501390097, 41.80850208348898], [-70.95545292996223, 41.807333935624925], [-70.9537890351747, 41.806806014269625], [-70.95337300543164, 41.80653391035852], [-70.953260938218, 41.806357801543506], [-70.95332504492072, 41.805766118195365], [-70.95398098497057, 41.80485426464934], [-70.95402905289978, 41.804421760853735], [-70.9546210154175, 41.803622143021244], [-70.95561291270093, 41.802885765704985], [-70.95567705863924, 41.80237398873295], [-70.95548502681582, 41.802118159924156], [-70.95510100756435, 41.802150088660476], [-70.9549249449884, 41.80200574655034], [-70.95484502904955, 41.801125823541966], [-70.9544449731008, 41.80054992603755], [-70.95447705050427, 41.79959006385757], [-70.95351699521929, 41.79850220723769], [-70.95348491537212, 41.798054121063466], [-70.95382098858602, 41.79738214965086], [-70.95359692334203, 41.79639010525591], [-70.95402900641817, 41.79587784127741], [-70.95401307403161, 41.79459811881362], [-70.9543810148305, 41.794374230828794], [-70.95393292121084, 41.79416612603931], [-70.95364505213817, 41.79338198564663], [-70.95316501403639, 41.79299815311743], [-70.9530530502266, 41.79255025060431], [-70.95258893627332, 41.792262155986364], [-70.9521249585815, 41.791365745169514], [-70.95090792474883, 41.79058219630488], [-70.9509560560878, 41.78950986583691], [-70.95071602491116, 41.78891784329278], [-70.95018795692542, 41.788485938889146], [-70.94911595908219, 41.788134120867795], [-70.94729195844756, 41.78799023455948], [-70.94734003794314, 41.787733862988986], [-70.95015595313164, 41.7872697214301], [-70.96089291695797, 41.78611790225085], [-70.98807706434589, 41.78365414626799], [-70.98386904982819, 41.77469396970993], [-70.98345304665655, 41.77338205253133], [-70.98015701809874, 41.76621422146841], [-70.96468408122138, 41.73420202251725], [-70.96548406488928, 41.733901906162494], [-70.96603093234154, 41.72997604791884], [-70.9686219880508, 41.72009424678031], [-70.96998404800327, 41.71410189122512], [-70.97718390947682, 41.678903210602314], [-70.97218394035436, 41.6605030218615], [-70.94258306505293, 41.66310287868042], [-70.94308291982725, 41.661803165234815], [-70.94438297739694, 41.6604032515192], [-70.94298299156836, 41.6591032457663], [-70.94018297753696, 41.65470300565703], [-70.94378295178544, 41.653703249371894], [-70.94288305498287, 41.65190316201456], [-70.94668298932032, 41.65040290462498], [-70.9475829912967, 41.650203003836815], [-70.95288303014289, 41.648003026460735], [-70.95393304331743, 41.64925283579562], [-70.95878301816104, 41.64430315879611], [-70.95698306643814, 41.63650299657092], [-70.95938297979103, 41.63680311887545], [-70.95828307664083, 41.63470282980159], [-70.95698304655328, 41.63290320716999], [-70.95598304206102, 41.63100314645732], [-70.95518308250458, 41.63010287968776], [-70.95208296550187, 41.62390412578137], [-70.94958293351426, 41.621004108061776], [-70.9463820081191, 41.61920413564797], [-70.94498193604612, 41.618703796410806], [-70.94358205277643, 41.61790405824266], [-70.93728192713576, 41.6150042330766], [-70.93565807225775, 41.61375198490679], [-70.93488195569587, 41.61220399059449], [-70.93478208288849, 41.6116041793273], [-70.93418203501258, 41.61020393320961], [-70.93268198116333, 41.611203746575804], [-70.93198202260344, 41.60820426190866], [-70.93150741879897, 41.608329066394965], [-70.93151376640763, 41.60771965418393], [-70.93120907409472, 41.60707605616902], [-70.93105653403353, 41.60589017761301], [-70.93081316239488, 41.605245750988715], [-70.93014179737875, 41.60460874939353], [-70.92974570760896, 41.603876902660566], [-70.92974632995698, 41.602985537161864], [-70.9301422090817, 41.60195209489407], [-70.930233339725, 41.60053671641513], [-70.93008078811363, 41.60000810814755], [-70.92898369017584, 41.598297520239825], [-70.92843466741367, 41.5969199993346], [-70.92782541175481, 41.59637164948601], [-70.92770340080801, 41.59261873291709], [-70.9291967870642, 41.59154917483087], [-70.92977613718524, 41.59067477922019], [-70.92992834738058, 41.58999688746265], [-70.93132942320251, 41.58690269407873], [-70.93117724627662, 41.585554183249826], [-70.9314204062937, 41.584253237347134], [-70.93324795083542, 41.58215156433108], [-70.93385738888185, 41.58029533524027], [-70.93541144335447, 41.579269325793355], [-70.93802998022903, 41.57711804199044], [-70.93870060643435, 41.577322815885864], [-70.93894440193918, 41.577553056793384], [-70.93903591312707, 41.57810104264441], [-70.93973744380644, 41.57970098046254], [-70.94013297829459, 41.58034275249663], [-70.94062083211708, 41.580712624407035], [-70.94122931495895, 41.58093676825875], [-70.9430887242661, 41.58089637866715], [-70.94375862824599, 41.583153965221236], [-70.9439116543397, 41.58441242491292], [-70.9446733071747, 41.584417276046985], [-70.94494732614359, 41.58475512889124], [-70.94406403822728, 41.585400202647996], [-70.94415591921346, 41.586083241648254], [-70.94439921405139, 41.58642151270789], [-70.94485621124083, 41.58635959527283], [-70.94558763254858, 41.5859416762427], [-70.94634946122447, 41.58599210269487], [-70.94683716286512, 41.586496993457615], [-70.94659320817763, 41.58690659967047], [-70.94671500269195, 41.587363572955105], [-70.94756891838536, 41.5879073836847], [-70.9482086790615, 41.58901344710824], [-70.94945807723775, 41.59037906826657], [-70.95162228886863, 41.591432281007094], [-70.95210990843222, 41.59184711129374], [-70.95296300327207, 41.59335428265704], [-70.95339022826548, 41.59353641288493], [-70.95479108004027, 41.593602225768485], [-70.95534023410418, 41.593881165236766], [-70.9570478552968, 41.59600464129015], [-70.95744445297564, 41.597150573341395], [-70.95845003833857, 41.59744854898672], [-70.96070552264828, 41.59948117447128], [-70.96064546332373, 41.599734676764605], [-70.96006675614584, 41.600284530708144], [-70.96006690539791, 41.600599661003145], [-70.9618035797136, 41.6005341862411], [-70.9616804040938, 41.598933194875315], [-70.96091799001996, 41.597307221428714], [-70.96112993814717, 41.59492674773269], [-70.96094815315163, 41.594704736543946], [-70.96042958748306, 41.59479456313342], [-70.96015512338381, 41.594339697955256], [-70.96018448131497, 41.59383506289512], [-70.96070314755465, 41.593466123189614], [-70.96070278121427, 41.59328604742022], [-70.95994086228342, 41.59319070774401], [-70.95963615133248, 41.59303394513173], [-70.95960492084855, 41.59278225116699], [-70.95987971008306, 41.59259729818928], [-70.95978729149257, 41.592067891321555], [-70.96015417174368, 41.592007167413655], [-70.96088556347007, 41.59221097252744], [-70.96109852919213, 41.59209043286724], [-70.96125076200394, 41.591547556363516], [-70.9606715216535, 41.5914581476457], [-70.95972717297333, 41.59166356433647], [-70.95817283299544, 41.59124874501186], [-70.95823333613275, 41.5907431334639], [-70.95869055020441, 41.59001488733531], [-70.95914657676063, 41.5897824046252], [-70.95963469744807, 41.58972000861942], [-70.95975663043454, 41.590059919997124], [-70.96015276205642, 41.59010737965598], [-70.96091392081442, 41.589688945282155], [-70.96143243246479, 41.589599116429774], [-70.96271182128096, 41.590306904274556], [-70.96313891677431, 41.59093017847808], [-70.96356545141246, 41.59117472578222], [-70.96383979611663, 41.591152386033826], [-70.96386991965933, 41.59001693662244], [-70.96423441406472, 41.58916443008968], [-70.96399082406884, 41.5888262096607], [-70.96398988851325, 41.58790782795818], [-70.96356250108754, 41.58667230400213], [-70.96304504758864, 41.58621292178718], [-70.96109509353225, 41.58541754876779], [-70.96100354180169, 41.58522972943125], [-70.96158196927527, 41.58512105145868], [-70.96155138414716, 41.584635264921275], [-70.96103332701877, 41.58422989274968], [-70.96081899106584, 41.583269981583435], [-70.96048386459938, 41.58296958470722], [-70.9580772373424, 41.5830374704297], [-70.95658446627394, 41.583585192844886], [-70.95615878904667, 41.58388984901305], [-70.95585450700392, 41.58465989234322], [-70.95558064765741, 41.584781822993996], [-70.95466590125851, 41.58484271255392], [-70.95320347106066, 41.584660110900046], [-70.95140676461581, 41.58537512191441], [-70.94796461773709, 41.58615358369883], [-70.94768985305028, 41.58583430926124], [-70.94765890599709, 41.58555560203737], [-70.95003536255889, 41.58491211137479], [-70.95009631084764, 41.58462260406135], [-70.949608345355, 41.58382059470512], [-70.94948625442815, 41.58315654688805], [-70.9497602017529, 41.58173809740187], [-70.94975969712074, 41.58072912146112], [-70.94939351617093, 41.579951902854205], [-70.94908906972971, 41.578534026485094], [-70.9483267825233, 41.57734971574612], [-70.9481138033168, 41.57634476771564], [-70.94762607727993, 41.57563222952232], [-70.94762607150359, 41.57526307744593], [-70.94683259364949, 41.573187237557995], [-70.94619268756185, 41.57222579159215], [-70.94342062357428, 41.56984989322793], [-70.94153148597569, 41.56790087842728], [-70.93918649091772, 41.566211256536434], [-70.93745002809194, 41.564628711500475], [-70.93705398702618, 41.56395090329383], [-70.93659658603465, 41.56267067489672], [-70.93641419472182, 41.5613861733924], [-70.93671759320979, 41.558346116130394], [-70.93659606809419, 41.55768204763265], [-70.9352861200046, 41.55648817612021], [-70.93528583730134, 41.55630810043265], [-70.93562156258022, 41.556149395354744], [-70.93680884091309, 41.554868884537385], [-70.9369608204608, 41.55217358458278], [-70.9365950612158, 41.55070303978406], [-70.93629090583347, 41.5500234426039], [-70.934768404813, 41.54874353199005], [-70.933762375349, 41.5476614501151], [-70.93202696219248, 41.54457463730575], [-70.92992645593682, 41.54133234329259], [-70.92886036133291, 41.540143554658776], [-70.92822146154897, 41.53913642434124], [-70.9283126204336, 41.53890953961877], [-70.92876936954481, 41.538839250844276], [-70.92968249556503, 41.53899465403645], [-70.93263577926493, 41.540277850101255], [-70.93440179372071, 41.540482492935595], [-70.94046054687486, 41.540254785052824], [-70.94262199886582, 41.5397769665541], [-70.94435716649734, 41.53913495477091], [-70.94642669355798, 41.53728129864266], [-70.94724829849999, 41.53597919812398], [-70.94706523533172, 41.53464970239653], [-70.94730786892848, 41.53250237584891], [-70.94794728210982, 41.52978074263454], [-70.94819059804533, 41.529506745683605], [-70.95013837045721, 41.52909527500163], [-70.95436910494773, 41.52777188953547], [-70.9548255487454, 41.52783598318817], [-70.95345635058388, 41.52870613341214], [-70.9502907832091, 41.52996656277268], [-70.95004730969757, 41.53019553593553], [-70.95007768484797, 41.530582283895505], [-70.95105131378763, 41.531403514997294], [-70.95333540142997, 41.53252649451002], [-70.95449205663257, 41.53255175898327], [-70.95558815086237, 41.532983571204234], [-70.95631948963785, 41.53297975632433], [-70.9560440891221, 41.52986878596541], [-70.95643967001264, 41.52909636331189], [-70.9565610446898, 41.52838284354447], [-70.95640883196019, 41.5276111734408], [-70.95607324751569, 41.5272927438172], [-70.95522052059293, 41.5273342399446], [-70.95546408361871, 41.5267175302113], [-70.95531141260254, 41.52589183423061], [-70.95363584258008, 41.52150741832718], [-70.95326967095316, 41.52012696439463], [-70.95317831268822, 41.519074784829336], [-70.95260007405192, 41.517454708847566], [-70.95259905797704, 41.51665337527142], [-70.95314650120397, 41.51470784065788], [-70.95342025724621, 41.5143878357685], [-70.95412080024049, 41.51434900744595], [-70.95463734909531, 41.514574332370564], [-70.95567247439975, 41.51569181616372], [-70.95616054380899, 41.51643077506233], [-70.95640463127401, 41.51768739208689], [-70.95725728764825, 41.518987446199326], [-70.95771434275838, 41.52182579355774], [-70.95792836622994, 41.52458644729724], [-70.95829438489066, 41.52573334729988], [-70.95966502696314, 41.528474193548035], [-70.96094439453395, 41.52941609321465], [-70.96298421805965, 41.53007459497757], [-70.96347128346214, 41.530552968322205], [-70.9635632776926, 41.531037351414845], [-70.96395880809386, 41.53133689991618], [-70.96599824795932, 41.53153615721964], [-70.96718536937, 41.531948027050305], [-70.96831232784866, 41.53264040059052], [-70.96837388060649, 41.533593954210765], [-70.9691369533195, 41.53588615442396], [-70.9694413778362, 41.53629499445026], [-70.96941172404503, 41.536620114040254], [-70.96798054545161, 41.53650030246642], [-70.96791923991276, 41.53678025492307], [-70.96846781925214, 41.53725721111337], [-70.968437262017, 41.53773538894359], [-70.96831536468191, 41.53800717966069], [-70.96703856847427, 41.538974716484994], [-70.96706890353761, 41.53933443922072], [-70.96776961571227, 41.54023190978944], [-70.96776976529763, 41.5404389953329], [-70.96688706168476, 41.54104878826202], [-70.96606527392434, 41.54191828424868], [-70.9661876750635, 41.54219516508258], [-70.96682678684587, 41.54214864804093], [-70.9685923399829, 41.54267632165544], [-70.96938408535387, 41.542627128150194], [-70.96993272887974, 41.542311185579685], [-70.97090665123216, 41.542583030034855], [-70.97081562204944, 41.54306148489133], [-70.97118147562306, 41.54331641828028], [-70.97115148710047, 41.54352448886188], [-70.97026853369849, 41.54393566764833], [-70.96999436405864, 41.54425571170665], [-70.96889829763103, 41.54459835720247], [-70.9673157519164, 41.54464327268064], [-70.96728503726214, 41.54486934628244], [-70.96804655748015, 41.54521618249164], [-70.96868635596294, 41.54588094951669], [-70.96871711405166, 41.54741116243966], [-70.96835187086123, 41.548119618833425], [-70.9689305736479, 41.548091939637025], [-70.96960029485103, 41.54761224733448], [-70.96972256144308, 41.54736690067398], [-70.96969137757478, 41.5463138906567], [-70.9698435226295, 41.545987092011444], [-70.97127388158462, 41.54496283974583], [-70.9739830465691, 41.54395293822464], [-70.97513971880245, 41.54388795455577], [-70.97517027707926, 41.54356339593978], [-70.97477348725104, 41.54317384432912], [-70.97431734398725, 41.543172858654074], [-70.97361787224247, 41.54354495442095], [-70.97337297748795, 41.54306268877696], [-70.97413362568223, 41.54228457762643], [-70.97425534050842, 41.54180513688403], [-70.97419376106113, 41.54113970448284], [-70.97334065338995, 41.54047903933737], [-70.97102616040613, 41.53949194596619], [-70.96999122477803, 41.53965368718339], [-70.96944438032102, 41.540410819011214], [-70.96917059147192, 41.54055022179013], [-70.96865266237837, 41.54046001293437], [-70.96819494359887, 41.53965766692492], [-70.96856018092625, 41.53883159619386], [-70.9690163557861, 41.53832896602025], [-70.96959549618471, 41.53823769286073], [-70.96983888156983, 41.53851288396675], [-70.9708735875041, 41.53851320951031], [-70.97078122372058, 41.537091880237554], [-70.96995907663582, 41.536070069750814], [-70.9699581161993, 41.534647482846246], [-70.97178292321917, 41.53286931549897], [-70.97220839390343, 41.53097095901714], [-70.9727860632879, 41.530573537859745], [-70.97519121485468, 41.5306494018982], [-70.97583021203515, 41.53089938846912], [-70.97759687144604, 41.53190469038176], [-70.97695790855295, 41.532726152009296], [-70.97689761593611, 41.533186745605875], [-70.97638035786616, 41.53329465588296], [-70.97637919733455, 41.53231324925686], [-70.97601412865046, 41.53231043919988], [-70.97476646656052, 41.532790871891535], [-70.9743717340791, 41.533437309926136], [-70.97351930577359, 41.534118206766735], [-70.97287990408832, 41.53421033638127], [-70.97248461309034, 41.53469414086594], [-70.97248550680523, 41.53515333292576], [-70.97297173217645, 41.53536098339553], [-70.97342882218427, 41.53530852425482], [-70.97388528179087, 41.53487733841357], [-70.97555948878662, 41.534308282515006], [-70.97607645869171, 41.53444347401435], [-70.97787452234763, 41.53633972237791], [-70.9779662672774, 41.53691468722246], [-70.97732687833121, 41.537439027781325], [-70.97662678608214, 41.537577043064374], [-70.97540884828113, 41.53731876011825], [-70.97507421006127, 41.536820317974495], [-70.97467823886127, 41.5369529833253], [-70.9733079650133, 41.53789483012355], [-70.97321843801267, 41.53931024416573], [-70.97343223333195, 41.53940577470782], [-70.97385822885555, 41.539290701906914], [-70.97428309670435, 41.538148644071704], [-70.9744963539309, 41.538081536583576], [-70.97574433844879, 41.53833040612316], [-70.97641490133347, 41.53876005028324], [-70.9770535517833, 41.53819070193856], [-70.97735799161171, 41.538492034588145], [-70.97830269252738, 41.538943754792065], [-70.97851594357479, 41.538877206962574], [-70.97869812955994, 41.538486941791284], [-70.98000696874225, 41.53871635274012], [-70.9813464733731, 41.53851314480835], [-70.98149956402284, 41.539123276179204], [-70.98183469323996, 41.539405613061305], [-70.98308274859399, 41.53965383478115], [-70.98375259798338, 41.54015602873547], [-70.9838147478074, 41.54162278547138], [-70.9846983517235, 41.542255931520124], [-70.98503490272736, 41.54371773813453], [-70.98579677506646, 41.54473129589984], [-70.98826413007444, 41.54559835127935], [-70.98935977057607, 41.545462043621214], [-70.98987761876153, 41.54575924188221], [-70.99027299373232, 41.54575257216524], [-70.99057719073788, 41.545459067091315], [-70.99140009755753, 41.54573343384735], [-70.9919177275216, 41.545705922264105], [-70.99426314895288, 41.547421464471356], [-70.99450678280846, 41.547327452621836], [-70.99383509453637, 41.545708859057996], [-70.9971855685368, 41.54655152603992], [-70.99822113089934, 41.546983781741346], [-70.99843520101015, 41.548033655243884], [-70.99952950880352, 41.54867042463958], [-71.0005968687215, 41.54805724749352], [-71.00117485863547, 41.54819146692972], [-71.00047313381967, 41.549563692404824], [-71.000776295238, 41.55139614708893], [-71.00034901337712, 41.552151701459785], [-71.00049886093613, 41.55459967545129], [-70.99973661330074, 41.555964310709015], [-70.99973559986977, 41.556261427405886], [-71.00013222353708, 41.55624573390714], [-71.00086393958037, 41.55509760813101], [-71.0013512408466, 41.55498100865815], [-71.00174721417964, 41.55521740946354], [-71.00229441420883, 41.55597386650519], [-71.0020794173919, 41.558212019737546], [-71.00299196980941, 41.55907868595033], [-71.00271713099367, 41.55978652180029], [-71.00195567087428, 41.56056537875971], [-71.0018023130333, 41.561595059204684], [-71.00213664792837, 41.56195836493342], [-71.0021661946782, 41.562904438158235], [-71.00344461861187, 41.564088957661355], [-71.00338234773122, 41.56530643185122], [-71.00344352674344, 41.56548564731114], [-71.00380883800715, 41.565506376725374], [-71.00417522184084, 41.56519340661076], [-71.00426774042938, 41.56345329299927], [-71.00402383980662, 41.56289906061422], [-71.0033846315538, 41.56223449746794], [-71.00338586693098, 41.561711731763864], [-71.00375220687144, 41.5602907533026], [-71.00439302029491, 41.55917146943273], [-71.00418002415844, 41.55864382501258], [-71.00418085826003, 41.55807603026238], [-71.00436331401214, 41.55768573437879], [-71.00454838124642, 41.556132841883695], [-71.00442743854258, 41.555351245886094], [-71.00275290850414, 41.55416388664174], [-71.00260110021826, 41.553887484393094], [-71.00269314425518, 41.55327281988461], [-71.00232802831215, 41.55251378654791], [-71.00232879844354, 41.55212607391792], [-71.00269410810776, 41.5518947045095], [-71.00305951880969, 41.55205949580411], [-71.003272281489, 41.55254212302673], [-71.00375918640734, 41.552885265918555], [-71.00424694208235, 41.55294872947071], [-71.00445995516215, 41.55274651851601], [-71.00470663166948, 41.54901275643325], [-71.00525511489049, 41.547804721744214], [-71.00550076290368, 41.54608890076146], [-71.0063856032384, 41.54492002370137], [-71.00620319526176, 41.544581034830095], [-71.00477180042063, 41.544578734865496], [-71.00431498943243, 41.54429875318486], [-71.00507754461465, 41.542888504360754], [-71.00428625432518, 41.543001541552705], [-71.00373723938277, 41.54343469544284], [-71.00324951433869, 41.54349727186265], [-71.00264064698044, 41.54329146546696], [-71.00197259673887, 41.542654903834446], [-71.00093743403127, 41.54217709838284], [-70.99978090050313, 41.541008284398224], [-70.99950748619264, 41.54094067732262], [-70.99929388117367, 41.53980752410913], [-70.99949166363444, 41.53944206399589], [-70.99921737599178, 41.53943803624992], [-70.99873064993709, 41.539734701936375], [-70.9979112391764, 41.54186495061859], [-70.99715022951008, 41.541842449697626], [-70.99657279543648, 41.54252754600383], [-70.99456358742749, 41.54335483494281], [-70.99450335953797, 41.543653371672036], [-70.99468609093682, 41.544037408421666], [-70.99416950347671, 41.54424444342629], [-70.99380373738775, 41.544178662069605], [-70.99203666245785, 41.54312859451204], [-70.99109309546552, 41.54317219643478], [-70.98957171734428, 41.54443207580028], [-70.98862758193573, 41.5443580487535], [-70.98750061617267, 41.54337831917145], [-70.98625054879844, 41.541643396082556], [-70.98612788511488, 41.540547210482025], [-70.9857617094661, 41.53974309971537], [-70.98594362311611, 41.53910071891487], [-70.98554776230166, 41.53880124615237], [-70.98533473494705, 41.53832758754907], [-70.98566856185117, 41.537934622387425], [-70.98679532041828, 41.53782492484613], [-70.98706886085412, 41.537639902072826], [-70.98709936692698, 41.53736035872807], [-70.98609343826425, 41.53606322367692], [-70.9861235268622, 41.53560304695536], [-70.98636673028284, 41.5355810712025], [-70.98682421414894, 41.535924154436195], [-70.98761551373151, 41.535964868974276], [-70.98795042782544, 41.53576098832453], [-70.98843669267163, 41.53496016096286], [-70.98822357282991, 41.53475661767738], [-70.98822324936016, 41.534234403114134], [-70.9887398924449, 41.533685256143045], [-70.98691192100618, 41.53242887407892], [-70.98493228443253, 41.53158031598317], [-70.98453744092716, 41.53169557145722], [-70.98432450458337, 41.532401392881845], [-70.98469106066041, 41.533475620415395], [-70.98469118814178, 41.53420491877522], [-70.98508727530842, 41.53484654436402], [-70.98521059170544, 41.53588027551599], [-70.98493742007454, 41.53709171462255], [-70.98414680808796, 41.53803295267828], [-70.98390341084776, 41.53793786602625], [-70.98387170161602, 41.53755113095441], [-70.98438942962657, 41.53636274729813], [-70.98435748241518, 41.53512065299447], [-70.98377834452741, 41.53491431266137], [-70.98320113414307, 41.53532979911527], [-70.98222661304938, 41.53541820431225], [-70.98125298740922, 41.53602038218089], [-70.98046100580709, 41.535764099079884], [-70.97966933853658, 41.53503004960211], [-70.97966868342517, 41.53437277797861], [-70.98048982816947, 41.533224068003996], [-70.98100666889914, 41.532819015738774], [-70.98133974918302, 41.53092188751858], [-70.98118724342916, 41.52950198588757], [-70.98042521435335, 41.52851540674713], [-70.97939024136664, 41.52840712215524], [-70.9783867966331, 41.52870358032998], [-70.97789913261994, 41.52858541588496], [-70.97789893362939, 41.528333311948316], [-70.97890291002794, 41.527487636157886], [-70.97963235315092, 41.52618770030365], [-70.98346272166603, 41.52113275139059], [-70.98397925102323, 41.52012388050697], [-70.9839795330036, 41.51948462099836], [-70.98324806765935, 41.51824553864617], [-70.98312608436322, 41.517635542522314], [-70.98336753784776, 41.516010353582324], [-70.98324492596791, 41.51557086630079], [-70.98129660920108, 41.513974522138525], [-70.98141785789176, 41.513378015715524], [-70.98129477904708, 41.511957691054064], [-70.98193204303011, 41.50983010835391], [-70.98251026535145, 41.50910007304652], [-70.98317947962707, 41.508899414975524], [-70.98445684985457, 41.508895096578186], [-70.98695289413307, 41.50946463695159], [-70.98990483903906, 41.50989999208306], [-70.99179203285276, 41.510695713320956], [-70.9952916126801, 41.511427690978955], [-71.00054044795507, 41.5118583304007], [-71.00629277278263, 41.51161451865535], [-71.00632239282565, 41.51197422656278], [-71.00540955825916, 41.51234165252792], [-71.00333855479923, 41.512728768228584], [-71.00139093474917, 41.51277199843751], [-70.99950646139385, 41.51254086208556], [-70.9977895050945, 41.512932814029845], [-70.99696869935465, 41.51344238731695], [-70.99669566758304, 41.514032609338756], [-70.99690888921373, 41.51476735337303], [-70.99739678162601, 41.51518199107393], [-70.99739670432221, 41.51547911162289], [-70.99712279182387, 41.515799220920286], [-70.9972455377463, 41.516256700703174], [-70.99700253341011, 41.51717005402559], [-70.99889025987305, 41.51762352822931], [-70.99928526650005, 41.517256679765346], [-70.99940601151208, 41.51634503337895], [-70.99891903936876, 41.51640759357851], [-70.99840172165688, 41.51671368370626], [-70.99800625759521, 41.51668436588121], [-70.99843105772236, 41.51552420439678], [-70.99882626512492, 41.515130356504365], [-70.99882601528053, 41.51492327116583], [-70.99849122094396, 41.51460497124192], [-70.99779068830428, 41.51431094687892], [-70.99769941419655, 41.51401510572273], [-70.99812463438761, 41.51327868675584], [-70.9988768713359, 41.51308674868863], [-71.0020296795665, 41.51367066734529], [-71.00370299867532, 41.513596406636324], [-71.00513438781732, 41.51304893270088], [-71.0061698864114, 41.51294089790312], [-71.00668733700184, 41.51270680253022], [-71.00781407716848, 41.51165995100333], [-71.01801132657282, 41.50967058944107], [-71.0197772703107, 41.509081017789015], [-71.02056905342434, 41.5087157835898], [-71.02093399445732, 41.50836674091007], [-71.02117751148529, 41.50791195913944], [-71.02087342232673, 41.50743067311868], [-71.02093507358671, 41.50651987243829], [-71.02163517685842, 41.50589482183249], [-71.02236562056618, 41.504412297512076], [-71.02916590637784, 41.513856278925346], [-71.0327980710236, 41.52745103619142], [-71.02634304495413, 41.530267185235374], [-71.02886095546505, 41.53630223087936], [-71.02939495718779, 41.537270087298], [-71.03096708381598, 41.5432212532913], [-71.0315619050973, 41.54612795351954], [-71.03061602042887, 41.54814986856691], [-71.03102807407026, 41.54995792883104], [-71.03115006267613, 41.551637046428546], [-71.0310279085647, 41.55251383982402], [-71.03020397611778, 41.55441413923044], [-71.02941008337382, 41.55749572877189], [-71.03017293511351, 41.56071488459997], [-71.03176006411634, 41.56585689856727], [-71.03233993455956, 41.569381967385084], [-71.03499605753629, 41.57375289180829], [-71.04099301201597, 41.582061767700296], [-71.0430069574492, 41.58435793969513], [-71.04517397644179, 41.58741718040987], [-71.04534108293952, 41.58887475673215], [-71.04492907893831, 41.58997323613624], [-71.0420610878718, 41.592322920140504], [-71.03969603327265, 41.59400211540356], [-71.03938996296594, 41.59502391511763], [-71.03887209065364, 41.59591711086816], [-71.0371019131007, 41.59810624664589], [-71.0385209713582, 41.60867273754166], [-71.0366899142066, 41.61707301814209], [-71.03681203581785, 41.61905712920446], [-71.03768405420496, 41.6224229861966], [-71.03893302612501, 41.622823094306995], [-71.03710205885633, 41.62413806495217], [-71.03804806281212, 41.6263579377411], [-71.03897802082213, 41.62802907263553], [-71.04073308844825, 41.63050824647971], [-71.04300699365311, 41.63308682683595], [-71.04413600587826, 41.63480373676598], [-71.04483806854597, 41.636574083215706], [-71.04576899806136, 41.63688618115251], [-71.04689903134334, 41.637604229274395], [-71.04912707192864, 41.64029673166785], [-71.05236108841436, 41.64929177187011], [-71.05341404412131, 41.65142021375195], [-71.05522997469703, 41.654517830996234], [-71.06058599233836, 41.66191825970792], [-71.0631649238603, 41.665907801616584], [-71.06423297308864, 41.667098127473885], [-71.06569791014994, 41.66834116277292], [-71.07517407946746, 41.678122251885895], [-71.07638691500972, 41.68610173852774], [-71.06998691862384, 41.68450209662217], [-71.02708599316378, 41.70480225187388], [-71.02675690677304, 41.70528313768248], [-71.01528508478248, 41.71040183649185], [-71.01088496476082, 41.72560201559434], [-71.00748496684298, 41.736302268863135], [-71.04498594161225, 41.74600213558886], [-71.0806870562574, 41.75490193163104], [-71.11528808868813, 41.763901026694896], [-71.0860479181018, 41.775540911519975], [-71.0836160449872, 41.77637276188865], [-71.07740791255218, 41.77917310330455], [-71.07676691023661, 41.7793012765647], [-71.07454308040361, 41.78029295331643], [-71.0725429229703, 41.78152515600413], [-71.07119898955324, 41.78259716284088], [-71.06811091884536, 41.78547678329366], [-71.06700704699468, 41.78613323396271], [-71.05851105022805, 41.79363721409769], [-71.05846298076685, 41.79376477102339], [-71.0594870001235, 41.7940050778942], [-71.05836704315738, 41.798692746298826], [-71.0580950330686, 41.798660737720304], [-71.05219100351579, 41.80138098638047], [-71.05215904530029, 41.80054915293596], [-71.0526709085888, 41.80013305340972], [-71.04803101389885, 41.79928473529601], [-71.04271905430302, 41.797973215078855], [-71.03766307628118, 41.79722127622352], [-71.02935807264252, 41.796998211614536], [-71.02921397813122, 41.797493941031696], [-71.0277099301023, 41.79874204023113], [-71.02620604868052, 41.79882189183215], [-71.026206076983, 41.7993497291397], [-71.02559804647673, 41.800868811907776], [-71.02591796699943, 41.801461005351754], [-71.02591805065397, 41.8019567719367], [-71.02490990184135, 41.802437077470806], [-71.0247820204519, 41.8029970196859], [-71.02487792718706, 41.803525256573295], [-71.02473402202915, 41.80381277248324], [-71.02441391435907, 41.80422898025812], [-71.02367800715702, 41.80458099245627], [-71.02332592473707, 41.80517319237838], [-71.02316605908075, 41.805909136814115], [-71.03664602833233, 41.81632787499538], [-71.0324190890516, 41.81932626004121], [-71.02394997281753, 41.825741743709564], [-71.00798900275697, 41.837965054223226], [-71.00585297103369, 41.83974978942493], [-70.99948608039323, 41.844031940757205], [-70.9963499278859, 41.84637314867267]]]]}}