{"type": "Feature", "properties": {"district_name": "13th Essex District", "chamber": "house", "vintage": "2012-2020"}, "geometry": {"type": "Polygon", "coordinates": [[[-71.043345, 42.63252099999999], [-71.02230999999999, 42.641636], [-70.985348, 42.62171800000001], [-70.983623, 42.621876000000015], [-70.982295, 42.621594], [-70.980019, 42.62172599999999], [-70.978002, 42.621404999999996], [-70.977642, 42.620857000000015], [-70.976721, 42.62088000000001], [-70.97751699999999, 42.62006400000001], [-70.982511, 42.61659299999999], [-70.98346099999999, 42.614499], [-70.983568, 42.61389800000001], [-70.985231, 42.61232], [-70.985192, 42.61173500000001], [-70.984743, 42.611464000000005], [-70.98273700000001, 42.60946799999999], [-70.982613, 42.60914200000003], [-70.983308, 42.60812], [-70.98306, 42.60759399999999], [-70.98189099999999, 42.60673200000001], [-70.980761, 42.60656699999999], [-70.979871, 42.60605100000001], [-70.978702, 42.605940000000004], [-70.977471, 42.605295], [-70.976008, 42.604942], [-70.97528, 42.60425199999999], [-70.97345299999999, 42.60296899999999], [-70.970585, 42.602813999999995], [-70.969545, 42.60223500000001], [-70.969235, 42.60147499999998], [-70.968639, 42.60099], [-70.967478, 42.600716999999996], [-70.96641, 42.60112699999998], [-70.965535, 42.600156], [-70.964659, 42.599647], [-70.962941, 42.60045999999999], [-70.954722, 42.605322], [-70.943861, 42.60957400000001], [-70.932422, 42.613238], [-70.93164999999999, 42.612496999999976], [-70.93109, 42.612444], [-70.929452, 42.60897999999998], [-70.933883, 42.59959700000001], [-70.927497, 42.592228000000006], [-70.922263, 42.59151200000001], [-70.908332, 42.572972], [-70.908591, 42.557477], [-70.911669, 42.54964799999998], [-70.91239399999999, 42.54669499999999], [-70.908399, 42.545558], [-70.909584, 42.544473999999994], [-70.90992899999999, 42.54359799999998], [-70.909835, 42.543108000000004], [-70.90953999999999, 42.542947999999996], [-70.909589, 42.54254699999999], [-70.907922, 42.54033499999999], [-70.909408, 42.54047399999998], [-70.909618, 42.540763], [-70.913099, 42.54139599999999], [-70.923104, 42.54361199999999], [-70.923996, 42.54386900000001], [-70.926587, 42.54534599999998], [-70.92808699999999, 42.54587399999999], [-70.92845, 42.54515199999998], [-70.928675, 42.545137000000004], [-70.92873399999999, 42.54497700000001], [-70.930965, 42.54577300000002], [-70.93204, 42.545865], [-70.93487499999999, 42.54666200000001], [-70.935752, 42.547048999999994], [-70.936763, 42.547101], [-70.937428, 42.54738700000001], [-70.937938, 42.547209999999986], [-70.938739, 42.546527], [-70.93921499999999, 42.546350999999994], [-70.939669, 42.546479999999995], [-70.94017099999999, 42.54604399999996], [-70.94078999999999, 42.54599300000001], [-70.94118399999999, 42.546445], [-70.942166, 42.54694200000001], [-70.971734, 42.55402100000001], [-70.97679, 42.551367000000006], [-70.977854, 42.550593999999975], [-70.977047, 42.549521000000006], [-70.977553, 42.54930100000001], [-70.978642, 42.548430999999994], [-70.978827, 42.54794499999999], [-70.978797, 42.54706600000001], [-70.979118, 42.546709], [-70.981421, 42.545851000000006], [-70.98319099999999, 42.548301], [-70.98390599999999, 42.548710000000014], [-70.985115, 42.54896199999999], [-70.985596, 42.549609000000004], [-70.985777, 42.550036000000006], [-70.985776, 42.55069299999999], [-70.984945, 42.551951], [-70.986302, 42.553183999999995], [-70.986871, 42.552751999999984], [-70.98792399999999, 42.55343499999998], [-70.988231, 42.553091], [-70.98998499999999, 42.552366], [-70.990766, 42.552452], [-70.99118399999999, 42.55266799999998], [-70.992274, 42.552122], [-70.99717, 42.55188299999998], [-70.998768, 42.55202000000001], [-70.999078, 42.550324], [-70.999845, 42.550404], [-71.001049, 42.54943000000001], [-71.001819, 42.54921900000001], [-71.00041700000001, 42.546398999999994], [-70.99930599999999, 42.545343], [-70.997793, 42.544463999999984], [-70.996351, 42.544017], [-70.99479199999999, 42.543797000000005], [-70.995121, 42.542623000000006], [-70.99506199999999, 42.541360999999995], [-70.995251, 42.540411], [-70.994765, 42.54033300000002], [-70.995449, 42.53840099999999], [-70.996027, 42.537725000000016], [-70.995764, 42.53756900000002], [-70.995295, 42.536753999999995], [-71.001683, 42.536910000000006], [-70.999044, 42.530032999999996], [-70.998746, 42.52591299999999], [-70.996866, 42.52281000000001], [-70.997519, 42.521727000000006], [-70.99937700000001, 42.519385000000014], [-71.005288, 42.52299200000001], [-71.03155799999999, 42.551203], [-71.034847, 42.56550000000002], [-71.02981, 42.565157], [-71.02933, 42.569796], [-71.027241, 42.56943900000001], [-71.02610400000002, 42.56947299999998], [-71.02434099999999, 42.56919800000001], [-71.023923, 42.56938999999999], [-71.02349699999999, 42.57019899999999], [-71.02322699999999, 42.570240000000005], [-71.021332, 42.569755], [-71.021169, 42.56959199999999], [-71.021, 42.56863100000002], [-71.019639, 42.56813300000001], [-71.018115, 42.567885000000004], [-71.015154, 42.567747999999995], [-71.01411, 42.566875], [-71.012889, 42.56612200000002], [-71.011164, 42.565441], [-71.009866, 42.56471199999998], [-71.009163, 42.564644], [-71.008558, 42.563939999999995], [-71.008222, 42.563911000000004], [-71.007105, 42.564574], [-71.00469799999999, 42.565121000000005], [-71.00350999999999, 42.564944], [-71.00331299999999, 42.56478999999998], [-71.00322299999999, 42.56405100000002], [-71.002876, 42.563184], [-71.002578, 42.563351000000004], [-71.00233, 42.56376600000002], [-71.001992, 42.565386000000004], [-71.001265, 42.56546600000001], [-71.00066199999999, 42.566066000000006], [-71.00012199999999, 42.56614299999999], [-70.99881599999999, 42.566916], [-70.997997, 42.56698399999999], [-70.997402, 42.567477000000004], [-70.997355, 42.56771600000002], [-70.997766, 42.568014], [-70.9978, 42.56821399999999], [-70.997253, 42.56855300000001], [-70.99719, 42.568969], [-70.99659199999999, 42.56886400000001], [-70.996816, 42.569355], [-70.996552, 42.569780000000016], [-70.996121, 42.569916000000006], [-70.996191, 42.570061999999986], [-70.99698099999999, 42.570163000000015], [-70.99680699999999, 42.571174000000006], [-70.996495, 42.571348], [-70.99638399999999, 42.570975999999995], [-70.99611, 42.57093400000001], [-70.995673, 42.57128899999999], [-70.995284, 42.571333], [-70.995269, 42.571554], [-70.995784, 42.571884000000004], [-70.995775, 42.572109000000005], [-70.994565, 42.572318], [-70.99506, 42.57350799999999], [-70.99484199999999, 42.573628], [-70.993798, 42.573567999999995], [-70.993363, 42.573873], [-71.009614, 42.586513], [-71.01171099999999, 42.58856199999998], [-71.014477, 42.59259000000001], [-71.01543699999999, 42.594646], [-71.016042, 42.595406000000004], [-71.018012, 42.596993], [-71.022014, 42.599219999999995], [-71.02242500000001, 42.60077599999998], [-71.024993, 42.60329699999999], [-71.02565299999999, 42.606747999999996], [-71.025993, 42.60741], [-71.02801199999999, 42.608720000000005], [-71.029558, 42.611715], [-71.030649, 42.612826000000005], [-71.032872, 42.61445500000001], [-71.03378, 42.615549000000016], [-71.035584, 42.616716000000004], [-71.036701, 42.61862699999998], [-71.037864, 42.61982500000001], [-71.038099, 42.620433000000006], [-71.03821099999999, 42.621780999999984], [-71.039412, 42.62319399999999], [-71.04028, 42.625097000000004], [-71.04026499999999, 42.627421], [-71.04042299999999, 42.628181999999995], [-71.041082, 42.629513], [-71.04301, 42.631524], [-71.043345, 42.63252099999999]]]}}