{"type": "Feature", "properties": {"district_name": "3rd Essex District", "chamber": "house", "vintage": "2022-present"}, "geometry": {"type": "Polygon", "coordinates": [[[-71.147939, 42.816176], [-71.132805, 42.821476000000004], [-71.064416, 42.80627499999997], [-71.054005, 42.83328199999999], [-70.999611, 42.81054499999998], [-70.998771, 42.80899900000001], [-70.998602, 42.80753099999999], [-70.99875, 42.806964999999984], [-70.999834, 42.80503999999999], [-71.001711, 42.802800000000005], [-71.003435, 42.801100999999996], [-71.005525, 42.79979599999999], [-71.013256, 42.796008000000015], [-71.01703, 42.793288000000004], [-71.018708, 42.79160500000001], [-71.019301, 42.790701], [-71.019757, 42.78952599999999], [-71.020193, 42.78727], [-71.020381, 42.78429599999999], [-71.021904, 42.779633], [-71.024235, 42.77576000000001], [-71.026732, 42.772696999999994], [-71.030065, 42.769217], [-71.037965, 42.75894500000003], [-71.040017, 42.757721000000004], [-71.042567, 42.757041], [-71.042073, 42.755053999999994], [-71.041774, 42.754654000000016], [-71.041998, 42.754416000000006], [-71.04275, 42.75433799999999], [-71.042901, 42.753978], [-71.044096, 42.753214000000014], [-71.044524, 42.74903400000002], [-71.048341, 42.746144999999984], [-71.052849, 42.73988700000001], [-71.058116, 42.734209], [-71.058883, 42.73246300000001], [-71.072111, 42.73266800000001], [-71.074289, 42.734563000000016], [-71.08191, 42.736685], [-71.084173, 42.736484999999995], [-71.08433400000001, 42.738454999999995], [-71.084973, 42.740718], [-71.085163, 42.742965000000005], [-71.085141, 42.74662200000001], [-71.084906, 42.749683000000005], [-71.084244, 42.752095], [-71.081375, 42.75651100000001], [-71.080899, 42.75774200000001], [-71.080326, 42.760161], [-71.07934, 42.76009199999998], [-71.078774, 42.76095599999999], [-71.076414, 42.76031799999999], [-71.076169, 42.76068400000001], [-71.074891, 42.760327], [-71.073737, 42.76155399999999], [-71.072845, 42.761229], [-71.070958, 42.76331], [-71.069398, 42.763192999999994], [-71.068694, 42.762933], [-71.06592300000001, 42.76602], [-71.065904, 42.76623399999999], [-71.066415, 42.766893999999986], [-71.068192, 42.768606999999996], [-71.068731, 42.768941000000005], [-71.068276, 42.769534000000014], [-71.068856, 42.77009], [-71.06824, 42.770407000000006], [-71.067577, 42.77032399999999], [-71.066701, 42.770990000000005], [-71.069056, 42.77236299999998], [-71.071487, 42.773229], [-71.076184, 42.773669000000005], [-71.084101, 42.77179000000002], [-71.08618, 42.770813000000004], [-71.086961, 42.770597000000016], [-71.093587, 42.765892999999984], [-71.095898, 42.763391], [-71.099602, 42.76238999999999], [-71.103702, 42.76259], [-71.104904, 42.763224000000015], [-71.104153, 42.763783999999994], [-71.105756, 42.764562000000005], [-71.106198, 42.765077], [-71.10699, 42.76552100000001], [-71.10911800000001, 42.767207000000006], [-71.108667, 42.767327999999985], [-71.105823, 42.76590899999999], [-71.104605, 42.76726000000001], [-71.104722, 42.767762999999995], [-71.104178, 42.76933300000001], [-71.104724, 42.77119399999999], [-71.105331, 42.77203399999999], [-71.103039, 42.773624999999996], [-71.103145, 42.774066999999995], [-71.103461, 42.774421999999994], [-71.102418, 42.775451999999994], [-71.10093, 42.77568900000002], [-71.100085, 42.776104999999994], [-71.09973, 42.77691300000001], [-71.10001, 42.778690000000005], [-71.098905, 42.779002000000006], [-71.105791, 42.781014], [-71.109569, 42.78171099999999], [-71.115979, 42.783404], [-71.114251, 42.786168999999994], [-71.112495, 42.788025999999995], [-71.113196, 42.788411999999994], [-71.114307, 42.78954200000001], [-71.114866, 42.790668000000004], [-71.115052, 42.79194], [-71.114596, 42.792427], [-71.113943, 42.79144500000002], [-71.108017, 42.79396700000001], [-71.108707, 42.794586], [-71.110024, 42.79538599999999], [-71.111425, 42.796607], [-71.112063, 42.79762300000001], [-71.112833, 42.79952000000001], [-71.114098, 42.80043299999999], [-71.117921, 42.79917699999999], [-71.118629, 42.799418], [-71.119192, 42.800367], [-71.119941, 42.800043], [-71.120222, 42.800288], [-71.120642, 42.801205], [-71.120552, 42.801870999999984], [-71.121362, 42.801919000000005], [-71.122309, 42.80252], [-71.124004, 42.802572], [-71.125163, 42.802373], [-71.12825, 42.801298], [-71.130461, 42.80212900000002], [-71.138817, 42.807796000000025], [-71.142083, 42.81099299999999], [-71.144104, 42.811875], [-71.145238, 42.812611999999994], [-71.146967, 42.8144], [-71.147939, 42.816176]]]}}