{"type": "Feature", "properties": {"district_name": "9th Essex", "chamber": "house", "vintage": "2001-2010"}, "geometry": {"type": "Polygon", "coordinates": [[[-70.9869959431096, 42.51169599683402], [-70.97826907111492, 42.507337260372324], [-70.9687940469042, 42.50299523057659], [-70.9599939410548, 42.49799500479916], [-70.9584939721788, 42.49699486611842], [-70.95729406144697, 42.49669494352408], [-70.95749404046782, 42.49649501751138], [-70.95779407275992, 42.49409496786907], [-70.9590939548279, 42.492194760016226], [-70.95869407745968, 42.49059490765758], [-70.95869408745241, 42.48999510425906], [-70.96199403751952, 42.49099522410856], [-70.96219406198453, 42.49049481671927], [-70.96199392094036, 42.490295265558025], [-70.96282691666124, 42.488872784970106], [-70.96199396166463, 42.48859488490972], [-70.96149398879916, 42.48769509045832], [-70.96079408073516, 42.486995235167235], [-70.96189403681761, 42.487094904657894], [-70.96219396259585, 42.487495240615296], [-70.96289401917386, 42.48699491336882], [-70.96781190876956, 42.489114227554566], [-70.97169408626227, 42.49109523863521], [-70.97209399371694, 42.491094820445795], [-70.9745940661531, 42.48989481902688], [-70.97569509378357, 42.490995907938455], [-70.97519497691121, 42.49159625207834], [-70.97619399569852, 42.49239528184584], [-70.97779393615942, 42.493095179876015], [-70.97933502070944, 42.49335422651416], [-70.97959394571282, 42.493094886018255], [-70.98889508116267, 42.493794826939926], [-71.00179492016652, 42.49269502835876], [-70.99509598084953, 42.475395947173915], [-70.99459593910235, 42.47469604633973], [-70.99329501244165, 42.47079609891239], [-70.9920949363578, 42.4681969102473], [-70.99159396407227, 42.46639585092976], [-70.99069394681946, 42.464796144293835], [-70.99069404654004, 42.46419577149131], [-70.99159391530931, 42.46439612261342], [-70.9921939755178, 42.465095912584054], [-70.993494077066, 42.465096009341664], [-70.99329403031963, 42.46459604609791], [-70.99409397412417, 42.464395875385826], [-70.99509498961102, 42.46349605219117], [-70.9960950401422, 42.464095735553585], [-70.99779496226135, 42.46429615893034], [-71.00119493454918, 42.46509584991103], [-71.00189490907225, 42.46489575941486], [-71.00100708408613, 42.46400795901902], [-71.00079495473526, 42.46399578658847], [-70.9990950091417, 42.46269595975291], [-70.9994950335816, 42.46179573419682], [-70.99639501162814, 42.46159598419555], [-70.99449403892562, 42.4616962487929], [-70.9932939414166, 42.46079577240945], [-70.99599404016679, 42.460395743125375], [-70.99809500638227, 42.45979610716472], [-70.99917007973347, 42.46089574241591], [-70.99969506206232, 42.45949584972784], [-70.99999496792988, 42.459695769978005], [-71.00039503961754, 42.45909601588425], [-71.0012950406234, 42.45939588036387], [-71.00289495728808, 42.459496199090886], [-71.00519499328072, 42.45939581850302], [-71.00539495996732, 42.458895900934515], [-71.00719507774211, 42.45909604934302], [-71.0072949982528, 42.458196204685756], [-71.00709496479529, 42.45819590706867], [-71.00709508654087, 42.45759610118818], [-71.00639506053015, 42.45759592141674], [-71.00639495310676, 42.45719585789436], [-71.0040950317243, 42.457196107311496], [-71.00439499315844, 42.45639615562108], [-71.00399493314988, 42.45639612612242], [-71.00342501217696, 42.45524019582095], [-71.0020949334012, 42.4556958439553], [-71.00159501898129, 42.45609598693328], [-71.00089507824491, 42.45459625192836], [-71.00059500593676, 42.453196151199435], [-70.99979491437436, 42.45319605536187], [-70.99969399343831, 42.452796120520354], [-71.00019498556588, 42.45249614567296], [-70.9998939827686, 42.452296211668525], [-71.00076203346929, 42.45181777272841], [-71.0004470089239, 42.45079627914293], [-71.00129493336887, 42.450796019536476], [-71.0011950377807, 42.45009618183186], [-70.99909406213884, 42.45009606636828], [-70.99569398605078, 42.449795958807734], [-70.9961939923309, 42.4495961434148], [-70.99819395082706, 42.447795889128784], [-71.0007940065609, 42.444095803255586], [-71.00009396391052, 42.44339617812655], [-71.0012939344571, 42.44139601574072], [-71.00179400538283, 42.44199573863382], [-71.00389401861258, 42.44099592813878], [-71.00429407519295, 42.4413960231373], [-71.00509408156417, 42.441096188006476], [-71.00559508598188, 42.44189620971492], [-71.00899495740536, 42.44239577948954], [-71.00949502934452, 42.44119604240253], [-71.01209498087937, 42.44279607367273], [-71.01679490963348, 42.44819615548522], [-71.01829500333363, 42.44959617105192], [-71.01849500588172, 42.45009610094847], [-71.02029490879795, 42.448896119984276], [-71.02239501160429, 42.44699626794359], [-71.02309491787803, 42.44659572861874], [-71.02349507441825, 42.44609604942261], [-71.02479492065913, 42.445395830494036], [-71.02529496286658, 42.444895989923744], [-71.02961006490666, 42.44914103750392], [-71.0361959050161, 42.45679699136419], [-71.03909597936016, 42.45949481367998], [-71.04279593845861, 42.46389499530442], [-71.04459603217113, 42.465794939892575], [-71.04689596410162, 42.46869499360251], [-71.04729600360115, 42.46889518321478], [-71.04769592033306, 42.46969518299842], [-71.05349601726452, 42.47589475854143], [-71.05419607650602, 42.47699522569501], [-71.0536959607866, 42.47919500451179], [-71.05359606930318, 42.4810947336739], [-71.05299598999747, 42.48339483253078], [-71.05259603609748, 42.485794733128905], [-71.05149608165357, 42.4862951720176], [-71.04729593818492, 42.48769497113239], [-71.04689605692609, 42.4876950921152], [-71.04549608512728, 42.488594901844465], [-71.04238194044186, 42.4926332017796], [-71.04376992622416, 42.493306023638496], [-71.04634998868019, 42.49399421285369], [-71.04952099073412, 42.49429305049947], [-71.05271394242416, 42.49485126915512], [-71.05249709036688, 42.49519590255111], [-71.0531960930539, 42.49569488317035], [-71.05519597074773, 42.49609478990163], [-71.0575969755872, 42.497196163482656], [-71.05969597675936, 42.49699489036544], [-71.06109598350972, 42.49909501741633], [-71.06179598990921, 42.49979482362908], [-71.06449593774714, 42.49879507335758], [-71.0693970169577, 42.49949487491128], [-71.06939697412088, 42.501394978893366], [-71.06959691010002, 42.50229485869178], [-71.07139707810835, 42.50429507937421], [-71.0712970284844, 42.50469475484547], [-71.07189699276987, 42.50559499135928], [-71.0714969092761, 42.506894943779606], [-71.07149691670682, 42.50969474232064], [-71.07369706236142, 42.51309404592802], [-71.07439698686227, 42.51469402674828], [-71.07429692699583, 42.51529401037976], [-71.07379704313828, 42.51619411089384], [-71.07469395922979, 42.51689792899859], [-71.0772370597644, 42.51966375155812], [-71.07789701455458, 42.52129393567219], [-71.07739695285326, 42.522393788799874], [-71.07799708601458, 42.52279379046772], [-71.0786969489324, 42.52389409079893], [-71.07899806777331, 42.52439483070771], [-71.07909808705851, 42.52499498896066], [-71.07997194725883, 42.526589937922104], [-71.07529796024855, 42.53089515150389], [-71.0685259255366, 42.52539591385682], [-71.06775807065857, 42.52536097120067], [-71.06679801902335, 42.52459496236379], [-71.06589800242962, 42.52439521450794], [-71.0620980729774, 42.524394908763256], [-71.05769805141429, 42.523894796471254], [-71.05286997713424, 42.53156208640623], [-71.05161100256922, 42.53302291656932], [-71.05010106486851, 42.534274012591325], [-71.04837201367215, 42.53527891234267], [-71.04684206726107, 42.53593684652597], [-71.04489702305965, 42.53644289829552], [-71.04175704693435, 42.53320812188392], [-71.04004791532931, 42.53177891919535], [-71.0390390068051, 42.53049709895931], [-71.03791702419586, 42.52959798212604], [-71.03504204991117, 42.5284082195503], [-71.03133694412907, 42.52792283864293], [-71.02909903051787, 42.52732292997337], [-71.02585706680827, 42.52598514592527], [-71.0224319319234, 42.524945279005536], [-71.01628194978848, 42.51969815753652], [-71.01270292081213, 42.51493872825115], [-71.00851000594552, 42.51395709538304], [-71.00739006157741, 42.51201394040805], [-71.00420405439259, 42.51401911500323], [-70.99890699161504, 42.51402322207312], [-70.9971070546774, 42.514274209674575], [-70.99559900102938, 42.51411682840362], [-70.99359602854123, 42.51239587051172], [-70.99310991896569, 42.51222211765552], [-70.9900950792601, 42.51169511628473], [-70.9869959431096, 42.51169599683402]]]}}