{"type": "Feature", "properties": {"district_name": "11th Middlesex District", "chamber": "house", "vintage": "2022-present"}, "geometry": {"type": "Polygon", "coordinates": [[[-71.270292, 42.330864000000005], [-71.269767, 42.33118100000001], [-71.268477, 42.33066900000001], [-71.267819, 42.330574999999996], [-71.265666, 42.33127300000001], [-71.26513, 42.33182999999999], [-71.264726, 42.333944], [-71.264415, 42.334472999999996], [-71.263138, 42.334903000000004], [-71.26122, 42.334605], [-71.259933, 42.334825000000016], [-71.259204, 42.33541899999999], [-71.25893400000001, 42.336019], [-71.258964, 42.336579], [-71.256746, 42.338040000000014], [-71.255689, 42.339290999999996], [-71.255885, 42.340111], [-71.256864, 42.340648], [-71.258248, 42.341190000000005], [-71.26037, 42.34089900000001], [-71.261042, 42.341002], [-71.261596, 42.341353999999995], [-71.261884, 42.34186900000001], [-71.261236, 42.34428200000001], [-71.259759, 42.346111], [-71.259793, 42.34661000000002], [-71.260432, 42.34761200000001], [-71.260306, 42.348194], [-71.259963, 42.34855700000001], [-71.258747, 42.349107999999994], [-71.258624, 42.349360999999995], [-71.25863100000001, 42.350052], [-71.25914500000002, 42.35172399999999], [-71.260099, 42.353016], [-71.260358, 42.35365800000002], [-71.256465, 42.354905], [-71.256356, 42.354012000000004], [-71.255731, 42.353754], [-71.255217, 42.353928], [-71.254034, 42.35477], [-71.253146, 42.355897000000006], [-71.236588, 42.360805], [-71.225406, 42.35672500000001], [-71.22487, 42.358248999999994], [-71.22378, 42.358108], [-71.222954, 42.360040000000005], [-71.222698, 42.360191], [-71.222406, 42.359410000000004], [-71.221984, 42.36022400000001], [-71.220557, 42.360498000000014], [-71.22067500000001, 42.360986000000004], [-71.22054800000001, 42.361285], [-71.216791, 42.360657999999994], [-71.21659, 42.361050000000006], [-71.216523, 42.36096599999999], [-71.215769, 42.361845], [-71.214117, 42.36301099999998], [-71.214101, 42.363719], [-71.213838, 42.364349999999995], [-71.213359, 42.36466999999999], [-71.212942, 42.364655], [-71.21079500000002, 42.364006], [-71.210061, 42.363548], [-71.210561, 42.36228400000001], [-71.209537, 42.361503000000006], [-71.212952, 42.35937899999998], [-71.207125, 42.35675599999999], [-71.203574, 42.356017], [-71.201492, 42.354986000000004], [-71.198834, 42.354009], [-71.196158, 42.354764999999986], [-71.191852, 42.355526999999995], [-71.190747, 42.35928400000001], [-71.190231, 42.360383999999996], [-71.18368, 42.358829], [-71.182126, 42.360681], [-71.17824, 42.359565999999994], [-71.175272, 42.359272], [-71.172754, 42.35933100000001], [-71.169381, 42.360136], [-71.167625, 42.360073000000014], [-71.173916, 42.35346499999999], [-71.17485, 42.350337], [-71.166683, 42.340104000000004], [-71.166808, 42.33928999999997], [-71.168633, 42.338629], [-71.169217, 42.33806800000001], [-71.168886, 42.33582599999999], [-71.16857, 42.335143], [-71.168191, 42.33479100000001], [-71.167565, 42.333441], [-71.175068, 42.33259899999999], [-71.176171, 42.332202], [-71.176748, 42.332731999999986], [-71.177176, 42.332691], [-71.177423, 42.332853], [-71.177515, 42.334022000000004], [-71.180297, 42.335257999999996], [-71.181836, 42.33539099999999], [-71.182362, 42.335815], [-71.183738, 42.33527200000001], [-71.18622, 42.33498899999999], [-71.187192, 42.335051], [-71.185648, 42.336494000000016], [-71.188584, 42.33623599999999], [-71.1923, 42.33619899999999], [-71.194758, 42.335724], [-71.195651, 42.336019], [-71.196746, 42.337085999999985], [-71.197987, 42.33776399999999], [-71.199197, 42.33793599999999], [-71.201557, 42.33780500000002], [-71.203071, 42.33796000000001], [-71.203408, 42.337606], [-71.20333, 42.33669], [-71.203742, 42.33594500000002], [-71.203763, 42.33531299999999], [-71.20708, 42.336149999999996], [-71.207795, 42.333715000000005], [-71.207782, 42.333272], [-71.209221, 42.333466], [-71.209597, 42.332728], [-71.210109, 42.332337], [-71.212439, 42.33297100000001], [-71.213443, 42.332436999999985], [-71.213554, 42.33201], [-71.214698, 42.332058999999994], [-71.214768, 42.332171], [-71.21711, 42.33199299999999], [-71.217463, 42.332880999999986], [-71.218332, 42.333202], [-71.218306, 42.333891], [-71.217586, 42.333886], [-71.217218, 42.33688999999999], [-71.21708, 42.337037], [-71.218352, 42.337475], [-71.219318, 42.337537], [-71.220113, 42.337151], [-71.22006700000001, 42.33696100000001], [-71.221492, 42.336023000000004], [-71.222927, 42.33542599999999], [-71.223753, 42.335547], [-71.233769, 42.33846099999999], [-71.234199, 42.338008], [-71.235351, 42.33749199999999], [-71.238108, 42.330313], [-71.244888, 42.33370000000001], [-71.246877, 42.33212600000002], [-71.248516, 42.33003000000001], [-71.250118, 42.32944200000001], [-71.250552, 42.32904200000001], [-71.250549, 42.328756999999996], [-71.250137, 42.328087], [-71.250463, 42.32705700000001], [-71.24919, 42.32363800000002], [-71.249938, 42.32386300000002], [-71.250229, 42.324551], [-71.251245, 42.325271], [-71.251746, 42.326123], [-71.252937, 42.32675600000001], [-71.253838, 42.32662], [-71.254308, 42.326052], [-71.25447, 42.325391999999994], [-71.254888, 42.32512600000001], [-71.256295, 42.324659000000004], [-71.257818, 42.324506], [-71.258398, 42.32493799999999], [-71.258999, 42.326340999999985], [-71.259565, 42.326674], [-71.260249, 42.32679], [-71.261952, 42.32664900000001], [-71.262488, 42.326509], [-71.263092, 42.326052], [-71.263536, 42.32601699999999], [-71.266097, 42.327391000000006], [-71.269559, 42.327779], [-71.270255, 42.328555], [-71.270249, 42.328929999999986], [-71.269763, 42.32976399999999], [-71.270279, 42.33052200000001], [-71.270292, 42.330864000000005]]]}}