{"type": "Feature", "properties": {"district_name": "10th Bristol District", "chamber": "house", "vintage": "2012-2020"}, "geometry": {"type": "Polygon", "coordinates": [[[-70.941251, 41.64501399999999], [-70.939049, 41.64524199999999], [-70.939185, 41.645517], [-70.937994, 41.64565900000001], [-70.938368, 41.64664199999999], [-70.93685800000002, 41.64680399999998], [-70.937089, 41.648070000000004], [-70.93233, 41.64862900000001], [-70.932603, 41.64977499999999], [-70.931727, 41.649860000000004], [-70.93205300000001, 41.652639000000015], [-70.933022, 41.656944], [-70.925733, 41.65785399999999], [-70.92535699999999, 41.656011], [-70.91738699999999, 41.65610900000001], [-70.916495, 41.65961], [-70.917182, 41.663602999999995], [-70.912131, 41.664828], [-70.88964399999999, 41.66850099999999], [-70.858212, 41.681166999999995], [-70.886439, 41.760232], [-70.904438, 41.75800000000001], [-70.905211, 41.759819], [-70.915095, 41.77874699999999], [-70.921708, 41.790853999999996], [-70.92158599999999, 41.79086999999999], [-70.921792, 41.79126399999999], [-70.771806, 41.80891400000001], [-70.771965, 41.80517299999998], [-70.772857, 41.80209500000001], [-70.774399, 41.80051999999998], [-70.776319, 41.79792899999999], [-70.77753799999999, 41.79708799999999], [-70.777771, 41.79676800000001], [-70.777968, 41.79598], [-70.77784799999999, 41.79456599999999], [-70.778359, 41.793033], [-70.778491, 41.79204399999999], [-70.77825899999999, 41.789570999999995], [-70.777365, 41.787726], [-70.777008, 41.786436], [-70.77649, 41.77997799999999], [-70.77550099999999, 41.77627399999999], [-70.775509, 41.77303699999999], [-70.77440399999999, 41.77045700000001], [-70.77435, 41.769738000000004], [-70.775851, 41.76625999999999], [-70.778063, 41.762741000000005], [-70.780123, 41.758266], [-70.780715, 41.754512], [-70.78161399999999, 41.751560000000005], [-70.78142199999999, 41.74987199999998], [-70.779121, 41.744516999999995], [-70.77835499999999, 41.74349300000002], [-70.77481, 41.74043700000001], [-70.77434199999999, 41.739705000000015], [-70.77425699999999, 41.739183], [-70.774416, 41.737823], [-70.775032, 41.73526400000001], [-70.77499, 41.73417899999999], [-70.773989, 41.73432400000001], [-70.773747, 41.734707999999976], [-70.772899, 41.73490099999999], [-70.772565, 41.73490099999999], [-70.77261299999999, 41.73466199999999], [-70.773239, 41.73408600000001], [-70.772792, 41.733782999999995], [-70.76835799999999, 41.733486], [-70.767564, 41.73364899999999], [-70.767017, 41.734052000000005], [-70.76642199999999, 41.734199000000004], [-70.765621, 41.735246], [-70.764899, 41.735393], [-70.764664, 41.735538], [-70.7647, 41.73577999999998], [-70.764274, 41.735862], [-70.76409799999999, 41.73613599999997], [-70.764263, 41.736717999999996], [-70.763865, 41.73678300000001], [-70.763571, 41.73720199999998], [-70.763545, 41.73766900000001], [-70.762776, 41.738026], [-70.76278400000001, 41.738509], [-70.76227399999999, 41.738848], [-70.761001, 41.73918899999999], [-70.76024199999999, 41.73892099999998], [-70.75956699999999, 41.73918], [-70.759303, 41.73947099999999], [-70.76023599999999, 41.74071699999999], [-70.76, 41.741668000000004], [-70.75954399999999, 41.742103], [-70.757416, 41.742391000000005], [-70.755624, 41.742215000000016], [-70.753928, 41.741015000000004], [-70.752152, 41.738854999999994], [-70.75039199999999, 41.73794300000001], [-70.748926, 41.737857], [-70.747243, 41.738381], [-70.746027, 41.73814900000001], [-70.74372000000001, 41.736284000000005], [-70.743231, 41.735758], [-70.742982, 41.73518299999999], [-70.743019, 41.734753000000005], [-70.744333, 41.733509000000005], [-70.744563, 41.733014], [-70.744192, 41.731913999999996], [-70.743498, 41.73119599999999], [-70.742564, 41.73067099999999], [-70.742041, 41.73060799999999], [-70.73858299999999, 41.73123899999998], [-70.735047, 41.72864800000001], [-70.733463, 41.727896], [-70.729111, 41.72651999999999], [-70.728535, 41.726216], [-70.727831, 41.72552799999998], [-70.726551, 41.723687999999996], [-70.725174, 41.722648], [-70.72319, 41.721544], [-70.71995799999999, 41.72037600000001], [-70.71855, 41.71930400000001], [-70.717654, 41.71837600000001], [-70.716006, 41.718647999999995], [-70.67662899999999, 41.691129], [-70.686196, 41.669800999999985], [-70.699574, 41.643719000000004], [-70.749206, 41.668504999999996], [-70.750847, 41.669590999999976], [-70.75186699999999, 41.660342000000014], [-70.752498, 41.65038799999999], [-70.75400599999999, 41.64579499999999], [-70.755568, 41.64310400000001], [-70.756354, 41.642074999999984], [-70.75748, 41.64131999999999], [-70.76294399999999, 41.639025000000004], [-70.774624, 41.634933000000004], [-70.803891, 41.62506699999999], [-70.80154399999999, 41.62116899999996], [-70.800336, 41.61874100000001], [-70.801026, 41.61657300000001], [-70.804856, 41.612776000000004], [-70.81327399999999, 41.607960000000006], [-70.839175, 41.61476100000001], [-70.842264, 41.624457], [-70.84931999999999, 41.624472000000004], [-70.860365, 41.624091], [-70.86001, 41.62371799999999], [-70.859563, 41.623542999999984], [-70.85942399999999, 41.62354299999998], [-70.85942399999999, 41.623785000000005], [-70.858195, 41.623835], [-70.85785899999999, 41.62366499999999], [-70.85732399999999, 41.62276499999999], [-70.85681199999999, 41.622622], [-70.856416, 41.622297999999994], [-70.855194, 41.62198600000001], [-70.855442, 41.620651999999986], [-70.855105, 41.619806999999994], [-70.855119, 41.61912600000001], [-70.854995, 41.618709], [-70.854219, 41.618407999999995], [-70.854619, 41.616146000000015], [-70.853887, 41.614148], [-70.85398099999999, 41.613714], [-70.853352, 41.613522], [-70.85237099999999, 41.61225499999999], [-70.851705, 41.61192600000001], [-70.8512, 41.61106399999998], [-70.85000000000001, 41.610312000000015], [-70.849334, 41.610093000000006], [-70.84956, 41.60911699999997], [-70.847402, 41.60749599999999], [-70.844428, 41.60628], [-70.840391, 41.605277], [-70.836686, 41.60484900000001], [-70.836137, 41.60497], [-70.835837, 41.60467999999999], [-70.835852, 41.60433899999999], [-70.835588, 41.604175000000005], [-70.835639, 41.60387300000001], [-70.835332, 41.60387300000001], [-70.83556600000001, 41.603449999999995], [-70.834769, 41.60307099999999], [-70.834695, 41.602731000000006], [-70.83428599999999, 41.60246199999998], [-70.834103, 41.602000999999994], [-70.833474, 41.60181499999999], [-70.832757, 41.602073000000004], [-70.832238, 41.601721999999995], [-70.831763, 41.601853000000006], [-70.831836, 41.60237500000001], [-70.831346, 41.60300599999998], [-70.831763, 41.603961000000005], [-70.831544, 41.60493299999999], [-70.83183, 41.606223], [-70.831581, 41.60651399999998], [-70.831194, 41.60653], [-70.83085, 41.605844], [-70.83035199999999, 41.60547100000001], [-70.829825, 41.60443399999998], [-70.828816, 41.60374200000001], [-70.827696, 41.602156], [-70.827097, 41.60204600000001], [-70.825846, 41.601414999999996], [-70.825458, 41.601498000000014], [-70.824785, 41.601196], [-70.824617, 41.600476999999984], [-70.824222, 41.599976999999996], [-70.823242, 41.59960400000001], [-70.820089, 41.596114000000014], [-70.818254, 41.592351], [-70.817039, 41.59163499999998], [-70.815818, 41.59178800000001], [-70.816191, 41.591338], [-70.81641800000001, 41.59019599999999], [-70.816951, 41.589279999999995], [-70.81934199999999, 41.588654000000005], [-70.819898, 41.58837900000002], [-70.820892, 41.587439999999994], [-70.82168899999999, 41.58583200000001], [-70.821783, 41.58475600000002], [-70.821615, 41.582912000000015], [-70.821637, 41.582708000000004], [-70.822039, 41.582396], [-70.82334, 41.58274100000002], [-70.825205, 41.58290000000001], [-70.826726, 41.583327999999995], [-70.82746399999999, 41.583365999999984], [-70.829124, 41.584233], [-70.830967, 41.58583599999999], [-70.83371, 41.58884900000002], [-70.834968, 41.590692999999995], [-70.836383, 41.591984000000004], [-70.83656300000001, 41.59289899999998], [-70.837375, 41.59357999999998], [-70.83764599999999, 41.59420000000001], [-70.837639, 41.59559399999999], [-70.837808, 41.595885], [-70.838949, 41.59635699999999], [-70.841545, 41.596362000000006], [-70.84157499999999, 41.596542000000014], [-70.841777, 41.59651199999999], [-70.841735, 41.596334000000006], [-70.843329, 41.596004], [-70.843285, 41.595379], [-70.84299899999999, 41.594775], [-70.842801, 41.59440699999999], [-70.842355, 41.594182], [-70.842062, 41.593436000000004], [-70.842047, 41.592831999999994], [-70.842311, 41.59312799999999], [-70.842282, 41.593616999999995], [-70.842523, 41.593945999999995], [-70.844498, 41.595115], [-70.845098, 41.59569600000002], [-70.84539099999999, 41.595718], [-70.847292, 41.595476000000005], [-70.847628, 41.59514699999998], [-70.84764299999999, 41.594894], [-70.848461, 41.594575000000006], [-70.848841, 41.594097999999995], [-70.85023699999999, 41.593268], [-70.850566, 41.592577000000006], [-70.849959, 41.591961999999995], [-70.85085, 41.591039], [-70.850974, 41.590337], [-70.85217999999999, 41.589282], [-70.852508, 41.588563000000015], [-70.853005, 41.588239], [-70.853202, 41.58763500000002], [-70.853369, 41.585944000000026], [-70.852937, 41.584149999999994], [-70.853002, 41.583435999999985], [-70.852811, 41.58264599999999], [-70.853447, 41.582195], [-70.854361, 41.58207999999998], [-70.856036, 41.58291299999999], [-70.856723, 41.583709000000006], [-70.856994, 41.58430699999998], [-70.857339, 41.58593700000001], [-70.85751599999999, 41.587886], [-70.857816, 41.588346999999985], [-70.858387, 41.588791], [-70.85907499999999, 41.590147], [-70.859347, 41.591480999999995], [-70.859684, 41.592161000000004], [-70.859692, 41.593236999999995], [-70.859839, 41.593632], [-70.86169, 41.595273], [-70.86365099999999, 41.59636900000002], [-70.863944, 41.59700599999999], [-70.86403299999999, 41.598300999999985], [-70.865855, 41.599629], [-70.86635199999999, 41.60021600000001], [-70.866412, 41.600753999999995], [-70.86434299999999, 41.601628000000005], [-70.86410099999999, 41.60161099999999], [-70.864218, 41.601051000000005], [-70.86458999999999, 41.60064], [-70.863997, 41.599893], [-70.864231, 41.599557999999995], [-70.863675, 41.599399], [-70.863345, 41.59780799999999], [-70.862753, 41.597984000000004], [-70.861853, 41.597896000000006], [-70.86278899999999, 41.598417000000005], [-70.862951, 41.59867500000001], [-70.863061, 41.59983899999999], [-70.86278399999999, 41.600783], [-70.862887, 41.601095999999984], [-70.863267, 41.60102399999998], [-70.86323, 41.60083800000001], [-70.863581, 41.600832000000004], [-70.863962, 41.601255], [-70.863495, 41.602073000000004], [-70.863328, 41.60353899999999], [-70.864199, 41.604971000000006], [-70.864603, 41.60656200000002], [-70.86547399999999, 41.607775], [-70.865922, 41.60888399999999], [-70.866266, 41.609268], [-70.866113, 41.610014], [-70.867372, 41.611577999999994], [-70.867688, 41.613011000000014], [-70.86852999999999, 41.613762], [-70.869035, 41.61450299999998], [-70.86913899999999, 41.615463999999996], [-70.86889, 41.61572200000002], [-70.86888300000001, 41.61596300000001], [-70.869367, 41.616962], [-70.86922799999999, 41.617440000000016], [-70.869331, 41.61786800000001], [-70.868828, 41.61963600000001], [-70.86909299999999, 41.620732999999994], [-70.8694, 41.621134000000005], [-70.868684, 41.621798], [-70.86845799999999, 41.622726], [-70.868568, 41.623045000000005], [-70.869022, 41.62358200000001], [-70.86942599999999, 41.62481699999998], [-70.869817, 41.625282], [-70.87205, 41.627092000000005], [-70.87273800000001, 41.62719000000003], [-70.872965, 41.627607], [-70.878181, 41.62898900000001], [-70.87885399999999, 41.62925800000001], [-70.879059, 41.629817999999965], [-70.879402, 41.63005400000001], [-70.88101100000002, 41.63084600000001], [-70.881794, 41.63110899999998], [-70.882862, 41.631125999999995], [-70.883198, 41.631483], [-70.884164, 41.631539000000004], [-70.885576, 41.63234599999999], [-70.886907, 41.632560999999995], [-70.887097, 41.632709], [-70.88716300000002, 41.633099], [-70.887148, 41.633417000000016], [-70.886928, 41.63367000000001], [-70.886299, 41.633092999999995], [-70.886167, 41.63318099999999], [-70.887016, 41.633905999999996], [-70.886935, 41.634361000000006], [-70.886554, 41.63471800000001], [-70.886847, 41.634674], [-70.887089, 41.634191], [-70.88762299999999, 41.63408699999999], [-70.887177, 41.633944], [-70.88742599999999, 41.633351000000005], [-70.887338, 41.632977999999994], [-70.88752199999999, 41.63252799999999], [-70.887844, 41.632352999999995], [-70.888561, 41.63235300000001], [-70.888919, 41.63279199999998], [-70.88965, 41.633028], [-70.890126, 41.633501], [-70.890857, 41.63374299999998], [-70.891325, 41.63428599999999], [-70.89154400000001, 41.63430799999999], [-70.891033, 41.633731999999995], [-70.890148, 41.63330299999999], [-70.889563, 41.632655], [-70.889307, 41.63217200000001], [-70.88932199999999, 41.63141499999999], [-70.889857, 41.63084399999999], [-70.890018, 41.629724], [-70.890699, 41.62899399999999], [-70.89102199999999, 41.62820999999999], [-70.89173199999999, 41.627621999999995], [-70.892223, 41.62653600000001], [-70.892735, 41.626239999999996], [-70.892662, 41.62611899999998], [-70.893643, 41.625301000000015], [-70.89334, 41.62510400000001], [-70.894928, 41.624430000000004], [-70.895828, 41.624281999999994], [-70.895828, 41.62413900000001], [-70.90027599999999, 41.62414], [-70.90254399999999, 41.623872], [-70.90290999999999, 41.62404200000001], [-70.90281399999999, 41.624525000000006], [-70.90294899999999, 41.624576999999995], [-70.90600599999999, 41.623850000000026], [-70.906695, 41.625134], [-70.90758199999999, 41.630504], [-70.910282, 41.63200400000001], [-70.91318199999999, 41.63450400000001], [-70.913882, 41.63750500000001], [-70.910381, 41.63980599999999], [-70.909981, 41.64160700000001], [-70.911881, 41.64420599999999], [-70.91698199999999, 41.64470499999998], [-70.91918199999999, 41.64650499999999], [-70.91998199999999, 41.649204], [-70.923998, 41.64884299999999], [-70.92386400000001, 41.647486], [-70.92418599999999, 41.64255800000001], [-70.924148, 41.64109600000001], [-70.92428199999999, 41.64076499999999], [-70.92394399999999, 41.640313999999975], [-70.927257, 41.63989600000001], [-70.92790699999999, 41.63890899999999], [-70.932239, 41.638436000000006], [-70.932935, 41.642357000000004], [-70.938672, 41.64180600000001], [-70.938987, 41.643398], [-70.94060999999999, 41.643246], [-70.941251, 41.64501399999999]]]}}