{"type": "Feature", "properties": {"district_name": "9th Middlesex", "chamber": "house", "vintage": "2001-2010"}, "geometry": {"type": "Polygon", "coordinates": [[[-71.19599907738616, 42.421794922776336], [-71.19759897834307, 42.42009480616273], [-71.19889997560769, 42.418396145095834], [-71.20126296706388, 42.4162337718306], [-71.20309995632834, 42.41419603197322], [-71.2076990124395, 42.40969518545065], [-71.20804600852084, 42.409159278211035], [-71.21089907161675, 42.406195009963014], [-71.20239896868365, 42.40349615384623], [-71.20159899380815, 42.401395883603676], [-71.19939890812724, 42.39819586310112], [-71.19899904329392, 42.39699576718126], [-71.19679897695609, 42.395395935010235], [-71.19639907475202, 42.39429598479908], [-71.19649892391651, 42.39389618313046], [-71.19769898213613, 42.39319600062422], [-71.19799903425007, 42.39259585351866], [-71.19709890851564, 42.391496274588214], [-71.19689895066462, 42.39049588177416], [-71.1953989404224, 42.38819621188626], [-71.1956990840244, 42.38749591436224], [-71.1951989510564, 42.38669615160991], [-71.19439892836898, 42.38599575536711], [-71.19499903844311, 42.385695754379405], [-71.20059905306732, 42.38089622096796], [-71.20209896852488, 42.37979614674489], [-71.20239892244899, 42.379395731402894], [-71.20870006434885, 42.373997241203774], [-71.2120989083643, 42.37559591802843], [-71.21569902057969, 42.37639599263842], [-71.22069894482927, 42.37789595252979], [-71.22579901815013, 42.37779624481357], [-71.22259891325304, 42.379096228495385], [-71.21889909850431, 42.38099583937968], [-71.21539893484346, 42.381696203664205], [-71.21179905217895, 42.38269612166], [-71.20999907270654, 42.38379612357985], [-71.21359894517528, 42.38499575917248], [-71.21640005311086, 42.38489691506834], [-71.2211990718088, 42.38529576365468], [-71.22239890889404, 42.38519625822218], [-71.22469901357057, 42.38589612402179], [-71.22599999032651, 42.385796822993264], [-71.22856191226866, 42.38506185903245], [-71.23040102111656, 42.38379679153196], [-71.23209997548113, 42.38509603461598], [-71.23630699704539, 42.38615513476951], [-71.23459994095278, 42.383095892786166], [-71.23690002605647, 42.383496172490894], [-71.23639994084738, 42.38179575323238], [-71.23770005216265, 42.38169575989476], [-71.23870001532384, 42.382095841207274], [-71.24200008534143, 42.38159575730457], [-71.24550005854016, 42.381995740874935], [-71.24530003468824, 42.38379585340475], [-71.2465999411257, 42.38389606173739], [-71.2465999293879, 42.38309594015277], [-71.24890005012604, 42.38369573339888], [-71.25110005576137, 42.38009602733751], [-71.25020001153499, 42.37979585948416], [-71.2521000257198, 42.37639579174702], [-71.25520006885003, 42.376396236400595], [-71.25519999861949, 42.37489614673675], [-71.25429998513462, 42.37489592049142], [-71.25410008303737, 42.37419608457876], [-71.25440009114006, 42.373396044190976], [-71.25349995844772, 42.37299574525635], [-71.25279993137784, 42.372895770500584], [-71.25230007610449, 42.37259591950305], [-71.24990007799246, 42.37249619716868], [-71.25049999465556, 42.37089612735766], [-71.25083092225405, 42.368612942044884], [-71.25310006843861, 42.36759601689897], [-71.25429998207979, 42.36649574259982], [-71.25582899769121, 42.365388277256], [-71.2572810187191, 42.365201166229745], [-71.26119990456347, 42.36159586609568], [-71.26220000400434, 42.35959593698614], [-71.26169998590552, 42.357695874100095], [-71.26360004536795, 42.35449591517721], [-71.26499997312594, 42.35549584751002], [-71.26980103105218, 42.36319621418254], [-71.27330103033697, 42.36499584983269], [-71.27300099488613, 42.36709571986043], [-71.27120100760972, 42.36719625283571], [-71.27030107831423, 42.36819602065644], [-71.27040091724274, 42.369695743866444], [-71.27330101861776, 42.37399582701479], [-71.27530098416, 42.3747948138692], [-71.2763010055784, 42.37489522629433], [-71.27600095068746, 42.37519511030064], [-71.27570101301235, 42.37599521529351], [-71.27410094263372, 42.37869516872066], [-71.27120099762132, 42.38319475814121], [-71.27120108210106, 42.38369497905126], [-71.26860196779874, 42.38779616622519], [-71.26740093296577, 42.3902948183125], [-71.27070091322074, 42.391494873529865], [-71.27480108597807, 42.39269526799373], [-71.27920103304864, 42.39879527316281], [-71.2824010296285, 42.39979504472903], [-71.28100094836765, 42.40269521017432], [-71.28550098036423, 42.404294916163735], [-71.28096195010158, 42.41192404308624], [-71.27859707257838, 42.41116779265319], [-71.27400201097599, 42.41009597546885], [-71.27359796902543, 42.41054813476005], [-71.27020093310081, 42.41659515369964], [-71.27110194284792, 42.416796133503496], [-71.26693390911458, 42.42422624220322], [-71.26240096877521, 42.423195171804196], [-71.25780203025177, 42.42119599441341], [-71.25730005076478, 42.421194937234944], [-71.25160009637585, 42.419295031477546], [-71.25140006086312, 42.420194869237235], [-71.25130007348817, 42.42379516241633], [-71.25078606027888, 42.42515795773943], [-71.24710002869531, 42.4278951796789], [-71.24140001252286, 42.43419507612364], [-71.23939990678602, 42.43459512868485], [-71.24260005604926, 42.4365947242777], [-71.24139997521259, 42.438195076079374], [-71.24299998712387, 42.43869492958615], [-71.24339996022911, 42.439295056319814], [-71.2420999157134, 42.439695020913675], [-71.24069991122776, 42.44149522543766], [-71.2392000751544, 42.44399513305836], [-71.23709995741696, 42.44539477062013], [-71.23689994276491, 42.44909496580393], [-71.23390006142013, 42.44949487596626], [-71.23167592117679, 42.44930178577838], [-71.22849994678559, 42.44819489556367], [-71.22699991417342, 42.44729502869963], [-71.22559999117304, 42.44679486391003], [-71.22240004474463, 42.446095116907834], [-71.2221000744168, 42.445895209902766], [-71.21920006992745, 42.44349516297697], [-71.21379903377779, 42.43989486535877], [-71.21299896951577, 42.437295046600575], [-71.2120989382959, 42.43589513509339], [-71.2103990941637, 42.43499510637003], [-71.20909907521973, 42.433795031466744], [-71.20859900407372, 42.433195088802854], [-71.20779897768642, 42.431595085210056], [-71.20669906897999, 42.42899501329038], [-71.2048990093359, 42.427695151318474], [-71.20339899307855, 42.42749493005802], [-71.20219909622035, 42.42799485826214], [-71.19861190297802, 42.42704924346893], [-71.19469908202338, 42.42569528113045], [-71.19189102449577, 42.42559495562257], [-71.19599907738616, 42.421794922776336]]]}}