{"type": "Feature", "properties": {"district_name": "12th Norfolk District", "chamber": "house", "vintage": "2012-2020"}, "geometry": {"type": "Polygon", "coordinates": [[[-71.303566, 42.148693], [-71.30375099999999, 42.14949999999999], [-71.275025, 42.148622999999986], [-71.275584, 42.177198000000004], [-71.274618, 42.176599], [-71.27422, 42.176533], [-71.26776, 42.176550000000006], [-71.26545, 42.176899999999996], [-71.263358, 42.17675799999999], [-71.265401, 42.176798000000005], [-71.26495, 42.175889999999995], [-71.26444, 42.175459999999994], [-71.25871, 42.17544], [-71.25774299999999, 42.174073], [-71.25779399999999, 42.17357699999997], [-71.257466, 42.171918], [-71.256874, 42.17118199999999], [-71.256338, 42.170936000000005], [-71.255286, 42.17006000000001], [-71.254296, 42.170421999999974], [-71.253422, 42.170336000000006], [-71.25253099999999, 42.16998800000001], [-71.252281, 42.170097], [-71.25221499999999, 42.169737999999995], [-71.251992, 42.16966399999999], [-71.25225, 42.16703], [-71.246473, 42.164749], [-71.23962999999999, 42.160880000000006], [-71.23867, 42.16162000000002], [-71.23658, 42.162659999999995], [-71.234172, 42.164497999999995], [-71.231199, 42.166169], [-71.229052, 42.16782500000001], [-71.226106, 42.17180100000002], [-71.233556, 42.18132100000002], [-71.234189, 42.181398], [-71.234329, 42.18121800000001], [-71.23544199999999, 42.18100900000002], [-71.23614200000002, 42.18147200000001], [-71.23689, 42.181405999999996], [-71.23731099999999, 42.182420000000015], [-71.237787, 42.182803], [-71.23830199999999, 42.182831000000014], [-71.21077799999999, 42.20880599999999], [-71.19816, 42.21347999999999], [-71.19624, 42.21390099999999], [-71.19185, 42.21375], [-71.19021, 42.21363999999999], [-71.185202, 42.212810000000005], [-71.178675, 42.21230099999999], [-71.164645, 42.203072], [-71.16216, 42.20124], [-71.154967, 42.197044], [-71.15566299999999, 42.19686], [-71.156381, 42.19574899999999], [-71.157626, 42.195291999999974], [-71.158187, 42.194603], [-71.15828700000002, 42.19388], [-71.16022699999999, 42.18995300000001], [-71.160253, 42.188783999999984], [-71.160443, 42.18838999999999], [-71.162333, 42.187252], [-71.162656, 42.18721], [-71.163544, 42.187628], [-71.164013, 42.187292], [-71.164131, 42.18699200000001], [-71.163431, 42.185897999999995], [-71.16351399999999, 42.18474900000001], [-71.16459499999999, 42.183747], [-71.165426, 42.182371], [-71.165191, 42.182012], [-71.164248, 42.181757999999995], [-71.164335, 42.181002], [-71.165009, 42.18062299999999], [-71.16550699999999, 42.180031], [-71.166608, 42.17969699999999], [-71.16760200000002, 42.179703], [-71.168078, 42.179271], [-71.168114, 42.17906], [-71.167941, 42.178893999999985], [-71.166929, 42.178512999999995], [-71.166803, 42.178025], [-71.167045, 42.17750100000001], [-71.165144, 42.176862], [-71.16375699999999, 42.17616999999999], [-71.163769, 42.17596699999998], [-71.16400500000002, 42.175828], [-71.166506, 42.175363], [-71.163615, 42.174003], [-71.163572, 42.17372499999999], [-71.163955, 42.17294400000001], [-71.164341, 42.17278099999999], [-71.166116, 42.17279200000001], [-71.16742099999999, 42.17283400000001], [-71.168176, 42.173095], [-71.16864, 42.173069], [-71.169302, 42.17223400000001], [-71.16834399999999, 42.170643000000005], [-71.16717000000001, 42.16920800000001], [-71.168697, 42.169322], [-71.169793, 42.16976899999999], [-71.17018399999999, 42.168947999999965], [-71.171913, 42.16842999999999], [-71.171727, 42.167572], [-71.171849, 42.16736199999999], [-71.172443, 42.16736299999999], [-71.173132, 42.167887000000015], [-71.173839, 42.16760199999999], [-71.173928, 42.167384000000006], [-71.173564, 42.166308], [-71.173624, 42.166068], [-71.17629, 42.166005], [-71.17605, 42.165344], [-71.17611099999999, 42.165063999999994], [-71.177172, 42.16511399999999], [-71.177373, 42.16406], [-71.17762499999999, 42.16387400000001], [-71.17801299999999, 42.16396099999999], [-71.178381, 42.16454399999999], [-71.178529, 42.165921000000004], [-71.179256, 42.16588699999999], [-71.17903199999999, 42.16534800000001], [-71.17926100000001, 42.16511900000001], [-71.179799, 42.165050000000015], [-71.180189, 42.16561000000001], [-71.180853, 42.165569999999995], [-71.18149199999999, 42.165012], [-71.181877, 42.16345500000003], [-71.182536, 42.163320999999996], [-71.182676, 42.163095000000006], [-71.183459, 42.162855000000015], [-71.185347, 42.162436], [-71.186511, 42.161676], [-71.188627, 42.16081600000001], [-71.186885, 42.153264000000014], [-71.215306, 42.14032599999999], [-71.21791, 42.140180000000015], [-71.218864, 42.140363], [-71.2213, 42.14183999999999], [-71.22332999999999, 42.14273999999999], [-71.226038, 42.14445799999999], [-71.23510000000002, 42.14747999999999], [-71.23656, 42.14792], [-71.23987000000001, 42.14734000000001], [-71.24029, 42.14885], [-71.23991, 42.14872999999999], [-71.239639, 42.14884599999999], [-71.239271, 42.14940699999999], [-71.23906, 42.15049], [-71.24027, 42.15126999999997], [-71.23957, 42.153011], [-71.24001799999999, 42.15375699999999], [-71.24123, 42.154259999999994], [-71.241633, 42.154711000000006], [-71.25607, 42.14646299999997], [-71.25437, 42.14534999999999], [-71.2538, 42.14476], [-71.25864, 42.13773], [-71.258388, 42.137525000000004], [-71.258094, 42.136047999999995], [-71.25704, 42.13428700000001], [-71.25429, 42.132110000000004], [-71.255549, 42.12934399999999], [-71.255601, 42.129180999999996], [-71.25542399999999, 42.12910399999999], [-71.255876, 42.12840800000001], [-71.257863, 42.126732999999994], [-71.26246499999999, 42.123255], [-71.26958499999999, 42.11929499999998], [-71.271429, 42.12098399999999], [-71.27328, 42.12205900000002], [-71.28252599999999, 42.12923000000001], [-71.28394, 42.129250000000006], [-71.288352, 42.12986199999999], [-71.29266, 42.130010999999996], [-71.295013, 42.128227], [-71.29894, 42.1265], [-71.29991199999999, 42.12940899999999], [-71.30165699999999, 42.136631999999985], [-71.302155, 42.136838], [-71.301885, 42.13713199999999], [-71.301271, 42.13723900000001], [-71.301249, 42.137716000000005], [-71.30060600000002, 42.137923000000015], [-71.300585, 42.138315], [-71.30032299999999, 42.138658], [-71.299747, 42.138495999999996], [-71.29959699999999, 42.13881700000001], [-71.299194, 42.138794999999995], [-71.299031, 42.138948], [-71.299194, 42.13952699999999], [-71.298947, 42.140420000000006], [-71.299768, 42.140936], [-71.299724, 42.141226], [-71.299416, 42.14141399999998], [-71.29940599999999, 42.141771000000006], [-71.300005, 42.14198699999999], [-71.300263, 42.14234799999999], [-71.30022799999999, 42.142695], [-71.300506, 42.142874], [-71.300443, 42.143138], [-71.29984999999999, 42.143761999999974], [-71.29987799999999, 42.144072999999985], [-71.300386, 42.14433799999999], [-71.30035099999999, 42.14472099999999], [-71.300696, 42.14506799999997], [-71.300118, 42.14573100000001], [-71.300275, 42.146039], [-71.30067799999999, 42.14625100000001], [-71.300302, 42.14658199999999], [-71.30044099999999, 42.14692900000001], [-71.300118, 42.147175999999995], [-71.30042999999999, 42.147444000000014], [-71.300853, 42.147532], [-71.300817, 42.14809099999997], [-71.301282, 42.148253000000004], [-71.301965, 42.148165999999996], [-71.30196699999999, 42.148572], [-71.302202, 42.14865099999999], [-71.30234000000002, 42.149026], [-71.30260299999999, 42.14897799999999], [-71.30268099999999, 42.148585], [-71.303139, 42.14842399999999], [-71.30322699999999, 42.148669000000005], [-71.303566, 42.148693]]]}}