{"type": "Feature", "properties": {"district_name": "2nd Middlesex", "chamber": "house", "vintage": "2001-2010"}, "geometry": {"type": "Polygon", "coordinates": [[[-71.39896294322146, 42.646250166803995], [-71.395731029384, 42.642969970915274], [-71.39454690570828, 42.642410198180855], [-71.39337909421549, 42.64213793773204], [-71.39395505137831, 42.64111391923827], [-71.39451493258562, 42.64056980377305], [-71.39317094561895, 42.639497874863764], [-71.3935069298567, 42.639210117211555], [-71.39233894431752, 42.63785028126449], [-71.39208297840867, 42.63802614199658], [-71.38974707252571, 42.638506117072566], [-71.38821106717373, 42.639002008246315], [-71.38385794534051, 42.636074273341315], [-71.38428993859627, 42.63580182524881], [-71.38148996690384, 42.63356308151053], [-71.3791219364786, 42.6356429388178], [-71.37548990565924, 42.6323307956428], [-71.37592192285726, 42.63137083980165], [-71.37659399111655, 42.63077911054151], [-71.37734595185384, 42.63052278312932], [-71.37761802003988, 42.63020293733439], [-71.37801795245635, 42.62906683900893], [-71.37899407873387, 42.62812319788182], [-71.37966602714611, 42.62695474500209], [-71.37985802021132, 42.62436288991838], [-71.38046606163815, 42.62221875465318], [-71.38046595912604, 42.62076321147094], [-71.37979391059159, 42.6200271533322], [-71.38480599300664, 42.62039122294464], [-71.38664204544563, 42.620043080147774], [-71.38781005360583, 42.62017080924083], [-71.39211399912877, 42.62013890124098], [-71.39265796292011, 42.61978719805079], [-71.3936060222613, 42.617991015822874], [-71.39725103020837, 42.61564306344454], [-71.3995389938024, 42.61503517837956], [-71.39667498847732, 42.61085900998401], [-71.39656200295057, 42.61042680330001], [-71.39452995302524, 42.61135500026712], [-71.39331390693673, 42.61122672714801], [-71.39200592790736, 42.609191014041514], [-71.39200601745137, 42.608690833680505], [-71.39060607352508, 42.60879079069566], [-71.39020595216958, 42.60849108762851], [-71.38950604896439, 42.60649080455832], [-71.38800594414919, 42.6061911610614], [-71.38720592758784, 42.6053908687954], [-71.38630604784119, 42.60539111149736], [-71.38160599414935, 42.606090811084364], [-71.37820602275102, 42.605291145989575], [-71.3766059817568, 42.60589090313496], [-71.37340601046314, 42.60879121919984], [-71.37334602664656, 42.61068274160323], [-71.37057796392726, 42.613019118848904], [-71.3699539943309, 42.61325922658655], [-71.36770597146287, 42.60979082596029], [-71.36790592710713, 42.608691093260916], [-71.36600597386831, 42.60419117279627], [-71.36520600265132, 42.60289111295304], [-71.36560592048518, 42.60259112990793], [-71.36494494020214, 42.60085911331676], [-71.36308896942461, 42.60111518332947], [-71.35987295306495, 42.600954911163086], [-71.37880609146079, 42.59079086051261], [-71.37740608380831, 42.58759077170862], [-71.37730602292132, 42.58619081324494], [-71.37690608234678, 42.58629109579246], [-71.37550595835138, 42.58479128364401], [-71.37510598187332, 42.58319125573776], [-71.37530593752379, 42.58189121013457], [-71.37377699669962, 42.581675176963444], [-71.37490501650704, 42.577992220514645], [-71.37270490414991, 42.577391729765004], [-71.37080505415894, 42.57759217019959], [-71.37070506890011, 42.576691829108384], [-71.36690502621549, 42.579692023344556], [-71.36550497205027, 42.57887625156547], [-71.36380493056276, 42.57659217723513], [-71.36200497126454, 42.57689218306729], [-71.3595050288523, 42.57409226108333], [-71.35964908190557, 42.5729879708828], [-71.36028899650161, 42.572859897377874], [-71.36024091034278, 42.5706840985969], [-71.36105701703606, 42.568924006823586], [-71.35988906934554, 42.56869978735792], [-71.35890494014969, 42.56789175566914], [-71.35726507143845, 42.56793193277921], [-71.35640493705455, 42.567592153433246], [-71.35570502737095, 42.568092034283275], [-71.35530498767734, 42.56769205550728], [-71.35470504938182, 42.5646918448977], [-71.35420501706761, 42.564592188592464], [-71.35540505909646, 42.56339188785239], [-71.3538850220924, 42.56152704842026], [-71.36742891751204, 42.55810507944568], [-71.37552099053049, 42.55491713642463], [-71.38811208678172, 42.54962877412875], [-71.38543792335581, 42.5381858153386], [-71.40553809105114, 42.53191810721857], [-71.4082419788308, 42.5308760115134], [-71.41852908045938, 42.52778410095854], [-71.42384400495314, 42.52581282915481], [-71.42667393283419, 42.52743622289247], [-71.42821701502544, 42.52876392372378], [-71.43487298723404, 42.52202112295812], [-71.44354905367793, 42.5091460255187], [-71.47364793992821, 42.50008685297095], [-71.47516695959752, 42.5005812009668], [-71.47695399972068, 42.50170181265499], [-71.49557008818144, 42.508393985739204], [-71.49950796287193, 42.50949293614822], [-71.50015798462663, 42.50921892047433], [-71.50268590614614, 42.50686474742134], [-71.50898191955736, 42.50998490431931], [-71.51143904375108, 42.50889876601734], [-71.51484294592463, 42.51142525758375], [-71.51768800295493, 42.51552490118229], [-71.52979202728677, 42.519580822305244], [-71.5313869895116, 42.5202848390258], [-71.5388720225762, 42.54290501695], [-71.54229501728828, 42.55022780000425], [-71.53382308701943, 42.552660103575676], [-71.53377808480562, 42.55281990837429], [-71.52926103538817, 42.55585999044414], [-71.5283340681865, 42.55624788940624], [-71.5270649145503, 42.55729977474072], [-71.5246519544869, 42.558715932044436], [-71.52446599411101, 42.559494114843034], [-71.52339000598305, 42.559991149363924], [-71.52230192582901, 42.561328777043705], [-71.52078104373867, 42.564218238031], [-71.51629091438312, 42.56654605686062], [-71.50646993175366, 42.57208625842514], [-71.50298400763502, 42.57542905940437], [-71.49888509279356, 42.57663484048097], [-71.49773307401568, 42.57655492834685], [-71.49504509211953, 42.6014499986287], [-71.4948689254238, 42.60431381989268], [-71.4945330721249, 42.60636180640106], [-71.49354102615935, 42.617418135161074], [-71.47915691254389, 42.62410616856836], [-71.46402102901645, 42.63164174248133], [-71.41781193648652, 42.653753723873756], [-71.41286699657454, 42.649770054937896], [-71.41195902576654, 42.649521809224225], [-71.41166100512048, 42.64857805460119], [-71.40970999174587, 42.64889499550812], [-71.40569908086141, 42.64826614621567], [-71.40417504262366, 42.64846124600076], [-71.40350290912694, 42.64778102848723], [-71.40337504499206, 42.64729199978144], [-71.40301095803544, 42.646778008035014], [-71.39933801821863, 42.64499414282169], [-71.39852798234193, 42.64552905938248], [-71.39896294322146, 42.646250166803995]]]}}