{"type": "Feature", "properties": {"district_name": "3rd Barnstable District", "chamber": "house", "vintage": "2022-present"}, "geometry": {"type": "Polygon", "coordinates": [[[-70.690964, 41.66045700000001], [-70.684292, 41.673897], [-70.676629, 41.691129], [-70.67440400000001, 41.68960899999999], [-70.6437, 41.717465000000004], [-70.642244, 41.71922500000001], [-70.640276, 41.723609], [-70.640756, 41.72485700000001], [-70.639476, 41.726473000000006], [-70.639332, 41.72904900000002], [-70.63258, 41.733656999999994], [-70.633268, 41.73546499999999], [-70.632706, 41.73775899999999], [-70.630959, 41.736681], [-70.629359, 41.73632899999999], [-70.625683, 41.736633], [-70.622268, 41.73785799999998], [-70.615478, 41.741164], [-70.614757, 41.741662000000005], [-70.611416, 41.742862], [-70.593012, 41.74663699999999], [-70.589514, 41.74772600000001], [-70.58718700000001, 41.74417800000002], [-70.586975, 41.74354], [-70.58632, 41.743570999999996], [-70.585919, 41.74331900000001], [-70.58592, 41.742988999999994], [-70.586227, 41.74262999999999], [-70.586269, 41.74226899999999], [-70.584395, 41.735799], [-70.584036, 41.73368800000001], [-70.584242, 41.72523900000001], [-70.584262, 41.726506], [-70.584476, 41.72659599999999], [-70.584596, 41.72652500000002], [-70.584631, 41.725756000000004], [-70.58493, 41.72568399999997], [-70.585783, 41.724748], [-70.58562, 41.72321400000001], [-70.587984, 41.723355000000005], [-70.588382, 41.723542], [-70.591628, 41.723483], [-70.5918, 41.723731], [-70.592163, 41.72290300000001], [-70.591863, 41.72253499999999], [-70.591716, 41.722010999999995], [-70.591867, 41.72150299999999], [-70.592404, 41.72096600000001], [-70.59274, 41.72085899999999], [-70.593503, 41.721213000000006], [-70.596125, 41.72128699999999], [-70.597915, 41.722005], [-70.600049, 41.721728999999996], [-70.601771, 41.721833], [-70.602759, 41.721656], [-70.603869, 41.722123], [-70.605123, 41.72070799999999], [-70.6077, 41.719941000000006], [-70.609026, 41.717724], [-70.609162, 41.716902], [-70.609075, 41.71582700000001], [-70.609324, 41.71482099999999], [-70.609361, 41.712223], [-70.609, 41.71065299999999], [-70.609021, 41.709133], [-70.60869, 41.705729000000005], [-70.607587, 41.705847], [-70.603471, 41.70697500000001], [-70.600745, 41.70864399999999], [-70.598082, 41.710604000000004], [-70.596425, 41.713088000000006], [-70.594874, 41.712430000000005], [-70.594031, 41.711728], [-70.59351300000002, 41.711619], [-70.591453, 41.71178799999999], [-70.588556, 41.711579000000015], [-70.588038, 41.711871], [-70.587905, 41.712531000000006], [-70.586752, 41.711741999999994], [-70.586714, 41.71156100000001], [-70.583384, 41.711741], [-70.583346, 41.709843000000006], [-70.58402, 41.70417400000001], [-70.583278, 41.704181], [-70.582439, 41.70461800000002], [-70.581466, 41.704659000000014], [-70.57979, 41.705163], [-70.578417, 41.70506100000001], [-70.577474, 41.704143], [-70.576837, 41.703877], [-70.576287, 41.704077], [-70.57359, 41.70442499999999], [-70.573087, 41.704849], [-70.57251, 41.706537999999995], [-70.570392, 41.70864499999999], [-70.569198, 41.708986], [-70.567625, 41.70878699999998], [-70.56664, 41.708303], [-70.566264, 41.707677000000004], [-70.565634, 41.707273999999984], [-70.561396, 41.70645400000001], [-70.560926, 41.705471], [-70.559231, 41.704045999999984], [-70.556682, 41.703151], [-70.555543, 41.702344], [-70.553434, 41.701759999999986], [-70.550923, 41.70074], [-70.549942, 41.70020700000001], [-70.548795, 41.699128], [-70.548346, 41.69888900000001], [-70.547125, 41.69893700000001], [-70.544937, 41.69935799999999], [-70.541715, 41.699702000000016], [-70.541731, 41.69879600000001], [-70.540964, 41.696504000000004], [-70.540385, 41.695350000000005], [-70.540649, 41.69359800000001], [-70.540633, 41.692339], [-70.541084, 41.69149200000002], [-70.541002, 41.690427000000014], [-70.541344, 41.689937], [-70.541983, 41.68787900000001], [-70.542843, 41.68674], [-70.544573, 41.683775000000004], [-70.545273, 41.681965999999996], [-70.545308, 41.680825], [-70.545924, 41.679928999999994], [-70.546747, 41.676652], [-70.546969, 41.67625], [-70.550508, 41.671248999999996], [-70.552479, 41.66951800000001], [-70.553086, 41.66869599999999], [-70.557628, 41.664970000000004], [-70.559152, 41.66307200000001], [-70.560476, 41.661912], [-70.56145, 41.66132199999999], [-70.566687, 41.656313999999995], [-70.566878, 41.653995], [-70.566284, 41.65222099999998], [-70.566319, 41.651602000000004], [-70.567481, 41.649183000000015], [-70.568055, 41.648782999999995], [-70.568924, 41.64854500000002], [-70.568841, 41.64804], [-70.568042, 41.64748799999999], [-70.567705, 41.64694800000001], [-70.567682, 41.646137], [-70.5679, 41.64553400000002], [-70.539647, 41.637212000000005], [-70.538076, 41.63900399999999], [-70.537017, 41.63987099999999], [-70.535776, 41.641386000000004], [-70.5332, 41.64253399999998], [-70.530504, 41.644367999999986], [-70.523175, 41.650439], [-70.520805, 41.654998000000006], [-70.520048, 41.655624], [-70.519344, 41.65676799999999], [-70.516458, 41.663945000000005], [-70.516375, 41.664987], [-70.515497, 41.668806], [-70.51344, 41.673775], [-70.511373, 41.676097999999996], [-70.497175, 41.670649], [-70.497098, 41.670727], [-70.49746000000002, 41.671119000000004], [-70.497392, 41.671410000000016], [-70.49524, 41.671485], [-70.49473900000001, 41.672052999999984], [-70.494018, 41.672283], [-70.493694, 41.67279200000001], [-70.493577, 41.673700000000004], [-70.493907, 41.674626], [-70.493688, 41.67573699999999], [-70.49386, 41.676112999999994], [-70.493852, 41.676831], [-70.49677, 41.678087000000005], [-70.49720000000002, 41.683482000000005], [-70.478058, 41.68512900000001], [-70.475553, 41.682421000000005], [-70.475269, 41.679683], [-70.474925, 41.678456], [-70.474935, 41.67726300000001], [-70.475076, 41.67679400000001], [-70.475879, 41.67674900000002], [-70.482171, 41.66597500000001], [-70.480554, 41.661024000000005], [-70.475371, 41.659745000000015], [-70.474978, 41.660537000000005], [-70.47355400000001, 41.662179], [-70.472326, 41.66393299999999], [-70.471688, 41.664435], [-70.471112, 41.66596400000001], [-70.458737, 41.664041], [-70.451059, 41.65691200000001], [-70.446514, 41.65033999999999], [-70.45171200000001, 41.64248200000001], [-70.453238, 41.641690000000004], [-70.453063, 41.640488], [-70.453189, 41.639856], [-70.452557, 41.638748000000014], [-70.454361, 41.639193999999996], [-70.458476, 41.637471000000005], [-70.466304, 41.637082], [-70.467605, 41.63422], [-70.466495, 41.633706], [-70.465705, 41.633044000000005], [-70.464608, 41.632515], [-70.460589, 41.633529000000024], [-70.456488, 41.635029], [-70.455991, 41.63432999999998], [-70.453509, 41.63493499999999], [-70.452662, 41.634828000000006], [-70.45282, 41.634607], [-70.452459, 41.634111], [-70.452466, 41.633616999999994], [-70.452675, 41.63333], [-70.452516, 41.632561], [-70.451895, 41.63201899999999], [-70.451698, 41.63158500000001], [-70.452009, 41.631384000000004], [-70.451991, 41.631231000000014], [-70.45162, 41.630904], [-70.451419, 41.630436], [-70.451814, 41.63002999999999], [-70.451854, 41.629263000000016], [-70.451394, 41.629018], [-70.45148, 41.62868799999998], [-70.450957, 41.62805599999999], [-70.451266, 41.62729099999999], [-70.450997, 41.62704000000001], [-70.451053, 41.62650000000001], [-70.450569, 41.62579], [-70.450622, 41.625273], [-70.450295, 41.62506500000001], [-70.4501, 41.624635999999995], [-70.449712, 41.624447999999994], [-70.449705, 41.624086], [-70.448956, 41.623345999999984], [-70.449238, 41.62312399999999], [-70.448879, 41.622990000000016], [-70.448954, 41.62276800000001], [-70.448739, 41.62260100000001], [-70.449059, 41.622398000000004], [-70.448607, 41.621491000000006], [-70.448946, 41.621365000000004], [-70.449009, 41.62092100000002], [-70.4496, 41.62094099999999], [-70.44981200000001, 41.620694], [-70.449563, 41.620157000000006], [-70.449717, 41.61949100000002], [-70.449431, 41.619358], [-70.449322, 41.619074], [-70.449461, 41.618886999999994], [-70.450477, 41.61890700000001], [-70.450607, 41.61859200000001], [-70.450316, 41.617539999999984], [-70.450396, 41.61683999999999], [-70.450828, 41.61608499999999], [-70.452641, 41.615958000000006], [-70.45734, 41.610761999999994], [-70.46105, 41.606363000000016], [-70.464982, 41.59673999999998], [-70.458592, 41.588668000000006], [-70.453008, 41.58633600000002], [-70.452153, 41.586725], [-70.452308, 41.58698800000003], [-70.452076, 41.58747000000002], [-70.451697, 41.58741300000001], [-70.451448, 41.58704799999999], [-70.450102, 41.587701000000024], [-70.450104, 41.586228], [-70.45098, 41.584406], [-70.453912, 41.58072099999998], [-70.455929, 41.57844299999999], [-70.457237, 41.577321999999995], [-70.457537, 41.576223999999996], [-70.457376, 41.57599900000001], [-70.458355, 41.57498899999999], [-70.459057, 41.57399500000002], [-70.461746, 41.571508], [-70.461994, 41.571239], [-70.461907, 41.57117299999999], [-70.463945, 41.56922899999999], [-70.465012, 41.56795499999999], [-70.466583, 41.566533], [-70.468782, 41.564615999999994], [-70.46982, 41.56410000000001], [-70.473086, 41.561365], [-70.47538, 41.55901999999999], [-70.478945, 41.556905000000015], [-70.483797, 41.555096], [-70.486157, 41.55385999999999], [-70.487958, 41.553726999999995], [-70.489991, 41.55335000000001], [-70.493033, 41.552047000000016], [-70.493948, 41.551813], [-70.494658, 41.55176600000001], [-70.496951, 41.552081], [-70.500801, 41.55190900000001], [-70.501549, 41.55171000000001], [-70.505107, 41.551467], [-70.515277, 41.55010800000001], [-70.521911, 41.54902299999998], [-70.525953, 41.548118], [-70.526852, 41.547394], [-70.526961, 41.547547999999985], [-70.528181, 41.547479], [-70.529308, 41.54646099999998], [-70.530301, 41.547691], [-70.531894, 41.549009000000005], [-70.532851, 41.549569000000005], [-70.535123, 41.550415], [-70.538821, 41.551256], [-70.545003, 41.55158099999998], [-70.546519, 41.55209599999999], [-70.547863, 41.550918], [-70.54782, 41.55076600000001], [-70.548007, 41.550776], [-70.54789, 41.550549], [-70.549469, 41.55029700000001], [-70.549425, 41.550039], [-70.550178, 41.55009900000001], [-70.550455, 41.549989000000004], [-70.550426, 41.549808000000006], [-70.551391, 41.54995599999999], [-70.551793, 41.549884999999996], [-70.551756, 41.54972], [-70.552355, 41.549797000000005], [-70.552889, 41.549665], [-70.55283800000001, 41.549501], [-70.553963, 41.549302999999995], [-70.553934, 41.549111], [-70.554745, 41.549155], [-70.555169, 41.54907300000002], [-70.55514, 41.54892400000001], [-70.556294, 41.548963], [-70.556331, 41.54873799999999], [-70.558472, 41.548698999999985], [-70.559568, 41.54831], [-70.56093500000001, 41.54825499999999], [-70.560942, 41.548013], [-70.561644, 41.54831], [-70.56358, 41.548364], [-70.563668, 41.54824399999999], [-70.564654, 41.548303999999995], [-70.564764, 41.54811200000001], [-70.56518, 41.54823300000001], [-70.566218, 41.548183], [-70.566277, 41.54803500000001], [-70.567351, 41.548106], [-70.567373, 41.54798499999999], [-70.567782, 41.54802400000001], [-70.567782, 41.54792], [-70.568206, 41.547990999999996], [-70.568323, 41.54775500000001], [-70.569309, 41.54794700000001], [-70.570222, 41.54773300000003], [-70.57085200000002, 41.547337], [-70.570837, 41.547173000000015], [-70.571816, 41.54720499999999], [-70.573854, 41.54689799999999], [-70.574351, 41.54668399999998], [-70.574366, 41.546162], [-70.57533, 41.546206], [-70.57631000000002, 41.54603600000001], [-70.576646, 41.54592000000002], [-70.576595, 41.545745000000004], [-70.57818, 41.545404], [-70.578114, 41.54525600000001], [-70.579035, 41.545036], [-70.578984, 41.544899], [-70.580014, 41.54474200000001], [-70.580495, 41.54452500000001], [-70.580555, 41.54424], [-70.581892, 41.544662], [-70.586415, 41.54543], [-70.588469, 41.545347], [-70.588776, 41.54515500000001], [-70.589296, 41.549429], [-70.58909500000001, 41.550661999999996], [-70.590606, 41.55331200000001], [-70.591319, 41.554272], [-70.591939, 41.557916999999996], [-70.592165, 41.55842800000001], [-70.59216600000002, 41.559476], [-70.592686, 41.560816], [-70.593288, 41.563949], [-70.596102, 41.56445899999999], [-70.59463700000002, 41.56874500000001], [-70.594082, 41.573564000000005], [-70.592917, 41.57693], [-70.589753, 41.581382000000005], [-70.5851, 41.587138999999986], [-70.582833, 41.589455], [-70.58546, 41.59116800000001], [-70.585541, 41.59134199999999], [-70.585402, 41.591576999999994], [-70.585535, 41.591641], [-70.587174, 41.59133100000001], [-70.5886, 41.591331000000004], [-70.590327, 41.592014000000006], [-70.591083, 41.59318100000002], [-70.592118, 41.594159999999995], [-70.592494, 41.59530999999999], [-70.59260000000002, 41.596531], [-70.592355, 41.596935000000016], [-70.591584, 41.597389000000014], [-70.589801, 41.598091000000004], [-70.588768, 41.59867400000001], [-70.587149, 41.599179000000014], [-70.58668, 41.599726], [-70.583273, 41.600764], [-70.581245, 41.59989099999999], [-70.580308, 41.599911], [-70.579876, 41.59973900000001], [-70.579423, 41.59946500000001], [-70.578413, 41.59825200000001], [-70.576351, 41.598692000000014], [-70.574798, 41.597925], [-70.573403, 41.600269999999995], [-70.573058, 41.600536000000005], [-70.573074, 41.60119999999999], [-70.572708, 41.60238699999999], [-70.572829, 41.603254], [-70.573605, 41.604974999999996], [-70.576273, 41.607377], [-70.578439, 41.60862499999999], [-70.579968, 41.60984599999999], [-70.584124, 41.61143699999999], [-70.589065, 41.611331], [-70.591729, 41.611472000000006], [-70.59343, 41.61203100000001], [-70.597309, 41.61437199999999], [-70.598184, 41.61462500000001], [-70.600612, 41.614759], [-70.602727, 41.61539300000001], [-70.604062, 41.61529700000001], [-70.60681, 41.614450000000005], [-70.607468, 41.614498], [-70.609676, 41.61514599999998], [-70.610951, 41.61511100000002], [-70.612289, 41.614786999999986], [-70.613399, 41.614881], [-70.61494, 41.615161999999984], [-70.62283, 41.617673999999994], [-70.622609, 41.61643800000001], [-70.622915, 41.615531], [-70.625125, 41.613965], [-70.626374, 41.61231500000001], [-70.626817, 41.612003], [-70.628566, 41.61132700000002], [-70.629076, 41.610848000000004], [-70.631753, 41.61114800000002], [-70.63440900000002, 41.607265999999996], [-70.634549, 41.607558], [-70.635677, 41.607487], [-70.636296, 41.608257], [-70.637607, 41.60895500000001], [-70.640222, 41.609643], [-70.640414, 41.609893], [-70.640273, 41.60998399999999], [-70.641053, 41.611092], [-70.641977, 41.611978], [-70.641398, 41.61232500000001], [-70.639228, 41.612322], [-70.638024, 41.612111], [-70.636075, 41.612331999999995], [-70.634739, 41.61287000000001], [-70.632053, 41.612764], [-70.631685, 41.61293500000001], [-70.631347, 41.613953], [-70.633748, 41.614535000000004], [-70.636926, 41.615049], [-70.638081, 41.615094000000006], [-70.63954, 41.615656], [-70.639534, 41.61612300000001], [-70.638753, 41.616967], [-70.639648, 41.61758999999999], [-70.637538, 41.61971700000001], [-70.63718, 41.620713], [-70.637426, 41.62170299999998], [-70.638717, 41.623332999999995], [-70.638991, 41.623945000000006], [-70.654383, 41.62321099999999], [-70.654394, 41.625107], [-70.660339, 41.625106], [-70.659556, 41.65921], [-70.690964, 41.66045700000001]]]}}