{"type": "Feature", "properties": {"district_name": "9th Norfolk District", "chamber": "house", "vintage": "2022-present"}, "geometry": {"type": "Polygon", "coordinates": [[[-71.458104, 42.017797999999985], [-71.455904, 42.034895], [-71.388272, 42.04099999999999], [-71.365315, 42.076195], [-71.359272, 42.08952099999999], [-71.367718, 42.107263], [-71.379982, 42.12655], [-71.380045, 42.127458], [-71.38067, 42.128212000000005], [-71.380585, 42.128665], [-71.38071300000001, 42.129135], [-71.381462, 42.129722000000015], [-71.38180200000001, 42.129825], [-71.382171, 42.12964599999998], [-71.381645, 42.13049899999999], [-71.382012, 42.130815], [-71.381919, 42.130959000000004], [-71.381637, 42.130817999999984], [-71.381329, 42.13100899999999], [-71.380693, 42.131004000000004], [-71.380258, 42.131426], [-71.38088, 42.132002000000014], [-71.381058, 42.132668], [-71.38052, 42.13297699999999], [-71.380128, 42.13270700000001], [-71.380188, 42.132925], [-71.379326, 42.13324499999999], [-71.379218, 42.13344099999998], [-71.37939, 42.13385500000001], [-71.379933, 42.134370999999994], [-71.380044, 42.134841], [-71.379795, 42.13558600000001], [-71.379214, 42.13587000000001], [-71.378109, 42.13539200000001], [-71.37679, 42.13561], [-71.375731, 42.13549700000001], [-71.374188, 42.134682], [-71.372465, 42.134060000000005], [-71.3711, 42.133158], [-71.369865, 42.133802], [-71.368334, 42.133545999999996], [-71.366619, 42.133805], [-71.366402, 42.13355399999999], [-71.366526, 42.13289000000002], [-71.36633100000002, 42.13192499999998], [-71.365985, 42.13199199999999], [-71.365605, 42.13239900000001], [-71.36394, 42.133089999999996], [-71.36342800000001, 42.13274400000002], [-71.363419, 42.13223599999999], [-71.363031, 42.131986], [-71.362684, 42.13219599999999], [-71.362428, 42.132924], [-71.361881, 42.133506], [-71.36227, 42.13432999999999], [-71.36248, 42.135270000000006], [-71.36253, 42.13575999999999], [-71.36232, 42.13660000000002], [-71.36241, 42.13685000000001], [-71.36409, 42.13903], [-71.36653, 42.14156], [-71.36777, 42.143639999999984], [-71.36576, 42.144339999999985], [-71.36118, 42.14644], [-71.35916, 42.14768000000001], [-71.35841, 42.148709999999994], [-71.359328, 42.14948000000001], [-71.36189, 42.15291000000001], [-71.36553, 42.16101], [-71.366441, 42.16390899999999], [-71.34914, 42.170750000000005], [-71.3454, 42.171990000000015], [-71.34113, 42.17401999999999], [-71.33592, 42.176130000000015], [-71.32473, 42.180069999999986], [-71.31779, 42.18375], [-71.3159, 42.184619999999995], [-71.314654, 42.18495000000001], [-71.314039, 42.185513], [-71.313626, 42.185612], [-71.312913, 42.186139999999995], [-71.312864, 42.186312], [-71.311093, 42.187297], [-71.310287, 42.187197000000005], [-71.30953, 42.18672999999998], [-71.308781, 42.18673599999999], [-71.308562, 42.186783000000005], [-71.308725, 42.186958000000004], [-71.307695, 42.187069], [-71.306707, 42.187843], [-71.30578, 42.186850000000014], [-71.3054, 42.18665], [-71.304137, 42.187148], [-71.30046, 42.18477], [-71.29789, 42.182759999999995], [-71.295282, 42.183375999999996], [-71.294519, 42.184641000000006], [-71.293004, 42.18516900000001], [-71.294106, 42.18507100000001], [-71.294466, 42.18520200000001], [-71.294745, 42.185431], [-71.295025, 42.18608700000001], [-71.294864, 42.18694700000001], [-71.295111, 42.187617], [-71.294544, 42.18827499999999], [-71.294506, 42.189002], [-71.294237, 42.18953200000001], [-71.293374, 42.190403], [-71.292428, 42.190694999999984], [-71.291536, 42.19074599999999], [-71.29002, 42.19135000000001], [-71.289476, 42.19135500000001], [-71.288936, 42.191848], [-71.288918, 42.193318], [-71.288647, 42.193969], [-71.287916, 42.19253899999998], [-71.28672, 42.19225], [-71.28612, 42.19349999999999], [-71.28549, 42.19393000000001], [-71.28458, 42.19519999999999], [-71.2842, 42.19538000000002], [-71.28329, 42.195460000000004], [-71.28291, 42.193200000000004], [-71.28094000000002, 42.19284], [-71.27949, 42.193650000000005], [-71.27827, 42.19401999999999], [-71.278135, 42.194524999999985], [-71.277913, 42.194718], [-71.277904, 42.195471], [-71.277357, 42.195906], [-71.278223, 42.195781999999994], [-71.276859, 42.197142], [-71.27618, 42.197538], [-71.276328, 42.197765000000004], [-71.275759, 42.198132000000015], [-71.275375, 42.19808100000001], [-71.274963, 42.19907], [-71.27379, 42.19927], [-71.27168, 42.20024], [-71.269558, 42.200579], [-71.275671, 42.18166700000001], [-71.275025, 42.148622999999986], [-71.303751, 42.14949999999999], [-71.303785, 42.14921099999999], [-71.303566, 42.148693], [-71.303227, 42.148669000000005], [-71.303139, 42.14842399999999], [-71.302813, 42.14848700000002], [-71.302603, 42.14897799999999], [-71.30234000000002, 42.149026], [-71.302202, 42.14865099999999], [-71.301967, 42.148572], [-71.301965, 42.148165999999996], [-71.301282, 42.148253000000004], [-71.300817, 42.14809099999997], [-71.300873, 42.14750299999999], [-71.300562, 42.147506], [-71.300118, 42.147176], [-71.300441, 42.14692900000001], [-71.300302, 42.146582], [-71.300678, 42.14625100000001], [-71.300275, 42.146039], [-71.300118, 42.14573100000001], [-71.300696, 42.14506799999997], [-71.300351, 42.14472099999999], [-71.300386, 42.14433799999999], [-71.299878, 42.144072999999985], [-71.29985, 42.14376199999999], [-71.300443, 42.143138], [-71.300506, 42.142874], [-71.300228, 42.14269500000001], [-71.300263, 42.14234799999999], [-71.300005, 42.14198699999999], [-71.299406, 42.141771000000006], [-71.299416, 42.14141399999998], [-71.299724, 42.141226], [-71.299768, 42.140936], [-71.298947, 42.140420000000006], [-71.299215, 42.139785], [-71.299031, 42.138948], [-71.299194, 42.138795], [-71.299597, 42.13881700000001], [-71.299748, 42.138501000000005], [-71.300323, 42.138658], [-71.300347, 42.13847399999999], [-71.300665, 42.13830399999998], [-71.300584, 42.138083], [-71.301348, 42.13777300000002], [-71.301379, 42.137194], [-71.3017, 42.13720599999999], [-71.302191, 42.136813], [-71.30176, 42.136634], [-71.29991200000002, 42.129408999999995], [-71.29894, 42.1265], [-71.295013, 42.12822700000001], [-71.29266, 42.130010999999996], [-71.288352, 42.12986199999999], [-71.28394, 42.129250000000006], [-71.282526, 42.12923000000001], [-71.27328, 42.12205900000002], [-71.271429, 42.12098399999999], [-71.269585, 42.11929499999998], [-71.262465, 42.123255], [-71.257863, 42.126732999999994], [-71.255876, 42.12840800000001], [-71.255424, 42.12910399999999], [-71.255127, 42.12876600000001], [-71.256043, 42.127244999999995], [-71.255927, 42.12613300000001], [-71.253955, 42.125006], [-71.250935, 42.12427799999998], [-71.248814, 42.12249899999999], [-71.2485, 42.12174000000003], [-71.25436, 42.11374999999999], [-71.25199, 42.11322], [-71.253714, 42.11202100000002], [-71.25461, 42.11074000000001], [-71.255269, 42.10928499999998], [-71.25566, 42.10890999999998], [-71.2551, 42.10814000000001], [-71.254279, 42.10889900000002], [-71.25402, 42.10894000000002], [-71.25383, 42.10506199999999], [-71.255501, 42.10407800000001], [-71.271736, 42.09844499999999], [-71.284482, 42.08357899999999], [-71.287701, 42.07693100000001], [-71.287099, 42.06370699999999], [-71.289441, 42.05910200000002], [-71.28826500000001, 42.014462], [-71.364344, 41.985293], [-71.381299, 41.98508399999999], [-71.381505, 42.000021000000004], [-71.381401, 42.018798000000004], [-71.415708, 42.018498], [-71.4468, 42.017899], [-71.458104, 42.017797999999985]]]}}