{"type": "Feature", "properties": {"district_name": "18th Middlesex", "chamber": "house", "vintage": "2001-2010"}, "geometry": {"type": "Polygon", "coordinates": [[[-71.31240504528682, 42.65249078777735], [-71.30525081092944, 42.648161316547494], [-71.30560978044932, 42.64773094488817], [-71.3074050218299, 42.64879114120511], [-71.3083049503323, 42.64879094533496], [-71.30920505479884, 42.647790950314075], [-71.31030492347051, 42.64789122637127], [-71.3129050215158, 42.6485908788572], [-71.3134729570753, 42.64642678914424], [-71.31376094548577, 42.646010905863086], [-71.31472791774324, 42.64619587858396], [-71.31632094323054, 42.6443788690402], [-71.31499306719668, 42.64362675662752], [-71.316944905499, 42.64149917963952], [-71.31756896963715, 42.64119521966032], [-71.31707306908392, 42.64073082586963], [-71.31820902124795, 42.64010697082759], [-71.31681707017016, 42.63946674597384], [-71.31640495106488, 42.6390908108009], [-71.31598508567424, 42.638363220313245], [-71.31617700482691, 42.63794717699229], [-71.31787301500414, 42.63757909215919], [-71.32520505271742, 42.63539107875543], [-71.32542491771945, 42.6312588667838], [-71.32523299496756, 42.62957910717543], [-71.32401691116787, 42.62965884739777], [-71.32366494566513, 42.62828323050444], [-71.32330497053799, 42.62759119716583], [-71.32337699322494, 42.627243040541615], [-71.32299294760914, 42.62637880271933], [-71.32315307262101, 42.62599477241004], [-71.31932900168887, 42.62498679530963], [-71.31958509474299, 42.62295495442167], [-71.31868799355294, 42.621770888145555], [-71.3189039298437, 42.620791114224254], [-71.32014402843451, 42.61877881269893], [-71.31982400072214, 42.618202740794416], [-71.31980792202833, 42.61663520873683], [-71.32017606189814, 42.61676293857172], [-71.32020806050143, 42.6159629181836], [-71.31975995801612, 42.61602691847744], [-71.3197600251463, 42.61586712957347], [-71.31911990486478, 42.61541883649592], [-71.31841601457329, 42.61417092700055], [-71.31867205239327, 42.61413925446675], [-71.31856000768028, 42.60887503619927], [-71.31940806800044, 42.607370744533725], [-71.32281893092322, 42.60718923267012], [-71.32330391236675, 42.60909113625503], [-71.32540505086851, 42.61169090320857], [-71.32490508743294, 42.61179086290525], [-71.32539308388543, 42.61346713730178], [-71.32820893663909, 42.61322717583658], [-71.32857704354899, 42.61378698468269], [-71.35188905596617, 42.62274715367041], [-71.35979392832255, 42.62620315756476], [-71.3619959146772, 42.63058198226841], [-71.36504190738414, 42.637547052479285], [-71.34390509371947, 42.64049112903757], [-71.3397049017291, 42.642091131547886], [-71.33080496876936, 42.6490910871034], [-71.3304050883512, 42.64949109445956], [-71.32968105357376, 42.65074694785044], [-71.32660505973209, 42.65109120426148], [-71.32436896476442, 42.651914894909524], [-71.32244900398774, 42.65393123861928], [-71.31953694095083, 42.65585092423771], [-71.31550506438612, 42.65473111602455], [-71.31240504528682, 42.65249078777735]]]}}