{"type": "Feature", "properties": {"district_name": "13th Middlesex District", "chamber": "house", "vintage": "2012-2020"}, "geometry": {"type": "Polygon", "coordinates": [[[-71.543477, 42.34524500000001], [-71.542794, 42.34692999999999], [-71.54337799999999, 42.34716099999999], [-71.54175, 42.349204999999984], [-71.540847, 42.35107199999998], [-71.534442, 42.35120399999998], [-71.531491, 42.352233], [-71.530587, 42.35225399999999], [-71.529164, 42.35321600000002], [-71.52788799999999, 42.354724], [-71.527957, 42.354983], [-71.527215, 42.35693099999998], [-71.526783, 42.35796300000002], [-71.526355, 42.358556], [-71.523748, 42.359983], [-71.520164, 42.36284499999998], [-71.519397, 42.363189999999996], [-71.517566, 42.365027999999995], [-71.517135, 42.36748099999999], [-71.517929, 42.367588], [-71.51835400000002, 42.36783], [-71.519781, 42.37001199999999], [-71.52054799999999, 42.37087700000002], [-71.52103799999999, 42.370667000000005], [-71.52268099999999, 42.37072699999999], [-71.52241, 42.371841], [-71.522734, 42.37528799999998], [-71.521669, 42.37530499999999], [-71.52141999999999, 42.375837000000004], [-71.475505, 42.380632000000006], [-71.472689, 42.389984999999996], [-71.46945199999999, 42.40263099999999], [-71.442508, 42.40694199999999], [-71.43573599999999, 42.42367699999999], [-71.435166, 42.42549599999999], [-71.434676, 42.42640899999999], [-71.43038899999999, 42.436937], [-71.422642, 42.43412399999999], [-71.419498, 42.43281999999999], [-71.366326, 42.41271499999999], [-71.332599, 42.399440999999996], [-71.33587800000001, 42.393942], [-71.334986, 42.38623700000003], [-71.337403, 42.38695100000001], [-71.338549, 42.38695600000001], [-71.339306, 42.387261], [-71.341315, 42.387446000000004], [-71.344301, 42.38640899999999], [-71.34585799999999, 42.386196000000005], [-71.34674199999999, 42.385512999999996], [-71.34795799999999, 42.385445000000004], [-71.349572, 42.38498899999998], [-71.35027699999999, 42.384699999999995], [-71.35157, 42.383835000000005], [-71.35301799999999, 42.383539999999996], [-71.354134, 42.38294399999999], [-71.35616999999999, 42.382489], [-71.357901, 42.38235199999998], [-71.35904599999999, 42.37582899999999], [-71.359068, 42.373068], [-71.35875399999999, 42.3697], [-71.358992, 42.369177000000015], [-71.360284, 42.367726], [-71.360528, 42.366686], [-71.36119599999999, 42.36546099999999], [-71.361222, 42.36461200000001], [-71.361473, 42.36442900000001], [-71.360118, 42.36297700000001], [-71.35771199999999, 42.358546999999994], [-71.357376, 42.35766399999999], [-71.357489, 42.355601], [-71.35691899999999, 42.35318999999999], [-71.357337, 42.35204499999999], [-71.358772, 42.349407], [-71.358975, 42.348383], [-71.359025, 42.34679099999999], [-71.358764, 42.345364000000004], [-71.35857, 42.34208700000001], [-71.357472, 42.34193], [-71.356807, 42.34101600000001], [-71.35489500000001, 42.340136], [-71.353989, 42.340139000000015], [-71.35372600000001, 42.33999399999999], [-71.35374999999999, 42.339561], [-71.354843, 42.33846999999999], [-71.354354, 42.33678600000001], [-71.350461, 42.3348], [-71.350037, 42.33496000000001], [-71.349515, 42.335884], [-71.34834699999999, 42.33656899999999], [-71.346868, 42.336746000000005], [-71.34635999999999, 42.33643299999998], [-71.345905, 42.33500000000001], [-71.34539699999999, 42.334155], [-71.343702, 42.33378], [-71.342479, 42.333258000000015], [-71.341203, 42.33307699999999], [-71.340173, 42.33621199999999], [-71.33955999999999, 42.33752999999998], [-71.337768, 42.339805000000005], [-71.334999, 42.33876], [-71.334042, 42.338142999999974], [-71.333248, 42.33732900000001], [-71.332456, 42.33593999999999], [-71.332104, 42.33378500000001], [-71.330795, 42.331883999999995], [-71.333739, 42.332422000000015], [-71.337936, 42.32432499999999], [-71.33903, 42.32261700000001], [-71.345998, 42.314803999999995], [-71.355199, 42.31717], [-71.35991, 42.317149], [-71.363171, 42.31581099999998], [-71.364093, 42.31590600000001], [-71.36518, 42.31523900000001], [-71.36675699999999, 42.31395], [-71.368753, 42.312837], [-71.369117, 42.311977000000006], [-71.369723, 42.31121900000001], [-71.370425, 42.310848], [-71.37074900000002, 42.310199], [-71.37177, 42.309880000000014], [-71.37287200000002, 42.30982099999999], [-71.373395, 42.30985500000002], [-71.373981, 42.310405999999986], [-71.374426, 42.31118300000001], [-71.374935, 42.31155699999999], [-71.37768700000001, 42.314668999999995], [-71.37976300000001, 42.311988], [-71.395018, 42.314325000000025], [-71.404463, 42.315937], [-71.406812, 42.316016999999995], [-71.4097, 42.31581600000001], [-71.41543899999999, 42.314538], [-71.41503999999999, 42.316207000000006], [-71.411504, 42.32013899999999], [-71.408018, 42.32233499999999], [-71.404774, 42.32313399999998], [-71.400329, 42.32517700000001], [-71.399726, 42.325091], [-71.398071, 42.32552599999999], [-71.397291, 42.32541200000001], [-71.39680899999999, 42.325894], [-71.393272, 42.326682000000005], [-71.392916, 42.325779999999966], [-71.390732, 42.32623499999998], [-71.390743, 42.326754000000015], [-71.39049899999999, 42.32733499999998], [-71.386984, 42.32707699999999], [-71.387135, 42.32605500000001], [-71.38610899999999, 42.325961], [-71.384896, 42.326978000000004], [-71.381804, 42.328520000000005], [-71.388832, 42.336269], [-71.388345, 42.336948], [-71.38853999999999, 42.33743299999999], [-71.38902399999999, 42.337568999999995], [-71.389938, 42.337465999999985], [-71.391212, 42.336960999999995], [-71.392681, 42.33568899999999], [-71.39429299999999, 42.335556], [-71.39485599999999, 42.336065999999995], [-71.394971, 42.336526000000006], [-71.394825, 42.338454000000006], [-71.394932, 42.33888799999998], [-71.396704, 42.340883], [-71.40621, 42.34237400000001], [-71.48329799999999, 42.353129999999986], [-71.486768, 42.330075], [-71.50821599999999, 42.327928], [-71.51123799999999, 42.328804999999996], [-71.51075999999999, 42.330714000000015], [-71.510823, 42.33254], [-71.51126099999999, 42.333672], [-71.51214999999999, 42.33442600000001], [-71.516432, 42.335606000000006], [-71.518519, 42.33656599999998], [-71.51926399999999, 42.337187000000014], [-71.51939899999999, 42.33780000000001], [-71.518712, 42.339575999999994], [-71.51875, 42.33984099999999], [-71.519058, 42.34020799999999], [-71.519189, 42.34082600000001], [-71.520626, 42.341816], [-71.51890999999999, 42.341919999999995], [-71.517006, 42.342583999999995], [-71.517423, 42.34336], [-71.517412, 42.343855000000005], [-71.518526, 42.34401600000001], [-71.51875100000001, 42.344196000000004], [-71.518822, 42.344617], [-71.516432, 42.345158], [-71.515604, 42.34480299999999], [-71.51531299999999, 42.344288000000006], [-71.514873, 42.344194], [-71.515064, 42.344708000000004], [-71.514887, 42.345710999999994], [-71.51630399999999, 42.34635999999999], [-71.517043, 42.34682600000001], [-71.517836, 42.34765500000001], [-71.518298, 42.347843], [-71.518376, 42.348224], [-71.518006, 42.349339], [-71.519757, 42.34957000000001], [-71.52368700000001, 42.349007999999984], [-71.52546199999999, 42.349114000000014], [-71.525892, 42.347923], [-71.52590000000001, 42.347120000000004], [-71.52486999999999, 42.346196], [-71.524479, 42.345588], [-71.523246, 42.342763], [-71.52283899999999, 42.341353000000005], [-71.52454399999999, 42.34096899999999], [-71.525661, 42.33995899999999], [-71.52678999999999, 42.340286000000006], [-71.528812, 42.341184999999996], [-71.529961, 42.342226999999994], [-71.53062, 42.344734], [-71.53223899999999, 42.34462600000001], [-71.532493, 42.345594999999996], [-71.543477, 42.34524500000001]]]}}