{"type": "Feature", "properties": {"district_name": "8th Worcester", "chamber": "house", "vintage": "2001-2010"}, "geometry": {"type": "Polygon", "coordinates": [[[-71.8133869109042, 42.125950982035526], [-71.79703401491223, 42.09926389003632], [-71.79236208368157, 42.10073613297733], [-71.7746820167177, 42.10025601730784], [-71.77090598069718, 42.08975989359319], [-71.76821807999904, 42.08171222345264], [-71.76037798603701, 42.08305605327768], [-71.69672803193755, 42.09513604338273], [-71.69660003002397, 42.07086404537663], [-71.6794630626525, 42.07395217822048], [-71.67956206056648, 42.07083126529751], [-71.6817640234444, 42.05475299231834], [-71.67672706899812, 42.05350492206589], [-71.66824693688788, 42.05206479688034], [-71.66789506495785, 42.05290599574738], [-71.66500896775393, 42.053040740960164], [-71.66334598862531, 42.054931007661736], [-71.66285700365246, 42.05776717160922], [-71.66197590908878, 42.05980203788417], [-71.66080207203468, 42.060456997909334], [-71.66089998303595, 42.061402204474916], [-71.66011703439582, 42.06227380217799], [-71.65776895155479, 42.06234683806718], [-71.65187799725554, 42.06480088729261], [-71.65111006855055, 42.06483284785208], [-71.6501660102565, 42.06510475553731], [-71.64962194723084, 42.06544083978986], [-71.6488860103754, 42.06664091777933], [-71.64834205273414, 42.06686502207105], [-71.64627800237365, 42.067137209033774], [-71.64461405355662, 42.0676007406236], [-71.64267791576174, 42.0676808233286], [-71.6415580266618, 42.06804909673378], [-71.63962205949187, 42.06907278668046], [-71.63787793752093, 42.07065722403729], [-71.63616599021793, 42.07126474239369], [-71.63522201174757, 42.07147293628122], [-71.63322205916178, 42.071072943412844], [-71.63227803663521, 42.071808929173464], [-71.62989396065943, 42.07238505857018], [-71.6273659765671, 42.07324883543536], [-71.62606992293796, 42.0713291998529], [-71.62426193585395, 42.07193720391337], [-71.62331802022442, 42.06908926013754], [-71.62274107728614, 42.06803312232874], [-71.61573296081116, 42.05763320274908], [-71.61613297361514, 42.055473136929095], [-71.61643707514355, 42.05496076658649], [-71.61530109034103, 42.05432100034038], [-71.61290103299955, 42.053376923487676], [-71.6111250445371, 42.05230502068047], [-71.60987693684815, 42.05116899445502], [-71.6094930007431, 42.05060890818605], [-71.60869309666886, 42.04873698798671], [-71.60877290687182, 42.045856986361514], [-71.60832496944506, 42.04448103369763], [-71.60571693334232, 42.043360879793376], [-71.60515701350387, 42.04304121173354], [-71.60517306967668, 42.04281724014939], [-71.60419707413703, 42.04252890235348], [-71.60338103725535, 42.042417101392836], [-71.59997299711766, 42.042609198735526], [-71.59915694119182, 42.042481053714326], [-71.59725292919066, 42.040769244637005], [-71.59557203845365, 42.040161255151624], [-71.59517204671457, 42.03984084627735], [-71.594900006688, 42.03838478963959], [-71.5939240634698, 42.03817682654928], [-71.59248403940711, 42.036641254263756], [-71.59134793366894, 42.03683291974779], [-71.59077466384832, 42.01358571036353], [-71.74951188572949, 42.009967690197996], [-71.7996289652019, 42.00802306310065], [-71.80074231904005, 42.02352619254424], [-71.87450000118547, 42.024266806562096], [-71.99307440992582, 42.02683050585582], [-71.9944940516348, 42.03134410989513], [-71.9911339578755, 42.039647943186786], [-71.98858998599815, 42.05039879858213], [-71.9885739647366, 42.05347128405821], [-71.9884989389282, 42.05407426609602], [-71.98821702048956, 42.0544057864259], [-71.98865806041077, 42.05561992361661], [-71.98910998098702, 42.05621109321976], [-71.98957299579057, 42.05669811608993], [-71.99157803533016, 42.057957878124526], [-71.99185395863326, 42.05892681061411], [-71.99335796219026, 42.065375215961296], [-71.9927339215103, 42.07262283356247], [-71.9771820919297, 42.07609480182148], [-71.96734192446688, 42.07852691427621], [-71.96247799867903, 42.07939073088088], [-71.91618903557432, 42.089967205990504], [-71.89487596604303, 42.094462754402855], [-71.89084405047267, 42.072928244790226], [-71.87608791531657, 42.07768697181849], [-71.8770449245472, 42.078740031678144], [-71.87702392160409, 42.07943278985213], [-71.87787501306343, 42.07978393190635], [-71.87804801238654, 42.08004108105232], [-71.87802604207752, 42.08079293134218], [-71.87720691891741, 42.08128124519176], [-71.87797205820756, 42.082701247180715], [-71.8770239149313, 42.08325076676347], [-71.87673292967081, 42.083287737819454], [-71.87612896552531, 42.08296222754351], [-71.87577295886355, 42.08311588571295], [-71.87520208107128, 42.08462018694817], [-71.87292795989367, 42.08636075473453], [-71.87210897251127, 42.0872131069939], [-71.87165596555172, 42.087805987912525], [-71.87166701862739, 42.088435058583315], [-71.87364999036156, 42.09070194179717], [-71.87392997917364, 42.0908771506614], [-71.87453395765208, 42.09080877746437], [-71.8749430784477, 42.09129474289976], [-71.87713098821118, 42.09139616542428], [-71.87959491936486, 42.09125522572064], [-71.87993196455919, 42.0919349835541], [-71.87999604081573, 42.09254305274029], [-71.87986808209531, 42.09395081181222], [-71.87869998809958, 42.0958391809061], [-71.87740406147788, 42.09599876586394], [-71.87533993574748, 42.09660708716778], [-71.87474796021274, 42.09679922053812], [-71.87457200667777, 42.09713516921372], [-71.87417203454156, 42.097375064197735], [-71.87313201005166, 42.09763110800411], [-71.87316393210186, 42.09779081261023], [-71.87270000357857, 42.098078745309145], [-71.87274806922936, 42.098286790226545], [-71.87180407028237, 42.09868712932131], [-71.87167596320414, 42.09935884916473], [-71.87154799257436, 42.099215211593815], [-71.87068405276925, 42.0996467931338], [-71.86951602121674, 42.10076697638961], [-71.8691640111214, 42.10071916060444], [-71.86892391209157, 42.10087917553784], [-71.86922800018117, 42.10129516528341], [-71.86869992563963, 42.10134300832119], [-71.8684600783741, 42.10164707416507], [-71.86807594215772, 42.101791236588774], [-71.86753198368893, 42.10275127594857], [-71.86681190403847, 42.10321500303922], [-71.86666794122806, 42.10550285798092], [-71.86617205771066, 42.10815873036103], [-71.86857190953803, 42.10822305992128], [-71.86807598765076, 42.110015182820405], [-71.8681559940926, 42.11175874449939], [-71.8673080062673, 42.11625522777457], [-71.86476402439918, 42.11707084160927], [-71.8635480558259, 42.11702293792376], [-71.85250805154122, 42.11630284874999], [-71.84903593587899, 42.115086784640745], [-71.84706697956415, 42.11574325270355], [-71.84551498374644, 42.116607197671016], [-71.84481107461201, 42.11718327655556], [-71.84005890991725, 42.119166944173784], [-71.83948295908898, 42.119199038263496], [-71.83655493687186, 42.118735006044915], [-71.83557894303237, 42.11883127780367], [-71.8335949873451, 42.11948698993111], [-71.83058702362618, 42.120174896429994], [-71.82597906899294, 42.1217428443103], [-71.81954703518939, 42.12099118642952], [-71.81557895182155, 42.12267116167124], [-71.8133869109042, 42.125950982035526]]]}}