{"type": "Feature", "properties": {"district_name": "2nd Barnstable District", "chamber": "house", "vintage": "2022-present"}, "geometry": {"type": "Polygon", "coordinates": [[[-70.46758, 41.63427200000002], [-70.466304, 41.637082], [-70.458476, 41.637471000000005], [-70.454361, 41.639193999999996], [-70.452557, 41.638748000000014], [-70.453189, 41.639856], [-70.453063, 41.640488], [-70.453238, 41.641690000000004], [-70.45171200000001, 41.64248200000001], [-70.446514, 41.65033999999999], [-70.447897, 41.652347000000006], [-70.447234, 41.653029], [-70.44674, 41.652666], [-70.446372, 41.65211899999999], [-70.445495, 41.65146500000002], [-70.445236, 41.650967000000016], [-70.445209, 41.65156999999999], [-70.445641, 41.652417000000014], [-70.445676, 41.652972999999996], [-70.443976, 41.65469300000001], [-70.442698, 41.65699899999999], [-70.438662, 41.656406000000004], [-70.437573, 41.655891999999994], [-70.437347, 41.655502000000006], [-70.43712, 41.654007], [-70.434672, 41.65146099999998], [-70.433844, 41.651002], [-70.433261, 41.64992200000001], [-70.433052, 41.64877000000003], [-70.432678, 41.64822800000002], [-70.431488, 41.64701899999999], [-70.429966, 41.64638299999999], [-70.426212, 41.64751699999999], [-70.418393, 41.649353], [-70.415081, 41.65074100000001], [-70.413798, 41.65106500000002], [-70.405829, 41.65209200000001], [-70.398413, 41.653406999999994], [-70.394933, 41.653507], [-70.371461, 41.652260000000005], [-70.372734, 41.65439800000001], [-70.372998, 41.655840000000005], [-70.37365, 41.65680900000001], [-70.374272, 41.657033000000006], [-70.376256, 41.65719200000002], [-70.377457, 41.657523999999995], [-70.378414, 41.65824200000001], [-70.381397, 41.65987500000001], [-70.382662, 41.66168899999999], [-70.384091, 41.663298], [-70.384661, 41.66424500000001], [-70.385158, 41.665414], [-70.385216, 41.666088], [-70.385658, 41.66637400000001], [-70.385443, 41.666772999999985], [-70.385568, 41.66776700000002], [-70.383739, 41.6689], [-70.382788, 41.66996000000002], [-70.381037, 41.671341], [-70.379869, 41.67322000000001], [-70.379016, 41.67418000000001], [-70.377967, 41.676410000000004], [-70.370875, 41.676764], [-70.369581, 41.676705000000005], [-70.368733, 41.67645699999999], [-70.364574, 41.67447599999999], [-70.361913, 41.67271900000001], [-70.358981, 41.67573699999999], [-70.359291, 41.676286000000005], [-70.3593, 41.677735], [-70.36008, 41.6788], [-70.358895, 41.67879799999999], [-70.356939, 41.679277], [-70.356096, 41.68146500000002], [-70.356372, 41.68189499999999], [-70.354177, 41.68348100000001], [-70.352056, 41.68652600000002], [-70.348048, 41.68926800000001], [-70.346847, 41.691175], [-70.346239, 41.693493000000004], [-70.345047, 41.695055999999994], [-70.343507, 41.696222000000006], [-70.340853, 41.697109], [-70.339824, 41.69721199999999], [-70.339932, 41.69772199999999], [-70.340919, 41.699484000000005], [-70.34063400000001, 41.699887], [-70.341086, 41.700743999999986], [-70.341841, 41.703241000000006], [-70.341519, 41.70386700000002], [-70.341072, 41.704103], [-70.340772, 41.705179000000015], [-70.341505, 41.705701], [-70.341454, 41.706452999999996], [-70.343777, 41.706655], [-70.344326, 41.706902], [-70.344583, 41.70725899999999], [-70.343902, 41.708186999999995], [-70.3438, 41.709130999999985], [-70.343654, 41.70930700000001], [-70.343731, 41.709593000000034], [-70.343546, 41.709689999999995], [-70.342679, 41.709236], [-70.342174, 41.708561], [-70.341536, 41.708204], [-70.3407, 41.70744099999998], [-70.340129, 41.707463], [-70.339741, 41.70787000000001], [-70.339275, 41.708064], [-70.338994, 41.70856300000002], [-70.338364, 41.70979199999999], [-70.337674, 41.71182999999999], [-70.338087, 41.71194400000001], [-70.337801, 41.712504], [-70.337948, 41.71284399999999], [-70.340352, 41.71349099999999], [-70.341385, 41.71436400000002], [-70.342338, 41.71480799999999], [-70.343987, 41.71541700000001], [-70.344294, 41.71517], [-70.345313, 41.714938999999994], [-70.344075, 41.71547799999999], [-70.344779, 41.71637199999999], [-70.344142, 41.717783], [-70.34434, 41.718316], [-70.343776, 41.718475], [-70.343783, 41.718782000000026], [-70.343957, 41.718827], [-70.342824, 41.71900200000002], [-70.34149, 41.71881600000001], [-70.340838, 41.719024999999995], [-70.342223, 41.719639], [-70.342809, 41.71973199999999], [-70.343711, 41.71966599999999], [-70.344367, 41.71937900000001], [-70.344532, 41.720413], [-70.343169, 41.722052000000005], [-70.343675, 41.722248999999984], [-70.342734, 41.72359800000001], [-70.342174, 41.72405299999999], [-70.34089200000001, 41.72392700000001], [-70.336268, 41.724906], [-70.331732, 41.724786], [-70.329497, 41.724946], [-70.328537, 41.725347], [-70.327885, 41.725395999999996], [-70.327452, 41.72569500000001], [-70.325584, 41.725598999999995], [-70.323862, 41.725298000000016], [-70.321656, 41.725441], [-70.321495, 41.725606000000006], [-70.321971, 41.725863], [-70.321964, 41.726203999999996], [-70.322227, 41.726122000000004], [-70.322037, 41.72633600000001], [-70.321575, 41.726116], [-70.321158, 41.72628599999999], [-70.321634, 41.72590699999999], [-70.321319, 41.725786999999976], [-70.319113, 41.726424], [-70.318431, 41.726473000000006], [-70.31915, 41.726972999999994], [-70.31882, 41.72725299999998], [-70.318871, 41.727829], [-70.318732, 41.727972000000015], [-70.318446, 41.727659000000024], [-70.318578, 41.72705000000001], [-70.31771300000001, 41.727011], [-70.316717, 41.72674200000001], [-70.315383, 41.72723100000001], [-70.315405, 41.72746200000001], [-70.315764, 41.72747300000001], [-70.315815, 41.72774700000001], [-70.316021, 41.727790999999996], [-70.315933, 41.72786199999999], [-70.315354, 41.72753900000001], [-70.314364, 41.72805499999998], [-70.312877, 41.72752200000001], [-70.311506, 41.72754399999999], [-70.310011, 41.726831000000004], [-70.309564, 41.726847], [-70.30861900000001, 41.725035], [-70.308055, 41.72446999999999], [-70.307674, 41.72358], [-70.307725, 41.72306999999998], [-70.30701400000001, 41.72203199999999], [-70.306567, 41.721686999999996], [-70.30453, 41.720638], [-70.303504, 41.720769999999995], [-70.30302800000001, 41.720479], [-70.300844, 41.72028100000001], [-70.299591, 41.72056600000001], [-70.299217, 41.720275], [-70.298594, 41.72018200000001], [-70.29774400000001, 41.72045099999999], [-70.296872, 41.720516999999994], [-70.296836, 41.72093900000001], [-70.297678, 41.721466], [-70.2994, 41.72112099999999], [-70.300983, 41.721159], [-70.300727, 41.72129600000002], [-70.299225, 41.72136199999998], [-70.298975, 41.721593], [-70.29921000000002, 41.721922], [-70.300184, 41.722306999999994], [-70.300045, 41.722415999999996], [-70.30014, 41.722899000000005], [-70.300822, 41.72377199999999], [-70.301459, 41.72408500000001], [-70.301965, 41.725259999999984], [-70.302485, 41.725474], [-70.302991, 41.72531500000001], [-70.302895, 41.725645], [-70.302544, 41.725715999999984], [-70.301628, 41.725452000000004], [-70.301173, 41.724826], [-70.299759, 41.723848999999994], [-70.299473, 41.72319000000001], [-70.29899700000001, 41.72273500000001], [-70.298169, 41.72237799999999], [-70.296843, 41.72234999999999], [-70.296073, 41.72274500000001], [-70.295905, 41.72308], [-70.296425, 41.72419999999999], [-70.296513, 41.724596], [-70.296315, 41.724579], [-70.29559, 41.723294], [-70.295927, 41.72265800000001], [-70.295722, 41.72246], [-70.296059, 41.72247100000002], [-70.29633, 41.72227900000001], [-70.296279, 41.722065], [-70.296718, 41.722131], [-70.29688, 41.721889000000004], [-70.29526, 41.72184500000001], [-70.294051, 41.72127900000001], [-70.292468, 41.72125700000001], [-70.29145, 41.721537], [-70.290812, 41.72316200000001], [-70.290694, 41.72418900000001], [-70.290005, 41.72479200000001], [-70.289096, 41.72527000000001], [-70.28889800000002, 41.725555], [-70.288876, 41.725686999999986], [-70.289228, 41.725747000000005], [-70.289492, 41.72599999999999], [-70.28947, 41.726609], [-70.289228, 41.72664200000001], [-70.289155, 41.726115], [-70.28872200000002, 41.726066], [-70.287308, 41.72703700000001], [-70.28689, 41.727515000000004], [-70.286142, 41.727537], [-70.28538, 41.72673500000001], [-70.285366, 41.726104], [-70.285579, 41.725526999999985], [-70.284993, 41.724598999999984], [-70.283806, 41.72399500000001], [-70.282517, 41.72280399999999], [-70.281102, 41.722293000000015], [-70.280392, 41.722221], [-70.278992, 41.72268199999999], [-70.277504, 41.722896], [-70.276302, 41.72344400000001], [-70.274085, 41.72358200000001], [-70.272289, 41.72134600000001], [-70.267666, 41.716933], [-70.26384, 41.714258], [-70.263025, 41.714016000000015], [-70.26113, 41.71403599999999], [-70.261038, 41.71188899999999], [-70.262073, 41.71062899999999], [-70.262337, 41.71053100000001], [-70.262374, 41.710201000000005], [-70.263089, 41.709134], [-70.263406, 41.70901500000001], [-70.263905, 41.70838800000001], [-70.263505, 41.707945], [-70.262174, 41.707280999999995], [-70.261677, 41.706857], [-70.260678, 41.705084], [-70.260542, 41.704584], [-70.25964, 41.69223200000001], [-70.265778, 41.673514000000004], [-70.256398, 41.675789], [-70.253038, 41.67637299999999], [-70.249216, 41.677516], [-70.245089, 41.678344999999986], [-70.228286, 41.682364000000014], [-70.227625, 41.680292000000016], [-70.227779, 41.67918300000001], [-70.227724, 41.67764800000002], [-70.224631, 41.677867], [-70.223579, 41.67657100000001], [-70.223122, 41.67646799999999], [-70.222754, 41.676754999999986], [-70.222907, 41.677904], [-70.222299, 41.67782500000001], [-70.223071, 41.683096], [-70.221356, 41.68350300000001], [-70.219599, 41.68369300000001], [-70.216974, 41.681019], [-70.216712, 41.680583999999975], [-70.213124, 41.667306999999994], [-70.211912, 41.665738], [-70.219036, 41.66252000000001], [-70.219925, 41.66104800000001], [-70.221029, 41.66006100000001], [-70.221364, 41.65954300000001], [-70.221994, 41.658123], [-70.221936, 41.656794], [-70.222357, 41.656048], [-70.223808, 41.65516900000001], [-70.225214, 41.654039999999995], [-70.226964, 41.653438000000016], [-70.227978, 41.652802], [-70.230772, 41.64985899999999], [-70.229918, 41.64968799999999], [-70.23405400000001, 41.644270000000006], [-70.236905, 41.634890000000006], [-70.236789, 41.633299], [-70.237257, 41.63262499999999], [-70.23577, 41.63194099999999], [-70.233901, 41.63046699999999], [-70.249248, 41.624684000000016], [-70.253015, 41.620774], [-70.254878, 41.61240399999999], [-70.262812, 41.607445999999996], [-70.271761, 41.608899], [-70.275439, 41.62511099999999], [-70.290661, 41.616242], [-70.313275, 41.61462400000002], [-70.374572, 41.60929299999999], [-70.402251, 41.59999100000002], [-70.40111000000002, 41.60667200000001], [-70.401392, 41.606864], [-70.401386, 41.60668600000001], [-70.401517, 41.606703], [-70.401539, 41.60712], [-70.402702, 41.60707600000001], [-70.407179, 41.607555000000005], [-70.410851, 41.60737999999999], [-70.419899, 41.60611899999998], [-70.4263, 41.604675], [-70.427784, 41.60489], [-70.430535, 41.605729], [-70.4372, 41.605330000000016], [-70.437322, 41.604813], [-70.438566, 41.603697999999994], [-70.438924, 41.603155], [-70.439853, 41.602605999999994], [-70.440043, 41.60228699999999], [-70.440738, 41.59884499999998], [-70.441374, 41.59756], [-70.441418, 41.596973000000006], [-70.441593, 41.596824999999995], [-70.44201000000001, 41.596819], [-70.442734, 41.597170000000006], [-70.442412, 41.597818], [-70.441725, 41.598543], [-70.441411, 41.599592], [-70.441623, 41.600415], [-70.441893, 41.600783], [-70.442208, 41.60091399999999], [-70.442632, 41.600728], [-70.443071, 41.5993], [-70.44299, 41.598828], [-70.443809, 41.59751599999999], [-70.443721, 41.59684600000002], [-70.443933, 41.59578100000002], [-70.444423, 41.594601], [-70.444313, 41.593673], [-70.444569, 41.592674], [-70.444467, 41.59261399999999], [-70.445096, 41.591593], [-70.4459, 41.590884], [-70.445973, 41.59065399999998], [-70.446441, 41.590269], [-70.447041, 41.590061], [-70.447004, 41.58995600000003], [-70.448883, 41.589089], [-70.450198, 41.588941], [-70.450102, 41.587701000000024], [-70.451448, 41.58704799999999], [-70.451697, 41.58741300000001], [-70.452076, 41.58747000000002], [-70.452308, 41.58698800000003], [-70.452153, 41.586725], [-70.453008, 41.58633600000002], [-70.458592, 41.588668000000006], [-70.464982, 41.59673999999998], [-70.46105, 41.606363000000016], [-70.45734, 41.610761999999994], [-70.452641, 41.615958000000006], [-70.450828, 41.61608499999999], [-70.450448, 41.61659299999999], [-70.450316, 41.617539999999984], [-70.450607, 41.61859200000001], [-70.450477, 41.61890700000001], [-70.449387, 41.61894800000001], [-70.449324, 41.61918900000001], [-70.449717, 41.61949100000002], [-70.449563, 41.620157000000006], [-70.44981200000001, 41.620694], [-70.4496, 41.62094099999999], [-70.449009, 41.62092100000002], [-70.448946, 41.621365000000004], [-70.448607, 41.621491000000006], [-70.449056, 41.622374], [-70.448739, 41.62260100000001], [-70.448965, 41.62280200000001], [-70.448842, 41.62294999999999], [-70.449238, 41.62312399999999], [-70.448956, 41.623345999999984], [-70.449705, 41.624086], [-70.449791, 41.624554], [-70.4501, 41.624635999999995], [-70.450295, 41.62506500000001], [-70.450622, 41.625273], [-70.450569, 41.62579], [-70.451053, 41.62650000000001], [-70.450997, 41.62704000000001], [-70.451266, 41.62729099999999], [-70.450957, 41.62805599999999], [-70.45148, 41.62868799999998], [-70.451394, 41.629018], [-70.45183900000002, 41.62924400000002], [-70.451889, 41.62956499999999], [-70.451802, 41.63005600000001], [-70.451419, 41.630436], [-70.45162, 41.630904], [-70.451991, 41.631231000000014], [-70.452009, 41.631384000000004], [-70.451698, 41.63158500000001], [-70.451895, 41.63201899999999], [-70.452516, 41.632561], [-70.452675, 41.63333], [-70.452466, 41.633616999999994], [-70.452459, 41.634111], [-70.452811, 41.634565], [-70.452677, 41.63484900000001], [-70.453509, 41.63493499999999], [-70.455991, 41.63432999999998], [-70.456488, 41.635029], [-70.460589, 41.633529000000024], [-70.464608, 41.632515], [-70.465705, 41.633044000000005], [-70.466495, 41.633706], [-70.46758, 41.63427200000002]]]}}