{"type": "Feature", "properties": {"district_name": "10th Hampden District", "chamber": "house", "vintage": "2022-present"}, "geometry": {"type": "Polygon", "coordinates": [[[-72.62213100000001, 42.121424000000005], [-72.621481, 42.123788000000005], [-72.608279, 42.12921599999999], [-72.608148, 42.126947], [-72.607521, 42.12296099999999], [-72.605405, 42.12138499999999], [-72.605302, 42.120841999999996], [-72.604589, 42.119445000000006], [-72.603055, 42.117991], [-72.600254, 42.120066], [-72.598496, 42.120604], [-72.595779, 42.118342999999996], [-72.595927, 42.118227999999995], [-72.595019, 42.117394000000004], [-72.59591800000001, 42.114335999999994], [-72.597123, 42.113388], [-72.594997, 42.11112600000002], [-72.589488, 42.11537899999999], [-72.588483, 42.114585999999996], [-72.585958, 42.116482], [-72.582248, 42.115935000000015], [-72.57853900000002, 42.11263100000001], [-72.578431, 42.112111000000006], [-72.578816, 42.110461], [-72.577035, 42.108074], [-72.582199, 42.10490500000002], [-72.581517, 42.10426000000001], [-72.584027, 42.10225199999999], [-72.582395, 42.10199899999999], [-72.581613, 42.10149299999999], [-72.578623, 42.104109], [-72.577789, 42.103663], [-72.57693, 42.10411], [-72.576576, 42.103570000000005], [-72.576814, 42.1033], [-72.580235, 42.100522], [-72.57849400000002, 42.099501], [-72.57568100000002, 42.099754000000004], [-72.574934, 42.09962500000001], [-72.57334, 42.10007], [-72.571213, 42.101566], [-72.57165000000002, 42.10225499999999], [-72.571884, 42.103261], [-72.571093, 42.10391800000001], [-72.564819, 42.099650999999994], [-72.564247, 42.098984], [-72.563617, 42.09711399999998], [-72.56324, 42.096692], [-72.561238, 42.09651000000001], [-72.558073, 42.095316999999994], [-72.552669, 42.09359199999999], [-72.550409, 42.093149000000004], [-72.544286, 42.088811], [-72.552363, 42.087245], [-72.550835, 42.08487600000001], [-72.547879, 42.08433200000001], [-72.54745, 42.08213799999999], [-72.546171, 42.082244], [-72.545827, 42.08047700000001], [-72.547537, 42.08027899999998], [-72.546942, 42.079683999999986], [-72.546799, 42.07884], [-72.547337, 42.078435], [-72.546036, 42.07714199999999], [-72.548196, 42.07593200000001], [-72.548544, 42.076179], [-72.552533, 42.080188], [-72.551808, 42.080602], [-72.553568, 42.082334], [-72.552602, 42.082522000000004], [-72.55549, 42.085388], [-72.556394, 42.084898], [-72.555272, 42.08377899999999], [-72.556053, 42.08341899999999], [-72.55788000000001, 42.08299000000001], [-72.558276, 42.082702], [-72.559143, 42.078306000000005], [-72.559021, 42.07724200000001], [-72.558553, 42.076722], [-72.55736, 42.076867], [-72.556593, 42.076639], [-72.555782, 42.075613000000004], [-72.554803, 42.075601], [-72.551779, 42.074418000000016], [-72.551046, 42.07360200000001], [-72.550863, 42.07296199999998], [-72.551006, 42.072370000000014], [-72.551429, 42.071850000000005], [-72.554115, 42.07040100000001], [-72.554903, 42.069711000000005], [-72.555253, 42.068971000000005], [-72.555529, 42.06673499999999], [-72.589383, 42.07219099999998], [-72.588765, 42.073164], [-72.587002, 42.07513099999996], [-72.583722, 42.07799100000002], [-72.582671, 42.079518], [-72.582581, 42.080787000000015], [-72.582693, 42.081557999999994], [-72.584112, 42.08699699999999], [-72.584912, 42.088843], [-72.585619, 42.09002000000001], [-72.588487, 42.09321200000001], [-72.592636, 42.097436999999985], [-72.596765, 42.100344], [-72.601077, 42.10246600000001], [-72.609845, 42.106016], [-72.61316, 42.107967], [-72.615209, 42.10948], [-72.62072, 42.115925000000004], [-72.62112600000002, 42.116814], [-72.621987, 42.119718], [-72.62213100000001, 42.121424000000005]]]}}