{"type": "Feature", "properties": {"district_name": "16th Essex District", "chamber": "house", "vintage": "2012-2020"}, "geometry": {"type": "Polygon", "coordinates": [[[-71.17882900000001, 42.71785599999999], [-71.172271, 42.721706000000005], [-71.170887, 42.72327000000001], [-71.169011, 42.72235099999999], [-71.16569299999999, 42.72229599999999], [-71.16753299999999, 42.72148], [-71.166705, 42.720849999999984], [-71.167242, 42.720462999999995], [-71.16693699999999, 42.71997399999999], [-71.16683, 42.71909900000002], [-71.162223, 42.720140999999984], [-71.161373, 42.71970099999999], [-71.159354, 42.719304], [-71.158396, 42.71988799999999], [-71.157913, 42.719429999999996], [-71.15570799999999, 42.72030799999999], [-71.155339, 42.719215000000005], [-71.153348, 42.71942700000001], [-71.15314, 42.71840000000001], [-71.152682, 42.717336999999986], [-71.150285, 42.71375000000001], [-71.14728300000002, 42.71481999999998], [-71.147018, 42.714047], [-71.146311, 42.71343799999999], [-71.14515399999999, 42.714167], [-71.144482, 42.71369600000001], [-71.143202, 42.714406000000004], [-71.14243100000002, 42.713919], [-71.141324, 42.71364799999999], [-71.139802, 42.713982], [-71.139933, 42.71420099999999], [-71.139555, 42.714324999999995], [-71.136755, 42.71377199999998], [-71.136093, 42.71400300000002], [-71.133802, 42.713591], [-71.133932, 42.714975000000024], [-71.13341, 42.712939], [-71.133436, 42.711638], [-71.134345, 42.70958400000001], [-71.13511199999999, 42.70847900000001], [-71.136324, 42.707350999999996], [-71.137563, 42.706661], [-71.137525, 42.704806], [-71.13708299999999, 42.70435299999997], [-71.13932299999999, 42.70340400000001], [-71.140909, 42.703278], [-71.142372, 42.69938399999999], [-71.14277799999999, 42.698923000000015], [-71.144438, 42.699274], [-71.14585699999999, 42.69848099999999], [-71.145718, 42.698169000000014], [-71.14544599999999, 42.698194999999984], [-71.14546, 42.698062000000014], [-71.145005, 42.697947], [-71.144903, 42.697756999999996], [-71.143395, 42.697028], [-71.143163, 42.694199000000005], [-71.14170299999999, 42.694316999999984], [-71.141669, 42.694084], [-71.140947, 42.69391199999999], [-71.140411, 42.69346], [-71.139405, 42.69314699999999], [-71.139303, 42.69303199999998], [-71.139439, 42.692704], [-71.139312, 42.69257599999999], [-71.138442, 42.69271399999999], [-71.138172, 42.692488999999995], [-71.137981, 42.691942999999995], [-71.138234, 42.69133399999999], [-71.13759499999999, 42.69045599999998], [-71.13761099999999, 42.68974999999999], [-71.13795499999999, 42.689662999999996], [-71.138639, 42.690327999999994], [-71.139062, 42.690402000000006], [-71.139851, 42.689931], [-71.140166, 42.689199], [-71.138603, 42.687842999999994], [-71.138627, 42.687695999999995], [-71.138977, 42.68760900000001], [-71.13919299999999, 42.68773800000001], [-71.139427, 42.687594999999995], [-71.139809, 42.68718599999999], [-71.139678, 42.68688200000001], [-71.13933999999999, 42.686717], [-71.137947, 42.686668000000026], [-71.138723, 42.685990999999994], [-71.138824, 42.685732], [-71.139427, 42.685568999999994], [-71.139423, 42.68525399999999], [-71.13901899999999, 42.68510199999999], [-71.137948, 42.685192000000015], [-71.137827, 42.684996000000005], [-71.13927699999999, 42.68440699999999], [-71.147565, 42.68877899999998], [-71.151896, 42.691497000000005], [-71.15243099999999, 42.691031], [-71.153271, 42.69097599999999], [-71.153341, 42.69165799999999], [-71.15583699999999, 42.69153800000001], [-71.155956, 42.69207699999999], [-71.15688899999999, 42.694026], [-71.156153, 42.694205000000004], [-71.157369, 42.694950999999996], [-71.160292, 42.694049], [-71.15413199999999, 42.68632800000001], [-71.156099, 42.685573999999995], [-71.156437, 42.686074000000005], [-71.158518, 42.685148999999996], [-71.159886, 42.68418199999999], [-71.162654, 42.68275699999999], [-71.161813, 42.68228200000001], [-71.16087999999999, 42.681069], [-71.160911, 42.680054], [-71.165722, 42.67924499999997], [-71.167682, 42.682379], [-71.16977899999999, 42.682204000000006], [-71.171393, 42.68231399999999], [-71.171735, 42.682603999999984], [-71.172845, 42.682685000000006], [-71.172827, 42.68355], [-71.173028, 42.684132999999996], [-71.17195699999999, 42.68439699999999], [-71.17253199999999, 42.685873], [-71.17249799999999, 42.686134], [-71.171422, 42.687037000000004], [-71.172063, 42.687545], [-71.173033, 42.686963], [-71.173803, 42.68681599999998], [-71.173209, 42.688837], [-71.17340899999999, 42.69036200000001], [-71.17447299999999, 42.69006600000001], [-71.174847, 42.690643999999985], [-71.173568, 42.691635000000026], [-71.174611, 42.69235799999999], [-71.174185, 42.69301599999999], [-71.175759, 42.69392399999999], [-71.173802, 42.69489099999999], [-71.16552800000001, 42.70112799999999], [-71.160196, 42.703293], [-71.161958, 42.706047], [-71.163759, 42.705062], [-71.168123, 42.710437999999996], [-71.17098299999999, 42.71079800000001], [-71.171818, 42.711125], [-71.171238, 42.71137200000001], [-71.171928, 42.712193], [-71.172299, 42.712063000000036], [-71.17326899999999, 42.71242499999999], [-71.174249, 42.713655999999986], [-71.173509, 42.71398900000001], [-71.173355, 42.714537], [-71.167191, 42.714920000000006], [-71.167321, 42.716339000000005], [-71.16801699999999, 42.71630000000001], [-71.168162, 42.71771599999999], [-71.170731, 42.71755499999999], [-71.17090999999999, 42.719519000000005], [-71.173354, 42.71823399999998], [-71.176718, 42.71696499999999], [-71.177668, 42.716441999999994], [-71.17882900000001, 42.71785599999999]]]}}