{"type": "Feature", "properties": {"district_name": "18th Essex", "chamber": "house", "vintage": "2001-2010"}, "geometry": {"type": "Polygon", "coordinates": [[[-71.06670090910148, 42.77098984905083], [-71.06860104847487, 42.76899009239712], [-71.07020095962338, 42.76959016479013], [-71.07070108205419, 42.76998979376359], [-71.07150102877812, 42.76908975558144], [-71.07220105945255, 42.769289826891736], [-71.07300097578381, 42.76838977812581], [-71.074801034364, 42.767090010588866], [-71.07640103880752, 42.76779014351961], [-71.07760109065175, 42.766989988425806], [-71.07970091244171, 42.76668988493322], [-71.08210097882368, 42.76578994535422], [-71.08470107690403, 42.76419022179388], [-71.08720096194511, 42.76288996088377], [-71.08860094500018, 42.76149008819564], [-71.08970092689357, 42.76088974258682], [-71.09180105643772, 42.76008981778174], [-71.09080099090102, 42.75868987274186], [-71.08900104020651, 42.75749018095927], [-71.08850090573495, 42.756390175616836], [-71.08699404353112, 42.75652828052577], [-71.08701306056653, 42.755493132675774], [-71.08748797595366, 42.753595987675126], [-71.08640103967528, 42.753390133370004], [-71.08560106386963, 42.75349022645235], [-71.0839009194877, 42.75259013142439], [-71.08430091863764, 42.75199012560163], [-71.0849010506719, 42.74798981180908], [-71.08440098895674, 42.73899004431698], [-71.08408703021962, 42.73672211250571], [-71.08191700915958, 42.7368847708028], [-71.07417908860701, 42.734658953676814], [-71.07216994168243, 42.73272287394411], [-71.05867598108323, 42.732559098909604], [-71.04781498047711, 42.72667600346266], [-71.04650008810673, 42.72639123689581], [-71.03477905900586, 42.71955380957039], [-71.03197698361235, 42.718198955133616], [-71.03140007938966, 42.71859101605489], [-71.03450005443877, 42.73279124684827], [-71.02671005881432, 42.73178798746686], [-71.02563793340028, 42.73197208032428], [-71.0195489040447, 42.733840180819975], [-71.01180999622744, 42.73455214290604], [-71.01096898189732, 42.73474213404357], [-71.00139901344419, 42.73919102947462], [-70.99039899717795, 42.743891083425055], [-70.99019904286622, 42.73659072257188], [-70.9905719139484, 42.7340909356485], [-70.99001800573164, 42.73268024958724], [-70.98995804155666, 42.72948820645278], [-70.98919891559592, 42.72669085629977], [-70.99141105180966, 42.7247280340059], [-70.9879990572527, 42.72229087899237], [-70.9850390300545, 42.719901759570256], [-70.98386495017076, 42.719477931834575], [-70.9811979783326, 42.719590904808044], [-70.97909803242776, 42.719391866483036], [-70.97763900494996, 42.71887722936335], [-70.97672502281353, 42.71789975131958], [-70.97582006666629, 42.717306019263454], [-70.97393796996336, 42.717003224742356], [-70.97235094234706, 42.7176598981984], [-70.97139809234353, 42.718392024243], [-70.97008090577795, 42.71837081108017], [-70.96636706288281, 42.717205974871526], [-70.96429800655548, 42.717292058106636], [-70.960498041997, 42.71809189302187], [-70.95816693904482, 42.71832180259128], [-70.95595295433843, 42.71932414333464], [-70.95558704298261, 42.71932804809727], [-70.94899691421999, 42.71619225440496], [-70.95969799303738, 42.706392201339995], [-70.97609802916803, 42.69479192255295], [-70.9787099343123, 42.695813090036914], [-70.99389797608355, 42.70069218692041], [-70.99846294362523, 42.70062487199964], [-71.00210209536903, 42.700842019528395], [-71.00793897314462, 42.701514027918265], [-71.00793396661557, 42.7010087645576], [-71.00746789902836, 42.69971610601292], [-71.00789499989098, 42.6977020135815], [-71.00705294869734, 42.695894073261975], [-71.00791996037496, 42.69548591995352], [-71.00814804753593, 42.69513974227173], [-71.00812090802864, 42.69414827001239], [-71.00728290262352, 42.692438244279096], [-71.00773599481636, 42.691214194318654], [-71.00792999837003, 42.68927618895402], [-71.00996395034716, 42.69051080781376], [-71.0129770273981, 42.691407996287836], [-71.01542493272957, 42.69241807342964], [-71.0166959083978, 42.689795902039386], [-71.0166030451426, 42.68753880002933], [-71.0158220701523, 42.684989056052096], [-71.01614304894987, 42.6824709281529], [-71.0156989893225, 42.681559852894786], [-71.01444696625002, 42.68003717309672], [-71.01401296260913, 42.678718785550096], [-71.01572509922617, 42.67814308167961], [-71.01749106833321, 42.67782526369187], [-71.01843709180463, 42.6773881032512], [-71.01889792789225, 42.67690390603521], [-71.01919001281858, 42.67612475182205], [-71.02141490329373, 42.67383111659172], [-71.02129304816987, 42.673337743843675], [-71.02056600001727, 42.672514975806564], [-71.02148897797201, 42.67158482604387], [-71.02129607854245, 42.67088298371229], [-71.02119199037043, 42.66910687482041], [-71.0206109705538, 42.6679128037673], [-71.01908705533346, 42.66594793202499], [-71.01880505571609, 42.664690953699086], [-71.02119397478405, 42.664961938631436], [-71.02324194791979, 42.66603603797293], [-71.02550193696999, 42.66655508666506], [-71.02704309680291, 42.66569494407858], [-71.03050997132746, 42.66248123945411], [-71.03389897255671, 42.66150077398993], [-71.02137091916188, 42.64093800528491], [-71.02265490929057, 42.641557162955316], [-71.04335896290334, 42.63245799097384], [-71.05477000698362, 42.627058985569455], [-71.05819690992465, 42.611170157758416], [-71.05793807162722, 42.610715117544025], [-71.05863897105297, 42.60903774169191], [-71.07596096142463, 42.60409173899193], [-71.13529006394131, 42.599061232693124], [-71.14152802797565, 42.603386118154], [-71.14307303802214, 42.60408014693001], [-71.14573899499759, 42.60826991726153], [-71.14656600916699, 42.609996945066726], [-71.1486170182127, 42.61325077184823], [-71.15433608239327, 42.61527722796066], [-71.15596792637606, 42.61504297405303], [-71.155399982056, 42.61599214358355], [-71.15730008915554, 42.615491988352915], [-71.1616010232916, 42.61549172622979], [-71.16050101806616, 42.61839172204155], [-71.15970203640562, 42.626508825194854], [-71.15828100244539, 42.62557627560604], [-71.15600096855957, 42.627092008341826], [-71.14809990157985, 42.6278919102561], [-71.14480000965047, 42.632492069886894], [-71.14159996982464, 42.63499210933157], [-71.14220007168535, 42.635692207515966], [-71.14320097982252, 42.63969227858211], [-71.14390095256194, 42.63999206869041], [-71.14440091391207, 42.640691845428854], [-71.1438009574087, 42.64359207627795], [-71.1436009175589, 42.643891907119716], [-71.14290092297362, 42.64819221748422], [-71.14430106858946, 42.648891953596035], [-71.14300093338709, 42.65179226621123], [-71.14130109011096, 42.654892186854205], [-71.14070102916087, 42.65689217503307], [-71.13880103486359, 42.65879188841516], [-71.13620095148947, 42.66039173945313], [-71.13510096618619, 42.66259098553076], [-71.13310100703816, 42.66399123631299], [-71.13040093710296, 42.66529075015419], [-71.13000090666583, 42.666290956445636], [-71.12880097618005, 42.668090908680234], [-71.12770103570655, 42.66899095834984], [-71.1277010610438, 42.669791021336216], [-71.12670095371423, 42.67159103550485], [-71.1243010259197, 42.66829073654174], [-71.12310093425238, 42.6670912306643], [-71.11890007380906, 42.66109216195713], [-71.1175999489588, 42.663192117460426], [-71.11529997458717, 42.66509181186357], [-71.1148000212808, 42.66609220088135], [-71.11420000243406, 42.66989077953591], [-71.11330005693623, 42.670991098764226], [-71.11340004392474, 42.672090816503726], [-71.11400000286496, 42.672791043390376], [-71.11190001968932, 42.67399086154152], [-71.11250093058919, 42.67729102318973], [-71.111101061314, 42.67789114617527], [-71.11010096036848, 42.679190830743714], [-71.10967591299752, 42.678964911131], [-71.10920898495793, 42.67912987238202], [-71.10720008071915, 42.67699124974756], [-71.10430006326271, 42.67429085426592], [-71.10369990862252, 42.673092084299086], [-71.10220002974276, 42.67329173037607], [-71.10110003521898, 42.672891846441495], [-71.09880000778486, 42.6723921454394], [-71.09550806988989, 42.66963783301719], [-71.0938529355683, 42.66941710307221], [-71.09095597268224, 42.66952673254101], [-71.08964695470137, 42.66925427913542], [-71.08900404580733, 42.669312192101046], [-71.08844308313999, 42.66838185088511], [-71.08780896791372, 42.668174792604724], [-71.08735106362056, 42.6676048987245], [-71.08551996087517, 42.667345728668764], [-71.08511996784647, 42.66733416615094], [-71.08360002990862, 42.668991845473045], [-71.07258703220116, 42.66625212639691], [-71.06496297805413, 42.67019925468379], [-71.0638989723533, 42.6708917858917], [-71.06029904314309, 42.673492143882], [-71.05599904108799, 42.678092108305705], [-71.05539892561274, 42.67809205232129], [-71.04959497039727, 42.67617125977339], [-71.0466949404885, 42.67837107269861], [-71.06436305306255, 42.694720988398885], [-71.07524696996947, 42.70455627207538], [-71.08460893304516, 42.71320521062438], [-71.09071801037982, 42.71913904923333], [-71.10877499442105, 42.735663848665254], [-71.11490198100394, 42.74048974305514], [-71.11560296746599, 42.741190846903145], [-71.12003695022997, 42.73578802242621], [-71.1258380115898, 42.72989210184577], [-71.12790201085072, 42.73068980338559], [-71.12710202920772, 42.73159022964991], [-71.12990205959659, 42.733090164430585], [-71.13060190069082, 42.733090150407804], [-71.13090197295904, 42.733490010309964], [-71.13150199191601, 42.733790111526595], [-71.13220202431285, 42.73389023479164], [-71.13350204981211, 42.734790050995144], [-71.13380195330802, 42.735189893525884], [-71.13430209883174, 42.73469018555499], [-71.13510197166484, 42.734289874991404], [-71.13610203339374, 42.73318972216936], [-71.13630203792695, 42.73238974697868], [-71.13930208476475, 42.734189953507254], [-71.14180198808087, 42.73498988822763], [-71.14240200719202, 42.738490110886836], [-71.14210193619327, 42.74088988178489], [-71.14130203436683, 42.742589888197124], [-71.1392019529457, 42.74529011023899], [-71.12930208636156, 42.75369020356689], [-71.128501933024, 42.75408991328173], [-71.12790206969636, 42.75498985573555], [-71.13077403872147, 42.760931271126864], [-71.13320198379044, 42.76209009992216], [-71.13400191220681, 42.762790273933035], [-71.15330300822282, 42.77558893366156], [-71.1692029215226, 42.78568872632305], [-71.16910298170733, 42.78718892320726], [-71.15893694614437, 42.787607823736266], [-71.15744491774463, 42.78799724614847], [-71.15675400226448, 42.78869902851069], [-71.15551591544246, 42.787036213961166], [-71.15556906977719, 42.78566473068711], [-71.15496493839683, 42.78502775063777], [-71.1540250232901, 42.78340518838505], [-71.14920306586744, 42.78758887403394], [-71.14570290413513, 42.78548925394522], [-71.14060302925849, 42.78768909518076], [-71.13920308464562, 42.78758909845798], [-71.13440297587228, 42.78598916785136], [-71.13250199039446, 42.78438928070417], [-71.12760190864321, 42.78348920253037], [-71.12835493928932, 42.78140376863307], [-71.13159799599423, 42.78139500316874], [-71.1323829369465, 42.781335052516255], [-71.13274296091924, 42.78109089658853], [-71.13280193073977, 42.7797892016084], [-71.12890197918847, 42.77988872347494], [-71.12900199127382, 42.77679017934387], [-71.13220205237683, 42.776389123980856], [-71.13320197722584, 42.77608904369508], [-71.13400201095652, 42.77558916744257], [-71.13350202886407, 42.77508911160758], [-71.1319020398631, 42.77389017269976], [-71.12980206229994, 42.7751898629975], [-71.12810200554459, 42.77548990873817], [-71.12730203749824, 42.77539000903888], [-71.12690208938457, 42.775190114310945], [-71.12270197956795, 42.770789815942145], [-71.12030202153598, 42.76958978739659], [-71.119802037067, 42.77369016366325], [-71.1180019284138, 42.772889829022546], [-71.11670192316792, 42.77198985240725], [-71.11000200185686, 42.76819008834311], [-71.10950207015021, 42.76888997838099], [-71.10920203764675, 42.77028987456266], [-71.10810201125061, 42.769890075998255], [-71.10720202605368, 42.770689880393036], [-71.10600195025135, 42.769989844716996], [-71.10570206469181, 42.770289826685826], [-71.10450193875862, 42.7703898121568], [-71.10450201948694, 42.76888988343972], [-71.10470192619185, 42.76749022369349], [-71.10570193149682, 42.76739011292351], [-71.10680196521952, 42.76799022555666], [-71.10730201576567, 42.76749007088952], [-71.1082020115645, 42.768090049534344], [-71.10930192488973, 42.76709006288663], [-71.10580201733649, 42.76449017043256], [-71.10430193456527, 42.76388980578436], [-71.10490399907016, 42.7632240424735], [-71.10370195379959, 42.762589804348764], [-71.0996020024223, 42.76239003243611], [-71.09590209707251, 42.76338988371406], [-71.09360191681365, 42.76588997052088], [-71.08700108590051, 42.77058975688041], [-71.0841010121911, 42.7717901212117], [-71.0762010751223, 42.773690114711755], [-71.07150101424548, 42.77329023742114], [-71.06900097891084, 42.772389776304344], [-71.06670090910148, 42.77098984905083]]]}}