{"type": "Feature", "properties": {"district_name": "6th Bristol District", "chamber": "house", "vintage": "2012-2020"}, "geometry": {"type": "Polygon", "coordinates": [[[-71.168431, 41.708337], [-71.15828900000001, 41.721202], [-71.151972, 41.72712], [-71.140489, 41.738602000000014], [-71.131889, 41.749402], [-71.131289, 41.75750199999998], [-71.123989, 41.766701], [-71.117189, 41.773801], [-71.11448899999999, 41.77880099999999], [-71.111583, 41.78156099999998], [-71.10898900000001, 41.784506], [-71.104686, 41.78798499999999], [-71.103084, 41.789587], [-71.102611, 41.790700999999984], [-71.102031, 41.79289800000001], [-71.101604, 41.79356199999999], [-71.09594299999999, 41.79704100000001], [-71.095443, 41.79916999999998], [-71.094111, 41.799818], [-71.09281399999999, 41.80074899999999], [-71.091044, 41.801504000000016], [-71.089091, 41.801786], [-71.087722, 41.802492000000036], [-71.086465, 41.80479000000001], [-71.086697, 41.80575199999999], [-71.08767300000001, 41.807959], [-71.08878899999999, 41.809134], [-71.090047, 41.809377000000005], [-71.090751, 41.80904899999999], [-71.090735, 41.80885199999997], [-71.091217, 41.80842899999998], [-71.091813, 41.808350000000004], [-71.092822, 41.808539], [-71.093082, 41.80898399999999], [-71.09270000000001, 41.809436999999996], [-71.093304, 41.81019200000001], [-71.09309, 41.81028099999999], [-71.093274, 41.810665], [-71.092617, 41.810857], [-71.093198, 41.811288], [-71.092939, 41.81161600000001], [-71.093008, 41.81176200000001], [-71.093197, 41.81173499999999], [-71.093149, 41.81285], [-71.08846199999999, 41.817786999999996], [-71.03657, 41.816525], [-71.023157, 41.80617600000001], [-71.023611, 41.80626800000001], [-71.02371, 41.806139999999985], [-71.023657, 41.805950999999986], [-71.02313699999999, 41.80576199999999], [-71.023451, 41.805158000000006], [-71.023451, 41.804933], [-71.023184, 41.80464899999999], [-71.02330599999999, 41.804421999999995], [-71.02349, 41.804342], [-71.02404, 41.80463400000001], [-71.024621, 41.80386700000001], [-71.025018, 41.804036], [-71.02592, 41.803493], [-71.02559099999999, 41.802779], [-71.02597500000002, 41.801696000000014], [-71.025722, 41.80117299999999], [-71.02590599999999, 41.80079200000002], [-71.025853, 41.80040100000001], [-71.026174, 41.800048000000004], [-71.026144, 41.799634999999995], [-71.025938, 41.799359], [-71.02619800000001, 41.799111], [-71.028077, 41.79888900000002], [-71.028337, 41.798646000000005], [-71.028559, 41.79778199999998], [-71.02917, 41.79761800000001], [-71.029296, 41.79739], [-71.031121, 41.797283], [-71.033943, 41.79761000000001], [-71.03797899999999, 41.797672999999996], [-71.04545, 41.798923000000016], [-71.047705, 41.799533], [-71.052745, 41.800439000000004], [-71.052285, 41.800914000000006], [-71.052213, 41.801725999999995], [-71.05802899999999, 41.79905600000001], [-71.059772, 41.798893], [-71.062527, 41.798110999999984], [-71.063799, 41.79758499999999], [-71.06459699999999, 41.797021], [-71.06533999999999, 41.796049], [-71.065806, 41.79568700000001], [-71.06432000000001, 41.79555400000001], [-71.06248699999999, 41.795154000000004], [-71.058724, 41.794111000000015], [-71.06060699999999, 41.79197299999999], [-71.06272899999999, 41.79000799999999], [-71.07269, 41.781353999999986], [-71.074917, 41.77998600000001], [-71.07703699999999, 41.778961], [-71.10558, 41.76781799999999], [-71.113368, 41.76496599999999], [-71.072032, 41.75749300000001], [-71.07285399999999, 41.754334], [-71.073829, 41.752019000000004], [-71.074921, 41.748386], [-71.075073, 41.744797999999996], [-71.075682, 41.74228599999999], [-71.075955, 41.741616999999984], [-71.077297, 41.740066000000006], [-71.07848299999999, 41.73963899999999], [-71.084791, 41.73919900000001], [-71.085909, 41.73896400000001], [-71.09016199999999, 41.735586999999995], [-71.09020799999999, 41.73521500000001], [-71.092581, 41.735822999999996], [-71.095646, 41.73621099999998], [-71.09799699999999, 41.736763], [-71.09978199999999, 41.73671], [-71.10161699999999, 41.73606899999999], [-71.101522, 41.735090000000014], [-71.101697, 41.733833], [-71.101998, 41.73391000000001], [-71.102766, 41.732866], [-71.103044, 41.731747], [-71.103593, 41.73082400000001], [-71.103504, 41.72977000000001], [-71.103174, 41.729182999999985], [-71.103606, 41.728502999999996], [-71.104558, 41.727683999999996], [-71.104191, 41.72726199999997], [-71.10394099999999, 41.726487999999996], [-71.104571, 41.725719], [-71.104578, 41.725516000000006], [-71.104226, 41.724781], [-71.103647, 41.72425400000001], [-71.104708, 41.723194], [-71.10560199999999, 41.72310600000001], [-71.106049, 41.72269999999999], [-71.105997, 41.72247499999999], [-71.105448, 41.72268899999999], [-71.105301, 41.722558], [-71.105741, 41.722102], [-71.105798, 41.721114], [-71.107036, 41.720366999999996], [-71.10663199999999, 41.719516000000006], [-71.107108, 41.71908199999999], [-71.107415, 41.71845099999999], [-71.107452, 41.717979], [-71.108696, 41.71701300000001], [-71.10881300000001, 41.716239], [-71.108395, 41.715844000000004], [-71.108263, 41.71537200000001], [-71.108554, 41.713044000000004], [-71.10886099999999, 41.71256700000001], [-71.109565, 41.712230999999996], [-71.109897, 41.709754000000004], [-71.110905, 41.707], [-71.118336, 41.70822299999999], [-71.118762, 41.707905999999994], [-71.11900299999999, 41.70723699999998], [-71.119266, 41.707956999999986], [-71.123233, 41.694555000000015], [-71.123262, 41.693179], [-71.123052, 41.69203299999998], [-71.121693, 41.688217], [-71.13038, 41.68993], [-71.130353, 41.68956], [-71.130511, 41.68957999999999], [-71.130558, 41.69027900000001], [-71.134137, 41.690996], [-71.134278, 41.69066499999998], [-71.13597299999999, 41.692130999999996], [-71.136946, 41.68976199999999], [-71.138266, 41.69003700000001], [-71.13854599999999, 41.689348], [-71.140084, 41.68821799999999], [-71.145598, 41.69342299999998], [-71.15062400000001, 41.697191000000004], [-71.15328, 41.699868999999985], [-71.15302, 41.69999699999998], [-71.152097, 41.699828], [-71.151715, 41.701283000000004], [-71.15113800000002, 41.70118], [-71.150712, 41.70274099999999], [-71.153853, 41.70329], [-71.153522, 41.704421999999994], [-71.154974, 41.704674999999995], [-71.15847, 41.704910000000005], [-71.15943299999999, 41.703862], [-71.161377, 41.70435500000001], [-71.168431, 41.708337]]]}}