{"type": "Feature", "properties": {"district_name": "5th Barnstable", "chamber": "house", "vintage": "2001-2010"}, "geometry": {"type": "MultiPolygon", "coordinates": [[[[-70.46546266276276, 41.59402940177762], [-70.46576742752836, 41.595304017290125], [-70.46476244778529, 41.595190758632334], [-70.46445730329295, 41.594960622263066], [-70.464365357317, 41.59461987622542], [-70.4646983649995, 41.5940072499386], [-70.4652486309445, 41.59379784604256], [-70.46546266276276, 41.59402940177762]]], [[[-70.54342800607589, 41.775215089686164], [-70.5433640098006, 41.77394217099397], [-70.54085812506497, 41.77375790547543], [-70.53590918326404, 41.7725681192321], [-70.53202919349395, 41.77121780942078], [-70.52952385562321, 41.77016609751785], [-70.52579811102929, 41.76902117135173], [-70.5232170015412, 41.76802100284822], [-70.520433007792, 41.771479988922074], [-70.52037421008286, 41.77271586149332], [-70.51720853504268, 41.77240046836885], [-70.5164442043883, 41.77216764508412], [-70.51586429574493, 41.77155373583127], [-70.5154672711615, 41.77141467712422], [-70.5121662135148, 41.77120658958806], [-70.5108209107545, 41.77196307524551], [-70.50397571309503, 41.77264797186921], [-70.50342697133675, 41.771754576201396], [-70.50361003354658, 41.77132004533337], [-70.50403847380862, 41.77117915838923], [-70.50428384866078, 41.77065343733519], [-70.50425309674772, 41.77031157978124], [-70.50406953264445, 41.770151836194884], [-70.50379560731416, 41.770218664952395], [-70.50235738361495, 41.77133609600792], [-70.50211302449651, 41.77177178086723], [-70.50229538484929, 41.77234569703865], [-70.50299744145586, 41.772759845671345], [-70.5028748884046, 41.773121746787716], [-70.49527216171037, 41.77518612427243], [-70.49469194988461, 41.774841659381956], [-70.49404895948369, 41.773877045882124], [-70.4925512676211, 41.77307707816943], [-70.4905338400241, 41.77246382439168], [-70.48756925602754, 41.7711150387826], [-70.48704805320062, 41.770751933789185], [-70.48646779820328, 41.770012369661835], [-70.48490878340068, 41.76882570202847], [-70.4836239839399, 41.76807815961993], [-70.47980533043341, 41.76636082215897], [-70.47567883288603, 41.76500918987915], [-70.4766565225364, 41.763663411069295], [-70.47708383254255, 41.763640236339555], [-70.47879493674208, 41.76423016907625], [-70.4801704123573, 41.76498701590274], [-70.48099588357334, 41.765237514175496], [-70.48227867129685, 41.76525685962971], [-70.48267582109567, 41.76509889963995], [-70.48279824352433, 41.76484505870375], [-70.4810257661322, 41.764778012176016], [-70.47995544303585, 41.764116191869675], [-70.47995592222911, 41.763638976762785], [-70.4810244828995, 41.76283253957429], [-70.48154370125634, 41.76265484885622], [-70.48313194200617, 41.76253510041866], [-70.48502594431525, 41.76176300378947], [-70.48600330400437, 41.76153422360934], [-70.48600326915617, 41.76130011584379], [-70.48505567528382, 41.76105081657055], [-70.48468976236266, 41.76132612577181], [-70.48380356765065, 41.761328353546396], [-70.48331494754879, 41.761875497091815], [-70.48291743485153, 41.76191640212266], [-70.48172596955877, 41.76119330578291], [-70.48129762703066, 41.76111801026446], [-70.48111470058426, 41.76130039187865], [-70.48041225340982, 41.761327314196265], [-70.47989276284211, 41.76121686476192], [-70.47909825517497, 41.760867022625106], [-70.4776925420254, 41.75982231610652], [-70.47756955522784, 41.75949931415404], [-70.47692876627474, 41.75940858882329], [-70.47491110471645, 41.7582367935762], [-70.47485042208123, 41.75796724854729], [-70.47460576105313, 41.75789864083631], [-70.47320079146432, 41.75847518954958], [-70.47161203848843, 41.75846817779936], [-70.47084905813936, 41.75828908265379], [-70.47048112019144, 41.758104549260665], [-70.47020659156983, 41.757720516721555], [-70.46987046730075, 41.75675234017321], [-70.46944266459289, 41.75662241235788], [-70.46916770612181, 41.75666213588467], [-70.46910648530314, 41.757032436011386], [-70.46947270717777, 41.7575321038551], [-70.46950399296719, 41.757828965752374], [-70.46898464877754, 41.75789855057295], [-70.4667549026215, 41.757467532319424], [-70.46559380142969, 41.75783347628531], [-70.46486072491803, 41.7578971664464], [-70.46388278296918, 41.757441443818635], [-70.4632415690813, 41.757332619930565], [-70.46259935237337, 41.75680002930222], [-70.46143884342992, 41.75664370381699], [-70.46119417936193, 41.756367971269704], [-70.4597277334617, 41.75584585272936], [-70.45896384929507, 41.75590978169065], [-70.45899497092051, 41.75609858641019], [-70.46440295994495, 41.758317326781444], [-70.46516625114448, 41.75840642648127], [-70.46739659140488, 41.75819818581354], [-70.46953568873674, 41.75844997191581], [-70.47149045608205, 41.75894710945773], [-70.47540105665638, 41.759202952595295], [-70.47906825209367, 41.76192080556944], [-70.47937440453497, 41.7623765652417], [-70.47937523680892, 41.762700721767786], [-70.47897740278913, 41.76294927274769], [-70.47787816185739, 41.76313412989184], [-70.47595317421022, 41.7631590535008], [-70.47463994412847, 41.76379722337616], [-70.47396683214484, 41.76281533848415], [-70.47292824982009, 41.76212616632323], [-70.47155288296801, 41.76155831879726], [-70.46663306736153, 41.76035225987647], [-70.4410936348467, 41.752163639040404], [-70.43043634109463, 41.749513619293175], [-70.42893993990621, 41.748784847822186], [-70.428695759813, 41.74757204308166], [-70.42756533250503, 41.74818944813046], [-70.42478602700963, 41.74711650349229], [-70.42234226423282, 41.746470989536945], [-70.41247752860843, 41.74439516186734], [-70.40059725361571, 41.742262458233036], [-70.38957356658614, 41.7405409208049], [-70.38083939832845, 41.73951166253963], [-70.3740264724797, 41.7384765412263], [-70.36306226602147, 41.73781439443459], [-70.35637379054782, 41.73709235474387], [-70.35173102966962, 41.73691281863742], [-70.34739429789755, 41.7364503036371], [-70.33798833621013, 41.73631756438531], [-70.33523991484363, 41.736070003491506], [-70.3288873801056, 41.736044808265035], [-70.30039462955449, 41.73515503905839], [-70.29706577915438, 41.73533715186014], [-70.29474475575432, 41.73478697612579], [-70.29095809311012, 41.73430729992918], [-70.28863684716207, 41.733396261525684], [-70.28769146339403, 41.73259662079216], [-70.2878130414802, 41.73240601307169], [-70.28824068981638, 41.73233796243285], [-70.28933981651235, 41.733073384084456], [-70.2907146381407, 41.73325626803963], [-70.29077493273957, 41.73304811409372], [-70.29037828578019, 41.73272818835877], [-70.28882112130438, 41.73199859368092], [-70.28833216172997, 41.731932053365945], [-70.28769197465635, 41.7312634143871], [-70.28530906600793, 41.72985021166483], [-70.28375297975673, 41.72920891815054], [-70.27877631688985, 41.72778753226889], [-70.27562991015279, 41.72646272883823], [-70.27422814463942, 41.72499174494398], [-70.27416775244026, 41.72451779440656], [-70.27431866798432, 41.72412997728864], [-70.27465580283727, 41.72382520437302], [-70.27752671155362, 41.722775535874725], [-70.2797255400983, 41.72231908148572], [-70.2812819790278, 41.722300861806616], [-70.28271693491828, 41.72296115614192], [-70.2838774368072, 41.723992742525425], [-70.28482319605675, 41.7245858775776], [-70.28543409555658, 41.725407296583576], [-70.2853736801177, 41.72666896385182], [-70.28582809365165, 41.727286111403195], [-70.28613559418912, 41.72747116249753], [-70.28650200439043, 41.72742216746587], [-70.28711277142614, 41.72714503644739], [-70.28839488928894, 41.7261682019068], [-70.28915801187937, 41.72607614635738], [-70.28894726476915, 41.72534398884021], [-70.29028525933273, 41.724427940529885], [-70.29074828230038, 41.72389766417601], [-70.29123736002528, 41.72173110151202], [-70.29151126214943, 41.72144811928455], [-70.2928548460195, 41.72124401703928], [-70.29361827091925, 41.721271243914124], [-70.29486951835237, 41.72168069034748], [-70.29642605742403, 41.72191495555043], [-70.29648693595172, 41.722212177260054], [-70.29755649521594, 41.72229889101296], [-70.29844104018686, 41.72257780406669], [-70.29948019275784, 41.723763273914386], [-70.3014644330063, 41.7253886560174], [-70.30243923036856, 41.725504148196364], [-70.30158676033113, 41.72433361086188], [-70.3005180368761, 41.723399972398944], [-70.30027217044548, 41.72305183786016], [-70.30021305359345, 41.72262012921528], [-70.29917384595662, 41.721776823646756], [-70.29917510952352, 41.72129004100305], [-70.29880915881563, 41.72117700195656], [-70.29764799449832, 41.72128911305136], [-70.29703608081924, 41.720854381163484], [-70.29700748892387, 41.720557491929846], [-70.29731288009357, 41.72035586845281], [-70.29838136791813, 41.7202180206525], [-70.29896182531463, 41.72032825493695], [-70.30131109146488, 41.72026804120488], [-70.3023509883476, 41.72035270503576], [-70.30308329828229, 41.72067781179631], [-70.3041517980502, 41.72071999793487], [-70.3058910684711, 41.72136574379872], [-70.30705117942969, 41.72223501625396], [-70.30793613259716, 41.72422525145018], [-70.30921916599578, 41.726444185665905], [-70.31080824219316, 41.727380934622765], [-70.31383145314125, 41.727814850227325], [-70.31456201565773, 41.72781683133583], [-70.31541536573675, 41.72715151041289], [-70.31657947406572, 41.726783748816715], [-70.318686064913, 41.727102202818166], [-70.31871647276597, 41.72653411736252], [-70.31899103183784, 41.72635181785213], [-70.32057812785656, 41.725918051556654], [-70.32161733985873, 41.72584270355594], [-70.32180016222358, 41.72531840743593], [-70.32302239679089, 41.725277581444985], [-70.32775482273016, 41.72584415719327], [-70.32815088576483, 41.72612174185243], [-70.3282728377838, 41.72678369175862], [-70.32906787400628, 41.727099144815796], [-70.32906684990783, 41.72758593680093], [-70.32967876794203, 41.72783027654767], [-70.33108328435229, 41.728977002381285], [-70.33141998109707, 41.729134099855514], [-70.33218339823996, 41.72904456861], [-70.3323055605067, 41.728772881650734], [-70.33126752059852, 41.728289502439736], [-70.32928183276113, 41.72657403197378], [-70.32873153767525, 41.72579680674601], [-70.3287617395979, 41.725337336958056], [-70.32918739346866, 41.725045696850046], [-70.330746103129, 41.72486417812703], [-70.3323036870373, 41.72476480032887], [-70.33508199114077, 41.72493226217714], [-70.33819624737909, 41.724534127378746], [-70.34042519779983, 41.72403066478683], [-70.34326507082872, 41.72403366672639], [-70.3448209381817, 41.72369379296747], [-70.34631829231934, 41.723619491257814], [-70.34882275052965, 41.72412151392953], [-70.34964836213817, 41.724536179368975], [-70.3500430652772, 41.72527007557412], [-70.35004536013163, 41.72645754432889], [-70.3509928577431, 41.727992217985815], [-70.35102214469995, 41.72847311936443], [-70.35306940504586, 41.729493240487415], [-70.35441317574747, 41.72982079442404], [-70.35603261860207, 41.729837076869835], [-70.35731406789687, 41.72940817496581], [-70.35932855647138, 41.72791565011284], [-70.3603668311961, 41.72679600631868], [-70.36097658202232, 41.72647288345265], [-70.36155623308956, 41.726447733187406], [-70.36366353165117, 41.72692743747624], [-70.36430578911, 41.72722592750166], [-70.36479298417264, 41.7271401758921], [-70.36555591603833, 41.72654505918055], [-70.36671608449247, 41.726064185981855], [-70.36717472516675, 41.726083949622], [-70.36787683163288, 41.72635486746325], [-70.36955791807098, 41.72765862779695], [-70.37016916039035, 41.727885858601454], [-70.37154246189472, 41.72784207570641], [-70.3728550706628, 41.72744820077877], [-70.37270147166738, 41.72582871640071], [-70.37233504725829, 41.72573391919129], [-70.37206052396303, 41.72600752361937], [-70.37172510448654, 41.726858482684015], [-70.37117581678758, 41.72727004497442], [-70.3706876931744, 41.72736594444353], [-70.3696488323671, 41.72706299564884], [-70.3687628833494, 41.72610086617669], [-70.36802908901078, 41.725668677865315], [-70.36729646992171, 41.72548805861353], [-70.3667162011406, 41.72548566066834], [-70.36464080206117, 41.72614987760091], [-70.36396841656118, 41.726194377945085], [-70.36326594598995, 41.72567131156087], [-70.36051787847084, 41.72548739079212], [-70.35835037880854, 41.72590069314875], [-70.35761680071097, 41.72634242508464], [-70.35603192187494, 41.728260756085994], [-70.35542064594382, 41.72833114936079], [-70.35496208181512, 41.72807497589689], [-70.35462611211877, 41.7276022464236], [-70.35395499982148, 41.72579462892332], [-70.35315870527405, 41.724601983874415], [-70.34909483815873, 41.72071387522554], [-70.3483622751856, 41.72057815522315], [-70.34720119507514, 41.72087873698802], [-70.3457367140764, 41.720987149215404], [-70.34454593984732, 41.72041567526163], [-70.34451584133126, 41.720148049040176], [-70.34585785177183, 41.719499843886304], [-70.34878771259163, 41.71739379972348], [-70.34997838562332, 41.716759773977756], [-70.35074006241375, 41.71671512409973], [-70.35177955052093, 41.71705258792989], [-70.35284807838715, 41.71776062865349], [-70.35413088847217, 41.7180605612456], [-70.35660284394763, 41.71778827406475], [-70.3592288301642, 41.71803804358881], [-70.36002310486646, 41.717577208621655], [-70.36011449762856, 41.71723315049959], [-70.35978271255763, 41.7170947630048], [-70.35925938564284, 41.71744124659057], [-70.35828314633763, 41.717533883773065], [-70.35602330078136, 41.717119508494726], [-70.35370312952415, 41.7173269044912], [-70.35284607518717, 41.71655402891818], [-70.35235918638286, 41.715748303603675], [-70.35211294500839, 41.71561581633348], [-70.35138222487709, 41.71604909924272], [-70.34979303923605, 41.715914871014], [-70.34793181259647, 41.71620613168521], [-70.3471688917148, 41.71654845140053], [-70.34582607218832, 41.717329477038355], [-70.34533701660294, 41.71822720214949], [-70.34418030644163, 41.719367460580024], [-70.34372095971423, 41.719596908672344], [-70.34277451799916, 41.7196171140875], [-70.34133915911825, 41.7193633408488], [-70.34109341820722, 41.71920438901045], [-70.34106522124068, 41.71893678107262], [-70.34341540878684, 41.71879917195755], [-70.34408291714885, 41.71831464812038], [-70.34411697205007, 41.71771958211191], [-70.34466570080171, 41.7165956755121], [-70.34451285881742, 41.715660482479116], [-70.34402413642657, 41.71531504853669], [-70.34188624278696, 41.714583658939674], [-70.34139699512629, 41.71424721247828], [-70.34081728438494, 41.71351533538931], [-70.33907708038826, 41.713058071606824], [-70.33803801867724, 41.71260119616593], [-70.33797772162407, 41.71211715522896], [-70.33941083373107, 41.7086589172279], [-70.33986711341018, 41.708140191234264], [-70.33980736320696, 41.707728758923025], [-70.340110799851, 41.7074994223657], [-70.34057053576018, 41.707492851018145], [-70.34295203065052, 41.70941925256554], [-70.34359327054386, 41.7097178519936], [-70.34539283431108, 41.709899882687345], [-70.34627901329308, 41.70969388999103], [-70.34749899023349, 41.70905287675234], [-70.34783482648047, 41.70850419402335], [-70.34798600085877, 41.70697105249731], [-70.34755915662305, 41.7062159949372], [-70.34679500648356, 41.7055301114523], [-70.34673398558633, 41.70518677010076], [-70.34725184813867, 41.704683829626624], [-70.34780201111728, 41.704638192890386], [-70.34841304968263, 41.70502706132325], [-70.34871809794151, 41.70587317816361], [-70.34932890032742, 41.70596377058377], [-70.34975599772328, 41.70562085363632], [-70.3499690959039, 41.705025911792276], [-70.34996888047442, 41.70420313877156], [-70.3492968480793, 41.70367690422278], [-70.34923584831596, 41.70331105369514], [-70.34941896234446, 41.703150827042684], [-70.35005998602338, 41.70310496351955], [-70.35060900660118, 41.70330973029575], [-70.35124988751717, 41.70310404075869], [-70.35128002828226, 41.702304085094546], [-70.35179902306122, 41.70177694128685], [-70.35185884296584, 41.70101723716131], [-70.34349486296537, 41.70013173090538], [-70.34084792882673, 41.70031415275818], [-70.34064708574815, 41.69994011036625], [-70.34102485878796, 41.69941889675162], [-70.33987418377674, 41.69715889494363], [-70.34144906161954, 41.696977968897215], [-70.34309710793698, 41.69617703257537], [-70.3444700903336, 41.695283794899275], [-70.34535493130747, 41.695992863874636], [-70.34743089514929, 41.69704490514435], [-70.34776715342421, 41.697365145868915], [-70.34932415202825, 41.69759306894593], [-70.35142906903815, 41.69699809441823], [-70.35261911666775, 41.69683676583525], [-70.3536398799857, 41.69715376747559], [-70.35332098153555, 41.69599012173083], [-70.35283186189814, 41.69496094958515], [-70.35310586749792, 41.69475491907126], [-70.35332011960095, 41.69409188336864], [-70.35347085464163, 41.692239077583636], [-70.35206699934889, 41.6918731879245], [-70.35206607185206, 41.69125582357325], [-70.35046783542326, 41.691033147639004], [-70.3534609749511, 41.69048706861523], [-70.35304199843104, 41.68963081143189], [-70.35301095824033, 41.688327121649465], [-70.35255083958253, 41.68629200573749], [-70.35236788633695, 41.686153970035875], [-70.35438006530036, 41.683317065874974], [-70.35648390749067, 41.68157788424815], [-70.35623998362315, 41.68128109887885], [-70.35675799132937, 41.679999253775264], [-70.35675818405515, 41.67961094410486], [-70.35535407067145, 41.67883314165461], [-70.35547510070464, 41.678466874621904], [-70.35627892640557, 41.67750924426514], [-70.35675002660415, 41.677296182733464], [-70.3580998390991, 41.67602719012607], [-70.35773091727135, 41.67533296268104], [-70.35553405573036, 41.67517300872389], [-70.35593013493133, 41.67357197102057], [-70.35638704480873, 41.67295414103021], [-70.35669193294666, 41.67286209296697], [-70.35656905326317, 41.6721990397685], [-70.35681284315706, 41.671284174049354], [-70.35702614093239, 41.670940776319796], [-70.35733107639236, 41.670803147215864], [-70.35742192665936, 41.670528869524645], [-70.35845887733596, 41.66972776541604], [-70.3633439354232, 41.67356918596417], [-70.36468715326671, 41.67441381471861], [-70.36563296333263, 41.67466579909928], [-70.36947882457031, 41.67670023061045], [-70.3732621727598, 41.67633200334694], [-70.37398082659735, 41.676102197530966], [-70.37790110988158, 41.675968725385765], [-70.3810801000503, 41.67135325387019], [-70.38431397577789, 41.668513774072444], [-70.38568682633435, 41.66764593630834], [-70.3853528463393, 41.666181718170165], [-70.3849261348655, 41.66549490262036], [-70.38492695123938, 41.66506101191076], [-70.38361693193023, 41.66295523120906], [-70.38136491947427, 41.660026968683496], [-70.38014312314311, 41.65908806085699], [-70.37727002714605, 41.6574237705727], [-70.37637282693629, 41.657108196425824], [-70.37377083221442, 41.656913070406894], [-70.37296816538199, 41.656109921596205], [-70.37287589305151, 41.65515004840735], [-70.37134803182181, 41.65217697995496], [-70.37911080944406, 41.652477182402585], [-70.39213394691417, 41.65325985993348], [-70.3970449551258, 41.65337625354831], [-70.40439599778844, 41.652165886853886], [-70.41324106486049, 41.650932759902325], [-70.41440013583703, 41.65061292447067], [-70.41815105610732, 41.64910388387768], [-70.42739302499326, 41.64702309627781], [-70.43004596096132, 41.64606325183912], [-70.43035087141938, 41.64635988347623], [-70.43043301290903, 41.64591213742973], [-70.43334301753937, 41.644828008247515], [-70.434001127846, 41.6459681539562], [-70.43390998120267, 41.64689079080243], [-70.43352386753514, 41.64734582744661], [-70.43313907003349, 41.64752005137059], [-70.43209003002326, 41.64755015615338], [-70.43254680773612, 41.64807613185838], [-70.43336987541694, 41.64816714424213], [-70.43416284272575, 41.64855613346938], [-70.4369988920237, 41.65075213004913], [-70.43837192129668, 41.65107279255672], [-70.43828017206293, 41.652147940185], [-70.43867703977725, 41.65251406450616], [-70.43922589049065, 41.652673940880085], [-70.44056792081138, 41.65251424545611], [-70.44126886187134, 41.65175879153383], [-70.44395311913608, 41.65269599376787], [-70.44499005912947, 41.653222234813406], [-70.44550785655294, 41.652718857651564], [-70.44538601426446, 41.65155280815832], [-70.44587410469052, 41.65164399904973], [-70.44770411333174, 41.65297105955915], [-70.44785682146966, 41.65285598506828], [-70.44793583539095, 41.65229507868608], [-70.44652997741639, 41.65024992232058], [-70.45149181564265, 41.642172863890494], [-70.45298709873819, 41.64157210596706], [-70.45297716773582, 41.63972615337963], [-70.45258782711409, 41.63880920823512], [-70.45426784803635, 41.639131940875295], [-70.4559960575798, 41.6406402684264], [-70.45681987367941, 41.64157807118634], [-70.45806985128048, 41.64242411312021], [-70.45895515021431, 41.642629747092805], [-70.46307293173568, 41.64519079718097], [-70.46334792249816, 41.64523607440665], [-70.46453808836787, 41.64637919486403], [-70.46523896395212, 41.64683578413873], [-70.46560484318151, 41.647315776480326], [-70.4670999222109, 41.647795891370166], [-70.47213211422604, 41.648847147361465], [-70.47713414628731, 41.649097095095776], [-70.4812500734473, 41.64850093309376], [-70.48240892662871, 41.64852313155218], [-70.48408711497653, 41.648773928511275], [-70.48677100078159, 41.64950526767232], [-70.48762288188925, 41.64735410838876], [-70.48878083556701, 41.64591304992374], [-70.48990696395386, 41.64401417836478], [-70.49128005993752, 41.64421883138276], [-70.4932630828713, 41.64380589940113], [-70.49435987050462, 41.6431419774931], [-70.49527393738, 41.64300486615365], [-70.49887084549077, 41.64135619414463], [-70.49892787483513, 41.63687207503584], [-70.49843614603073, 41.6333499336223], [-70.49886088549805, 41.63108519792754], [-70.49831196691285, 41.63028517973893], [-70.49550497005309, 41.62788388443291], [-70.4950770248313, 41.627337035040924], [-70.4985541816604, 41.62472894798081], [-70.49947191508174, 41.6245079820081], [-70.50100485508439, 41.6245861860842], [-70.50122085034563, 41.622519941198426], [-70.50055087225412, 41.6212382826206], [-70.50043189066221, 41.61819608775982], [-70.50062006129097, 41.6177441588311], [-70.52049095590134, 41.615573250593485], [-70.52512311716413, 41.6158708192489], [-70.5254281249946, 41.61603213242742], [-70.53015204764995, 41.6168339540408], [-70.5327398354843, 41.62342224709419], [-70.53347906037116, 41.6264201474428], [-70.53977206448918, 41.63732791297582], [-70.5682228636863, 41.64563395668631], [-70.5675830104397, 41.649538724778814], [-70.56666811246987, 41.65125493889077], [-70.56654595571895, 41.65217009944585], [-70.56700411506317, 41.65427405619236], [-70.5669430749248, 41.65557801861325], [-70.56682303671553, 41.65647687248416], [-70.56627897074975, 41.657276019445234], [-70.56463193942369, 41.659246197649175], [-70.55952788062436, 41.66325874682803], [-70.55845007860277, 41.664873938929595], [-70.55761501453169, 41.66580119569571], [-70.55617511771443, 41.666593996024254], [-70.55574189442277, 41.66721675078546], [-70.55086793513871, 41.67076599514338], [-70.54702309983651, 41.67641486738061], [-70.54635108679174, 41.67829108919721], [-70.54632116447661, 41.67886315579168], [-70.54537513370444, 41.680738200446136], [-70.5452828639569, 41.68178977831103], [-70.54485499900015, 41.68284304136314], [-70.54308502765572, 41.686066829946476], [-70.5410998503973, 41.69068777975254], [-70.5408860284312, 41.691854257814995], [-70.54076290446203, 41.69560623979219], [-70.54134295629412, 41.69693190974798], [-70.54192187092238, 41.699837225219895], [-70.54759788055867, 41.699081820124945], [-70.54909402624614, 41.6993340644676], [-70.55095485849637, 41.700615227722174], [-70.55248095280038, 41.70125597737475], [-70.55528890162782, 41.7021251441495], [-70.55663216272912, 41.702948903017194], [-70.55776109223284, 41.703336983738645], [-70.55928687858692, 41.70416109618843], [-70.5600808587223, 41.704733227915334], [-70.56133204908929, 41.70631081809074], [-70.56188190314211, 41.70660798329478], [-70.56572903924008, 41.707179870104746], [-70.56704083826887, 41.708734824972886], [-70.56823187090832, 41.70891790904843], [-70.57000210063238, 41.70878101041971], [-70.57052106640299, 41.70859784821747], [-70.5714060414575, 41.70795678012356], [-70.57247413382599, 41.70667622666548], [-70.57320588136753, 41.70486899782693], [-70.5733888901124, 41.70475511906793], [-70.57619695517627, 41.70393100746385], [-70.57686891748045, 41.703862176259264], [-70.57747917655853, 41.70411416817402], [-70.57915800461858, 41.705280280294026], [-70.57992088337517, 41.70523411835317], [-70.58178298065985, 41.704547966721016], [-70.58367494968586, 41.70415803303434], [-70.5829438881786, 41.709053148477025], [-70.58309508120058, 41.711706054094], [-70.58717011094518, 41.71150019921444], [-70.58835201477996, 41.71272578194767], [-70.58846801393324, 41.71304410281425], [-70.58836886651831, 41.71320313028507], [-70.59266415798398, 41.71304104373399], [-70.5933369702406, 41.7127059446252], [-70.5939578360802, 41.71261690417072], [-70.59645186204537, 41.71302784467467], [-70.59454611141962, 41.71472289796145], [-70.59442484074816, 41.71556887829812], [-70.59732499368576, 41.71600327875953], [-70.59931107931119, 41.71657275699617], [-70.6019051578761, 41.71618413667584], [-70.60599599050057, 41.716502214114165], [-70.60749184577205, 41.717141980964854], [-70.60883606297547, 41.718101866775825], [-70.61091312960934, 41.71864991067675], [-70.61143097012432, 41.71773497861272], [-70.61405707077412, 41.71812292622883], [-70.6139971153872, 41.71949500175814], [-70.61491288649523, 41.719700213095585], [-70.61490999411632, 41.71844525881705], [-70.61553636413738, 41.718394419263], [-70.61574449855918, 41.71901280972173], [-70.61671617603285, 41.72006481611921], [-70.61671516196674, 41.72054595460482], [-70.61601288996627, 41.72100420940421], [-70.61607399687054, 41.72139298107037], [-70.61631892863333, 41.72185015138531], [-70.61775513032913, 41.72342685900091], [-70.61787789363338, 41.723839175560194], [-70.61778681842819, 41.72434213508553], [-70.61622988662407, 41.724595110627334], [-70.61601589599462, 41.72477803117967], [-70.6159859735529, 41.725556085918065], [-70.61543713897521, 41.725806744232436], [-70.61534602530334, 41.72601312814128], [-70.61531612887931, 41.726951003808], [-70.61473687247911, 41.72809506874549], [-70.61476794009504, 41.72834686383986], [-70.6129049283047, 41.728507941925166], [-70.61061384548549, 41.726769737954335], [-70.610429958861, 41.726542075933004], [-70.61055218366953, 41.72569497128619], [-70.60966581309583, 41.724506268486984], [-70.60951194517767, 41.7234999936741], [-70.6089931450618, 41.722996770891136], [-70.60838206827863, 41.722997056100645], [-70.6078629937884, 41.72329518205641], [-70.60767985001446, 41.7236612271007], [-70.60768103083728, 41.72414125768743], [-70.60862816221908, 41.72530681649882], [-70.60948507216636, 41.727503186598604], [-70.61003415157353, 41.72777703248394], [-70.61128603445896, 41.727913992342636], [-70.61180595845634, 41.72839413567421], [-70.61180616414646, 41.72891974552724], [-70.61058512688062, 41.728806109753094], [-70.60991302661253, 41.728302819531336], [-70.60948498173657, 41.728372071741965], [-70.60869216725875, 41.7288762779114], [-70.60820392944314, 41.72981394007985], [-70.60765496941276, 41.73020299688737], [-70.60695184547114, 41.73006580078332], [-70.60628012521187, 41.72956305925053], [-70.60655381073549, 41.728579268988334], [-70.60624897186369, 41.728487962012494], [-70.60597393365211, 41.72860172926279], [-70.60560811247524, 41.729082821372565], [-70.60444814075386, 41.729060197676624], [-70.60493707611543, 41.72963186172794], [-70.60502903009765, 41.73006590217711], [-70.60548714626492, 41.73031823767375], [-70.60558410261609, 41.73060993664344], [-70.60463582908045, 41.73121307227021], [-70.60401982575145, 41.73121103594014], [-70.60326101508066, 41.73097320932046], [-70.60277592844056, 41.731492187497324], [-70.60246399161883, 41.731262936201276], [-70.60198282683204, 41.73126196064664], [-70.60175585014349, 41.73156293001432], [-70.60120809187858, 41.73156873710128], [-70.60069394450886, 41.73214993796903], [-70.59944988360452, 41.73241303513119], [-70.5979020709462, 41.73367710157923], [-70.5974590019894, 41.73446088322277], [-70.5976118803244, 41.73494099110672], [-70.5950468873942, 41.73459874201718], [-70.59251082988052, 41.734073775972725], [-70.59177797968222, 41.733753918026885], [-70.59000692925717, 41.73364016678092], [-70.58948781201438, 41.733822850397324], [-70.59110682134238, 41.73585775380266], [-70.59217716762693, 41.73674981094486], [-70.59226787744916, 41.737002079229875], [-70.5926351121742, 41.73709279513779], [-70.59587382862684, 41.73912814265408], [-70.59413389751, 41.740889231150454], [-70.59392115931726, 41.74134674332882], [-70.59413483638646, 41.742148107458796], [-70.59508216066395, 41.743062234592905], [-70.59508200957949, 41.743497235111654], [-70.59536395333183, 41.74425412806699], [-70.59529884449267, 41.744634030257494], [-70.5913590765508, 41.74580188294304], [-70.589861023644, 41.74609718327152], [-70.58881193026775, 41.746524931279566], [-70.589235820778, 41.74715184988029], [-70.58305463877174, 41.74972748353099], [-70.57523513876674, 41.7547616689293], [-70.57199800279137, 41.75739097270064], [-70.56518587077252, 41.7671401012569], [-70.56341330816166, 41.768965743068726], [-70.55953174217699, 41.77157757937415], [-70.55617042863183, 41.77319921697838], [-70.55418418903204, 41.77386592826138], [-70.54957024404236, 41.77487481352006], [-70.54577994181061, 41.775241563530635], [-70.54342800607589, 41.775215089686164]]], [[[-70.51740904032891, 41.79095229835666], [-70.51447656834702, 41.78882058951911], [-70.50748351519927, 41.78506990693712], [-70.50427243926475, 41.78307449911715], [-70.50064032012439, 41.780539562745865], [-70.49478643516196, 41.77819934446271], [-70.49466405628277, 41.77802099177452], [-70.49735231755399, 41.777103748496856], [-70.49829911433658, 41.77648741557513], [-70.49945928709218, 41.776094116763026], [-70.50064267817326, 41.77582650016737], [-70.5034841452586, 41.775797919999434], [-70.50452371068972, 41.7756398728651], [-70.50950530799027, 41.77465569373775], [-70.51155338833512, 41.773790510745386], [-70.51219534143728, 41.77374599723492], [-70.52028401633649, 41.77462507767527], [-70.5194268897739, 41.79293876135506], [-70.52092055911568, 41.794518869886915], [-70.51740904032891, 41.79095229835666]]]]}}