{"type": "Feature", "properties": {"district_name": "11th Middlesex District", "chamber": "house", "vintage": "2012-2020"}, "geometry": {"type": "Polygon", "coordinates": [[[-71.270292, 42.330864000000005], [-71.269767, 42.33118100000001], [-71.268183, 42.33057900000001], [-71.26570099999999, 42.33131799999999], [-71.265225, 42.33193], [-71.26518899999999, 42.332497], [-71.265393, 42.33300900000001], [-71.264884, 42.33330899999999], [-71.264802, 42.33417399999999], [-71.264455, 42.334604000000006], [-71.263278, 42.334983], [-71.26122, 42.334605], [-71.260075, 42.334844], [-71.25920099999999, 42.335685], [-71.258901, 42.33678999999999], [-71.256952, 42.337980999999985], [-71.25583, 42.338995999999995], [-71.25573899999999, 42.339538999999995], [-71.255873, 42.33996599999999], [-71.257082, 42.34073400000001], [-71.2586, 42.341206], [-71.260645, 42.34091999999999], [-71.261344, 42.341239], [-71.261884, 42.34186900000001], [-71.261407, 42.343594], [-71.261344, 42.344373000000004], [-71.25985299999999, 42.34551900000001], [-71.25974599999999, 42.345898], [-71.25979099999999, 42.34650300000001], [-71.260251, 42.347079000000015], [-71.26055699999999, 42.347938], [-71.260515, 42.348222000000014], [-71.25988199999999, 42.348659999999995], [-71.259065, 42.348803], [-71.258686, 42.349484], [-71.25914500000002, 42.35172399999999], [-71.260385, 42.35363299999999], [-71.25645999999999, 42.354816], [-71.256466, 42.354031], [-71.25568299999999, 42.353836], [-71.254103, 42.35472], [-71.25350999999999, 42.354873000000005], [-71.253068, 42.35570399999998], [-71.25113200000001, 42.35653099999998], [-71.21709299999999, 42.36661399999999], [-71.216445, 42.365913], [-71.21553399999999, 42.365608], [-71.214973, 42.365697999999995], [-71.214368, 42.36558100000002], [-71.213326, 42.364896], [-71.21359, 42.364565999999996], [-71.213251, 42.36468999999998], [-71.212279, 42.364497000000014], [-71.21079499999999, 42.364006], [-71.210061, 42.363548], [-71.210561, 42.36228400000001], [-71.209537, 42.361503000000006], [-71.212952, 42.35937899999998], [-71.20712499999999, 42.35675599999999], [-71.203574, 42.356017], [-71.201492, 42.354986000000004], [-71.19883399999999, 42.354009], [-71.196158, 42.354764999999986], [-71.191852, 42.355526999999995], [-71.190747, 42.35928400000001], [-71.190231, 42.360383999999996], [-71.18368, 42.358829], [-71.182042, 42.36080600000001], [-71.178845, 42.35978], [-71.17485599999999, 42.35926799999999], [-71.17232899999999, 42.359414999999984], [-71.169506, 42.36019], [-71.167625, 42.360073000000014], [-71.16999899999999, 42.357397000000006], [-71.17119799999999, 42.356396], [-71.172798, 42.35469599999999], [-71.173997, 42.353195], [-71.17479800000001, 42.35079599999998], [-71.17479800000001, 42.35026500000001], [-71.170003, 42.34425199999999], [-71.17059499999999, 42.341581000000005], [-71.172564, 42.341895000000015], [-71.176405, 42.34135299999999], [-71.176452, 42.341817000000006], [-71.177999, 42.34299800000001], [-71.180399, 42.34350399999999], [-71.180827, 42.342135999999996], [-71.1829, 42.34236699999998], [-71.182867, 42.34084999999999], [-71.183031, 42.33967700000001], [-71.186253, 42.338764999999995], [-71.186593, 42.338387], [-71.186703, 42.33734200000001], [-71.187134, 42.33682399999999], [-71.187123, 42.336331], [-71.1923, 42.33619899999999], [-71.194758, 42.335724], [-71.195651, 42.336019], [-71.19674599999999, 42.337085999999985], [-71.197987, 42.33776399999999], [-71.199197, 42.33793599999999], [-71.201557, 42.337804999999996], [-71.203071, 42.33796000000001], [-71.203408, 42.337606], [-71.20333, 42.33669], [-71.203742, 42.335945], [-71.203763, 42.33531299999999], [-71.20707999999999, 42.33614999999999], [-71.20779499999999, 42.333715000000005], [-71.207782, 42.333272], [-71.209221, 42.333466], [-71.209597, 42.33272799999999], [-71.210109, 42.332337], [-71.212439, 42.33297100000001], [-71.213443, 42.332436999999985], [-71.213554, 42.33201], [-71.214698, 42.332058999999994], [-71.21476799999999, 42.332171], [-71.21710999999999, 42.33199299999999], [-71.21755399999999, 42.333109], [-71.218332, 42.333202], [-71.218306, 42.333891], [-71.217586, 42.333886], [-71.217218, 42.33688999999999], [-71.21708, 42.337037], [-71.218481, 42.337498999999994], [-71.219486, 42.337464999999995], [-71.220113, 42.337151], [-71.22006700000001, 42.336960999999995], [-71.221492, 42.336023000000004], [-71.222927, 42.33542599999999], [-71.223753, 42.335547], [-71.233769, 42.33846099999999], [-71.234199, 42.338007999999995], [-71.235351, 42.33749199999999], [-71.238108, 42.330313], [-71.244888, 42.33370000000001], [-71.246877, 42.33212600000001], [-71.248516, 42.33003000000001], [-71.250118, 42.32944200000001], [-71.250552, 42.32904200000001], [-71.25054899999999, 42.328756999999975], [-71.250137, 42.328087], [-71.250463, 42.32705699999998], [-71.249786, 42.32552499999999], [-71.24917099999999, 42.32356800000001], [-71.25006599999999, 42.323853000000014], [-71.250593, 42.324812], [-71.25138299999999, 42.32528], [-71.25191, 42.326107000000015], [-71.25314, 42.326721], [-71.253766, 42.326626999999995], [-71.254697, 42.325272999999996], [-71.256336, 42.32462], [-71.257509, 42.324496], [-71.25845, 42.324892999999996], [-71.258811, 42.32595699999999], [-71.25926199999999, 42.326628], [-71.259605, 42.32681799999999], [-71.261776, 42.326772], [-71.26270000000001, 42.326567], [-71.263238, 42.32616400000001], [-71.263624, 42.326153], [-71.26616299999999, 42.32744099999999], [-71.269533, 42.327883000000014], [-71.26995099999999, 42.32812200000001], [-71.27025499999999, 42.328555], [-71.27024899999999, 42.328929999999986], [-71.269763, 42.32976399999999], [-71.270279, 42.330522], [-71.270292, 42.330864000000005]]]}}