{"type": "Feature", "properties": {"district_name": "28th Middlesex District", "chamber": "house", "vintage": "2022-present"}, "geometry": {"type": "Polygon", "coordinates": [[[-71.076419, 42.39777299999999], [-71.075988, 42.399706000000016], [-71.073448, 42.402665000000006], [-71.071297, 42.40692200000001], [-71.072692, 42.408237], [-71.073659, 42.40851899999999], [-71.073744, 42.40867900000001], [-71.073801, 42.409056], [-71.073624, 42.40930300000001], [-71.072161, 42.41036299999999], [-71.071873, 42.411099000000014], [-71.071907, 42.41167200000001], [-71.072111, 42.412081000000015], [-71.073196, 42.41299599999999], [-71.073296, 42.41479600000002], [-71.064507, 42.41524099999999], [-71.064559, 42.41533399999999], [-71.061584, 42.41561000000001], [-71.060441, 42.416007], [-71.05685, 42.41867100000002], [-71.054735, 42.42003799999999], [-71.054383, 42.420027], [-71.050472, 42.42288700000001], [-71.02822700000002, 42.424202], [-71.02962, 42.42129899999999], [-71.031275, 42.418433000000014], [-71.033442, 42.41338000000001], [-71.035629, 42.40964100000001], [-71.038589, 42.411739], [-71.04339100000001, 42.41107599999999], [-71.043259, 42.40935400000001], [-71.043795, 42.40827899999998], [-71.043095, 42.408233], [-71.044384, 42.405421], [-71.041159, 42.40453100000001], [-71.04144400000001, 42.403898000000005], [-71.039487, 42.40362600000001], [-71.040568, 42.401982], [-71.041435, 42.401795999999976], [-71.052758, 42.403152], [-71.057668, 42.40315300000001], [-71.059751, 42.402546], [-71.05986, 42.40213500000001], [-71.060573, 42.40122300000001], [-71.061838, 42.40030399999999], [-71.066944, 42.39475500000001], [-71.066858, 42.394979], [-71.067367, 42.395296], [-71.069037, 42.39388500000001], [-71.069322, 42.39402200000001], [-71.072696, 42.390796], [-71.074086, 42.39258800000001], [-71.075586, 42.39524700000001], [-71.076419, 42.39777299999999]]]}}