{"type": "Feature", "properties": {"district_name": "4th Norfolk District", "chamber": "house", "vintage": "2012-2020"}, "geometry": {"type": "Polygon", "coordinates": [[[-70.967124, 42.244256], [-70.96540999999999, 42.24679099999997], [-70.962194, 42.24645499999999], [-70.960909, 42.24609100000001], [-70.960191, 42.246798999999996], [-70.959491, 42.24779899999999], [-70.938091, 42.266399], [-70.937691, 42.277499], [-70.925491, 42.28959899999999], [-70.920791, 42.289398999999996], [-70.914091, 42.288799999999995], [-70.91349, 42.278698999999996], [-70.90209, 42.267499], [-70.90899, 42.264399], [-70.91739, 42.263899], [-70.91819100000001, 42.26009999999997], [-70.917081, 42.25560000000001], [-70.91932, 42.25470299999999], [-70.92118099999999, 42.254264000000006], [-70.92330799999999, 42.25388600000001], [-70.925091, 42.25390000000001], [-70.932203, 42.252781000000006], [-70.932435, 42.25264399999999], [-70.933491, 42.25], [-70.931191, 42.2486], [-70.931029, 42.247120999999986], [-70.927328, 42.247909], [-70.917197, 42.24381599999999], [-70.915539, 42.244994], [-70.91282, 42.24419399999999], [-70.91251000000001, 42.24423200000001], [-70.912787, 42.245707], [-70.913416, 42.246590000000005], [-70.912623, 42.24782200000002], [-70.91266, 42.24882899999999], [-70.91233199999999, 42.2492], [-70.90918599999999, 42.249414], [-70.90580299999999, 42.249128000000006], [-70.90314599999999, 42.24931100000001], [-70.903256, 42.24796299999999], [-70.902801, 42.24716999999999], [-70.900688, 42.245343], [-70.896982, 42.241675999999984], [-70.89648199999999, 42.241972000000004], [-70.894587, 42.242445000000004], [-70.89310200000001, 42.24246], [-70.892071, 42.242704], [-70.891466, 42.242695000000005], [-70.890336, 42.24231800000001], [-70.89, 42.241795999999994], [-70.89167599999999, 42.240908999999995], [-70.89114599999999, 42.239971000000004], [-70.89067299999999, 42.238560000000014], [-70.89228899999999, 42.235853999999996], [-70.892466, 42.234891], [-70.89330799999999, 42.23359799999999], [-70.89205799999999, 42.232164000000004], [-70.891313, 42.23005900000001], [-70.890236, 42.229378], [-70.88889499999999, 42.229171], [-70.88874799999999, 42.228123999999994], [-70.88845599999999, 42.22766600000001], [-70.886363, 42.22599300000001], [-70.886442, 42.22532499999999], [-70.890059, 42.224897999999996], [-70.89142, 42.222882999999996], [-70.893438, 42.221711000000006], [-70.895873, 42.221542], [-70.896627, 42.221634], [-70.898365, 42.22235800000001], [-70.90164399999999, 42.222101], [-70.907363, 42.22246799999999], [-70.907984, 42.223330999999995], [-70.910631, 42.223394000000006], [-70.91175299999999, 42.224868999999984], [-70.912464, 42.225065], [-70.91362699999999, 42.22492199999999], [-70.91394199999999, 42.225072], [-70.914886, 42.225109], [-70.91485000000002, 42.224408], [-70.916125, 42.21643000000002], [-70.91668899999999, 42.210401000000005], [-70.91718999999999, 42.208800999999994], [-70.917388, 42.20610100000002], [-70.917686, 42.20519900000001], [-70.91919899999999, 42.19362899999999], [-70.921488, 42.178799999999995], [-70.921988, 42.176995999999995], [-70.922089, 42.17500000000001], [-70.922589, 42.1729], [-70.924877, 42.15758], [-70.94896299999999, 42.14815600000001], [-70.955356, 42.15847], [-70.95812699999999, 42.16763900000001], [-70.959081, 42.169515], [-70.96279, 42.174448000000005], [-70.96279899999999, 42.175001], [-70.96376, 42.176295], [-70.96369899999999, 42.176837000000006], [-70.963222, 42.17725000000002], [-70.96306899999999, 42.177716], [-70.963318, 42.178053], [-70.964451, 42.17827], [-70.96439, 42.178430000000006], [-70.95721, 42.176899999999996], [-70.95537999999999, 42.17672999999999], [-70.95518, 42.18083999999998], [-70.9556, 42.18899], [-70.96228099999999, 42.18793800000001], [-70.962074, 42.18882000000001], [-70.962437, 42.19048], [-70.962437, 42.19077], [-70.960308, 42.193341000000004], [-70.960739, 42.19340000000001], [-70.959631, 42.195775], [-70.955659, 42.19449699999999], [-70.955889, 42.20210699999999], [-70.95612, 42.20482000000001], [-70.95665, 42.206680000000006], [-70.95718, 42.20775], [-70.95624, 42.20682999999999], [-70.954793, 42.20597199999998], [-70.955609, 42.20911999999999], [-70.955799, 42.212880000000006], [-70.956412, 42.217264], [-70.95208, 42.21709], [-70.948228, 42.217828999999995], [-70.947267, 42.21880200000002], [-70.94548, 42.21940999999999], [-70.94395, 42.22021999999999], [-70.94516, 42.2216], [-70.94306999999999, 42.22281999999999], [-70.94523, 42.22494000000001], [-70.94534999999999, 42.22612], [-70.94601, 42.226789999999994], [-70.9462, 42.227289999999996], [-70.94807, 42.22683999999999], [-70.95103, 42.22707], [-70.95189500000001, 42.228528999999995], [-70.95134399999999, 42.229775000000004], [-70.951636, 42.230064000000034], [-70.950079, 42.230410000000006], [-70.948266, 42.23051600000001], [-70.94829299999999, 42.230734000000005], [-70.949885, 42.23062199999999], [-70.95005499999999, 42.230911000000006], [-70.950901, 42.23117199999999], [-70.95057, 42.231491999999974], [-70.94993199999999, 42.231359], [-70.949347, 42.231616999999986], [-70.94950899999999, 42.23169099999999], [-70.94999299999999, 42.231507], [-70.950363, 42.23163099999999], [-70.95059300000001, 42.23221699999999], [-70.95004, 42.232285000000005], [-70.949986, 42.23248400000001], [-70.95007799999999, 42.23279300000001], [-70.950671, 42.23308], [-70.95054, 42.23327599999999], [-70.95064, 42.233594000000004], [-70.950256, 42.23415500000001], [-70.950756, 42.23370899999999], [-70.950878, 42.233107999999994], [-70.95127099999999, 42.23348399999999], [-70.951148, 42.233639], [-70.95121, 42.233990000000006], [-70.95154, 42.23436199999999], [-70.951579, 42.234614000000015], [-70.951217, 42.234926], [-70.951295, 42.23521299999999], [-70.951579, 42.23551400000001], [-70.952187, 42.235427], [-70.952103, 42.23559600000001], [-70.95160299999999, 42.235739], [-70.952018, 42.236065], [-70.952095, 42.236514], [-70.951526, 42.236518999999994], [-70.95087199999999, 42.236224], [-70.950064, 42.23632399999999], [-70.949749, 42.23621199999998], [-70.949325, 42.236539], [-70.949249, 42.237053999999986], [-70.949934, 42.237978], [-70.94977999999999, 42.23823799999999], [-70.949961, 42.237939999999995], [-70.949966, 42.23721900000001], [-70.95056, 42.236941], [-70.95119799999999, 42.23713800000001], [-70.95149099999999, 42.23737999999999], [-70.951319, 42.23759], [-70.95218, 42.238218999999994], [-70.953135, 42.238415], [-70.954858, 42.23933599999999], [-70.957251, 42.24012800000001], [-70.95779, 42.240132], [-70.95881299999999, 42.239817], [-70.95975899999999, 42.239989999999985], [-70.960398, 42.24032599999998], [-70.96336, 42.240514000000005], [-70.963629, 42.238932999999996], [-70.966999, 42.23973600000001], [-70.966669, 42.24041199999998], [-70.966877, 42.241494], [-70.966723, 42.24151499999999], [-70.966493, 42.24294999999999], [-70.966663, 42.24310499999999], [-70.966093, 42.243537999999994], [-70.96596199999999, 42.243991], [-70.967124, 42.244256]]]}}