{"type": "Feature", "properties": {"district_name": "11th Worcester District", "chamber": "house", "vintage": "2012-2020"}, "geometry": {"type": "Polygon", "coordinates": [[[-71.768215, 42.31129199999999], [-71.767239, 42.31144299999999], [-71.76719899999999, 42.313226], [-71.756289, 42.312115999999996], [-71.741452, 42.317175], [-71.741745, 42.315726], [-71.731715, 42.318024], [-71.730071, 42.321187], [-71.7209, 42.324467], [-71.71955, 42.325074999999984], [-71.698673, 42.33240599999999], [-71.695477, 42.330268000000004], [-71.697643, 42.329179], [-71.697589, 42.327552], [-71.69096499999999, 42.328959], [-71.69113899999999, 42.326904999999975], [-71.689537, 42.325973000000005], [-71.687938, 42.32551599999999], [-71.68974399999999, 42.318861000000005], [-71.684362, 42.311370999999994], [-71.680421, 42.30517100000001], [-71.676996, 42.286148000000004], [-71.670115, 42.27876299999999], [-71.65452100000002, 42.28412], [-71.654349, 42.28370700000001], [-71.653374, 42.282588999999994], [-71.638515, 42.283333999999996], [-71.63789, 42.281236], [-71.638099, 42.27997899999998], [-71.637869, 42.27853], [-71.637061, 42.27729700000001], [-71.636484, 42.27688200000001], [-71.635569, 42.27657000000001], [-71.633999, 42.27643500000001], [-71.63290599999999, 42.275766999999995], [-71.633054, 42.27477299999999], [-71.63214599999999, 42.27402000000001], [-71.63236599999999, 42.272757999999996], [-71.624927, 42.274284], [-71.623149, 42.27243700000002], [-71.62170499999999, 42.27185900000001], [-71.621865, 42.27164599999999], [-71.615706, 42.26701299999999], [-71.616655, 42.266403000000004], [-71.619541, 42.26505399999999], [-71.62217799999999, 42.264562000000005], [-71.62476199999999, 42.26308999999999], [-71.62135099999999, 42.259093], [-71.621071, 42.258578], [-71.619997, 42.25552400000001], [-71.620098, 42.253842999999996], [-71.61826400000001, 42.251422999999974], [-71.61894, 42.250145], [-71.618652, 42.24892699999998], [-71.61775999999999, 42.249041999999996], [-71.615788, 42.24894], [-71.614724, 42.249092], [-71.614342, 42.249372], [-71.613659, 42.250322000000004], [-71.611408, 42.252267], [-71.609867, 42.25500000000001], [-71.60976, 42.257152999999974], [-71.60913, 42.25886800000001], [-71.608774, 42.25831699999999], [-71.60741999999999, 42.25738], [-71.60687399999999, 42.256663], [-71.60675499999999, 42.256296], [-71.606875, 42.255532999999986], [-71.60635599999999, 42.25453100000001], [-71.606293, 42.254088], [-71.604473, 42.254476000000004], [-71.602766, 42.25510599999999], [-71.602124, 42.254965999999996], [-71.601587, 42.254594], [-71.600864, 42.254955], [-71.597641, 42.255064999999995], [-71.596143, 42.254906], [-71.593696, 42.25416399999998], [-71.59232899999999, 42.254042000000005], [-71.591742, 42.25422], [-71.591106, 42.252048], [-71.590531, 42.251533], [-71.589855, 42.25126500000001], [-71.599318, 42.225958999999996], [-71.62107, 42.230869999999996], [-71.644438, 42.22662599999999], [-71.649023, 42.247969], [-71.670932, 42.244701], [-71.674172, 42.24859099999999], [-71.67445500000001, 42.252365000000005], [-71.681876, 42.251351000000014], [-71.684781, 42.25111000000001], [-71.70505899999999, 42.248304999999995], [-71.710961, 42.24514399999999], [-71.717986, 42.245058], [-71.73155899999999, 42.24131000000001], [-71.746078, 42.24383799999999], [-71.751192, 42.254247000000014], [-71.751452, 42.25510599999999], [-71.753514, 42.267493], [-71.754052, 42.269819999999996], [-71.754327, 42.272504999999995], [-71.758541, 42.296220999999996], [-71.768215, 42.31129199999999]]]}}