{"type": "Feature", "properties": {"district_name": "9th Worcester District", "chamber": "house", "vintage": "2022-present"}, "geometry": {"type": "Polygon", "coordinates": [[[-71.733429, 42.237975000000006], [-71.731237, 42.24128600000001], [-71.717986, 42.245058], [-71.710961, 42.24514400000002], [-71.704659, 42.248362], [-71.67445500000001, 42.252365000000005], [-71.674172, 42.24859099999999], [-71.670932, 42.244701], [-71.650171, 42.247797999999996], [-71.648405, 42.245145], [-71.644438, 42.226625999999996], [-71.62107, 42.230869999999996], [-71.599318, 42.225958999999996], [-71.602221, 42.218101], [-71.58291000000001, 42.195559], [-71.571548, 42.19465299999999], [-71.572085, 42.19362200000001], [-71.572271, 42.192733], [-71.556782, 42.192450000000015], [-71.556243, 42.191820999999976], [-71.55613, 42.19060600000002], [-71.555817, 42.189843], [-71.555953, 42.18908599999998], [-71.555848, 42.188854], [-71.556233, 42.188663], [-71.556092, 42.18832400000001], [-71.556673, 42.188097000000006], [-71.556608, 42.187918], [-71.556344, 42.18809099999999], [-71.556204, 42.187870000000004], [-71.556432, 42.187305], [-71.556447, 42.18661399999999], [-71.55669500000002, 42.186494999999994], [-71.557055, 42.18577399999999], [-71.556935, 42.18569000000001], [-71.556887, 42.185839], [-71.556262, 42.18594700000001], [-71.555485, 42.18540499999999], [-71.555421, 42.185244], [-71.555605, 42.184988], [-71.555508, 42.184779], [-71.55518, 42.184934], [-71.555067, 42.18447599999999], [-71.555203, 42.18410599999998], [-71.555468, 42.183951], [-71.555435, 42.183527999999995], [-71.555725, 42.182819], [-71.555995, 42.18268200000001], [-71.55551, 42.18238699999999], [-71.555527, 42.182229000000014], [-71.555732, 42.18230000000002], [-71.555929, 42.18217], [-71.55431800000001, 42.18177099999999], [-71.55382, 42.18182500000001], [-71.553646, 42.18140600000001], [-71.552866, 42.18109799999999], [-71.552548, 42.180443], [-71.55259, 42.179984], [-71.552368, 42.180015], [-71.552008, 42.17977499999998], [-71.551666, 42.17857100000001], [-71.552525, 42.177408], [-71.553781, 42.178242999999995], [-71.554898, 42.17811300000002], [-71.555079, 42.17761], [-71.555367, 42.17752500000001], [-71.555382, 42.17732899999999], [-71.555819, 42.177402000000015], [-71.555944, 42.177251999999996], [-71.556468, 42.17763799999998], [-71.556382, 42.17778099999999], [-71.556969, 42.178049], [-71.557187, 42.178342000000015], [-71.557472, 42.178469000000014], [-71.557946, 42.178312000000005], [-71.558352, 42.17873000000001], [-71.558832, 42.17884199999999], [-71.55981500000001, 42.17893599999999], [-71.560263, 42.178805999999994], [-71.560888, 42.178976999999996], [-71.56146, 42.17887], [-71.561498, 42.178672999999996], [-71.562017, 42.178614000000024], [-71.561626, 42.17673799999998], [-71.561972, 42.176491000000006], [-71.562029, 42.17593699999999], [-71.561861, 42.17579499999998], [-71.561985, 42.175444000000006], [-71.561736, 42.174715000000006], [-71.561874, 42.174305000000004], [-71.562516, 42.17409799999998], [-71.562689, 42.173175], [-71.562578, 42.17269600000003], [-71.563197, 42.172366999999994], [-71.563269, 42.171969999999995], [-71.562327, 42.171448999999996], [-71.561759, 42.17034899999999], [-71.56055200000002, 42.16873800000001], [-71.560504, 42.16852200000002], [-71.561227, 42.167786], [-71.561056, 42.167598000000005], [-71.560765, 42.16764599999999], [-71.560462, 42.16804200000001], [-71.560155, 42.168027], [-71.559783, 42.167623], [-71.559809, 42.167108], [-71.562839, 42.167838999999994], [-71.564288, 42.165958], [-71.564463, 42.165096], [-71.564259, 42.16448599999998], [-71.564441, 42.164204], [-71.564029, 42.164054], [-71.563466, 42.163285], [-71.563522, 42.162384], [-71.56385, 42.162174000000014], [-71.563532, 42.16152999999999], [-71.563714, 42.161172999999984], [-71.56350400000001, 42.16068399999999], [-71.563003, 42.16051300000001], [-71.562817, 42.160155], [-71.562372, 42.159995], [-71.562295, 42.159512], [-71.561999, 42.159344999999995], [-71.561914, 42.15896299999999], [-71.560954, 42.158315], [-71.571402, 42.151844999999994], [-71.571591, 42.14236699999999], [-71.570005, 42.13918400000001], [-71.573414, 42.135790000000014], [-71.592748, 42.12164800000001], [-71.592634, 42.11423800000001], [-71.595987, 42.112604999999995], [-71.59854300000002, 42.11171499999999], [-71.599162, 42.11176599999999], [-71.601524, 42.111297], [-71.60282, 42.111498999999995], [-71.603531, 42.11211], [-71.65087, 42.095496], [-71.679971, 42.10339599999999], [-71.685541, 42.107265], [-71.707805, 42.099921], [-71.69201, 42.120292], [-71.70464, 42.125253999999984], [-71.693713, 42.136159], [-71.691401, 42.149201000000005], [-71.693687, 42.161214], [-71.691418, 42.163108], [-71.69520400000002, 42.17578899999999], [-71.718614, 42.17296700000001], [-71.723535, 42.191484], [-71.733429, 42.237975000000006]]]}}