{"type": "Feature", "properties": {"district_name": "14th Norfolk District", "chamber": "house", "vintage": "2012-2020"}, "geometry": {"type": "MultiPolygon", "coordinates": [[[[-71.299888, 42.270361], [-71.299397, 42.270846], [-71.298391, 42.271342], [-71.29765499999999, 42.27241000000001], [-71.29679600000001, 42.27264199999999], [-71.295666, 42.272502], [-71.299854, 42.26953899999999], [-71.299756, 42.269878000000006], [-71.299888, 42.270361]]], [[[-71.36141099999999, 42.364475000000006], [-71.361222, 42.36461200000001], [-71.36119599999999, 42.36546099999999], [-71.360528, 42.366686], [-71.360284, 42.367726], [-71.358992, 42.369177000000015], [-71.35875399999999, 42.3697], [-71.359068, 42.373068], [-71.35904599999999, 42.37582899999999], [-71.357901, 42.38235199999998], [-71.35616999999999, 42.382489], [-71.354134, 42.38294399999999], [-71.35301799999999, 42.383539999999996], [-71.35157, 42.383835000000005], [-71.35027699999999, 42.384699999999995], [-71.349572, 42.38498899999998], [-71.34795799999999, 42.385445000000004], [-71.34674199999999, 42.385512999999996], [-71.34585799999999, 42.386196000000005], [-71.344301, 42.38640899999999], [-71.341315, 42.387446000000004], [-71.339306, 42.387261], [-71.338549, 42.38695600000001], [-71.337403, 42.38695100000001], [-71.334986, 42.38623700000003], [-71.33587800000001, 42.393942], [-71.334549, 42.396107], [-71.321524, 42.392683], [-71.319859, 42.392873999999985], [-71.31856599999999, 42.39257499999999], [-71.317685, 42.392121], [-71.314613, 42.39321700000003], [-71.31524399999999, 42.39348], [-71.313524, 42.39627999999998], [-71.312223, 42.395824], [-71.309799, 42.399588], [-71.30695399999999, 42.400103], [-71.293482, 42.40221999999999], [-71.283233, 42.398982999999994], [-71.282825, 42.399727999999996], [-71.279583, 42.39875200000001], [-71.27617200000002, 42.39291599999999], [-71.26773299999999, 42.39013300000002], [-71.276545, 42.37497099999999], [-71.275842, 42.374593999999995], [-71.27515799999999, 42.374621000000005], [-71.273713, 42.373833999999995], [-71.273088, 42.373053999999996], [-71.272789, 42.372948], [-71.272914, 42.372563], [-71.272077, 42.371958], [-71.272308, 42.371534000000004], [-71.27172999999999, 42.37134300000001], [-71.271759, 42.370915], [-71.270816, 42.369871], [-71.27017099999999, 42.368637], [-71.27019, 42.36805500000002], [-71.270692, 42.367621999999976], [-71.271298, 42.367352999999994], [-71.271455, 42.36712999999999], [-71.272851, 42.366801], [-71.273558, 42.365403], [-71.27248, 42.364528], [-71.272373, 42.36418200000001], [-71.271413, 42.36308399999999], [-71.269131, 42.362918], [-71.269286, 42.362237], [-71.269093, 42.361427], [-71.269181, 42.36057400000001], [-71.268586, 42.359561], [-71.267214, 42.35813299999999], [-71.26647299999999, 42.356705], [-71.26565, 42.35557800000001], [-71.26428899999999, 42.35502000000001], [-71.263381, 42.35438799999999], [-71.262445, 42.35420500000001], [-71.26118199999999, 42.353678999999985], [-71.260385, 42.35363299999999], [-71.25914500000002, 42.35172399999999], [-71.258686, 42.349484], [-71.259065, 42.348803], [-71.25988199999999, 42.348659999999995], [-71.260515, 42.348222000000014], [-71.26055699999999, 42.347938], [-71.260251, 42.347079000000015], [-71.25979099999999, 42.34650300000001], [-71.25974599999999, 42.345898], [-71.25985299999999, 42.34551900000001], [-71.261344, 42.344373000000004], [-71.261407, 42.343594], [-71.261882, 42.34218799999999], [-71.261836, 42.341767999999995], [-71.261344, 42.341239], [-71.260645, 42.34091999999999], [-71.258747, 42.34120600000001], [-71.257553, 42.34092199999999], [-71.25609399999999, 42.340174], [-71.25573899999999, 42.339538999999995], [-71.25583, 42.338995999999995], [-71.25615800000001, 42.33860899999999], [-71.25822, 42.337101999999994], [-71.258901, 42.33678999999999], [-71.25914700000001, 42.335784999999994], [-71.259881, 42.33495200000001], [-71.26122, 42.334605], [-71.2626, 42.334942], [-71.263521, 42.334967000000006], [-71.264455, 42.334604000000006], [-71.264802, 42.33417399999999], [-71.264884, 42.33330899999999], [-71.265393, 42.33300900000001], [-71.26518899999999, 42.332497], [-71.265225, 42.33193], [-71.26570099999999, 42.33131799999999], [-71.268183, 42.33057900000001], [-71.269767, 42.33118100000001], [-71.270246, 42.33098], [-71.270279, 42.330522], [-71.269763, 42.32976399999999], [-71.27024899999999, 42.328929999999986], [-71.270173, 42.32839499999999], [-71.269746, 42.32797000000001], [-71.269032, 42.32774599999999], [-71.266119, 42.327426], [-71.263624, 42.326153], [-71.263238, 42.32616400000001], [-71.26270000000001, 42.326567], [-71.261776, 42.326772], [-71.259605, 42.32681799999999], [-71.25926199999999, 42.326628], [-71.258811, 42.32595699999999], [-71.25845, 42.324892999999996], [-71.257509, 42.324496], [-71.256336, 42.32462], [-71.254697, 42.325272999999996], [-71.253703, 42.32668099999999], [-71.25291, 42.326662999999996], [-71.251975, 42.326161], [-71.25138299999999, 42.32528], [-71.250593, 42.324812], [-71.25006599999999, 42.323853000000014], [-71.24891, 42.323423], [-71.248262, 42.322314], [-71.2475, 42.32148599999999], [-71.246574, 42.32097400000001], [-71.244937, 42.321159], [-71.242772, 42.32076899999999], [-71.24088499999999, 42.32088400000001], [-71.23930700000001, 42.32167900000001], [-71.23864499999999, 42.321788], [-71.234942, 42.320862999999996], [-71.23119, 42.32078300000001], [-71.22932399999999, 42.319288000000014], [-71.228657, 42.31911999999999], [-71.228398, 42.318643], [-71.227532, 42.31809300000001], [-71.227356, 42.31775400000002], [-71.227757, 42.31784599999999], [-71.22785, 42.317479000000006], [-71.228143, 42.317481999999984], [-71.22821499999999, 42.316908], [-71.228098, 42.316414], [-71.227691, 42.316041], [-71.227689, 42.31547299999999], [-71.228887, 42.31634400000002], [-71.229404, 42.316459], [-71.23153099999999, 42.316461], [-71.233006, 42.31626599999999], [-71.294843, 42.27305200000001], [-71.295239, 42.27372799999999], [-71.295969, 42.274246999999995], [-71.296896, 42.274494], [-71.298011, 42.27429199999998], [-71.298604, 42.274349], [-71.299191, 42.274584], [-71.299622, 42.27505199999999], [-71.299786, 42.27549800000002], [-71.299775, 42.276139], [-71.29786299999999, 42.279092], [-71.297525, 42.280055000000004], [-71.29751399999999, 42.280909], [-71.297641, 42.28128600000001], [-71.298824, 42.282314000000014], [-71.29985599999999, 42.28284199999998], [-71.30046, 42.282916000000014], [-71.30134, 42.28194], [-71.301987, 42.280725999999994], [-71.302477, 42.28015999999999], [-71.304636, 42.27835799999999], [-71.307341, 42.27710499999999], [-71.308875, 42.27667399999999], [-71.309302, 42.276378999999984], [-71.309496, 42.275704], [-71.30902499999999, 42.27480799999999], [-71.309013, 42.27334200000002], [-71.308476, 42.272293999999995], [-71.30802899999999, 42.27181099999999], [-71.308115, 42.271223], [-71.30846, 42.270709], [-71.323662, 42.297415], [-71.32974999999999, 42.312991000000004], [-71.327327, 42.313745999999995], [-71.327444, 42.321113999999994], [-71.328317, 42.328143000000004], [-71.32860000000001, 42.331666000000006], [-71.330795, 42.331883999999995], [-71.332104, 42.33378500000001], [-71.332456, 42.33593999999999], [-71.333248, 42.33732900000001], [-71.334042, 42.338142999999974], [-71.334999, 42.33876], [-71.337768, 42.339805000000005], [-71.33955999999999, 42.33752999999998], [-71.340173, 42.33621199999999], [-71.341203, 42.33307699999999], [-71.342479, 42.333258000000015], [-71.343702, 42.33378], [-71.34539699999999, 42.334155], [-71.345905, 42.33500000000001], [-71.34635999999999, 42.33643299999998], [-71.346868, 42.336746000000005], [-71.34834699999999, 42.33656899999999], [-71.349515, 42.335884], [-71.350037, 42.33496000000001], [-71.350461, 42.3348], [-71.354354, 42.33678600000001], [-71.354843, 42.33846999999999], [-71.35374999999999, 42.339561], [-71.35372600000001, 42.33999399999999], [-71.353989, 42.340139000000015], [-71.35489500000001, 42.340136], [-71.356807, 42.34101600000001], [-71.357472, 42.34193], [-71.35857, 42.34208700000001], [-71.358764, 42.345364000000004], [-71.359025, 42.34679099999999], [-71.358975, 42.348383], [-71.358772, 42.349407], [-71.357337, 42.35204499999999], [-71.35691899999999, 42.35318999999999], [-71.357489, 42.355601], [-71.357376, 42.35766399999999], [-71.35771199999999, 42.358546999999994], [-71.360118, 42.36297700000001], [-71.36141099999999, 42.364475000000006]]]]}}