{"type": "Feature", "properties": {"district_name": "10th Middlesex District", "chamber": "house", "vintage": "2012-2020"}, "geometry": {"type": "Polygon", "coordinates": [[[-71.263812, 42.364039000000005], [-71.262299, 42.366796], [-71.26186299999999, 42.367031], [-71.261946, 42.36748099999999], [-71.261568, 42.36792799999999], [-71.260008, 42.36760100000001], [-71.259519, 42.367304000000004], [-71.257667, 42.367719000000015], [-71.256174, 42.367443000000016], [-71.255929, 42.36816799999999], [-71.256174, 42.36846899999999], [-71.25553099999999, 42.36869], [-71.25471999999999, 42.36961899999999], [-71.255258, 42.36989400000001], [-71.25483, 42.37062299999999], [-71.255741, 42.371011], [-71.25541, 42.371584999999996], [-71.25376, 42.37108799999999], [-71.253198, 42.371965], [-71.250104, 42.371677], [-71.24986799999999, 42.37244200000001], [-71.25197399999999, 42.372628999999996], [-71.25276099999999, 42.37285], [-71.25247999999999, 42.37330499999998], [-71.251071, 42.373264999999996], [-71.250995, 42.374367], [-71.24652, 42.374379000000005], [-71.246517, 42.37310299999999], [-71.243685, 42.374007000000006], [-71.24321499999999, 42.372862000000005], [-71.242012, 42.37336], [-71.23661299999999, 42.374522999999996], [-71.23648299999999, 42.373662], [-71.236609, 42.373007999999984], [-71.235466, 42.372477000000025], [-71.233657, 42.372681], [-71.231122, 42.373476000000004], [-71.230032, 42.373201999999985], [-71.22879499999999, 42.372465999999996], [-71.228319, 42.374081999999994], [-71.228749, 42.37575600000002], [-71.23171099999999, 42.375390999999986], [-71.231894, 42.376946], [-71.230406, 42.377118], [-71.230516, 42.378100999999994], [-71.234421, 42.377924], [-71.233903, 42.37870800000001], [-71.23460899999999, 42.37884699999999], [-71.23465999999999, 42.37941299999999], [-71.234239, 42.37944699999999], [-71.23406899999999, 42.380199], [-71.236064, 42.380054000000015], [-71.23702899999999, 42.38347800000001], [-71.234942, 42.38312], [-71.235372, 42.38383100000001], [-71.235692, 42.384924], [-71.23629799999999, 42.385614000000004], [-71.236575, 42.386324], [-71.23313399999999, 42.385659], [-71.230465, 42.383845], [-71.22816399999999, 42.385326000000006], [-71.227232, 42.38557800000001], [-71.225972, 42.385613], [-71.225531, 42.386385999999995], [-71.224062, 42.387983000000006], [-71.22309, 42.389860000000006], [-71.221932, 42.39137900000001], [-71.218645, 42.39494099999998], [-71.217224, 42.396705000000004], [-71.219363, 42.397463], [-71.21898999999999, 42.398610000000005], [-71.21833699999999, 42.398890000000016], [-71.218611, 42.398118999999994], [-71.21820199999999, 42.397841], [-71.21779099999999, 42.397918999999995], [-71.216888, 42.399078], [-71.216472, 42.39923999999999], [-71.215908, 42.39921400000001], [-71.214728, 42.401453999999994], [-71.21406999999999, 42.40058900000001], [-71.208942, 42.39643400000001], [-71.205154, 42.394459], [-71.20060000000001, 42.391773], [-71.197713, 42.39102099999999], [-71.198701, 42.38958000000001], [-71.199286, 42.389739999999996], [-71.200739, 42.38887999999999], [-71.202105, 42.38859800000001], [-71.20339899999999, 42.38771499999999], [-71.203817, 42.38698600000001], [-71.205392, 42.386381], [-71.212079, 42.382461000000006], [-71.217122, 42.38116599999999], [-71.218651, 42.38129699999999], [-71.219825, 42.38056900000001], [-71.224881, 42.37816600000001], [-71.225562, 42.377711], [-71.222049, 42.37786200000001], [-71.22189399999999, 42.37785799999998], [-71.221873, 42.377646999999996], [-71.220789, 42.377726], [-71.21293, 42.37572], [-71.209374, 42.374074], [-71.20851499999999, 42.37385], [-71.20163699999999, 42.379632], [-71.197018, 42.38375399999998], [-71.194177, 42.386030999999996], [-71.189159, 42.38071700000001], [-71.19000199999999, 42.380495999999994], [-71.19050299999999, 42.37986699999999], [-71.189883, 42.37920199999999], [-71.191276, 42.376436999999996], [-71.192151, 42.375656000000006], [-71.1924, 42.375213999999986], [-71.193339, 42.37545199999999], [-71.193583, 42.374029], [-71.195332, 42.371011], [-71.19379599999999, 42.37018800000001], [-71.19273199999999, 42.369987], [-71.193741, 42.369443999999994], [-71.194869, 42.36793699999998], [-71.195802, 42.36814999999999], [-71.196106, 42.367856], [-71.19528, 42.367923000000005], [-71.194865, 42.36715799999999], [-71.19348099999999, 42.36656], [-71.192101, 42.365505999999996], [-71.196058, 42.361747], [-71.190231, 42.360383999999996], [-71.190747, 42.35928400000001], [-71.191852, 42.355526999999995], [-71.196158, 42.354764999999986], [-71.19883399999999, 42.354009], [-71.201492, 42.354986000000004], [-71.203574, 42.356017], [-71.207326, 42.35683400000002], [-71.212952, 42.35937899999998], [-71.209537, 42.361503000000006], [-71.210561, 42.36228400000001], [-71.210061, 42.363548], [-71.21079499999999, 42.364006], [-71.212279, 42.364497000000014], [-71.213251, 42.36468999999998], [-71.21359, 42.364565999999996], [-71.213326, 42.364896], [-71.214368, 42.36558100000002], [-71.214973, 42.365697999999995], [-71.21553399999999, 42.365608], [-71.216445, 42.365913], [-71.21709299999999, 42.36661399999999], [-71.25113200000001, 42.35653099999998], [-71.253068, 42.35570399999998], [-71.25350999999999, 42.354873000000005], [-71.254103, 42.35472], [-71.25568299999999, 42.353836], [-71.256466, 42.354031], [-71.25645999999999, 42.354816], [-71.260385, 42.35363299999999], [-71.26104099999999, 42.35365], [-71.262445, 42.35420500000001], [-71.263381, 42.35438799999999], [-71.261792, 42.35726799999999], [-71.261819, 42.357935], [-71.26227899999999, 42.359179000000005], [-71.26217, 42.35998500000001], [-71.260367, 42.36236600000001], [-71.26302199999999, 42.362481], [-71.26348300000001, 42.36394], [-71.263812, 42.364039000000005]]]}}