{"type": "Feature", "properties": {"district_name": "3rd Hampden", "chamber": "house", "vintage": "2001-2010"}, "geometry": {"type": "Polygon", "coordinates": [[[-72.8683259377571, 42.22324097682177], [-72.8651090820059, 42.221705251620456], [-72.86347704519545, 42.221434271151466], [-72.86037299897497, 42.221578038190486], [-72.85938088680938, 42.22114577292866], [-72.85798901950018, 42.219961889068514], [-72.85789294281024, 42.21908174208117], [-72.8586130305886, 42.21815422417034], [-72.85942905270231, 42.21743379551477], [-72.8596370140579, 42.216730130384754], [-72.85814897139586, 42.214666094508225], [-72.85754112488337, 42.21321010782131], [-72.85746100203902, 42.21231401348913], [-72.85595712650866, 42.21042572768231], [-72.85491702165399, 42.20844189523794], [-72.8542130582996, 42.2074501837289], [-72.85405295079586, 42.206874112507094], [-72.85461299447822, 42.20551406222488], [-72.85614895563685, 42.20415372163356], [-72.85654896986912, 42.20345004075532], [-72.85650091009427, 42.203114077005566], [-72.85274096285718, 42.20231377622392], [-72.84749301771885, 42.20165801770164], [-72.8470770110607, 42.20146593715393], [-72.84672497382952, 42.20095402263288], [-72.84581302216148, 42.2004098426272], [-72.83678909107246, 42.19069798547341], [-72.82830796499375, 42.18204277691661], [-72.8278598640373, 42.180955083133014], [-72.81297997945153, 42.16129077122156], [-72.81222800279178, 42.15605893855549], [-72.81273987746881, 42.155891001880676], [-72.81303998783333, 42.15549082130272], [-72.81344002107859, 42.155290955005576], [-72.8286411011497, 42.13679212944754], [-72.83044101898346, 42.13799189006419], [-72.83114092456509, 42.138091813011584], [-72.83554103220852, 42.13709179125298], [-72.83584104549567, 42.13639214731273], [-72.8361410218786, 42.13379204343722], [-72.83854109595731, 42.13319226022511], [-72.84044095765067, 42.13189201012593], [-72.84294097931695, 42.132292123551046], [-72.8434410422584, 42.132092111137254], [-72.84384098030867, 42.131292225598756], [-72.84254102391039, 42.12669220794803], [-72.84344098785094, 42.12609187745913], [-72.84644105421044, 42.12619172437847], [-72.84914200742816, 42.124791854766336], [-72.85054201776914, 42.124692070046045], [-72.8511420379881, 42.122892011960424], [-72.85157398708783, 42.12255600837525], [-72.85258210529557, 42.11906788586566], [-72.85354203250877, 42.11479187493197], [-72.83934095643536, 42.111691917075895], [-72.83694101388046, 42.10219283560748], [-72.8012399942234, 42.0964929416217], [-72.79724000827262, 42.09569304785916], [-72.70553599903553, 42.08059407628746], [-72.694535962834, 42.105292831234486], [-72.68383597588885, 42.10719291806064], [-72.68303601567756, 42.106892794010534], [-72.68123599000779, 42.10069293503788], [-72.67643492661199, 42.1003928868475], [-72.67523500951127, 42.09779290084417], [-72.67283496750959, 42.09469309324493], [-72.66803498861645, 42.09119398298982], [-72.66653496778262, 42.08739379968136], [-72.66203499078462, 42.084293760389365], [-72.66063498378172, 42.08589380157198], [-72.66043511637733, 42.09219416755941], [-72.65833496635666, 42.095494030861104], [-72.65173485605493, 42.09769287331795], [-72.64603404821507, 42.09919295928615], [-72.63823402301894, 42.09889426257199], [-72.63313409659749, 42.100393923211186], [-72.63113397190479, 42.09989427203664], [-72.62963401335624, 42.097493752624224], [-72.63063399810622, 42.095493998590705], [-72.63083397648228, 42.09459387396801], [-72.6298339868969, 42.09209387616093], [-72.62683395487713, 42.08989381868106], [-72.62033396228288, 42.08759404730088], [-72.61023303645356, 42.08849378680926], [-72.60083298525583, 42.08599421492448], [-72.60033300373901, 42.08879418876043], [-72.59853304014567, 42.08989419892823], [-72.59873299467131, 42.09029408277704], [-72.59963298981002, 42.09019427840113], [-72.59863298893886, 42.092893813344986], [-72.5955330012028, 42.09349413858273], [-72.59093290942693, 42.09219421318503], [-72.58863293126349, 42.09289421634085], [-72.5831319959376, 42.08299419135542], [-72.58283211316109, 42.08149393358851], [-72.5834360223556, 42.07830194237064], [-72.58923299477779, 42.071994231785006], [-72.60583296110224, 42.04899526034578], [-72.60753299078948, 42.04329502043719], [-72.60793301187535, 42.03079522063688], [-72.6079903851549, 42.03096404928271], [-72.64010457218612, 42.03208691533475], [-72.69888713328648, 42.03696504388937], [-72.71443895647653, 42.036956912175924], [-72.71444663950062, 42.03659778805328], [-72.75592744281714, 42.036342977387655], [-72.75604624192091, 42.03494320245348], [-72.75674187763097, 42.03420339892641], [-72.75719306085648, 42.03337117437736], [-72.75464082050784, 42.03259500352863], [-72.75271246145391, 42.03142700503275], [-72.7518730158344, 42.0301204457045], [-72.75184169126236, 42.02929183763002], [-72.75240850442054, 42.0283688819178], [-72.7537757614645, 42.02699145033335], [-72.75446077969586, 42.0256687488174], [-72.7556096627543, 42.02474783720526], [-72.75652121344133, 42.022889140746216], [-72.75659085455554, 42.0218776449752], [-72.75715624854564, 42.021114505077314], [-72.75789443755679, 42.02077492353687], [-72.75906527322033, 42.02088810140294], [-72.75954510712174, 42.022141726112075], [-72.76059819340918, 42.02262030056313], [-72.76118745767664, 42.02269146691286], [-72.7628131832951, 42.02150915818472], [-72.76447273975532, 42.019933648046305], [-72.76291342650978, 42.01954455693083], [-72.76268529351287, 42.01934898113975], [-72.762726813511, 42.01895514309381], [-72.76244997862766, 42.018154007327745], [-72.76185041943792, 42.01747122761318], [-72.7613471948523, 42.01721227719364], [-72.75995363581735, 42.017171927635104], [-72.75988608573861, 42.01700046463551], [-72.76083936236343, 42.015621865130555], [-72.76119124459349, 42.01474288473446], [-72.76276059343276, 42.01388084777995], [-72.76319772830362, 42.01283152133925], [-72.76324978480284, 42.01212355024034], [-72.76265632626567, 42.011641053168226], [-72.76204302533374, 42.0107811585835], [-72.76200071533687, 42.01034098186766], [-72.76139187648327, 42.00987609848647], [-72.76142548548545, 42.009516113889454], [-72.76194953591674, 42.00910683135297], [-72.76283245728499, 42.00882470469453], [-72.76405969643004, 42.008583787280884], [-72.76481752822751, 42.008609732531504], [-72.76631709575398, 42.00783902612458], [-72.76682157885699, 42.00322435410157], [-72.81696198601198, 41.997640737403195], [-72.8137271963851, 42.036643833681296], [-72.87454041886161, 42.03775501606681], [-72.97906436050947, 42.038218641164335], [-72.97007396363144, 42.078501791774556], [-72.98182100108565, 42.136621113956295], [-72.9035850392815, 42.12509226695771], [-72.89554500872866, 42.123565759386025], [-72.89471387105702, 42.12766274471999], [-72.8761100401661, 42.20073919985456], [-72.87195802592504, 42.21633021994549], [-72.8683259377571, 42.22324097682177]]]}}