{"type": "Feature", "properties": {"district_name": "15th Suffolk", "chamber": "house", "vintage": "2001-2010"}, "geometry": {"type": "Polygon", "coordinates": [[[-71.11099605258195, 42.335497264377466], [-71.10951703047122, 42.336934968822646], [-71.10499601217414, 42.334097106463], [-71.09939603231938, 42.33629695104073], [-71.09951095254877, 42.335964243059315], [-71.09530708109703, 42.334606959235856], [-71.09731504302738, 42.331695933628964], [-71.09566707665246, 42.331498278434275], [-71.09726006607218, 42.329550790389916], [-71.09649596696497, 42.329297153748065], [-71.0957959472173, 42.330497154472575], [-71.09471903755134, 42.330271098126836], [-71.09384096256571, 42.32946111017364], [-71.09456198230127, 42.329100728775906], [-71.0952959868199, 42.32839714226347], [-71.09259595878666, 42.32769719550333], [-71.09300297857011, 42.32684278997286], [-71.09397292266897, 42.32334294607298], [-71.09430402577566, 42.32314492480228], [-71.09486509487768, 42.323122145662644], [-71.0955960597062, 42.323296901328966], [-71.09549601080141, 42.321897156635025], [-71.09639591794982, 42.32179678615372], [-71.09859698439396, 42.32249827993548], [-71.09867109168776, 42.324294069852904], [-71.0985059785936, 42.3247712078653], [-71.09893508556723, 42.3247828342419], [-71.09983006324178, 42.32285988887695], [-71.1028960766715, 42.31919674908279], [-71.10398100001434, 42.31738921373249], [-71.10529797889392, 42.314468905933026], [-71.10629606827652, 42.314897152475254], [-71.10799600083968, 42.312697236356435], [-71.10916091839867, 42.31342594302121], [-71.11049102265825, 42.3119219034467], [-71.11161101256045, 42.31237584252715], [-71.11089603277573, 42.313097037510275], [-71.11419603092621, 42.31389704811402], [-71.11459596916045, 42.310997183917124], [-71.11519598708486, 42.310097205059655], [-71.11669602200365, 42.30919686141915], [-71.11739598661622, 42.3089971853672], [-71.11912901362764, 42.308862838111644], [-71.12009607359326, 42.30899714052155], [-71.12059603619078, 42.313297150660226], [-71.12169602101552, 42.31289676893766], [-71.12201193171127, 42.312617024023865], [-71.1221410463577, 42.31191128315352], [-71.12147102475608, 42.309761870580324], [-71.12027599775395, 42.308321954164285], [-71.11979591910809, 42.306497264540624], [-71.11949591590626, 42.30359674525296], [-71.11419592404697, 42.30159785719369], [-71.11489608489377, 42.30119788049409], [-71.11439596765148, 42.30129805399635], [-71.11439697207523, 42.300199125531535], [-71.11419592829016, 42.30019789245998], [-71.11508507676528, 42.29885098414893], [-71.11526393152943, 42.29888478622898], [-71.1151360375235, 42.2991021132596], [-71.11959705371612, 42.29609928359343], [-71.12129602616328, 42.29519784456971], [-71.12299608800292, 42.29359808450551], [-71.12319595514597, 42.293697773179936], [-71.12329592126919, 42.29399801785774], [-71.1217959182076, 42.295698032111616], [-71.12932501093843, 42.296425928885164], [-71.12989794097032, 42.297441170317924], [-71.12979591624769, 42.29829781795277], [-71.12789594117359, 42.300196937090654], [-71.13109595589178, 42.30129717483089], [-71.13399596309154, 42.301797111433196], [-71.13669691666728, 42.301196856907566], [-71.1400970474659, 42.30209716847612], [-71.13509701473403, 42.30819722460838], [-71.13269597471076, 42.311897112331536], [-71.1307959476327, 42.31449681296942], [-71.12709595021641, 42.318496808045296], [-71.12459600398762, 42.321596937395064], [-71.12409603440366, 42.32199705974366], [-71.12153808377573, 42.32333685646938], [-71.11939603639946, 42.322796926184104], [-71.12139596825372, 42.32389682161926], [-71.12249593340768, 42.324196978378716], [-71.12479605560385, 42.32599721968509], [-71.12689601727664, 42.326496965846594], [-71.12669606923718, 42.325396833146236], [-71.12689590248141, 42.32249684292696], [-71.12639607165515, 42.32229715460513], [-71.12839607934293, 42.321496749402414], [-71.13109699107179, 42.323496792313], [-71.1318970115334, 42.32149676124693], [-71.13619708913147, 42.32209676879967], [-71.13709690696916, 42.32229711982841], [-71.1371969552724, 42.323197162188215], [-71.13820603721418, 42.324716211913604], [-71.1407179364745, 42.325960868443104], [-71.1421969559906, 42.32629690664522], [-71.1426329391983, 42.32623692599084], [-71.14419705641737, 42.32519688032034], [-71.14759692595335, 42.326497023325615], [-71.14799692557972, 42.3264971235795], [-71.14889695513156, 42.327396792509575], [-71.15309696246844, 42.32729700792281], [-71.15419699275913, 42.32699703203813], [-71.15439701320881, 42.32789680027647], [-71.15439708404692, 42.329097006555685], [-71.15329706450434, 42.329596732079175], [-71.1502970559585, 42.329197143160265], [-71.14879690710212, 42.33189682083006], [-71.14729701553807, 42.33299676924043], [-71.14539698144551, 42.33369709456684], [-71.14659797324008, 42.334697865212526], [-71.14449691068067, 42.33529683288982], [-71.1446969631939, 42.335797112792946], [-71.14579695439578, 42.33699676836921], [-71.1399969689868, 42.3381969540631], [-71.13879695323207, 42.3382967235867], [-71.13739706150994, 42.33869688955844], [-71.1359970419008, 42.3378968335431], [-71.13629700532036, 42.337797058337294], [-71.13699709521454, 42.33639706781795], [-71.13719707438686, 42.33759677859205], [-71.13859692923587, 42.337296772272694], [-71.1354969373365, 42.33409714546337], [-71.13649705859594, 42.333996778641264], [-71.13899702405152, 42.33579679411969], [-71.14159702517772, 42.336396870375005], [-71.14179702876567, 42.335596801957024], [-71.14329708395707, 42.334396759547474], [-71.14209709840424, 42.33329692524759], [-71.14009707715016, 42.332596898463265], [-71.13489698863766, 42.330297134835064], [-71.13339705310166, 42.32989679062453], [-71.13321792414372, 42.329497839763356], [-71.13279703512465, 42.329796968695575], [-71.13219699835597, 42.329796742934874], [-71.13166202980354, 42.32894425342249], [-71.12629607231607, 42.32979684210128], [-71.12539604499646, 42.33009719430445], [-71.12349599231418, 42.33029692881117], [-71.1212769152114, 42.330963175466415], [-71.11789600000517, 42.331596822032346], [-71.11859594799026, 42.32939680454741], [-71.11479599590699, 42.32839718691158], [-71.11339604760735, 42.33089698651312], [-71.11329594396541, 42.331796942968104], [-71.11279592331161, 42.333297065528605], [-71.11089598477963, 42.33499726338593], [-71.11079607607921, 42.33539699718399], [-71.11099605258195, 42.335497264377466]]]}}