{"type": "Feature", "properties": {"district_name": "37th Middlesex District", "chamber": "house", "vintage": "2012-2020"}, "geometry": {"type": "Polygon", "coordinates": [[[-71.776982, 42.636694999999996], [-71.775322, 42.63666300000001], [-71.775742, 42.64421600000001], [-71.664614, 42.611588999999995], [-71.66046399999999, 42.635134999999984], [-71.659258, 42.634114999999994], [-71.658953, 42.63406900000001], [-71.65829699999999, 42.634435], [-71.657992, 42.634435], [-71.657748, 42.633526999999994], [-71.65645099999999, 42.632589], [-71.65413099999999, 42.63127600000001], [-71.653094, 42.63050599999999], [-71.65170499999999, 42.630238999999996], [-71.651049, 42.629834], [-71.65048399999999, 42.629049000000016], [-71.65019500000001, 42.628949], [-71.649935, 42.628225], [-71.64931, 42.627514999999995], [-71.649294, 42.627309], [-71.64994999999999, 42.627004000000014], [-71.64996599999999, 42.62675999999999], [-71.64905, 42.626287], [-71.64900399999999, 42.62578299999999], [-71.64721399999999, 42.62478899999999], [-71.646714, 42.62508899999998], [-71.646868, 42.625387], [-71.64670000000001, 42.62569900000001], [-71.647143, 42.62614899999999], [-71.646914, 42.626489], [-71.645586, 42.62569900000001], [-71.645586, 42.62523400000001], [-71.645968, 42.62473800000001], [-71.645815, 42.62431099999998], [-71.645663, 42.624104999999986], [-71.644671, 42.62445800000001], [-71.644515, 42.62430699999999], [-71.6447, 42.623667000000005], [-71.64430999999999, 42.62339199999999], [-71.64438299999999, 42.623214999999995], [-71.64525100000002, 42.6237], [-71.64552499999999, 42.623318999999974], [-71.645144, 42.622793], [-71.644045, 42.622655], [-71.643847, 42.622297], [-71.64479299999999, 42.621708999999996], [-71.644823, 42.621525999999996], [-71.644076, 42.62146499999999], [-71.643711, 42.62107399999999], [-71.643389, 42.620298], [-71.643389, 42.619665000000005], [-71.643832, 42.619176], [-71.643847, 42.61880999999999], [-71.644137, 42.618497], [-71.644114, 42.617289], [-71.642991, 42.61721500000001], [-71.643464, 42.61662], [-71.64325099999999, 42.615765999999994], [-71.642259, 42.61473600000001], [-71.640613, 42.614089], [-71.63986299999999, 42.61414799999999], [-71.638566, 42.61341600000001], [-71.637716, 42.613411], [-71.636968, 42.612902999999996], [-71.635713, 42.61240900000002], [-71.63405, 42.61261499999999], [-71.633539, 42.612390000000005], [-71.634233, 42.611171999999996], [-71.635285, 42.61065299999999], [-71.633804, 42.608593000000006], [-71.632933, 42.608324999999994], [-71.63256799999999, 42.60780699999999], [-71.631956, 42.60756200000001], [-71.630736, 42.60760700000001], [-71.63027699999999, 42.60735599999999], [-71.630033, 42.60705099999999], [-71.63027699999999, 42.606463000000005], [-71.62989499999999, 42.60581300000001], [-71.629758, 42.60503599999999], [-71.630291, 42.60374500000001], [-71.62910000000001, 42.602394000000004], [-71.62884, 42.602348], [-71.628001, 42.60323299999998], [-71.62768, 42.603308999999996], [-71.627346, 42.602395], [-71.628344, 42.600460999999996], [-71.627855, 42.600203000000015], [-71.626314, 42.598647], [-71.62613, 42.59625099999998], [-71.626863, 42.594542], [-71.626802, 42.593901], [-71.62639, 42.593602999999995], [-71.62498599999999, 42.59362599999999], [-71.624513, 42.59319000000002], [-71.624513, 42.593305], [-71.624093, 42.59320100000001], [-71.623493, 42.592698000000006], [-71.62346099999999, 42.59164699999999], [-71.62377, 42.59116600000002], [-71.62377, 42.59066300000002], [-71.620487, 42.58766999999999], [-71.620054, 42.58744199999999], [-71.61909399999999, 42.587351000000005], [-71.61872199999999, 42.586962], [-71.618691, 42.586734], [-71.61921699999999, 42.586116000000004], [-71.61921699999999, 42.58579599999999], [-71.618195, 42.58582], [-71.61729799999999, 42.58616299999999], [-71.616524, 42.58598099999999], [-71.615194, 42.586209999999994], [-71.614885, 42.58609600000001], [-71.614265, 42.585433], [-71.614234, 42.584976000000005], [-71.614605, 42.58445], [-71.61451199999999, 42.58408399999999], [-71.61327299999999, 42.583102000000004], [-71.613334, 42.582187000000005], [-71.613118, 42.581981000000006], [-71.612282, 42.58193599999999], [-71.611262, 42.58232499999999], [-71.61021, 42.58237099999999], [-71.610024, 42.582280000000004], [-71.609993, 42.58198300000001], [-71.61079699999999, 42.581571], [-71.61092099999999, 42.58131899999999], [-71.61058, 42.58109099999999], [-71.608972, 42.581182999999996], [-71.609589, 42.579971], [-71.60948499999999, 42.578046], [-71.609877, 42.57745500000001], [-71.610399, 42.577177999999996], [-71.61211899999999, 42.576947000000004], [-71.61282299999999, 42.57670099999999], [-71.613374, 42.576083], [-71.613766, 42.57531499999999], [-71.615864, 42.57489300000002], [-71.615988, 42.574617999999994], [-71.615833, 42.57404699999999], [-71.614471, 42.573201999999995], [-71.613882, 42.572128], [-71.612614, 42.57176200000001], [-71.611995, 42.571351], [-71.611747, 42.570825000000006], [-71.611459, 42.56903399999999], [-71.611075, 42.568391999999996], [-71.609836, 42.567761999999995], [-71.607685, 42.567282], [-71.60654099999999, 42.566529], [-71.606548, 42.56614499999999], [-71.60815099999999, 42.565354999999975], [-71.608532, 42.56490299999999], [-71.60879299999999, 42.56410899999999], [-71.61014899999999, 42.56302399999999], [-71.611492, 42.56147500000001], [-71.61223199999999, 42.55973699999999], [-71.61241700000001, 42.558274], [-71.612169, 42.55726799999999], [-71.61111199999999, 42.555424000000016], [-71.61083599999999, 42.55425099999999], [-71.61095999999999, 42.553931], [-71.61133099999999, 42.55377], [-71.61253599999999, 42.55356399999999], [-71.615876, 42.553608000000004], [-71.62003899999999, 42.55245], [-71.607852, 42.54537999999999], [-71.60229, 42.54520399999999], [-71.59464299999999, 42.54336999999998], [-71.593189, 42.54383400000001], [-71.59249299999999, 42.546208000000014], [-71.589773, 42.55763299999999], [-71.589163, 42.558483], [-71.588314, 42.55884999999999], [-71.586574, 42.559019000000006], [-71.585669, 42.558945], [-71.578028, 42.55703499999999], [-71.57762, 42.557617], [-71.57278099999999, 42.556417], [-71.57065, 42.556250999999996], [-71.563175, 42.557707000000015], [-71.558482, 42.55928300000001], [-71.559703, 42.561333000000005], [-71.559001, 42.56369099999999], [-71.55942600000002, 42.565341], [-71.559968, 42.566208999999986], [-71.559545, 42.57360799999999], [-71.56003400000002, 42.57354399999999], [-71.560001, 42.573334999999986], [-71.560253, 42.573065], [-71.560182, 42.57264099999999], [-71.561554, 42.572754999999994], [-71.56157499999999, 42.57332100000001], [-71.561905, 42.574281999999975], [-71.562975, 42.57466], [-71.562991, 42.574935], [-71.563366, 42.575133], [-71.563109, 42.575855999999995], [-71.56328599999999, 42.57626900000002], [-71.56466499999999, 42.577152000000005], [-71.56738299999999, 42.577325], [-71.568506, 42.578094000000014], [-71.511459, 42.569386], [-71.516325, 42.566627000000004], [-71.520892, 42.56431099999999], [-71.522279, 42.56152499999999], [-71.523383, 42.559893], [-71.524134, 42.55979500000004], [-71.524474, 42.559580000000025], [-71.524552, 42.558713999999995], [-71.525139, 42.558547999999995], [-71.525728, 42.557733999999975], [-71.52644699999999, 42.55755600000001], [-71.526354, 42.557160999999994], [-71.526463, 42.556975], [-71.527321, 42.55690599999999], [-71.528635, 42.555819000000014], [-71.529618, 42.555689], [-71.52985699999999, 42.555558], [-71.529958, 42.5552], [-71.53130399999999, 42.554098], [-71.532431, 42.55379699999998], [-71.533318, 42.55290699999999], [-71.533031, 42.55272999999999], [-71.542323, 42.550333999999985], [-71.538872, 42.54290500000002], [-71.531387, 42.52028500000001], [-71.517681, 42.51557799999999], [-71.51482, 42.511523999999994], [-71.51144, 42.508857000000006], [-71.50908400000002, 42.510043], [-71.50275800000001, 42.506922], [-71.500053, 42.509266000000004], [-71.473528, 42.50017700000001], [-71.47381299999999, 42.49976399999999], [-71.464653, 42.494672], [-71.461877, 42.492773], [-71.463048, 42.491634000000005], [-71.46278699999999, 42.49093200000001], [-71.46298999999999, 42.49029799999999], [-71.46238199999999, 42.48970300000001], [-71.462199, 42.48917500000001], [-71.462154, 42.48884399999999], [-71.462547, 42.488698999999976], [-71.46255200000002, 42.488557], [-71.462355, 42.48827099999999], [-71.46176, 42.487956], [-71.467674, 42.48163499999999], [-71.466613, 42.48159400000001], [-71.464055, 42.482509], [-71.463267, 42.482578000000004], [-71.46198900000002, 42.482318], [-71.459125, 42.48134800000001], [-71.45685399999999, 42.481073999999985], [-71.452646, 42.480937999999995], [-71.450822, 42.48128], [-71.447381, 42.476521999999996], [-71.446026, 42.47496499999999], [-71.444757, 42.474281000000005], [-71.438524, 42.472549], [-71.42551999999999, 42.47122699999999], [-71.420717, 42.470579], [-71.410917, 42.469958999999996], [-71.408455, 42.46955200000001], [-71.43038899999999, 42.436937], [-71.49854599999999, 42.463775], [-71.543297, 42.466450999999985], [-71.546184, 42.456911999999996], [-71.546638, 42.453477000000014], [-71.54796, 42.450587000000006], [-71.54890300000001, 42.44730799999999], [-71.635335, 42.476744999999994], [-71.635397, 42.477289000000006], [-71.63362599999999, 42.47784699999999], [-71.633383, 42.478288000000006], [-71.633425, 42.478898000000015], [-71.634134, 42.480800000000016], [-71.633724, 42.481241999999995], [-71.633436, 42.48203699999999], [-71.633273, 42.483418999999984], [-71.632942, 42.483541999999986], [-71.632239, 42.48320400000001], [-71.631908, 42.48326600000001], [-71.631896, 42.48366399999999], [-71.63259599999999, 42.48493799999999], [-71.633951, 42.485163], [-71.634301, 42.48540500000001], [-71.634282, 42.485648], [-71.633996, 42.486075], [-71.63352499999999, 42.48624300000001], [-71.63311399999999, 42.486138000000004], [-71.63229, 42.485485999999995], [-71.63186, 42.485487000000006], [-71.631109, 42.48744999999998], [-71.62926800000001, 42.48880799999999], [-71.629173, 42.49029799999999], [-71.627974, 42.492990999999996], [-71.627944, 42.49354400000002], [-71.628165, 42.49445000000001], [-71.62796800000001, 42.494949], [-71.62702, 42.495767], [-71.626282, 42.497828000000005], [-71.62617999999999, 42.498560000000005], [-71.62617999999999, 42.499231], [-71.626862, 42.500372999999996], [-71.62912, 42.501296], [-71.631546, 42.502531999999995], [-71.632508, 42.502395], [-71.633408, 42.502632], [-71.633545, 42.502905999999996], [-71.633515, 42.50355499999999], [-71.63394199999999, 42.503868], [-71.634018, 42.50416500000001], [-71.63394199999999, 42.504653000000005], [-71.632508, 42.506918999999996], [-71.631501, 42.507812], [-71.631317, 42.508323000000004], [-71.631745, 42.50949800000001], [-71.631455, 42.509643000000004], [-71.631028, 42.509482999999996], [-71.63009699999999, 42.50993299999999], [-71.629914, 42.510191999999996], [-71.629914, 42.51094], [-71.629532, 42.51123799999999], [-71.62924199999999, 42.511138], [-71.628632, 42.51045200000001], [-71.628159, 42.51052800000001], [-71.628022, 42.51072599999999], [-71.628022, 42.51153499999999], [-71.627472, 42.512657], [-71.628022, 42.513244], [-71.629227, 42.513381], [-71.629685, 42.51377800000001], [-71.629303, 42.51464], [-71.629303, 42.515335], [-71.629578, 42.51578500000001], [-71.63002, 42.515922], [-71.630982, 42.515762], [-71.631913, 42.51589899999999], [-71.63230899999999, 42.516296], [-71.632187, 42.516883], [-71.630875, 42.51714299999999], [-71.63057, 42.517356], [-71.63035599999999, 42.518104], [-71.630478, 42.518836], [-71.631012, 42.51911099999999], [-71.63168399999999, 42.51889], [-71.631974, 42.51898900000001], [-71.63279399999999, 42.52006499999999], [-71.633264, 42.521195], [-71.634117, 42.52182399999998], [-71.634326, 42.522244], [-71.63474, 42.522548], [-71.636032, 42.523078], [-71.635812, 42.52409099999999], [-71.675714, 42.52998999999999], [-71.67898, 42.53035099999999], [-71.711231, 42.535354000000005], [-71.720349, 42.552195000000005], [-71.74108300000002, 42.570263000000004], [-71.74506199999999, 42.573901000000006], [-71.747554, 42.57245500000001], [-71.747767, 42.573065], [-71.748339, 42.576219], [-71.74622, 42.577671], [-71.74528699999999, 42.577883], [-71.744395, 42.577868], [-71.742751, 42.577358999999994], [-71.741187, 42.57658300000001], [-71.74044599999999, 42.57657100000001], [-71.739729, 42.577045000000005], [-71.73912, 42.578144], [-71.738415, 42.578587000000006], [-71.737901, 42.57936800000001], [-71.73777799999999, 42.579719], [-71.73797499999999, 42.580592], [-71.737871, 42.580824], [-71.735237, 42.581748000000005], [-71.73329, 42.582212], [-71.732841, 42.58218300000001], [-71.732412, 42.581454999999984], [-71.731966, 42.58156800000001], [-71.731607, 42.582233999999985], [-71.73077599999999, 42.582953999999994], [-71.73011799999999, 42.58419100000002], [-71.729867, 42.586595], [-71.729621, 42.58710699999998], [-71.728791, 42.58788000000001], [-71.72640799999999, 42.589338], [-71.72387599999999, 42.59322199999999], [-71.723905, 42.594183], [-71.72460099999999, 42.59506799999998], [-71.72514199999999, 42.59474], [-71.726107, 42.59469500000001], [-71.729879, 42.595461999999976], [-71.73488499999999, 42.598229999999994], [-71.73592, 42.59838899999999], [-71.739986, 42.59728200000001], [-71.742024, 42.597014999999985], [-71.74427399999999, 42.59587200000001], [-71.74496599999999, 42.595668], [-71.74813, 42.595152999999996], [-71.751926, 42.595262999999996], [-71.754779, 42.594608], [-71.756158, 42.593962000000005], [-71.759419, 42.59181], [-71.76592699999999, 42.589592999999994], [-71.768992, 42.587236999999995], [-71.770606, 42.586689], [-71.77197, 42.58597100000002], [-71.770887, 42.603662], [-71.773451, 42.61456799999999], [-71.773996, 42.62037599999998], [-71.774138, 42.623991000000004], [-71.77449000000001, 42.625555000000006], [-71.775317, 42.63658799999999], [-71.777017, 42.63658799999999], [-71.776982, 42.636694999999996]]]}}