{"type": "Feature", "properties": {"district_name": "9th Suffolk District", "chamber": "house", "vintage": "2022-present"}, "geometry": {"type": "Polygon", "coordinates": [[[-71.08849400000001, 42.334896], [-71.081969, 42.338415999999995], [-71.084681, 42.340293], [-71.083151, 42.34162199999999], [-71.0849, 42.34273300000001], [-71.078699, 42.347697], [-71.07891900000001, 42.34769299999999], [-71.078718, 42.347834000000006], [-71.079508, 42.349508], [-71.073067, 42.351243], [-71.071815, 42.34867700000001], [-71.075253, 42.345884], [-71.074488, 42.344297000000005], [-71.075936, 42.34391500000001], [-71.075723, 42.343475], [-71.074586, 42.34240799999999], [-71.070684, 42.344464], [-71.069855, 42.345266], [-71.06593, 42.34393599999999], [-71.062529, 42.343009], [-71.061254, 42.345938000000004], [-71.060555, 42.345476000000005], [-71.060434, 42.34555], [-71.060485, 42.345423999999994], [-71.05964, 42.344860000000004], [-71.058757, 42.345554], [-71.058143, 42.34564699999999], [-71.059394, 42.343759000000006], [-71.059952, 42.342320000000015], [-71.060001, 42.340054999999985], [-71.059697, 42.336801], [-71.060042, 42.33656400000002], [-71.060584, 42.335446], [-71.063553, 42.330791000000005], [-71.059288, 42.329972999999995], [-71.058951, 42.328795], [-71.058124, 42.327514], [-71.057017, 42.329511], [-71.056915, 42.32803499999998], [-71.056173, 42.32801099999999], [-71.055997, 42.327774999999995], [-71.055984, 42.32684999999999], [-71.056868, 42.32686700000001], [-71.05685, 42.326288999999996], [-71.053787, 42.323994000000006], [-71.052904, 42.32286999999999], [-71.052456, 42.32146600000002], [-71.054977, 42.32131999999999], [-71.056769, 42.32072200000001], [-71.056764, 42.31985199999999], [-71.058344, 42.319393999999996], [-71.059217, 42.31932499999999], [-71.058717, 42.31873799999999], [-71.058834, 42.3186], [-71.059596, 42.31886899999999], [-71.059881, 42.31797200000001], [-71.061674, 42.31838], [-71.060846, 42.319911000000005], [-71.061481, 42.32050000000001], [-71.061865, 42.32047699999999], [-71.063154, 42.320978000000004], [-71.065756, 42.32137399999999], [-71.069136, 42.32505100000001], [-71.071479, 42.326687000000014], [-71.073511, 42.325539000000006], [-71.074903, 42.325206999999985], [-71.075076, 42.3253], [-71.075811, 42.324146], [-71.074641, 42.323237999999996], [-71.076373, 42.321439], [-71.075399, 42.32124799999999], [-71.075522, 42.32057299999999], [-71.07774600000002, 42.320431], [-71.077146, 42.322196], [-71.076664, 42.32288900000001], [-71.0796, 42.324161000000004], [-71.078654, 42.32486699999999], [-71.080318, 42.32599], [-71.080891, 42.328497000000006], [-71.083469, 42.328708000000006], [-71.082986, 42.330831], [-71.081738, 42.331942], [-71.080943, 42.33293099999999], [-71.083946, 42.33455], [-71.085345, 42.335071], [-71.086174, 42.33428900000002], [-71.086991, 42.334602999999994], [-71.087462, 42.33412600000001], [-71.088253, 42.334582], [-71.08849400000001, 42.334896]]]}}