{"type": "Feature", "properties": {"district_name": "12th Essex District", "chamber": "house", "vintage": "2012-2020"}, "geometry": {"type": "Polygon", "coordinates": [[[-71.001819, 42.54921900000001], [-71.001049, 42.54943000000001], [-70.999845, 42.550404], [-70.999078, 42.550324], [-70.998768, 42.55202000000001], [-70.99717, 42.55188299999998], [-70.992274, 42.552122], [-70.99118399999999, 42.55266799999998], [-70.990766, 42.552452], [-70.98998499999999, 42.552366], [-70.988231, 42.553091], [-70.98792399999999, 42.55343499999998], [-70.986871, 42.552751999999984], [-70.986302, 42.553183999999995], [-70.984945, 42.551951], [-70.985776, 42.55069299999999], [-70.985777, 42.550036000000006], [-70.985596, 42.549609000000004], [-70.985115, 42.54896199999999], [-70.98390599999999, 42.548710000000014], [-70.98319099999999, 42.548301], [-70.981421, 42.545851000000006], [-70.979118, 42.546709], [-70.978797, 42.54706600000001], [-70.978827, 42.54794499999999], [-70.978642, 42.548430999999994], [-70.977553, 42.54930100000001], [-70.977047, 42.549521000000006], [-70.977854, 42.550593999999975], [-70.97679, 42.551367000000006], [-70.971734, 42.55402100000001], [-70.942166, 42.54694200000001], [-70.94118399999999, 42.546445], [-70.94078999999999, 42.54599300000001], [-70.94017099999999, 42.54604399999996], [-70.939669, 42.546479999999995], [-70.93921499999999, 42.546350999999994], [-70.938739, 42.546527], [-70.937938, 42.547209999999986], [-70.937428, 42.54738700000001], [-70.936763, 42.547101], [-70.935752, 42.547048999999994], [-70.93487499999999, 42.54666200000001], [-70.93204, 42.545865], [-70.930965, 42.54577300000002], [-70.92873399999999, 42.54497700000001], [-70.928675, 42.545137000000004], [-70.92845, 42.54515199999998], [-70.92808699999999, 42.54587399999999], [-70.926587, 42.54534599999998], [-70.923996, 42.54386900000001], [-70.91349, 42.54149400000001], [-70.913457, 42.53729899999999], [-70.913165, 42.532532], [-70.912826, 42.532393000000006], [-70.913142, 42.53151700000003], [-70.912707, 42.528057], [-70.91554, 42.528822000000005], [-70.91700399999999, 42.527090000000015], [-70.916482, 42.52685499999999], [-70.918314, 42.524972999999996], [-70.918126, 42.52484499999999], [-70.917986, 42.524235999999995], [-70.917476, 42.524375], [-70.91710200000001, 42.524271000000006], [-70.91772999999999, 42.52263100000001], [-70.918857, 42.52287899999999], [-70.91978499999999, 42.520586], [-70.949945, 42.494753], [-70.95714, 42.496528000000005], [-70.987054, 42.511844], [-70.99937700000001, 42.519385000000014], [-70.997097, 42.522317999999984], [-70.99685199999999, 42.52293899999999], [-70.99799399999999, 42.52448799999999], [-70.998746, 42.52591299999999], [-70.999044, 42.530032999999996], [-71.001683, 42.536910000000006], [-70.995295, 42.536753999999995], [-70.995764, 42.53756900000002], [-70.996027, 42.537725000000016], [-70.995449, 42.53840099999999], [-70.994765, 42.54033300000002], [-70.995251, 42.540411], [-70.99506199999999, 42.541360999999995], [-70.995121, 42.542623000000006], [-70.99479199999999, 42.543797000000005], [-70.996351, 42.544017], [-70.997793, 42.544463999999984], [-70.99930599999999, 42.545343], [-71.000562, 42.54662400000001], [-71.001819, 42.54921900000001]]]}}