{"type": "Feature", "properties": {"district_name": "2nd Franklin District", "chamber": "house", "vintage": "2022-present"}, "geometry": {"type": "Polygon", "coordinates": [[[-72.642501, 42.607004], [-72.63304, 42.645351], [-72.543664, 42.65594300000001], [-72.543789, 42.655521], [-72.544161, 42.655254000000006], [-72.543829, 42.65529299999998], [-72.540785, 42.655661], [-72.540527, 42.656327000000005], [-72.540215, 42.656369000000005], [-72.489502, 42.66238899999999], [-72.516736, 42.728528000000004], [-72.457389, 42.72690299999999], [-72.41434300000002, 42.725377], [-72.345784, 42.72336300000001], [-72.302737, 42.722272000000004], [-72.250963, 42.720685], [-72.124555, 42.71756499999999], [-72.077673, 42.71620000000002], [-72.070895, 42.71323000000001], [-72.069066, 42.712089000000006], [-72.068114, 42.71130899999999], [-72.049269, 42.69017900000001], [-72.044991, 42.68565499999999], [-72.044215, 42.683263000000004], [-72.044855, 42.68245700000001], [-72.045469, 42.68270599999999], [-72.047362, 42.680216], [-72.04993, 42.681621], [-72.052367, 42.681741999999986], [-72.055127, 42.680677000000024], [-72.056999, 42.67918999999999], [-72.05779100000001, 42.678952], [-72.060614, 42.67861999999999], [-72.061553, 42.677918999999996], [-72.062847, 42.67752500000002], [-72.064179, 42.67654600000001], [-72.065046, 42.676446999999996], [-72.066463, 42.676722], [-72.067137, 42.676671999999996], [-72.06765, 42.676169], [-72.06735, 42.67570500000001], [-72.067371, 42.675387], [-72.067806, 42.67549600000001], [-72.068042, 42.67536599999998], [-72.073335, 42.671732], [-72.077057, 42.66992300000001], [-72.07827, 42.66889599999999], [-72.07901, 42.66788799999999], [-72.079291, 42.667136], [-72.079358, 42.6662], [-72.078019, 42.65925099999999], [-72.077962, 42.65783400000001], [-72.078109, 42.65683599999999], [-72.081078, 42.647359], [-72.081194, 42.64577800000002], [-72.080913, 42.639083000000014], [-72.080548, 42.63729600000002], [-72.080084, 42.636046], [-72.074498, 42.624247999999994], [-72.075749, 42.625235], [-72.116631, 42.62660699999999], [-72.138952, 42.623946], [-72.138666, 42.62385900000001], [-72.138806, 42.62363100000001], [-72.13817, 42.62285500000001], [-72.136987, 42.622586], [-72.137153, 42.621928], [-72.136894, 42.62159699999999], [-72.136507, 42.621446], [-72.136741, 42.621054999999984], [-72.136135, 42.621141000000016], [-72.136234, 42.620784], [-72.135954, 42.62080000000002], [-72.136036, 42.62058500000002], [-72.13564, 42.620453], [-72.13579, 42.620070999999996], [-72.136178, 42.61976400000001], [-72.136228, 42.61915599999999], [-72.135838, 42.619006000000006], [-72.13548, 42.61857100000001], [-72.134635, 42.61844899999999], [-72.134709, 42.618002], [-72.134263, 42.61791200000001], [-72.134452, 42.61717600000001], [-72.134238, 42.61722600000001], [-72.134001, 42.61678400000001], [-72.13362, 42.616789999999995], [-72.133201, 42.616488], [-72.132599, 42.616907000000005], [-72.132461, 42.61662900000001], [-72.132085, 42.616541], [-72.13218, 42.615975], [-72.131857, 42.615881000000016], [-72.131474, 42.61544], [-72.131936, 42.61504699999998], [-72.131413, 42.615006], [-72.131836, 42.61475600000001], [-72.13148, 42.61453900000001], [-72.130812, 42.61466], [-72.130851, 42.614457000000016], [-72.130612, 42.614368], [-72.130429, 42.613911], [-72.130024, 42.613755999999995], [-72.130113, 42.61359399999998], [-72.129651, 42.61329899999999], [-72.129742, 42.612842], [-72.128699, 42.61205199999997], [-72.127812, 42.61181900000001], [-72.127266, 42.611932999999986], [-72.126421, 42.611597], [-72.126118, 42.611798999999976], [-72.125221, 42.611704999999986], [-72.124821, 42.611346000000005], [-72.124889, 42.610897], [-72.124646, 42.61073900000002], [-72.124787, 42.610079999999996], [-72.121595, 42.57844299999999], [-72.126935, 42.57528800000001], [-72.095391, 42.53550599999996], [-72.09066400000002, 42.523979], [-72.090636, 42.523799], [-72.091157, 42.52338], [-72.09155, 42.52262399999999], [-72.091604, 42.52223699999999], [-72.091323, 42.52189700000001], [-72.092177, 42.52134100000001], [-72.092147, 42.52120000000001], [-72.091752, 42.52123200000002], [-72.09162200000002, 42.52100799999999], [-72.090835, 42.520650999999994], [-72.091253, 42.520072000000006], [-72.091921, 42.51970200000001], [-72.091915, 42.518651], [-72.090965, 42.51808399999998], [-72.091291, 42.51752700000001], [-72.091157, 42.51701199999999], [-72.090714, 42.51691499999999], [-72.090391, 42.51648899999999], [-72.088572, 42.51573200000001], [-72.08841400000001, 42.51519900000002], [-72.087487, 42.51427699999999], [-72.086692, 42.512907], [-72.086524, 42.51273800000001], [-72.085909, 42.512684], [-72.085289, 42.51205600000002], [-72.084956, 42.511055], [-72.084472, 42.510479000000004], [-72.084548, 42.509518], [-72.084102, 42.509278], [-72.083766, 42.50856300000001], [-72.083755, 42.50769799999998], [-72.083987, 42.50660899999999], [-72.084865, 42.50547799999999], [-72.085006, 42.504937], [-72.084378, 42.504503], [-72.083584, 42.50440300000001], [-72.083146, 42.503757], [-72.082372, 42.501569], [-72.082659, 42.500295000000015], [-72.080339, 42.49925400000001], [-72.080477, 42.498978999999984], [-72.081248, 42.499038], [-72.081903, 42.49885199999997], [-72.081907, 42.49861], [-72.081515, 42.49818799999999], [-72.08165, 42.496713], [-72.082023, 42.49601], [-72.082039, 42.49562300000001], [-72.100941, 42.48368200000001], [-72.185642, 42.550360000000005], [-72.196385, 42.54892], [-72.244868, 42.51343899999999], [-72.269111, 42.533425000000015], [-72.271352, 42.547227], [-72.35679, 42.548702], [-72.353785, 42.59808600000001], [-72.355236, 42.598433], [-72.357084, 42.59884400000002], [-72.359053, 42.59871799999999], [-72.360237, 42.59762], [-72.360431, 42.597348], [-72.360448, 42.596971], [-72.361626, 42.595604999999985], [-72.362301, 42.595222], [-72.362733, 42.59519300000001], [-72.36391, 42.595586000000004], [-72.369702, 42.598369999999996], [-72.37396500000001, 42.59942800000001], [-72.376203, 42.599022000000005], [-72.377701, 42.598101999999976], [-72.378598, 42.597828], [-72.381644, 42.59810499999998], [-72.382748, 42.597906], [-72.383188, 42.598063], [-72.38396, 42.59804300000002], [-72.38489, 42.597784], [-72.386484, 42.59669199999998], [-72.387507, 42.596216000000005], [-72.388854, 42.595798999999985], [-72.389335, 42.595854999999986], [-72.392207, 42.59756899999999], [-72.39333200000002, 42.597997], [-72.395274, 42.59819000000001], [-72.397685, 42.598048000000006], [-72.402347, 42.598135000000006], [-72.409886, 42.604037], [-72.413486, 42.605835], [-72.414682, 42.606595], [-72.415496, 42.60738500000001], [-72.416232, 42.60774699999999], [-72.419596, 42.607772000000004], [-72.42228, 42.607524999999995], [-72.426449, 42.607651], [-72.427825, 42.60695700000001], [-72.429317, 42.605621000000006], [-72.430228, 42.60449200000001], [-72.431412, 42.602170999999984], [-72.432232, 42.60104299999999], [-72.434011, 42.599759], [-72.436508, 42.59887600000001], [-72.437667, 42.598235], [-72.437857, 42.59761199999999], [-72.437044, 42.595050999999984], [-72.437157, 42.59425699999999], [-72.437428, 42.593951000000004], [-72.438309, 42.593621], [-72.439887, 42.59269700000001], [-72.441404, 42.592091999999994], [-72.443077, 42.589639999999996], [-72.443931, 42.58933800000002], [-72.445151, 42.589327999999995], [-72.445777, 42.589133], [-72.449555, 42.58608199999999], [-72.453585, 42.583466], [-72.454613, 42.583005999999976], [-72.45522, 42.582551999999986], [-72.456003, 42.58232199999999], [-72.457015, 42.58154900000001], [-72.45996200000002, 42.58052800000001], [-72.461121, 42.57929099999999], [-72.461225, 42.57836000000001], [-72.46151, 42.57811499999999], [-72.466791, 42.576464], [-72.470344, 42.57452299999999], [-72.472932, 42.573945], [-72.473554, 42.573955999999995], [-72.474748, 42.574207], [-72.475512, 42.57463400000001], [-72.476371, 42.575305], [-72.47724700000002, 42.57667600000001], [-72.479123, 42.57825800000002], [-72.480054, 42.57883199999999], [-72.481383, 42.579217], [-72.482962, 42.579138000000015], [-72.484335, 42.57846], [-72.487833, 42.578354000000004], [-72.490045, 42.578800000000015], [-72.492342, 42.580381999999986], [-72.493521, 42.58079200000001], [-72.494859, 42.580856], [-72.496327, 42.58031200000001], [-72.500941, 42.579480000000025], [-72.502248, 42.579613999999985], [-72.50351, 42.58036800000002], [-72.50371800000002, 42.580954], [-72.501513, 42.582666999999994], [-72.497928, 42.585944000000005], [-72.497664, 42.586416], [-72.497611, 42.587188], [-72.497849, 42.588048], [-72.498228, 42.58851999999999], [-72.498225, 42.588809000000005], [-72.497856, 42.58968800000001], [-72.49743700000002, 42.590298000000004], [-72.496424, 42.59114799999999], [-72.495059, 42.59275000000001], [-72.496116, 42.593474000000015], [-72.496423, 42.593875000000004], [-72.496152, 42.59514200000002], [-72.496156, 42.596298], [-72.496378, 42.59689600000001], [-72.497071, 42.59756900000001], [-72.498621, 42.596857000000014], [-72.500092, 42.59676700000001], [-72.502996, 42.59849], [-72.504223, 42.59960700000001], [-72.50496, 42.60073999999998], [-72.505506, 42.601952999999995], [-72.505534, 42.60262699999999], [-72.50579, 42.60331099999999], [-72.506745, 42.603769000000014], [-72.514366, 42.604415], [-72.520154, 42.60450599999999], [-72.522071, 42.604395000000004], [-72.523766, 42.603914999999986], [-72.528887, 42.600833999999985], [-72.531909, 42.59934600000002], [-72.539172, 42.596751], [-72.541098, 42.59639899999999], [-72.542205, 42.59646600000001], [-72.543059, 42.596636], [-72.54423, 42.597155000000015], [-72.545065, 42.59803200000001], [-72.545279, 42.598548], [-72.545456, 42.59993200000001], [-72.54543, 42.60353500000001], [-72.545781, 42.604763], [-72.54613900000001, 42.605366000000004], [-72.547496, 42.60645899999999], [-72.549739, 42.60771300000001], [-72.551928, 42.60980200000001], [-72.552682, 42.61085800000001], [-72.552686, 42.612195000000014], [-72.554792, 42.61221499999999], [-72.556177, 42.611872999999996], [-72.558437, 42.611149000000005], [-72.565963, 42.606711999999995], [-72.569506, 42.60403999999998], [-72.571574, 42.60220799999999], [-72.576461, 42.59688099999999], [-72.579183, 42.59552300000002], [-72.580911, 42.595234000000005], [-72.582198, 42.59441100000001], [-72.582787, 42.593578], [-72.583176, 42.592404], [-72.583289, 42.59093800000001], [-72.58317, 42.590297], [-72.582249, 42.58906300000001], [-72.580656, 42.587535], [-72.581602, 42.58742000000001], [-72.581862, 42.588161], [-72.583099, 42.587796999999995], [-72.582842, 42.58718], [-72.584622, 42.586684000000005], [-72.585542, 42.584925], [-72.586136, 42.581387000000014], [-72.58634300000001, 42.583298], [-72.586955, 42.584399999999995], [-72.58721100000001, 42.585505999999995], [-72.587175, 42.587780000000016], [-72.587356, 42.588686], [-72.588331, 42.59141499999999], [-72.587464, 42.595648], [-72.587083, 42.596737000000005], [-72.589464, 42.59719500000001], [-72.590597, 42.596208], [-72.595071, 42.59717300000001], [-72.6004, 42.59775300000001], [-72.600954, 42.59491000000001], [-72.604358, 42.595382], [-72.604515, 42.59700300000001], [-72.608875, 42.59666899999999], [-72.607915, 42.593633000000004], [-72.609807, 42.593564000000015], [-72.6112, 42.59388400000001], [-72.611051, 42.59276800000001], [-72.611194, 42.590346], [-72.615257, 42.59019500000001], [-72.61522, 42.590769000000016], [-72.615464, 42.590994], [-72.61914, 42.593656], [-72.62009200000001, 42.59401], [-72.620064, 42.59308699999999], [-72.626539, 42.59261300000001], [-72.627355, 42.589133999999994], [-72.630865, 42.58933699999999], [-72.632013, 42.592597999999995], [-72.632599, 42.59381599999999], [-72.635279, 42.597615000000005], [-72.637095, 42.60111400000001], [-72.63850500000001, 42.60279899999999], [-72.642501, 42.607004]]]}}