{"type": "Feature", "properties": {"district_name": "20th Middlesex District", "chamber": "house", "vintage": "2012-2020"}, "geometry": {"type": "Polygon", "coordinates": [[[-71.136742, 42.55346399999999], [-71.130524, 42.583209999999994], [-71.135441, 42.599166], [-71.13529, 42.599061], [-71.122618, 42.600079], [-71.07596099999999, 42.604092], [-71.05877199999999, 42.60899599999999], [-71.054576, 42.627652000000005], [-71.043345, 42.63252099999999], [-71.04301, 42.631524], [-71.041082, 42.629513], [-71.04042299999999, 42.628181999999995], [-71.04026499999999, 42.627421], [-71.04028, 42.625097000000004], [-71.039412, 42.62319399999999], [-71.03821099999999, 42.621780999999984], [-71.038099, 42.620433000000006], [-71.037864, 42.61982500000001], [-71.036701, 42.61862699999998], [-71.035584, 42.616716000000004], [-71.03378, 42.615549000000016], [-71.032872, 42.61445500000001], [-71.030649, 42.612826000000005], [-71.029558, 42.611715], [-71.02801199999999, 42.608720000000005], [-71.025993, 42.60741], [-71.02565299999999, 42.606747999999996], [-71.024993, 42.60329699999999], [-71.02242500000001, 42.60077599999998], [-71.022014, 42.599219999999995], [-71.018012, 42.596993], [-71.016042, 42.595406000000004], [-71.01543699999999, 42.594646], [-71.014477, 42.59259000000001], [-71.01171099999999, 42.58856199999998], [-71.009614, 42.586513], [-70.993363, 42.573873], [-70.993798, 42.573567999999995], [-70.99484199999999, 42.573628], [-70.99506, 42.57350799999999], [-70.994565, 42.572318], [-70.995775, 42.572109000000005], [-70.995784, 42.571884000000004], [-70.995269, 42.571554], [-70.995284, 42.571333], [-70.995673, 42.57128899999999], [-70.99611, 42.57093400000001], [-70.99638399999999, 42.570975999999995], [-70.996495, 42.571348], [-70.99680699999999, 42.571174000000006], [-70.99698099999999, 42.570163000000015], [-70.996191, 42.570061999999986], [-70.996121, 42.569916000000006], [-70.996552, 42.569780000000016], [-70.996816, 42.569355], [-70.99659199999999, 42.56886400000001], [-70.99719, 42.568969], [-70.997253, 42.56855300000001], [-70.9978, 42.56821399999999], [-70.997766, 42.568014], [-70.997355, 42.56771600000002], [-70.997402, 42.567477000000004], [-70.997997, 42.56698399999999], [-70.99881599999999, 42.566916], [-71.00012199999999, 42.56614299999999], [-71.00066199999999, 42.566066000000006], [-71.001265, 42.56546600000001], [-71.001992, 42.565386000000004], [-71.00233, 42.56376600000002], [-71.002578, 42.563351000000004], [-71.002876, 42.563184], [-71.00322299999999, 42.56405100000002], [-71.00331299999999, 42.56478999999998], [-71.00350999999999, 42.564944], [-71.00469799999999, 42.565121000000005], [-71.007105, 42.564574], [-71.008222, 42.563911000000004], [-71.008558, 42.563939999999995], [-71.009163, 42.564644], [-71.009866, 42.56471199999998], [-71.011164, 42.565441], [-71.012889, 42.56612200000002], [-71.01411, 42.566875], [-71.015154, 42.567747999999995], [-71.018982, 42.56796], [-71.020907, 42.56855599999998], [-71.02113899999999, 42.568871999999985], [-71.021169, 42.56959199999999], [-71.021626, 42.569849], [-71.02337299999999, 42.570233], [-71.023605, 42.570089], [-71.023923, 42.56938999999999], [-71.02434099999999, 42.56919800000001], [-71.02610400000002, 42.56947299999998], [-71.027241, 42.56943900000001], [-71.02933, 42.569796], [-71.02981, 42.565157], [-71.034847, 42.56550000000002], [-71.03155799999999, 42.551203], [-71.005288, 42.52299200000001], [-70.98691099999999, 42.511773999999996], [-70.98934, 42.511686000000005], [-70.992966, 42.512267], [-70.99143, 42.51110899999999], [-70.988239, 42.50930900000001], [-70.995308, 42.50557200000001], [-70.996886, 42.507012], [-71.00163599999999, 42.506989999999995], [-71.011592, 42.501684999999995], [-71.036096, 42.505195], [-71.035596, 42.50599500000001], [-71.035296, 42.506994999999996], [-71.035896, 42.507295000000006], [-71.036433, 42.509371], [-71.03719699999999, 42.510196], [-71.03679799999999, 42.511593999999995], [-71.037397, 42.512795999999994], [-71.039796, 42.514195], [-71.038596, 42.516195], [-71.040697, 42.51819599999999], [-71.041696, 42.519895], [-71.040199, 42.522197999999975], [-71.03861599999999, 42.52374199999999], [-71.038905, 42.52458199999998], [-71.040004, 42.525189], [-71.040983, 42.526261999999996], [-71.057662, 42.52417899999999], [-71.05814099999999, 42.52394599999999], [-71.062099, 42.52439499999999], [-71.06589799999999, 42.52439499999999], [-71.06679799999999, 42.52459499999999], [-71.06775999999999, 42.52536200000001], [-71.068354, 42.525389000000004], [-71.075257, 42.53112200000001], [-71.075298, 42.530894999999994], [-71.079865, 42.526709], [-71.07964299999999, 42.527685000000005], [-71.08014, 42.528132], [-71.0808, 42.52817100000001], [-71.082981, 42.532028999999994], [-71.084796, 42.53408700000001], [-71.085428, 42.535306], [-71.08647599999999, 42.53507400000002], [-71.087507, 42.535282999999986], [-71.08749499999999, 42.53550399999999], [-71.088596, 42.537244999999984], [-71.08953699999999, 42.53702799999999], [-71.091974, 42.537679000000004], [-71.092746, 42.536760000000015], [-71.094073, 42.537151], [-71.094836, 42.53623500000001], [-71.098157, 42.53386299999999], [-71.099366, 42.532666000000006], [-71.100163, 42.53113299999999], [-71.10240499999999, 42.527915], [-71.102016, 42.52657100000001], [-71.10217999999999, 42.52574899999999], [-71.1035, 42.525784000000016], [-71.106197, 42.527092999999994], [-71.110952, 42.526416000000005], [-71.112676, 42.525993000000014], [-71.11465199999999, 42.525244], [-71.115386, 42.52591599999998], [-71.12038299999999, 42.52389199999997], [-71.12132199999999, 42.525093999999996], [-71.122128, 42.524727], [-71.12249899999999, 42.524309999999986], [-71.122545, 42.523636999999994], [-71.12177299999999, 42.52311299999999], [-71.119959, 42.520832999999996], [-71.121105, 42.520394], [-71.120688, 42.519891999999984], [-71.119931, 42.51813200000001], [-71.12061299999999, 42.517815000000006], [-71.12136799999999, 42.518157], [-71.12163699999999, 42.51810100000001], [-71.124969, 42.51647899999998], [-71.124482, 42.515923], [-71.125149, 42.515602], [-71.126481, 42.51699099999999], [-71.126781, 42.51816099999999], [-71.127051, 42.518506], [-71.127819, 42.51863600000001], [-71.128254, 42.518453000000015], [-71.128892, 42.517375000000015], [-71.13545599999999, 42.53000600000001], [-71.131316, 42.531814], [-71.13483, 42.546251], [-71.136742, 42.55346399999999]]]}}