{"type": "Feature", "properties": {"district_name": "11th Bristol District", "chamber": "house", "vintage": "2012-2020"}, "geometry": {"type": "Polygon", "coordinates": [[[-70.948692, 41.726749], [-70.94693699999999, 41.726887999999995], [-70.94683599999999, 41.726368], [-70.946263, 41.72525400000001], [-70.94402099999999, 41.722798000000004], [-70.942376, 41.72300499999998], [-70.942427, 41.723755], [-70.94157, 41.72382299999999], [-70.94234999999999, 41.725222], [-70.94140500000002, 41.72541100000001], [-70.942595, 41.72723200000002], [-70.940804, 41.72740999999999], [-70.939244, 41.72538400000001], [-70.936796, 41.72029800000001], [-70.93552199999999, 41.716895], [-70.934635, 41.71526099999999], [-70.93338299999999, 41.715599], [-70.942993, 41.74466800000001], [-70.92232, 41.754799999999996], [-70.92249799999999, 41.755122], [-70.92273899999999, 41.75508300000001], [-70.922696, 41.755358], [-70.92308, 41.755355], [-70.92322, 41.75565199999999], [-70.923444, 41.755719000000006], [-70.923552, 41.755548], [-70.924052, 41.75565499999999], [-70.92455, 41.75602800000001], [-70.924611, 41.75624799999999], [-70.92488999999999, 41.756303], [-70.924913, 41.75658999999998], [-70.925292, 41.75659500000001], [-70.926146, 41.757017000000005], [-70.926424, 41.75761700000001], [-70.926309, 41.75843199999999], [-70.92605999999999, 41.758608], [-70.926104, 41.758907000000015], [-70.907184, 41.76354299999999], [-70.905211, 41.759819], [-70.904438, 41.75800000000001], [-70.886439, 41.760232], [-70.858216, 41.681141999999994], [-70.88964399999999, 41.66850099999999], [-70.912131, 41.664828], [-70.917182, 41.663602999999995], [-70.916495, 41.65961], [-70.91738699999999, 41.65610900000001], [-70.92535699999999, 41.656011], [-70.925733, 41.65785399999999], [-70.933022, 41.656944], [-70.93205300000001, 41.652639000000015], [-70.931727, 41.649860000000004], [-70.932603, 41.64977499999999], [-70.93233, 41.64862900000001], [-70.93408699999999, 41.648416999999995], [-70.93607, 41.652671999999995], [-70.93694200000002, 41.65250699999999], [-70.938351, 41.65456600000001], [-70.939216, 41.656228000000006], [-70.93638, 41.65656299999999], [-70.937972, 41.66016700000001], [-70.939105, 41.66226200000001], [-70.943255, 41.66174], [-70.942748, 41.662594], [-70.942661, 41.663372], [-70.942978, 41.665258], [-70.937398, 41.665816], [-70.93818, 41.67255799999999], [-70.93915500000001, 41.67250899999999], [-70.940452, 41.679672], [-70.939663, 41.680057], [-70.93868499999999, 41.679998000000005], [-70.93848, 41.67895299999999], [-70.933368, 41.67876899999998], [-70.93400799999999, 41.682155000000016], [-70.934975, 41.693365000000014], [-70.937392, 41.692771000000015], [-70.939013, 41.69290099999999], [-70.939061, 41.694072000000006], [-70.94144399999999, 41.693464], [-70.944934, 41.69288099999999], [-70.94694199999999, 41.697008], [-70.946325, 41.698428], [-70.93959100000001, 41.710893], [-70.939176, 41.71206000000003], [-70.93903499999999, 41.71338999999999], [-70.93918, 41.714447], [-70.939577, 41.715682], [-70.94045, 41.717126], [-70.94297, 41.72044400000001], [-70.948692, 41.726749]]]}}