{"type": "Feature", "properties": {"district_name": "4th Middlesex District", "chamber": "house", "vintage": "2012-2020"}, "geometry": {"type": "Polygon", "coordinates": [[[-71.68025399999999, 42.304233999999994], [-71.67771499999999, 42.305257999999995], [-71.675963, 42.305625], [-71.671103, 42.30559900000001], [-71.667632, 42.30534599999999], [-71.662734, 42.305969], [-71.660001, 42.306636999999995], [-71.65838, 42.307127999999985], [-71.657157, 42.307928], [-71.654432, 42.311457], [-71.652248, 42.31033499999999], [-71.652694, 42.31010499999999], [-71.652763, 42.30979], [-71.651383, 42.30917600000003], [-71.65092, 42.30826999999999], [-71.649965, 42.30751499999998], [-71.64893200000002, 42.30814300000001], [-71.648209, 42.307694000000005], [-71.647781, 42.308068000000006], [-71.647771, 42.308372], [-71.6485, 42.30914600000002], [-71.648686, 42.309658], [-71.648174, 42.310041999999996], [-71.64753, 42.31103199999999], [-71.647126, 42.311097999999994], [-71.64635899999999, 42.310316], [-71.644513, 42.31035699999999], [-71.644346, 42.312174], [-71.643527, 42.314551000000016], [-71.642892, 42.31552000000001], [-71.640053, 42.31675099999999], [-71.6375, 42.318802], [-71.636684, 42.320254999999996], [-71.635638, 42.32066999999999], [-71.63595, 42.32111100000001], [-71.636844, 42.32139600000001], [-71.637267, 42.32190400000001], [-71.638291, 42.322259], [-71.639343, 42.322973999999995], [-71.63344, 42.32733999999999], [-71.630843, 42.328889], [-71.630082, 42.33084199999997], [-71.628537, 42.332840999999995], [-71.62680999999999, 42.334578], [-71.625767, 42.336300000000016], [-71.625042, 42.336898999999995], [-71.62294899999999, 42.33796500000001], [-71.61825999999999, 42.342589], [-71.619131, 42.343348999999996], [-71.62065799999999, 42.345248999999995], [-71.62582499999999, 42.34972399999999], [-71.624702, 42.35046500000001], [-71.610007, 42.357403000000005], [-71.603065, 42.367267], [-71.60318699999999, 42.367329000000005], [-71.595364, 42.367995], [-71.52141999999999, 42.375837000000004], [-71.521669, 42.37530499999999], [-71.522734, 42.37528799999998], [-71.52241, 42.371841], [-71.52268099999999, 42.37072699999999], [-71.52103799999999, 42.370667000000005], [-71.52054799999999, 42.37087700000002], [-71.519781, 42.37001199999999], [-71.51835400000002, 42.36783], [-71.517929, 42.367588], [-71.517135, 42.36748099999999], [-71.517566, 42.365027999999995], [-71.519397, 42.363189999999996], [-71.520164, 42.36284499999998], [-71.52387999999999, 42.35989099999999], [-71.526102, 42.35875000000001], [-71.52655, 42.358329], [-71.527912, 42.35511300000001], [-71.52788799999999, 42.354724], [-71.529281, 42.35311299999999], [-71.530587, 42.35225399999999], [-71.531491, 42.352233], [-71.534263, 42.351224999999985], [-71.540847, 42.35107199999998], [-71.54175, 42.349204999999984], [-71.54337799999999, 42.34716099999999], [-71.542794, 42.34692999999999], [-71.543476, 42.345211], [-71.532493, 42.345594999999996], [-71.53223899999999, 42.34462600000001], [-71.53062, 42.344734], [-71.529961, 42.342226999999994], [-71.528812, 42.341184999999996], [-71.52678999999999, 42.340286000000006], [-71.525661, 42.33995899999999], [-71.52454399999999, 42.34096899999999], [-71.52283899999999, 42.341353000000005], [-71.523246, 42.342763], [-71.524479, 42.345588], [-71.52486999999999, 42.346196], [-71.52590000000001, 42.347120000000004], [-71.525892, 42.347923], [-71.52546199999999, 42.349114000000014], [-71.52368700000001, 42.349007999999984], [-71.519757, 42.34957000000001], [-71.518006, 42.349339], [-71.518376, 42.348224], [-71.518298, 42.347843], [-71.517836, 42.34765500000001], [-71.517043, 42.34682600000001], [-71.51630399999999, 42.34635999999999], [-71.514887, 42.345710999999994], [-71.515064, 42.344708000000004], [-71.514873, 42.344194], [-71.51531299999999, 42.344288000000006], [-71.515604, 42.34480299999999], [-71.516432, 42.345158], [-71.518822, 42.344617], [-71.51875100000001, 42.344196000000004], [-71.518526, 42.34401600000001], [-71.517412, 42.343855000000005], [-71.517423, 42.34336], [-71.517006, 42.342583999999995], [-71.51890999999999, 42.341919999999995], [-71.520626, 42.341816], [-71.519189, 42.34082600000001], [-71.519058, 42.34020799999999], [-71.51875, 42.33984099999999], [-71.518712, 42.339575999999994], [-71.51939899999999, 42.33780000000001], [-71.51926399999999, 42.337187000000014], [-71.518519, 42.33656599999998], [-71.516432, 42.335606000000006], [-71.51214999999999, 42.33442600000001], [-71.51126099999999, 42.333672], [-71.510823, 42.33254], [-71.51074, 42.33127699999999], [-71.51123799999999, 42.328804999999996], [-71.516527, 42.330336], [-71.551126, 42.326395000000005], [-71.569085, 42.32037299999999], [-71.585168, 42.310977], [-71.580091, 42.30589100000001], [-71.606616, 42.303207], [-71.604762, 42.302098], [-71.60388, 42.301082], [-71.60234299999999, 42.29776900000001], [-71.602452, 42.29696799999999], [-71.603163, 42.29597700000001], [-71.60194299999999, 42.295291999999996], [-71.60159399999999, 42.293980999999995], [-71.601118, 42.293795], [-71.60022, 42.29378399999998], [-71.598913, 42.29469299999999], [-71.59766499999999, 42.294726000000004], [-71.595911, 42.293563000000006], [-71.59413500000001, 42.29338000000001], [-71.592721, 42.292775999999996], [-71.592399, 42.29245300000001], [-71.591943, 42.29143200000001], [-71.590898, 42.290636], [-71.595015, 42.28756099999999], [-71.59701299999999, 42.285535], [-71.59926399999999, 42.28417], [-71.603228, 42.280303999999994], [-71.60427899999999, 42.279779], [-71.606304, 42.27929400000002], [-71.60707099999999, 42.27887200000001], [-71.607618, 42.27833599999999], [-71.60881499999999, 42.276615], [-71.60738599999999, 42.27615699999999], [-71.60545499999999, 42.276272999999996], [-71.605339, 42.275392999999994], [-71.604931, 42.275186000000005], [-71.604776, 42.27448299999999], [-71.604406, 42.27363099999997], [-71.604067, 42.273346000000004], [-71.60401300000001, 42.272897000000015], [-71.602319, 42.271530999999996], [-71.60225, 42.271136], [-71.601641, 42.270528999999996], [-71.60102499999999, 42.269515999999996], [-71.601725, 42.26885599999999], [-71.601524, 42.268145], [-71.599777, 42.266919], [-71.59914599999999, 42.266901999999995], [-71.598784, 42.26656800000001], [-71.597922, 42.266681999999996], [-71.59694499999999, 42.267037999999985], [-71.59629799999999, 42.26693499999999], [-71.59539000000001, 42.26638899999998], [-71.594267, 42.26654899999998], [-71.59378199999999, 42.26636199999999], [-71.59325799999999, 42.266535999999995], [-71.59271199999999, 42.266499], [-71.59165, 42.267081], [-71.591443, 42.26746899999998], [-71.591166, 42.267533], [-71.59010400000001, 42.267174999999995], [-71.58935, 42.26719599999999], [-71.588949, 42.26673300000001], [-71.58824100000001, 42.26682999999999], [-71.58818699999999, 42.26662800000002], [-71.587634, 42.26641999999999], [-71.58754900000001, 42.266174000000014], [-71.58688699999999, 42.266063], [-71.586133, 42.26606699999999], [-71.58399399999999, 42.26688900000001], [-71.581169, 42.26681800000001], [-71.580546, 42.266607], [-71.58023, 42.266299000000004], [-71.580123, 42.26651700000001], [-71.57988399999999, 42.266563000000005], [-71.579253, 42.266339], [-71.578837, 42.266442999999995], [-71.578414, 42.266195999999994], [-71.57833699999999, 42.26567099999999], [-71.57856799999999, 42.265350000000005], [-71.57821299999999, 42.264615], [-71.57826, 42.26423599999999], [-71.57804399999999, 42.26400700000002], [-71.578367, 42.262739], [-71.57799, 42.26248599999999], [-71.586759, 42.25954500000002], [-71.589855, 42.25126500000001], [-71.590531, 42.251533], [-71.591106, 42.252048], [-71.591742, 42.25422], [-71.59232899999999, 42.254042000000005], [-71.593696, 42.25416399999998], [-71.596143, 42.254906], [-71.597641, 42.255064999999995], [-71.600864, 42.254955], [-71.601587, 42.254594], [-71.602124, 42.254965999999996], [-71.602766, 42.25510599999999], [-71.604473, 42.254476000000004], [-71.606293, 42.254088], [-71.60635599999999, 42.25453100000001], [-71.606875, 42.255532999999986], [-71.60675499999999, 42.256296], [-71.60687399999999, 42.256663], [-71.60741999999999, 42.25738], [-71.608774, 42.25831699999999], [-71.60913, 42.25886800000001], [-71.60976, 42.257152999999974], [-71.609867, 42.25500000000001], [-71.611408, 42.252267], [-71.613659, 42.250322000000004], [-71.614342, 42.249372], [-71.614724, 42.249092], [-71.615788, 42.24894], [-71.61775999999999, 42.249041999999996], [-71.618652, 42.24892699999998], [-71.61894, 42.250145], [-71.61826400000001, 42.251422999999974], [-71.620098, 42.253842999999996], [-71.619997, 42.25552400000001], [-71.621071, 42.258578], [-71.62135099999999, 42.259093], [-71.62476199999999, 42.26308999999999], [-71.62217799999999, 42.264562000000005], [-71.619541, 42.26505399999999], [-71.616655, 42.266403000000004], [-71.615706, 42.26701299999999], [-71.621865, 42.27164599999999], [-71.62170499999999, 42.27185900000001], [-71.623149, 42.27243700000002], [-71.624927, 42.274284], [-71.63236599999999, 42.272757999999996], [-71.63214599999999, 42.27402000000001], [-71.633054, 42.27477299999999], [-71.63290599999999, 42.275766999999995], [-71.633999, 42.27643500000001], [-71.635569, 42.27657000000001], [-71.636484, 42.27688200000001], [-71.637061, 42.27729700000001], [-71.637869, 42.27853], [-71.638099, 42.27997899999998], [-71.63789, 42.281236], [-71.638515, 42.283333999999996], [-71.653374, 42.282588999999994], [-71.654349, 42.28370700000001], [-71.65452100000002, 42.28412], [-71.670115, 42.27876299999999], [-71.676996, 42.286148000000004], [-71.68025399999999, 42.304233999999994]]]}}