{"type": "Feature", "properties": {"district_name": "3rd Barnstable District", "chamber": "house", "vintage": "2012-2020"}, "geometry": {"type": "Polygon", "coordinates": [[[-70.690964, 41.66045700000001], [-70.684292, 41.673897], [-70.67662899999999, 41.691129], [-70.67440400000001, 41.68960899999999], [-70.64370000000001, 41.717465000000004], [-70.64224399999999, 41.71922500000001], [-70.640276, 41.723609], [-70.640756, 41.72485700000001], [-70.639476, 41.726473000000006], [-70.639332, 41.729048999999996], [-70.63257999999999, 41.733656999999994], [-70.633268, 41.73546499999999], [-70.632676, 41.73788100000002], [-70.62598799999999, 41.74496899999999], [-70.623193, 41.745614999999994], [-70.62195, 41.746058999999995], [-70.621139, 41.747018000000004], [-70.620785, 41.747530000000005], [-70.621014, 41.74830300000001], [-70.621622, 41.748972], [-70.62515599999999, 41.75114399999999], [-70.62501200000001, 41.75404], [-70.62586999999999, 41.755199], [-70.621668, 41.75787999999999], [-70.621641, 41.75485999999999], [-70.620732, 41.754834999999986], [-70.620915, 41.75444999999999], [-70.620694, 41.75393999999999], [-70.620474, 41.75391200000001], [-70.620145, 41.754203999999994], [-70.62012299999999, 41.754708999999984], [-70.62038799999999, 41.75508199999998], [-70.620234, 41.755329000000025], [-70.61777099999999, 41.75547799999999], [-70.618335, 41.75514899999999], [-70.61766, 41.754699], [-70.617462, 41.75491299999999], [-70.617499, 41.75532500000002], [-70.61639199999999, 41.755523], [-70.61547, 41.75670899999998], [-70.61516999999999, 41.75735199999999], [-70.614583, 41.757593], [-70.614407, 41.757445000000004], [-70.614678, 41.756890999999996], [-70.614421, 41.75677000000001], [-70.612171, 41.757209999999986], [-70.6122, 41.756985000000014], [-70.61049799999999, 41.755345], [-70.610131, 41.75525700000001], [-70.60951899999999, 41.755535], [-70.608451, 41.75459200000001], [-70.608305, 41.754168], [-70.607704, 41.753947], [-70.606539, 41.75278000000001], [-70.605952, 41.752558000000015], [-70.60475699999999, 41.753805], [-70.602839, 41.754222000000006], [-70.602131, 41.754000000000005], [-70.600901, 41.754001999999986], [-70.60019199999999, 41.75330500000002], [-70.60023699999999, 41.75267200000002], [-70.599903, 41.75237900000002], [-70.598711, 41.752332], [-70.59823399999999, 41.752511], [-70.59810700000001, 41.752225], [-70.59646, 41.752703999999994], [-70.595815, 41.75216199999999], [-70.595511, 41.75227400000001], [-70.594994, 41.75296499999999], [-70.593265, 41.75271399999999], [-70.592271, 41.75194400000001], [-70.58718700000001, 41.74417800000002], [-70.586975, 41.74353999999998], [-70.58632, 41.74357099999998], [-70.58591899999999, 41.74331900000001], [-70.58592, 41.742988999999994], [-70.586227, 41.74262999999999], [-70.586269, 41.74226899999999], [-70.584395, 41.735799], [-70.584036, 41.73368800000001], [-70.584242, 41.72523899999999], [-70.584262, 41.726506], [-70.584476, 41.72659599999999], [-70.58459599999999, 41.72652500000001], [-70.584631, 41.725756000000004], [-70.58493, 41.72568399999997], [-70.58578299999999, 41.724748], [-70.58561999999999, 41.72321400000001], [-70.58798399999999, 41.723355000000005], [-70.588382, 41.723542], [-70.591628, 41.723483], [-70.5918, 41.723731], [-70.592163, 41.72290299999998], [-70.591863, 41.72253499999999], [-70.59171599999999, 41.72201099999998], [-70.591867, 41.72150299999999], [-70.592404, 41.72096600000001], [-70.59273999999999, 41.72085899999999], [-70.593503, 41.721213000000006], [-70.596125, 41.72128699999999], [-70.597915, 41.72200499999999], [-70.600049, 41.72172899999999], [-70.601771, 41.721833], [-70.60275899999999, 41.721656], [-70.603869, 41.722123], [-70.60512299999999, 41.72070799999999], [-70.60770000000001, 41.719941000000006], [-70.609026, 41.717724], [-70.609162, 41.716902], [-70.60907499999999, 41.71582700000001], [-70.609324, 41.71482099999999], [-70.60936099999999, 41.712223], [-70.60900000000001, 41.71065299999999], [-70.609021, 41.709133], [-70.60869, 41.705729000000005], [-70.607587, 41.705847], [-70.603471, 41.70697500000001], [-70.600745, 41.70864399999999], [-70.59808199999999, 41.710604000000004], [-70.596425, 41.713088000000006], [-70.59487399999999, 41.712430000000005], [-70.594031, 41.711728], [-70.59351300000002, 41.711619], [-70.591453, 41.71178799999999], [-70.588556, 41.711579000000015], [-70.588038, 41.711871], [-70.58790499999999, 41.712531000000006], [-70.58675199999999, 41.711741999999994], [-70.586714, 41.711561], [-70.583384, 41.71174099999998], [-70.58334599999999, 41.709843000000006], [-70.58402, 41.70417400000001], [-70.58327799999999, 41.704181], [-70.582439, 41.704617999999996], [-70.58146599999999, 41.704659000000014], [-70.57979, 41.705163], [-70.578417, 41.70506100000001], [-70.577474, 41.70414299999998], [-70.576837, 41.703877], [-70.576287, 41.704077], [-70.57359, 41.70442499999999], [-70.573087, 41.704849], [-70.57251, 41.706537999999995], [-70.570392, 41.70864499999999], [-70.569198, 41.708985999999996], [-70.56762499999999, 41.70878699999998], [-70.56663999999999, 41.708303], [-70.566264, 41.707677000000004], [-70.565634, 41.707273999999984], [-70.561396, 41.70645400000001], [-70.560926, 41.705470999999996], [-70.559231, 41.704045999999984], [-70.556682, 41.703151], [-70.555543, 41.702344], [-70.553434, 41.701759999999986], [-70.550923, 41.700739999999996], [-70.549942, 41.70020700000001], [-70.548795, 41.699128], [-70.548346, 41.69888900000001], [-70.547125, 41.69893700000001], [-70.54493699999999, 41.69935799999999], [-70.541715, 41.699702000000016], [-70.541731, 41.69879600000001], [-70.540964, 41.696504000000004], [-70.540385, 41.695350000000005], [-70.540649, 41.69359800000001], [-70.540633, 41.692339], [-70.541084, 41.69149200000002], [-70.54100199999999, 41.690427000000014], [-70.541344, 41.689937], [-70.541983, 41.687879], [-70.54284299999999, 41.68674], [-70.544573, 41.683775000000004], [-70.545273, 41.681965999999996], [-70.54530799999999, 41.680825], [-70.545924, 41.679928999999994], [-70.546747, 41.676652], [-70.54696899999999, 41.67625], [-70.550508, 41.671248999999996], [-70.55247899999999, 41.66951800000001], [-70.553086, 41.66869599999999], [-70.557628, 41.664970000000004], [-70.559152, 41.66307200000001], [-70.560476, 41.661912], [-70.56145, 41.66132199999999], [-70.566687, 41.656313999999995], [-70.566878, 41.653995], [-70.566284, 41.65222099999998], [-70.566319, 41.651602000000004], [-70.567481, 41.649183000000015], [-70.568055, 41.648782999999995], [-70.568924, 41.64854500000002], [-70.56884099999999, 41.64803999999999], [-70.56804199999999, 41.64748799999999], [-70.567705, 41.646947999999995], [-70.567576, 41.646135], [-70.567987, 41.645557], [-70.53987900000001, 41.63740599999999], [-70.539735, 41.637105999999996], [-70.538076, 41.63900399999999], [-70.53701699999999, 41.63987099999999], [-70.535776, 41.641386000000004], [-70.53320000000001, 41.64253399999998], [-70.53080899999999, 41.644110999999995], [-70.523175, 41.650439], [-70.520912, 41.654816999999994], [-70.520048, 41.655623999999996], [-70.519344, 41.65676799999999], [-70.516458, 41.663945000000005], [-70.516375, 41.664986999999996], [-70.51570000000001, 41.66787200000001], [-70.51344, 41.673775], [-70.511426, 41.67602599999999], [-70.497074, 41.67059099999999], [-70.497429, 41.670888999999995], [-70.49739199999999, 41.671410000000016], [-70.495362, 41.671519], [-70.49473900000001, 41.672052999999984], [-70.494018, 41.672283], [-70.49369399999999, 41.67279200000001], [-70.493577, 41.673880999999994], [-70.493864, 41.67498400000001], [-70.49368799999999, 41.67573699999999], [-70.49389699999999, 41.676773999999995], [-70.49677, 41.678087000000005], [-70.49720000000002, 41.683482000000005], [-70.47805799999999, 41.68512900000001], [-70.47555299999999, 41.682421000000005], [-70.475269, 41.679683], [-70.47490499999999, 41.678620999999985], [-70.474935, 41.67726300000001], [-70.475123, 41.676791], [-70.47587899999999, 41.67674900000002], [-70.482171, 41.665975], [-70.480554, 41.661024000000005], [-70.475371, 41.659745000000015], [-70.474978, 41.660537000000005], [-70.47355400000001, 41.662178999999995], [-70.472326, 41.66393299999999], [-70.471688, 41.664435], [-70.47111199999999, 41.665963999999995], [-70.458737, 41.664041], [-70.451059, 41.65691200000001], [-70.446514, 41.65033999999999], [-70.45171200000001, 41.64248200000001], [-70.45309, 41.641797000000004], [-70.453165, 41.640603999999996], [-70.452557, 41.638748000000014], [-70.454361, 41.639193999999996], [-70.45847599999999, 41.637471000000005], [-70.466304, 41.637082], [-70.46760499999999, 41.63422], [-70.466495, 41.633706], [-70.465816, 41.63312099999999], [-70.464567, 41.632613], [-70.460399, 41.63358900000001], [-70.456488, 41.635029], [-70.455991, 41.63432999999998], [-70.452739, 41.635028], [-70.452491, 41.634759], [-70.45232899999999, 41.632919], [-70.451589, 41.63227100000001], [-70.451589, 41.631551999999985], [-70.451267, 41.630674], [-70.451516, 41.630152], [-70.451442, 41.629459999999995], [-70.450864, 41.628806999999995], [-70.45074, 41.628286], [-70.45084899999999, 41.626655], [-70.450124, 41.62559599999999], [-70.449963, 41.624626], [-70.449096, 41.62344400000002], [-70.44908099999999, 41.62300999999998], [-70.448847, 41.622703], [-70.448964, 41.62221400000002], [-70.448803, 41.62136300000002], [-70.44903699999999, 41.621001], [-70.4496, 41.62094099999999], [-70.44981200000001, 41.620694], [-70.44969499999999, 41.62016099999999], [-70.4499, 41.61970499999999], [-70.44943099999999, 41.619358], [-70.449322, 41.619074], [-70.449461, 41.618886999999994], [-70.45047699999999, 41.61890700000001], [-70.45060699999999, 41.61859200000001], [-70.450316, 41.617539999999984], [-70.450396, 41.61683999999998], [-70.450828, 41.61608499999999], [-70.452641, 41.615958000000006], [-70.45734, 41.610761999999994], [-70.46105, 41.606363], [-70.46498199999999, 41.59673999999998], [-70.458592, 41.588668000000006], [-70.453008, 41.58633600000002], [-70.452153, 41.586725], [-70.452308, 41.58698800000003], [-70.45207599999999, 41.58747000000002], [-70.451697, 41.58741300000001], [-70.451448, 41.58704799999999], [-70.450102, 41.587701], [-70.450104, 41.586228], [-70.45098, 41.584406], [-70.453912, 41.58072099999998], [-70.455929, 41.57844299999999], [-70.45723699999999, 41.577321999999995], [-70.457537, 41.576223999999996], [-70.457376, 41.57599900000001], [-70.458355, 41.57498899999999], [-70.459057, 41.57399500000002], [-70.46174599999999, 41.571508], [-70.46199399999999, 41.571239], [-70.461907, 41.57117299999999], [-70.463945, 41.56922899999999], [-70.465012, 41.56795499999999], [-70.466583, 41.566533], [-70.46878199999999, 41.564615999999994], [-70.46982, 41.56410000000001], [-70.473086, 41.56136499999999], [-70.47538, 41.55901999999999], [-70.478945, 41.556905000000015], [-70.483797, 41.555096], [-70.48615699999999, 41.55385999999999], [-70.48754500000001, 41.553985999999995], [-70.489299, 41.55369999999999], [-70.490819, 41.55326], [-70.492908, 41.55219900000001], [-70.493624, 41.552055999999986], [-70.496702, 41.55235599999999], [-70.499471, 41.55228899999999], [-70.501549, 41.55171000000001], [-70.505284, 41.551520000000004], [-70.506577, 41.551229], [-70.515275, 41.55016199999999], [-70.516123, 41.54990999999999], [-70.521911, 41.54902299999998], [-70.525953, 41.548118], [-70.52685199999999, 41.547394], [-70.526961, 41.547547999999985], [-70.528181, 41.54747899999999], [-70.529308, 41.54646099999998], [-70.530301, 41.547691], [-70.531894, 41.549009000000005], [-70.532851, 41.549569000000005], [-70.535123, 41.550415], [-70.538821, 41.55125599999999], [-70.545003, 41.55158099999998], [-70.546519, 41.55209599999999], [-70.54786299999999, 41.55091799999998], [-70.54782, 41.550765999999996], [-70.548007, 41.550776], [-70.54789, 41.550549], [-70.549469, 41.55029700000001], [-70.549425, 41.550039], [-70.550178, 41.55009900000001], [-70.550455, 41.549989000000004], [-70.550426, 41.549808000000006], [-70.551391, 41.54995599999999], [-70.551793, 41.549884999999996], [-70.551756, 41.54972], [-70.55235499999999, 41.549797000000005], [-70.552889, 41.549665], [-70.55283800000001, 41.549501], [-70.553963, 41.54930299999999], [-70.553934, 41.54911099999999], [-70.554745, 41.549155], [-70.55516899999999, 41.54907300000002], [-70.55514, 41.54892400000001], [-70.556294, 41.548963], [-70.556331, 41.54873799999999], [-70.558472, 41.548698999999985], [-70.559568, 41.54831], [-70.56093500000001, 41.54825499999999], [-70.560942, 41.548013], [-70.561644, 41.54831], [-70.56358, 41.548364], [-70.563668, 41.54824399999999], [-70.56465399999999, 41.54830399999999], [-70.564764, 41.548111999999996], [-70.56518, 41.54823300000001], [-70.56621799999999, 41.548183], [-70.566277, 41.54803500000001], [-70.567351, 41.548106], [-70.567373, 41.54798499999999], [-70.567782, 41.54802400000001], [-70.567782, 41.54792], [-70.568206, 41.547990999999996], [-70.56832299999999, 41.54775499999998], [-70.56930899999999, 41.54794700000001], [-70.570222, 41.54773300000003], [-70.57085200000002, 41.547337], [-70.570837, 41.547173000000015], [-70.571816, 41.54720499999999], [-70.573854, 41.54689799999999], [-70.574351, 41.54668399999998], [-70.574366, 41.54616199999999], [-70.57533, 41.546206], [-70.57630999999999, 41.54603600000001], [-70.576646, 41.54591999999999], [-70.576595, 41.545745000000004], [-70.57818, 41.545404], [-70.578114, 41.54525600000001], [-70.57903499999999, 41.54503599999999], [-70.57898399999999, 41.544899], [-70.58001399999999, 41.54474200000001], [-70.580495, 41.54452500000001], [-70.58055499999999, 41.54424], [-70.581892, 41.544662], [-70.586415, 41.545429999999996], [-70.588469, 41.545347], [-70.588776, 41.54515500000001], [-70.58929599999999, 41.54942899999999], [-70.58909500000001, 41.550661999999996], [-70.590606, 41.55331200000001], [-70.591319, 41.554272], [-70.591939, 41.557916999999996], [-70.592165, 41.55842800000001], [-70.59216599999999, 41.559476], [-70.592686, 41.560815999999996], [-70.593288, 41.563949], [-70.596102, 41.56445899999999], [-70.59463699999999, 41.56874500000001], [-70.594082, 41.573564000000005], [-70.592917, 41.57693], [-70.589753, 41.581382000000005], [-70.5851, 41.587138999999986], [-70.582833, 41.589455], [-70.585595, 41.591253], [-70.585535, 41.591641], [-70.58717399999999, 41.59133100000001], [-70.5886, 41.591331000000004], [-70.590327, 41.592014000000006], [-70.591083, 41.59318100000002], [-70.592118, 41.594159999999995], [-70.592494, 41.59530999999999], [-70.59260000000002, 41.596531], [-70.592355, 41.59693500000001], [-70.591584, 41.597389000000014], [-70.589801, 41.598091000000004], [-70.588768, 41.59867399999999], [-70.587149, 41.599179000000014], [-70.58668, 41.599726], [-70.58327299999999, 41.600764], [-70.581245, 41.59989099999999], [-70.580308, 41.599911], [-70.579876, 41.59973900000001], [-70.57942299999999, 41.599464999999995], [-70.578413, 41.598251999999995], [-70.576351, 41.598692000000014], [-70.574798, 41.597925], [-70.573403, 41.600269999999995], [-70.573058, 41.600536000000005], [-70.57307399999999, 41.60119999999999], [-70.572695, 41.602747000000015], [-70.573488, 41.60483199999997], [-70.57480799999999, 41.60618900000001], [-70.576273, 41.607377], [-70.578439, 41.60862499999999], [-70.579968, 41.60984599999999], [-70.583626, 41.61129600000002], [-70.584239, 41.611449000000015], [-70.58906499999999, 41.611331], [-70.591729, 41.611472000000006], [-70.59343, 41.61203099999999], [-70.597309, 41.61437199999999], [-70.598184, 41.61462500000001], [-70.600612, 41.614759], [-70.602727, 41.61539300000001], [-70.604062, 41.61529700000001], [-70.60681, 41.614450000000005], [-70.607468, 41.614498], [-70.609676, 41.61514599999998], [-70.610951, 41.61511100000002], [-70.61266300000001, 41.61478799999999], [-70.61493999999999, 41.615161999999984], [-70.620294, 41.61691300000001], [-70.606166, 41.64134599999999], [-70.605218, 41.643882999999995], [-70.60229, 41.655322], [-70.612897, 41.65841400000001], [-70.61535500000001, 41.658241], [-70.615434, 41.658091999999996], [-70.615736, 41.658252], [-70.621012, 41.657427], [-70.621443, 41.65762299999998], [-70.624475, 41.657785], [-70.690964, 41.66045700000001]]]}}