{"type": "Feature", "properties": {"district_name": "18th Middlesex District", "chamber": "house", "vintage": "2012-2020"}, "geometry": {"type": "Polygon", "coordinates": [[[-71.36484899999999, 42.637861], [-71.356875, 42.63874499999998], [-71.35597899999999, 42.638999], [-71.34391699999999, 42.64048299999999], [-71.339705, 42.642092999999974], [-71.337374, 42.643916999999995], [-71.334338, 42.646688999999995], [-71.330541, 42.649613999999985], [-71.33161199999999, 42.65022199999998], [-71.329981, 42.65149900000001], [-71.329334, 42.651782999999995], [-71.327285, 42.651733000000014], [-71.325955, 42.65206200000001], [-71.327614, 42.653316999999994], [-71.327006, 42.653806], [-71.32439699999999, 42.65188800000001], [-71.322451, 42.653929], [-71.319537, 42.655851], [-71.315454, 42.654682000000015], [-71.312405, 42.65249100000001], [-71.307966, 42.64980600000003], [-71.308256, 42.649539], [-71.307923, 42.649301999999985], [-71.307098, 42.649001000000005], [-71.307238, 42.648467000000004], [-71.308377, 42.648863], [-71.308866, 42.648184000000015], [-71.310408, 42.648272000000006], [-71.310609, 42.647969], [-71.3095, 42.647555000000004], [-71.311019, 42.645756000000006], [-71.311908, 42.645821999999995], [-71.312893, 42.644675000000014], [-71.31362, 42.644876999999994], [-71.316437, 42.641778999999985], [-71.316772, 42.641211999999996], [-71.31678, 42.640632], [-71.317841, 42.640015000000005], [-71.317184, 42.639717], [-71.316283, 42.63899100000001], [-71.315812, 42.63838100000002], [-71.31607799999999, 42.63790800000001], [-71.325139, 42.635408], [-71.325302, 42.631088999999996], [-71.325137, 42.62954599999999], [-71.323917, 42.62961599999999], [-71.323686, 42.628924000000005], [-71.323537, 42.62886399999999], [-71.321823, 42.628811], [-71.323617, 42.624523999999994], [-71.32245499999999, 42.624185], [-71.32148800000002, 42.624183999999985], [-71.321356, 42.625603], [-71.319143, 42.62496], [-71.319332, 42.62428599999998], [-71.319529, 42.621766000000015], [-71.318696, 42.618128], [-71.320101, 42.616642999999996], [-71.320048, 42.616147000000005], [-71.319684, 42.61603899999999], [-71.319689, 42.615625], [-71.31854400000002, 42.614723999999995], [-71.318365, 42.613912], [-71.317719, 42.613729000000006], [-71.31930899999999, 42.61357200000001], [-71.318882, 42.608543999999995], [-71.319897, 42.6069], [-71.323341, 42.60649], [-71.325277, 42.611376999999976], [-71.324975, 42.611601], [-71.325698, 42.613263999999994], [-71.328077, 42.613147], [-71.329328, 42.61398499999998], [-71.34863, 42.62145300000001], [-71.359945, 42.626008000000006], [-71.36484899999999, 42.637861]]]}}