{"type": "Feature", "properties": {"district_name": "4th Barnstable District", "chamber": "house", "vintage": "2022-present"}, "geometry": {"type": "Polygon", "coordinates": [[[-70.250188, 42.06336700000001], [-70.249592, 42.06578999999999], [-70.24879, 42.067702000000004], [-70.244574, 42.07279299999999], [-70.241139, 42.075553000000006], [-70.237504, 42.077737000000006], [-70.233922, 42.079527000000006], [-70.232082, 42.080249], [-70.221403, 42.08321000000001], [-70.217788, 42.08387300000001], [-70.208865, 42.085066000000005], [-70.2015, 42.085494], [-70.185298, 42.08560899999999], [-70.181347, 42.085419], [-70.160775, 42.08285999999998], [-70.153566, 42.080504000000005], [-70.139786, 42.07755100000001], [-70.135981, 42.07625699999999], [-70.12447, 42.07341], [-70.117771, 42.072022], [-70.113093, 42.07132299999999], [-70.107285, 42.068746000000004], [-70.101064, 42.06671100000001], [-70.08744800000001, 42.06142700000001], [-70.07956200000001, 42.05733300000001], [-70.060014, 42.04665800000001], [-70.053293, 42.041186], [-70.045877, 42.035866000000006], [-70.036606, 42.02684800000001], [-70.033725, 42.023767], [-70.036616, 42.02066000000001], [-70.034161, 42.018275], [-70.03071, 42.014210999999996], [-70.029621, 42.01262399999999], [-70.028304, 42.011433], [-70.026885, 42.009588], [-70.025914, 42.008593999999995], [-70.024369, 42.006474000000004], [-70.023339, 42.004688999999985], [-70.019993, 42.000664], [-70.019562, 41.999926], [-70.01798, 41.998350000000016], [-70.016289, 41.995632000000015], [-70.016098, 41.994983999999995], [-70.013885, 41.99232099999998], [-70.01375300000001, 41.991794000000006], [-70.012863, 41.990635], [-70.011363, 41.98914599999999], [-70.009401, 41.98537399999999], [-70.004374, 41.977988], [-70.002302, 41.97521400000001], [-70.002118, 41.97513700000001], [-70.002059, 41.975522], [-70.001919, 41.97546700000001], [-70.001589, 41.97451099999999], [-70.00034, 41.972303000000004], [-69.995645, 41.96523299999999], [-69.995041, 41.963921], [-69.993273, 41.96156100000002], [-69.991373, 41.958510000000025], [-69.990555, 41.957461], [-69.986084, 41.94954200000002], [-69.984464, 41.94700000000001], [-69.983311, 41.944619], [-69.978841, 41.946604000000015], [-69.97289200000002, 41.934045000000005], [-69.971112, 41.930977], [-69.969681, 41.927763000000006], [-69.967249, 41.920307000000015], [-69.961408, 41.906563], [-69.958144, 41.898179999999996], [-69.957701, 41.89663800000002], [-69.955619, 41.892379999999996], [-69.952905, 41.88454800000002], [-69.952234, 41.880784], [-69.951017, 41.878484], [-69.950179, 41.87510699999999], [-69.93862, 41.839428000000005], [-69.93550900000001, 41.82542500000002], [-69.934736, 41.819239], [-69.934757, 41.81750000000001], [-69.935394, 41.816507], [-69.935354, 41.816264000000004], [-69.932067, 41.81155300000002], [-69.930782, 41.808944000000004], [-69.930712, 41.808408], [-69.93098, 41.80583300000001], [-69.930572, 41.804421000000005], [-69.930398, 41.801291], [-69.929778, 41.798286000000004], [-69.928696, 41.78474699999999], [-69.928538, 41.780927], [-69.926219, 41.76604799999999], [-69.926528, 41.76369100000001], [-69.926475, 41.761701999999985], [-69.925587, 41.75752400000001], [-69.92549200000002, 41.754788000000026], [-69.92488, 41.75164800000001], [-69.924443, 41.743951000000024], [-69.924303, 41.734299000000014], [-69.923562, 41.72205699999999], [-69.928094, 41.72246700000001], [-69.928271, 41.72173200000001], [-69.928181, 41.71662299999998], [-69.928321, 41.71116599999999], [-69.927977, 41.70716399999999], [-69.928337, 41.697748000000004], [-69.928147, 41.69715999999999], [-69.928206, 41.69428300000001], [-69.928396, 41.69267500000001], [-69.928279, 41.69202100000002], [-69.928462, 41.69168600000001], [-69.928499, 41.690796999999996], [-69.928719, 41.690067], [-69.928748, 41.688601], [-69.929078, 41.687141], [-69.929459, 41.686383], [-69.929408, 41.685779], [-69.929657, 41.685093], [-69.929796, 41.68351100000001], [-69.930331, 41.682309], [-69.930499, 41.68114000000002], [-69.931722, 41.676988000000016], [-69.933195, 41.66966800000001], [-69.934215, 41.66815700000001], [-69.936467, 41.665761], [-69.938629, 41.662907999999995], [-69.938965, 41.66233400000001], [-69.939491, 41.66072299999999], [-69.940724, 41.658216], [-69.94106, 41.657845], [-69.941651, 41.656071], [-69.94299, 41.65309], [-69.943613, 41.65224899999999], [-69.944308, 41.65179400000001], [-69.945025, 41.650196000000015], [-69.946028, 41.648922], [-69.946364, 41.648258], [-69.953691, 41.620658999999996], [-69.992849, 41.541736], [-70.006584, 41.537135000000006], [-70.02007, 41.546685], [-69.975523, 41.65379100000001], [-69.977119, 41.653955], [-69.977822, 41.654526], [-69.978556, 41.654793000000005], [-69.980532, 41.656298], [-69.98089, 41.656775], [-69.980888, 41.65709100000001], [-69.983522, 41.657261000000005], [-69.984106, 41.657105999999985], [-69.985822, 41.657819], [-69.987432, 41.659082999999995], [-69.989037, 41.661054000000014], [-69.990936, 41.66302099999999], [-69.993443, 41.664984999999994], [-69.998762, 41.668277], [-70.001798, 41.669760999999994], [-70.002892, 41.669854], [-70.003836, 41.670474000000006], [-70.006449, 41.67139800000002], [-70.009063, 41.672014], [-70.012299, 41.67222400000001], [-70.015595, 41.671819000000006], [-70.015829, 41.671468], [-70.016708, 41.67086400000001], [-70.017367, 41.669648000000024], [-70.018067, 41.66988899999999], [-70.021849, 41.669988000000004], [-70.022079, 41.669854], [-70.023731, 41.669774000000004], [-70.024896, 41.669385], [-70.024947, 41.669171], [-70.025423, 41.66913799999999], [-70.026264, 41.668764], [-70.027188, 41.66870500000001], [-70.027627, 41.668507], [-70.027562, 41.668392], [-70.02907, 41.66803500000001], [-70.029136, 41.667728], [-70.031194, 41.667827], [-70.032072, 41.667640999999996], [-70.03372000000002, 41.667943], [-70.037185, 41.66819799999999], [-70.036897, 41.66796], [-70.037271, 41.66757599999998], [-70.037103, 41.666735999999986], [-70.037491, 41.66731400000002], [-70.037962, 41.66642600000001], [-70.039384, 41.666712999999994], [-70.040229, 41.666578], [-70.041247, 41.66668700000001], [-70.041496, 41.666858000000005], [-70.042287, 41.66683200000001], [-70.045316, 41.666183], [-70.046107, 41.66553300000001], [-70.047635, 41.66527800000001], [-70.051507, 41.664726], [-70.057362, 41.664426], [-70.060562, 41.66341700000001], [-70.060877, 41.66342800000001], [-70.061081, 41.664107000000016], [-70.06107, 41.66307300000001], [-70.06175100000002, 41.662989999999986], [-70.062846, 41.66077700000001], [-70.062456, 41.66024400000001], [-70.064758, 41.659916999999986], [-70.065891, 41.661697000000004], [-70.067155, 41.66224799999999], [-70.070185, 41.662758999999994], [-70.07245000000002, 41.66333000000001], [-70.075691, 41.66333], [-70.083436, 41.662601999999985], [-70.08648800000002, 41.66203000000001], [-70.087405, 41.662058999999985], [-70.088949, 41.661821999999994], [-70.089108, 41.660994], [-70.089583, 41.660757000000004], [-70.090731, 41.66117199999999], [-70.09481, 41.661053], [-70.100195, 41.659811], [-70.100433, 41.659574], [-70.101621, 41.659574], [-70.107521, 41.658213], [-70.108947, 41.65750299999999], [-70.114213, 41.656466999999985], [-70.114649, 41.656052999999986], [-70.114768, 41.655431999999976], [-70.115322, 41.65543199999999], [-70.11552, 41.654337], [-70.116114, 41.654248], [-70.116431, 41.65525399999999], [-70.117592, 41.655378000000006], [-70.133847, 41.70613700000001], [-70.096371, 41.71600100000002], [-70.09405, 41.724502], [-70.086963, 41.72593400000002], [-70.086219, 41.726244], [-70.084354, 41.725928999999994], [-70.081881, 41.72510800000001], [-70.075537, 41.72182100000001], [-70.071617, 41.722958999999996], [-70.069832, 41.723213], [-70.066825, 41.723326000000014], [-70.063902, 41.723143], [-70.057022, 41.72189], [-70.052808, 41.721571], [-70.049809, 41.72179800000001], [-70.043806, 41.72354599999999], [-70.043232, 41.723833], [-70.043356, 41.725118], [-70.041679, 41.72496600000001], [-70.040824, 41.725099], [-70.040024, 41.725516999999975], [-70.038447, 41.726778], [-70.037499, 41.726743000000006], [-70.03595, 41.72638699999999], [-70.034613, 41.725754], [-70.032791, 41.72405599999999], [-70.031511, 41.72382500000001], [-70.03064900000001, 41.72404399999999], [-70.03029, 41.724433], [-70.028199, 41.72441799999999], [-70.026575, 41.725634], [-70.026974, 41.72640400000002], [-70.026913, 41.72679900000002], [-70.02444, 41.727759999999996], [-70.011042, 41.728137], [-69.992646, 41.72888999999999], [-69.991779, 41.72893200000001], [-69.991763, 41.72904200000003], [-70.002259, 41.73568599999998], [-70.00075, 41.73795600000002], [-69.997254, 41.741349], [-69.99503, 41.74564600000002], [-69.993179, 41.747792], [-70.005377, 41.764625999999986], [-70.005365, 41.768815000000004], [-70.010218, 41.779219], [-70.011165, 41.780834999999996], [-70.011455, 41.78152999999999], [-70.011355, 41.781716], [-70.011864, 41.781589000000004], [-70.012068, 41.781860000000016], [-70.011788, 41.78225799999999], [-70.012086, 41.78238999999998], [-70.012434, 41.78222499999999], [-70.012577, 41.782386999999986], [-70.012501, 41.782762000000005], [-70.013135, 41.78307499999999], [-70.01323, 41.78323600000001], [-70.013109, 41.783460999999996], [-70.013456, 41.78376299999999], [-70.013736, 41.783713], [-70.013905, 41.78348199999999], [-70.014602, 41.78412300000001], [-70.014978, 41.78385099999999], [-70.015517, 41.784108], [-70.015742, 41.78439100000002], [-70.016006, 41.78415], [-70.016389, 41.78411700000003], [-70.016476, 41.78428199999999], [-70.016233, 41.78447499999999], [-70.01626100000001, 41.78463], [-70.016578, 41.784721000000005], [-70.016956, 41.784482999999994], [-70.017268, 41.784807], [-70.01772, 41.784696999999994], [-70.017744, 41.784855], [-70.017339, 41.785151000000006], [-70.01789, 41.785430999999996], [-70.019102, 41.784828], [-70.019391, 41.784843], [-70.019375, 41.785028], [-70.018835, 41.78533099999999], [-70.01889, 41.78603200000001], [-70.019476, 41.786459], [-70.020168, 41.786552999999984], [-70.020626, 41.786812000000005], [-70.020455, 41.787227], [-70.021199, 41.787135000000006], [-70.022149, 41.787487999999996], [-70.023767, 41.78860099999999], [-70.023722, 41.789496], [-70.023275, 41.79034], [-70.019101, 41.79438600000002], [-70.018147, 41.795052], [-70.017225, 41.79612900000001], [-70.016746, 41.79696399999999], [-70.015446, 41.79830299999998], [-70.013943, 41.79945399999999], [-70.012065, 41.800409], [-70.010208, 41.801084], [-70.039764, 41.81536100000002], [-70.041185, 41.816371000000004], [-70.040724, 41.835992000000005], [-70.040719, 41.85426300000001], [-70.040504, 41.865774], [-70.040979, 41.87582299999999], [-70.082652, 41.87039599999998], [-70.085397, 41.93562699999999], [-70.085262, 41.955936], [-70.086745, 41.991600000000005], [-70.087769, 42.007742000000015], [-70.090247, 42.014998999999996], [-70.094132, 42.02291799999999], [-70.100853, 42.03241100000001], [-70.106232, 42.037684], [-70.112845, 42.042909], [-70.117753, 42.045791], [-70.129144, 42.05143500000001], [-70.133834, 42.05303500000001], [-70.140014, 42.05476700000002], [-70.143682, 42.05604500000001], [-70.147534, 42.056726000000005], [-70.147545, 42.03949100000002], [-70.165368, 42.037940000000006], [-70.163798, 42.037181000000004], [-70.162684, 42.035819000000004], [-70.162063, 42.034014000000006], [-70.162446, 42.03193100000001], [-70.163518, 42.029774999999994], [-70.168568, 42.02449400000001], [-70.173679, 42.02040399999999], [-70.176349, 42.019184], [-70.181763, 42.017843000000006], [-70.183083, 42.01738599999998], [-70.186358, 42.01706500000001], [-70.192571, 42.01702000000001], [-70.196212, 42.01762200000001], [-70.19869, 42.01821400000001], [-70.212267, 42.02855000000001], [-70.216999, 42.03365000000001], [-70.21928, 42.037741999999994], [-70.221325, 42.041947], [-70.22776, 42.047748000000006], [-70.232093, 42.05151600000001], [-70.235691, 42.05381500000001], [-70.238584, 42.055032], [-70.241179, 42.055583], [-70.245211, 42.05695599999998], [-70.246887, 42.05817099999999], [-70.248424, 42.05949], [-70.250188, 42.06336700000001]]]}}