{"type": "Feature", "properties": {"district_name": "6th Worcester District", "chamber": "house", "vintage": "2012-2020"}, "geometry": {"type": "Polygon", "coordinates": [[[-72.099811, 42.02872300000001], [-72.074501, 42.05837299999999], [-72.066425, 42.072086], [-72.063583, 42.07277700000001], [-72.062839, 42.072590999999996], [-72.061042, 42.07170699999999], [-72.060645, 42.071735000000004], [-72.06036499999999, 42.07197599999999], [-72.059731, 42.072947000000006], [-72.05941, 42.073961], [-72.059418, 42.07447099999999], [-72.059687, 42.075436999999994], [-72.060285, 42.07619899999999], [-72.060799, 42.07738799999999], [-72.060791, 42.07909199999999], [-72.05981899999999, 42.080551000000014], [-72.05925900000001, 42.08104600000001], [-72.05917099999999, 42.082224000000004], [-72.058729, 42.08275099999999], [-72.057558, 42.083091], [-72.05537, 42.083129], [-72.054266, 42.08290399999999], [-72.053429, 42.082403], [-72.05209599999999, 42.088418], [-72.046785, 42.103525], [-72.040506, 42.104225999999976], [-72.046819, 42.135003999999995], [-72.02390500000001, 42.141792], [-72.02942, 42.174428], [-72.0186, 42.175699], [-72.019886, 42.18376199999999], [-71.97480399999999, 42.186910000000005], [-71.97475899999999, 42.18720299999999], [-71.973924, 42.188068], [-71.973359, 42.188939999999995], [-71.97314399999999, 42.18982899999999], [-71.97393199999999, 42.190767], [-71.974187, 42.19189600000001], [-71.974214, 42.19430900000001], [-71.974706, 42.19628700000001], [-71.97440999999999, 42.197706000000004], [-71.975146, 42.201605], [-71.974785, 42.202817999999986], [-71.972838, 42.20308000000001], [-71.970894, 42.204468], [-71.972121, 42.205535], [-71.97251, 42.208228], [-71.973156, 42.210358], [-71.973841, 42.211078000000015], [-71.97426, 42.21197300000001], [-71.975618, 42.212492000000005], [-71.976558, 42.213820999999996], [-71.977952, 42.214934], [-71.979655, 42.217802000000006], [-71.982447, 42.21996400000001], [-71.98320199999999, 42.22011099999999], [-71.984706, 42.219908999999994], [-71.985601, 42.22012], [-71.986852, 42.22107899999999], [-71.987811, 42.22215299999999], [-71.988019, 42.22392999999999], [-71.987173, 42.231438], [-71.987183, 42.23274199999999], [-71.98785699999999, 42.234281], [-71.988249, 42.23612999999999], [-71.990369, 42.238145], [-71.99089599999999, 42.238949000000005], [-71.99178599999999, 42.241265], [-71.99153799999999, 42.242515], [-71.991615, 42.24302999999999], [-71.99242199999999, 42.244068000000006], [-71.990901, 42.245181], [-71.983125, 42.24896399999999], [-71.981382, 42.24962000000001], [-71.979826, 42.247453], [-71.978925, 42.245298999999996], [-71.976086, 42.24405000000001], [-71.974588, 42.24367499999998], [-71.97295299999999, 42.243021999999996], [-71.968383, 42.240272], [-71.964445, 42.23874299999998], [-71.963842, 42.23830199999998], [-71.962634, 42.236566], [-71.961092, 42.235412000000004], [-71.960247, 42.235014000000014], [-71.959155, 42.23481100000001], [-71.95688299999999, 42.235325], [-71.95520499999999, 42.235019999999984], [-71.95465899999999, 42.23456499999998], [-71.951312, 42.230398000000015], [-71.948928, 42.230951000000005], [-71.939356, 42.189237999999996], [-71.925799, 42.19022400000001], [-71.92591999999999, 42.189201000000004], [-71.926313, 42.188069], [-71.926757, 42.187345], [-71.92819899999999, 42.18687099999999], [-71.929133, 42.18621499999998], [-71.92965099999999, 42.185367], [-71.930391, 42.18467599999999], [-71.93234199999999, 42.182044000000005], [-71.933424, 42.178933], [-71.9329, 42.177895], [-71.933875, 42.177659], [-71.93435199999999, 42.17687499999999], [-71.934259, 42.176623], [-71.935093, 42.175884], [-71.93621399999999, 42.17382], [-71.93853, 42.17115499999999], [-71.938656, 42.17045700000002], [-71.937144, 42.16791200000001], [-71.944131, 42.16433500000003], [-71.954561, 42.160163999999995], [-71.954613, 42.159953], [-71.957701, 42.15860800000002], [-71.963139, 42.15575000000002], [-71.96661, 42.15442], [-71.971228, 42.15342300000001], [-71.984023, 42.15269000000001], [-71.987368, 42.152238000000004], [-71.992009, 42.151309], [-71.990259, 42.15001999999999], [-71.989634, 42.14901900000001], [-71.98724899999999, 42.14605899999998], [-71.985513, 42.14512099999998], [-71.98462599999999, 42.144186000000005], [-71.97676799999999, 42.14063400000001], [-71.97601999999999, 42.14018499999999], [-71.975061, 42.139258999999974], [-71.97379, 42.138507000000004], [-71.97088, 42.13707700000001], [-71.969973, 42.136785], [-71.96983, 42.13575800000001], [-71.969563, 42.135447], [-71.969424, 42.134724000000006], [-71.969422, 42.13333299999999], [-71.969556, 42.13287200000001], [-71.96922099999999, 42.13184299999999], [-71.96797699999999, 42.131440000000005], [-71.96540399999999, 42.132661000000006], [-71.96224699999999, 42.133015], [-71.959351, 42.13206900000001], [-71.957611, 42.131091999999995], [-71.95456399999999, 42.13205200000001], [-71.950784, 42.13258699999999], [-71.948234, 42.134084], [-71.945884, 42.13395], [-71.943885, 42.13452], [-71.94259699999999, 42.13463599999999], [-71.94126299999999, 42.134353], [-71.93624299999999, 42.132374], [-71.932084, 42.131015], [-71.930363, 42.131046000000005], [-71.928797, 42.131358], [-71.924284, 42.133708000000006], [-71.92211, 42.13458300000001], [-71.92195699999999, 42.134992], [-71.922584, 42.137305000000005], [-71.920867, 42.137600000000006], [-71.919602, 42.13712900000001], [-71.916919, 42.13740499999999], [-71.91393, 42.138704000000004], [-71.912399, 42.138759], [-71.911723, 42.13835400000001], [-71.910967, 42.138788000000005], [-71.907837, 42.13958699999999], [-71.906909, 42.14104599999999], [-71.899489, 42.10411399999998], [-71.911895, 42.101317], [-71.909235, 42.091260999999996], [-71.895113, 42.094247999999986], [-71.891139, 42.072731999999995], [-71.881509, 42.075893000000015], [-71.878978, 42.06775800000002], [-71.879098, 42.06695], [-71.87884, 42.06601800000001], [-71.879609, 42.06389499999999], [-71.880217, 42.063467], [-71.880611, 42.063444000000004], [-71.882001, 42.062722999999984], [-71.882296, 42.06218500000001], [-71.88179699999999, 42.060041], [-71.882443, 42.059289], [-71.882477, 42.05867500000001], [-71.882145, 42.05840999999998], [-71.88165, 42.058479], [-71.88051, 42.05805600000001], [-71.880144, 42.05750299999999], [-71.880478, 42.056293999999994], [-71.880719, 42.056035999999985], [-71.88026099999999, 42.053924], [-71.880813, 42.052354999999984], [-71.880667, 42.0516], [-71.881219, 42.051103], [-71.882972, 42.05100700000001], [-71.883986, 42.05060700000001], [-71.886699, 42.050908], [-71.887174, 42.050720999999996], [-71.88756699999999, 42.05033799999999], [-71.8875, 42.046952999999995], [-71.887298, 42.046645999999996], [-71.886653, 42.04629799999999], [-71.88642, 42.04586800000002], [-71.88715599999999, 42.044759], [-71.88713299999999, 42.044348000000014], [-71.887434, 42.043716999999994], [-71.887385, 42.04282299999999], [-71.887636, 42.04177], [-71.888173, 42.040154000000015], [-71.888899, 42.038925000000006], [-71.889477, 42.036006999999984], [-71.88885599999999, 42.033952], [-71.888116, 42.032771999999994], [-71.887675, 42.032408999999994], [-71.887677, 42.031942], [-71.887976, 42.031463], [-71.887957, 42.031205], [-71.88751599999999, 42.030415], [-71.887002, 42.03007100000001], [-71.88690799999999, 42.02954999999999], [-71.886985, 42.02904800000001], [-71.88734699999999, 42.028815], [-71.88723399999999, 42.02824899999999], [-71.885628, 42.025642], [-71.885088, 42.025014], [-71.884512, 42.02491999999999], [-71.88330599999999, 42.024308999999995], [-71.89077999999999, 42.024367999999996], [-71.936925, 42.02550399999999], [-71.98768, 42.02688399999999], [-72.023744, 42.027002], [-72.042479, 42.027369], [-72.063496, 42.027347], [-72.07342600000001, 42.02756199999998], [-72.081766, 42.028031], [-72.099811, 42.02872300000001]]]}}