{"type": "Feature", "properties": {"district_name": "14th Worcester District", "chamber": "house", "vintage": "2022-present"}, "geometry": {"type": "Polygon", "coordinates": [[[-71.824162, 42.404854], [-71.786552, 42.398979000000004], [-71.777735, 42.400408999999996], [-71.763304, 42.40036700000002], [-71.741916, 42.392773000000005], [-71.741919, 42.38685000000001], [-71.753805, 42.383131], [-71.759706, 42.370742], [-71.763738, 42.344194999999985], [-71.764442, 42.312911000000014], [-71.767199, 42.313226], [-71.767239, 42.31144299999999], [-71.768267, 42.31126], [-71.758541, 42.296220999999996], [-71.75474, 42.274387000000004], [-71.769701, 42.27360600000001], [-71.773983, 42.273637], [-71.783385, 42.273349999999986], [-71.783674, 42.273711000000006], [-71.783581, 42.27485400000001], [-71.787642, 42.27615299999998], [-71.78696, 42.27715799999998], [-71.785444, 42.277133000000006], [-71.785426, 42.277511], [-71.786212, 42.27749100000001], [-71.786387, 42.277877000000004], [-71.790186, 42.27797799999999], [-71.788695, 42.280729], [-71.789697, 42.280501], [-71.788751, 42.282866000000006], [-71.791945, 42.283566999999984], [-71.79204, 42.283318], [-71.79662, 42.283953000000004], [-71.797935, 42.283941], [-71.797902, 42.286137], [-71.797434, 42.28756699999998], [-71.79758700000001, 42.28797300000001], [-71.798132, 42.287655000000015], [-71.799587, 42.28749799999999], [-71.800536, 42.28717800000001], [-71.799653, 42.285481999999995], [-71.799681, 42.284150000000004], [-71.803268, 42.283353], [-71.804291, 42.28295400000001], [-71.804233, 42.28264800000001], [-71.806233, 42.28226600000001], [-71.80598900000001, 42.281862999999994], [-71.80856, 42.28164300000001], [-71.808464, 42.283486], [-71.806557, 42.286525], [-71.807022, 42.286515000000016], [-71.80728100000002, 42.286756000000004], [-71.807228, 42.286542], [-71.812291, 42.28705300000001], [-71.811968, 42.28901900000001], [-71.812966, 42.289243], [-71.812841, 42.28987899999999], [-71.81607, 42.29118799999999], [-71.816932, 42.291133], [-71.817817, 42.291286], [-71.817682, 42.29219399999999], [-71.818194, 42.292260000000006], [-71.818063, 42.292744000000006], [-71.820263, 42.293065000000006], [-71.819704, 42.296376], [-71.818671, 42.296272], [-71.820642, 42.29895599999999], [-71.820961, 42.300375], [-71.819058, 42.30019599999999], [-71.817884, 42.299881000000006], [-71.817776, 42.302096000000006], [-71.818032, 42.30479100000001], [-71.816686, 42.30470700000001], [-71.816226, 42.304190000000006], [-71.815287, 42.30367799999998], [-71.814255, 42.30264900000001], [-71.813663, 42.30237600000002], [-71.812646, 42.302599], [-71.812292, 42.30315700000001], [-71.811661, 42.30272199999999], [-71.81133, 42.30296899999998], [-71.810868, 42.302984999999985], [-71.809597, 42.302552], [-71.809112, 42.302554999999984], [-71.80775, 42.30361], [-71.806626, 42.301602999999986], [-71.806834, 42.301179], [-71.806787, 42.300814999999986], [-71.807126, 42.300428999999994], [-71.807243, 42.29906699999999], [-71.805127, 42.298939999999995], [-71.804779, 42.29907499999999], [-71.803134, 42.29654500000002], [-71.802845, 42.297840000000015], [-71.802502, 42.298564], [-71.800915, 42.30001600000002], [-71.80134, 42.30216599999999], [-71.801247, 42.30359799999999], [-71.800857, 42.30511799999999], [-71.805983, 42.30691400000001], [-71.807231, 42.30701499999999], [-71.806571, 42.311915000000006], [-71.805831, 42.314299], [-71.807399, 42.31470399999999], [-71.8054, 42.31732800000001], [-71.807341, 42.317920999999984], [-71.809228, 42.320824], [-71.80975200000002, 42.321356000000016], [-71.810445, 42.321604], [-71.810846, 42.322355000000016], [-71.810823, 42.323121], [-71.811038, 42.323967], [-71.811841, 42.32536100000001], [-71.80204200000001, 42.331345000000006], [-71.824162, 42.404854]]]}}