{"type": "Feature", "properties": {"district_name": "13th Bristol", "chamber": "house", "vintage": "2001-2010"}, "geometry": {"type": "MultiPolygon", "coordinates": [[[[-70.92154700345874, 41.64137369761693], [-70.92081549677262, 41.635477599867755], [-70.9184071506768, 41.635634684072514], [-70.91825447029905, 41.635061040515374], [-70.91822372008173, 41.63421509959948], [-70.92093762849268, 41.63391775849657], [-70.92087649585687, 41.63344137488947], [-70.92011390588468, 41.63316569224781], [-70.91816325545356, 41.63323450885487], [-70.91813228469246, 41.632865755568055], [-70.9204801772381, 41.632664476391675], [-70.9203582374077, 41.63229695274037], [-70.91813231143131, 41.63245102579644], [-70.91791885604918, 41.63229292604848], [-70.9179195579279, 41.632112854996514], [-70.9189251409738, 41.63199701588901], [-70.91901740507328, 41.63135597154969], [-70.9197181501165, 41.63133534837837], [-70.91971762675684, 41.63087559719428], [-70.91794937769058, 41.630833352217536], [-70.91794967164594, 41.63034715217881], [-70.91858977781811, 41.63021031149988], [-70.91843827574066, 41.629528062129964], [-70.91773681549388, 41.62948564752321], [-70.91764542386464, 41.62916329596654], [-70.91813275009162, 41.62902003885525], [-70.91807207869158, 41.62866070448365], [-70.9169132644971, 41.628725112969676], [-70.91679202705527, 41.62844818451255], [-70.9162425800125, 41.62847519383125], [-70.91596888622755, 41.62820029968783], [-70.91447421525896, 41.62445661944746], [-70.91450485517032, 41.62399702855455], [-70.91474870524071, 41.62367752621556], [-70.91474905207694, 41.62269612092058], [-70.91523674737812, 41.620887187491675], [-70.91520695942947, 41.62024833634342], [-70.91389543318638, 41.61999116046405], [-70.91337809598306, 41.62022483981789], [-70.9117919456668, 41.62179961692505], [-70.90984036218215, 41.62332688975625], [-70.90865132412802, 41.62401343111511], [-70.90764592506758, 41.62436328599546], [-70.90673064793248, 41.62447724522317], [-70.90663956668422, 41.624289942221885], [-70.90663941230078, 41.62390278057037], [-70.90837732337516, 41.62318928873045], [-70.91054210372995, 41.621703663438716], [-70.91298118089891, 41.61928584395368], [-70.91325591592384, 41.61878586241859], [-70.91328671312336, 41.61837129131455], [-70.9131647583593, 41.61770663623298], [-70.91292070941087, 41.61731427169177], [-70.90984257969038, 41.61564558708978], [-70.90862323842606, 41.61475631572546], [-70.90831946821189, 41.61360845072572], [-70.90710088650215, 41.61185480762592], [-70.90487618097748, 41.61047798787053], [-70.90493691358775, 41.60979233781062], [-70.90420610863089, 41.608858872649], [-70.90374956941375, 41.60782217344592], [-70.90359756385206, 41.606473623634685], [-70.90314055933878, 41.60532887450074], [-70.90225721702188, 41.603938222427935], [-70.90183116640429, 41.602675456504045], [-70.90189238828036, 41.60190033133798], [-70.90131446584746, 41.60050508415681], [-70.90140535338575, 41.600206188486176], [-70.90207601869302, 41.59963685626148], [-70.9025330476299, 41.59886381284051], [-70.90289938605896, 41.59760577272313], [-70.90311348604837, 41.5973773021549], [-70.90314369071466, 41.59689070050042], [-70.90207712438593, 41.595404535590845], [-70.90064551586755, 41.594221446249406], [-70.90055464281798, 41.593439324837675], [-70.89991512145743, 41.59272972233729], [-70.89985448639734, 41.59246041521318], [-70.90031157986066, 41.59185845237751], [-70.90089103436823, 41.59151542342267], [-70.90214018455866, 41.59152200335435], [-70.90244399192866, 41.591678916147096], [-70.90244366443673, 41.59215611277164], [-70.90277943716104, 41.592322196501485], [-70.90847729583265, 41.593263073726774], [-70.90933027876306, 41.59353705613568], [-70.91060912751574, 41.59429044903862], [-70.91182834892507, 41.59623312834235], [-70.91255930917421, 41.59845464679151], [-70.91316786837918, 41.599434696522444], [-70.91368655487987, 41.59973224631805], [-70.91295574367703, 41.60033003073388], [-70.91286368337941, 41.60076398533381], [-70.91304590966679, 41.60131021995186], [-70.91332039035362, 41.6017916445078], [-70.91508711194953, 41.60355422917105], [-70.91533128905122, 41.60481094834671], [-70.91575721452227, 41.605605467425114], [-70.91621484077017, 41.60604787664251], [-70.91642842488334, 41.60659369947227], [-70.91706799287854, 41.60716871891619], [-70.91709847518665, 41.60769052452706], [-70.91770762260903, 41.60856250741991], [-70.91785955848601, 41.609911036447514], [-70.92109099477169, 41.61261290502165], [-70.92136439168266, 41.61386862485938], [-70.92166898183196, 41.61435019096986], [-70.92932035168425, 41.61336637616183], [-70.92986830904067, 41.6131142127539], [-70.93020393648854, 41.61281145295745], [-70.93020405713965, 41.61233425621703], [-70.92989922213307, 41.61160061677061], [-70.93017308403412, 41.61025424080877], [-70.93150741879897, 41.608329066394965], [-70.93198202260344, 41.60820426190866], [-70.93268198116333, 41.611203746575804], [-70.93418203501258, 41.61020393320961], [-70.93478208288849, 41.6116041793273], [-70.93488195569587, 41.61220399059449], [-70.93565807225775, 41.61375198490679], [-70.93728192713576, 41.6150042330766], [-70.94358205277643, 41.61790405824266], [-70.94498193604612, 41.618703796410806], [-70.9463820081191, 41.61920413564797], [-70.94958293351426, 41.621004108061776], [-70.95208296550187, 41.62390412578137], [-70.95518308250458, 41.63010287968776], [-70.95598304206102, 41.63100314645732], [-70.95698304655328, 41.63290320716999], [-70.95828307664083, 41.63470282980159], [-70.95938297979103, 41.63680311887545], [-70.95698306643814, 41.63650299657092], [-70.95878301816104, 41.64430315879611], [-70.95498299185337, 41.64820274636785], [-70.95278296526884, 41.64560305700614], [-70.9519829595935, 41.64390313090939], [-70.95148302824138, 41.6433030993096], [-70.95088303491121, 41.64210326842548], [-70.94048309012699, 41.64310319506824], [-70.94108302176363, 41.64480277862215], [-70.93868307090477, 41.64510327805819], [-70.93848295502951, 41.644802916462794], [-70.93488193452863, 41.645203183193516], [-70.93438193057722, 41.64210285928659], [-70.9357820443314, 41.64190272972986], [-70.93528201969994, 41.638804093403174], [-70.93478206513245, 41.637103840726645], [-70.92878204927905, 41.637704115923945], [-70.9289819949106, 41.63820426871857], [-70.92788195960696, 41.638303965430424], [-70.9280819460096, 41.638903719241085], [-70.92738191099998, 41.63900373876967], [-70.92698199623405, 41.639704014639484], [-70.9235079949311, 41.64033078782939], [-70.92362097931348, 41.6407168282122], [-70.92318194267159, 41.640403973236936], [-70.92339125696063, 41.6411512188461], [-70.92154700345874, 41.64137369761693]]], [[[-70.91081567369702, 41.62440957940727], [-70.91103084499557, 41.62543656226764], [-70.91026844019555, 41.62645791032469], [-70.90993338521943, 41.62659853878918], [-70.90978091972366, 41.62572720285749], [-70.909840292195, 41.624840075651164], [-70.90929212939896, 41.62458794200135], [-70.90932199759455, 41.624317417809934], [-70.90981034495115, 41.62402114722715], [-70.91032803095592, 41.624039590354506], [-70.91081567369702, 41.62440957940727]]], [[[-70.92038848065518, 41.6381506571608], [-70.92072368937232, 41.638514198359154], [-70.92060213701676, 41.63961485225966], [-70.92048026875473, 41.63979711495718], [-70.91947372461082, 41.640048028486774], [-70.9188026006874, 41.63871710787256], [-70.91962646734541, 41.637577842347596], [-70.92038895495072, 41.637601432029555], [-70.92038848065518, 41.6381506571608]]], [[[-70.91669959977531, 41.63961684121144], [-70.91804066586424, 41.64098159282343], [-70.91801028760686, 41.641765320243174], [-70.91749202158339, 41.64228770104351], [-70.9168209824797, 41.6424519559569], [-70.91554080953509, 41.642427933852225], [-70.91514437511101, 41.64221880961231], [-70.91465621636677, 41.641190997482674], [-70.91429018521677, 41.6411429684729], [-70.91282682313859, 41.641689718116055], [-70.91188162141393, 41.64184970966027], [-70.91118067701191, 41.6406362049265], [-70.91279678262332, 41.64014092045225], [-70.9143514583077, 41.63944889828442], [-70.91560156823431, 41.63926625193414], [-70.91624226148258, 41.639363515070784], [-70.91669959977531, 41.63961684121144]]], [[[-70.92200453116597, 41.64839949995148], [-70.922462121019, 41.64761737498308], [-70.92227899490003, 41.64656638495902], [-70.92243191134052, 41.64624865484095], [-70.9229493356466, 41.64587987792218], [-70.92291933498635, 41.64515098193225], [-70.92118113228749, 41.64487372829029], [-70.92142523314192, 41.64210519832346], [-70.92354861724719, 41.64171306601507], [-70.92408203933172, 41.64410400771298], [-70.9237820183339, 41.648802991739736], [-70.92225953243141, 41.648948897717595], [-70.92200453116597, 41.64839949995148]]]]}}