{"type": "Feature", "properties": {"district_name": "16th Middlesex District", "chamber": "house", "vintage": "2012-2020"}, "geometry": {"type": "Polygon", "coordinates": [[[-71.41765199999999, 42.653821], [-71.412309, 42.64941], [-71.41197799999999, 42.64797400000001], [-71.409764, 42.648785], [-71.405309, 42.648138000000024], [-71.403966, 42.648419], [-71.402734, 42.646695], [-71.39895899999999, 42.644883], [-71.39831199999999, 42.64550199999999], [-71.401288, 42.649488], [-71.40211, 42.651603], [-71.398995, 42.652467], [-71.398173, 42.65101899999998], [-71.396968, 42.649637], [-71.394341, 42.648474], [-71.392488, 42.648476], [-71.38521999999999, 42.649598999999995], [-71.382483, 42.64938699999997], [-71.38092, 42.649007999999995], [-71.38027900000002, 42.650017000000005], [-71.380316, 42.650516], [-71.38063, 42.65093300000001], [-71.38213, 42.65184799999999], [-71.382491, 42.652494], [-71.38215799999999, 42.65337000000002], [-71.378204, 42.660686999999996], [-71.368882, 42.661753000000004], [-71.357523, 42.654454000000044], [-71.29956899999999, 42.66651499999999], [-71.28685999999999, 42.648867999999986], [-71.28647, 42.649153000000005], [-71.28737, 42.64762799999999], [-71.290504, 42.645091], [-71.293505, 42.64459100000001], [-71.29951, 42.646977], [-71.301704, 42.64724100000001], [-71.30465099999999, 42.647906000000006], [-71.305404, 42.64821000000001], [-71.307923, 42.649301999999985], [-71.308256, 42.649539], [-71.307966, 42.64980600000003], [-71.312405, 42.65249100000001], [-71.315454, 42.654682000000015], [-71.319537, 42.655851], [-71.322451, 42.653929], [-71.32439699999999, 42.65188800000001], [-71.327006, 42.653806], [-71.327614, 42.653316999999994], [-71.325955, 42.65206200000001], [-71.327285, 42.651733000000014], [-71.329334, 42.651782999999995], [-71.329981, 42.65149900000001], [-71.33161199999999, 42.65022199999998], [-71.330541, 42.649613999999985], [-71.334338, 42.646688999999995], [-71.337374, 42.643916999999995], [-71.339705, 42.642092999999974], [-71.34391699999999, 42.64048299999999], [-71.35597899999999, 42.638999], [-71.356875, 42.63874499999998], [-71.36484899999999, 42.637861], [-71.359945, 42.626008000000006], [-71.34863, 42.62145300000001], [-71.329328, 42.61398499999998], [-71.328077, 42.613147], [-71.325698, 42.613263999999994], [-71.324975, 42.611601], [-71.325277, 42.611376999999976], [-71.323771, 42.607572], [-71.326945, 42.607269], [-71.335776, 42.60692800000001], [-71.339238, 42.60651000000001], [-71.356269, 42.602601000000014], [-71.358351, 42.60194000000001], [-71.36077999999999, 42.60085999999999], [-71.36324499999999, 42.60109899999999], [-71.36495, 42.60087499999999], [-71.365689, 42.60225099999999], [-71.365714, 42.602632], [-71.365552, 42.602898], [-71.366225, 42.604035999999994], [-71.36644199999999, 42.604778999999986], [-71.367775, 42.606572], [-71.368069, 42.60908099999999], [-71.367661, 42.609575], [-71.367687, 42.609832000000004], [-71.368768, 42.61185199999999], [-71.369464, 42.61245599999999], [-71.369901, 42.613077999999994], [-71.36805799999999, 42.61390200000002], [-71.367049, 42.614858000000005], [-71.36528299999999, 42.61503200000001], [-71.365138, 42.61460700000001], [-71.36469100000001, 42.61409], [-71.36441099999999, 42.61399599999999], [-71.362098, 42.61498399999999], [-71.35990799999999, 42.61293299999999], [-71.35707, 42.615174], [-71.358957, 42.61685799999999], [-71.356961, 42.617863], [-71.357599, 42.61888199999999], [-71.355322, 42.619034000000006], [-71.35338899999999, 42.618794], [-71.352217, 42.618851], [-71.352091, 42.61944], [-71.351781, 42.619847], [-71.351193, 42.61981799999998], [-71.35047, 42.620481999999996], [-71.353774, 42.620290999999995], [-71.357704, 42.62060000000002], [-71.379368, 42.62551899999999], [-71.389853, 42.62721199999999], [-71.39656099999999, 42.622541999999996], [-71.398067, 42.621701], [-71.398995, 42.62152299999999], [-71.399576, 42.621582999999994], [-71.400086, 42.621477999999996], [-71.400198, 42.621278], [-71.400862, 42.62197999999999], [-71.402036, 42.62166399999999], [-71.40205999999999, 42.62133399999998], [-71.403083, 42.61981699999999], [-71.403672, 42.618467], [-71.40709, 42.616432], [-71.41765199999999, 42.653821]]]}}