{"type": "Feature", "properties": {"district_name": "12th Worcester District", "chamber": "house", "vintage": "2022-present"}, "geometry": {"type": "Polygon", "coordinates": [[[-71.835604, 42.48359599999998], [-71.830019, 42.49218600000001], [-71.728385, 42.475128000000005], [-71.71674, 42.518971], [-71.712384, 42.52132899999999], [-71.702236, 42.53389499999997], [-71.635869, 42.52402399999999], [-71.636144, 42.523098000000005], [-71.635153, 42.52286500000001], [-71.634087, 42.52211], [-71.632914, 42.520116999999985], [-71.6319, 42.51911299999999], [-71.630646, 42.51908299999999], [-71.630151, 42.518834], [-71.630022, 42.51782100000001], [-71.630138, 42.51756400000001], [-71.630811, 42.51708], [-71.631824, 42.51699300000002], [-71.632274, 42.51662599999999], [-71.632205, 42.516202], [-71.631124, 42.515871999999995], [-71.630061, 42.515982], [-71.629615, 42.515845000000006], [-71.629132, 42.51509499999998], [-71.629751, 42.513956], [-71.62974, 42.51365999999999], [-71.62916, 42.513379999999984], [-71.628001, 42.513240999999994], [-71.627305, 42.512836], [-71.627441, 42.51234500000001], [-71.627994, 42.51151300000001], [-71.627813, 42.510923999999996], [-71.627964, 42.510707999999994], [-71.628427, 42.510512000000006], [-71.628683, 42.51056700000001], [-71.629201, 42.511100000000006], [-71.629711, 42.51127300000001], [-71.629873, 42.511142], [-71.62982900000002, 42.51041900000001], [-71.630577, 42.509716], [-71.631803, 42.50972599999999], [-71.631849, 42.50950099999998], [-71.631426, 42.50912899999999], [-71.631263, 42.508725999999996], [-71.631326, 42.508333], [-71.632815, 42.506583], [-71.634219, 42.504361], [-71.634183, 42.504167], [-71.633467, 42.50350800000001], [-71.633763, 42.502863999999995], [-71.633699, 42.50269599999999], [-71.633217, 42.50251300000001], [-71.631993, 42.50266700000002], [-71.631236, 42.502563], [-71.629674, 42.50152300000001], [-71.626405, 42.500094000000004], [-71.62588, 42.49949500000002], [-71.625885, 42.49851100000001], [-71.62663, 42.49591199999999], [-71.626834, 42.495567000000015], [-71.62776, 42.495047000000014], [-71.627978, 42.494513], [-71.627594, 42.493335], [-71.627769, 42.492611999999994], [-71.628629, 42.490778000000006], [-71.62895, 42.48877800000001], [-71.630808, 42.48743999999999], [-71.631231, 42.48673800000002], [-71.63161000000001, 42.485423], [-71.631908, 42.485413], [-71.633567, 42.48623500000001], [-71.634151, 42.48580799999999], [-71.634129, 42.485352], [-71.633492, 42.48515900000001], [-71.633103, 42.485265000000005], [-71.632602, 42.48513400000001], [-71.632203, 42.484553000000005], [-71.63206, 42.48397800000001], [-71.632108, 42.482988000000006], [-71.632277, 42.48272599999999], [-71.632539, 42.48267800000001], [-71.633664, 42.48308600000001], [-71.634102, 42.482875000000014], [-71.634158, 42.482445999999996], [-71.633915, 42.48129399999999], [-71.634288, 42.48055000000001], [-71.634847, 42.47996299999998], [-71.634709, 42.47952600000001], [-71.633782, 42.478435], [-71.633689, 42.477183999999994], [-71.635448, 42.477081999999996], [-71.635791, 42.476891], [-71.642426, 42.479502999999994], [-71.65674, 42.430957], [-71.660633, 42.418231999999996], [-71.630418, 42.40953700000001], [-71.580135, 42.386953000000005], [-71.607759, 42.370022], [-71.603065, 42.367267], [-71.610007, 42.357403000000005], [-71.624702, 42.35046500000001], [-71.625825, 42.34972399999999], [-71.620658, 42.345248999999995], [-71.619131, 42.343348999999996], [-71.61826, 42.342589], [-71.622949, 42.33796500000001], [-71.625042, 42.33689900000002], [-71.625767, 42.336300000000016], [-71.62681, 42.334578], [-71.628537, 42.332840999999995], [-71.630082, 42.33084199999997], [-71.630843, 42.328889], [-71.63344, 42.32733999999999], [-71.639343, 42.322973999999995], [-71.640569, 42.32406199999999], [-71.641234, 42.324214000000005], [-71.641209, 42.323502000000005], [-71.641448, 42.323078], [-71.64351, 42.32205399999999], [-71.643875, 42.321275], [-71.644588, 42.320937], [-71.650801, 42.323691999999994], [-71.650589, 42.326397], [-71.649903, 42.32621499999998], [-71.649071, 42.32666199999999], [-71.64837, 42.326817000000005], [-71.649511, 42.32881299999999], [-71.650093, 42.330259999999996], [-71.652365, 42.332728], [-71.653195, 42.33392800000001], [-71.653929, 42.33452500000001], [-71.656535, 42.33598700000001], [-71.658525, 42.33606799999998], [-71.660396, 42.336478], [-71.665736, 42.333909], [-71.667731, 42.33325200000001], [-71.66964800000001, 42.33282599999999], [-71.672887, 42.33249], [-71.68042, 42.332656], [-71.685951, 42.332100999999994], [-71.687879, 42.32550200000001], [-71.689537, 42.325973000000005], [-71.691139, 42.326904999999975], [-71.690965, 42.328959], [-71.697589, 42.327552], [-71.697643, 42.329179], [-71.695477, 42.330268000000004], [-71.698673, 42.33240599999999], [-71.730213, 42.32113799999999], [-71.731824, 42.317927000000005], [-71.741745, 42.315726], [-71.741419, 42.31731799999999], [-71.756514, 42.31213500000001], [-71.764456, 42.312863], [-71.763738, 42.344194999999985], [-71.759706, 42.370742], [-71.753805, 42.383131], [-71.741919, 42.38685000000001], [-71.741916, 42.392773000000005], [-71.763304, 42.40036700000002], [-71.777735, 42.400408999999996], [-71.786552, 42.398979000000004], [-71.817778, 42.403955999999994], [-71.831745, 42.431826], [-71.814231, 42.443999], [-71.814665, 42.444401000000006], [-71.81456, 42.44455700000002], [-71.81324, 42.44520199999999], [-71.813147, 42.445563], [-71.81387, 42.44581799999999], [-71.81532, 42.445807000000016], [-71.815892, 42.446077000000024], [-71.817658, 42.44646399999999], [-71.81841, 42.44701899999999], [-71.818482, 42.44746700000001], [-71.818801, 42.447925000000005], [-71.819111, 42.448042], [-71.819418, 42.448648000000006], [-71.819418, 42.448804], [-71.819011, 42.449014], [-71.818951, 42.44958799999999], [-71.819103, 42.449877], [-71.819489, 42.450196000000005], [-71.821025, 42.45049900000001], [-71.820893, 42.450931999999995], [-71.820256, 42.451585999999985], [-71.820082, 42.45200900000002], [-71.820737, 42.45334199999999], [-71.822012, 42.454497999999994], [-71.822007, 42.45490499999999], [-71.821569, 42.45520599999999], [-71.821638, 42.45565800000001], [-71.823224, 42.457223000000006], [-71.823492, 42.45768399999999], [-71.823564, 42.4582], [-71.823972, 42.458956000000015], [-71.823681, 42.460097000000005], [-71.82400300000002, 42.461408], [-71.823905, 42.461607000000015], [-71.824061, 42.46181999999999], [-71.825366, 42.46234299999999], [-71.825329, 42.462911000000005], [-71.825568, 42.46314499999998], [-71.827267, 42.463640999999996], [-71.827081, 42.464335], [-71.827317, 42.465169], [-71.827348, 42.46554399999998], [-71.827208, 42.465732], [-71.827408, 42.466373000000004], [-71.827869, 42.46692899999999], [-71.82783, 42.467653999999996], [-71.827614, 42.468046], [-71.828226, 42.469258999999994], [-71.828195, 42.47011899999999], [-71.827743, 42.471314], [-71.827799, 42.472061], [-71.835604, 42.48359599999998]]]}}