{"type": "Feature", "properties": {"district_name": "7th Worcester", "chamber": "house", "vintage": "2001-2010"}, "geometry": {"type": "Polygon", "coordinates": [[[-71.73381400462303, 42.237492826585466], [-71.7332140516198, 42.23619423276362], [-71.73291402507743, 42.23429407393611], [-71.73031300301258, 42.222594224076616], [-71.72841292801617, 42.21269408280018], [-71.72501293085092, 42.1969937798196], [-71.72351307927282, 42.191194208042496], [-71.7229129527939, 42.18799420089339], [-71.71881302550321, 42.17309516519064], [-71.71181298351961, 42.1735950461049], [-71.69571205879748, 42.175395023623985], [-71.69181192089185, 42.16309488076238], [-71.6918479465142, 42.162878744920754], [-71.6937199303613, 42.16123083859266], [-71.69255205385493, 42.15420696792794], [-71.69965596211246, 42.15279875738452], [-71.70943301966493, 42.15126315181314], [-71.71292106364679, 42.15095906290983], [-71.71680892389591, 42.150879182559834], [-71.71741709608472, 42.151103109925835], [-71.71888896897588, 42.15196686400111], [-71.71992900761829, 42.15379083324781], [-71.72258501609694, 42.15475072937934], [-71.72293708957591, 42.155087105820385], [-71.72319305343972, 42.155886764248834], [-71.72340100390632, 42.15894293360796], [-71.72363094334801, 42.159596898133614], [-71.72494692244635, 42.16008781379673], [-71.7260810358502, 42.16084409918591], [-71.7266000099367, 42.161360189091255], [-71.72715190210631, 42.16378488987025], [-71.72739505248865, 42.16398978786591], [-71.72918595390547, 42.1644830880043], [-71.72956609137141, 42.1654940570612], [-71.73317707929948, 42.16444690540518], [-71.73376901220102, 42.16411089057091], [-71.73445706520043, 42.16343875026309], [-71.7354969695452, 42.1631670913439], [-71.73668091967157, 42.16238306190326], [-71.73685700406311, 42.163358982978366], [-71.7371449321746, 42.1639030789249], [-71.73877708411263, 42.164447191416954], [-71.74023401195382, 42.16639895851625], [-71.74088994715028, 42.1670390571294], [-71.7412899470862, 42.168895116616554], [-71.74293806809767, 42.17075078732635], [-71.74447402331715, 42.17459018348239], [-71.74527397645994, 42.1757099249125], [-71.7462500184321, 42.17678202511644], [-71.74826591386231, 42.17852597155385], [-71.74951406986602, 42.17999415056334], [-71.75071407783263, 42.1796938715492], [-71.75441406839938, 42.17799425746084], [-71.75731409211097, 42.17639423013917], [-71.76681408154676, 42.172294091201266], [-71.77411395404997, 42.16949377068373], [-71.77811396588423, 42.16749387139546], [-71.78631392152553, 42.16409412217744], [-71.78661396675275, 42.16379401690938], [-71.80091507990767, 42.157294211501615], [-71.80411496185303, 42.156293732626295], [-71.81181491258178, 42.15259411492946], [-71.8292150093363, 42.144995142234066], [-71.83172308923739, 42.14409489922469], [-71.83052306404545, 42.13638316864159], [-71.83028295286606, 42.133534895751595], [-71.82956295436338, 42.129582863677136], [-71.81804299258911, 42.13356726942463], [-71.8133869109042, 42.125950982035526], [-71.81557895182155, 42.12267116167124], [-71.81954703518939, 42.12099118642952], [-71.82597906899294, 42.1217428443103], [-71.83058702362618, 42.120174896429994], [-71.8335949873451, 42.11948698993111], [-71.83557894303237, 42.11883127780367], [-71.83655493687186, 42.118735006044915], [-71.83948295908898, 42.119199038263496], [-71.84005890991725, 42.119166944173784], [-71.84481107461201, 42.11718327655556], [-71.84551498374644, 42.116607197671016], [-71.84706697956415, 42.11574325270355], [-71.84903593587899, 42.115086784640745], [-71.85250805154122, 42.11630284874999], [-71.8635480558259, 42.11702293792376], [-71.86476402439918, 42.11707084160927], [-71.8673080062673, 42.11625522777457], [-71.8681559940926, 42.11175874449939], [-71.86807598765076, 42.110015182820405], [-71.86857190953803, 42.10822305992128], [-71.86617205771066, 42.10815873036103], [-71.86666794122806, 42.10550285798092], [-71.86681190403847, 42.10321500303922], [-71.86753198368893, 42.10275127594857], [-71.86807594215772, 42.101791236588774], [-71.8684600783741, 42.10164707416507], [-71.86869992563963, 42.10134300832119], [-71.86922800018117, 42.10129516528341], [-71.86892391209157, 42.10087917553784], [-71.8691640111214, 42.10071916060444], [-71.86951602121674, 42.10076697638961], [-71.87068405276925, 42.0996467931338], [-71.87154799257436, 42.099215211593815], [-71.87167596320414, 42.09935884916473], [-71.87180407028237, 42.09868712932131], [-71.87274806922936, 42.098286790226545], [-71.87270000357857, 42.098078745309145], [-71.87316393210186, 42.09779081261023], [-71.87313201005166, 42.09763110800411], [-71.87417203454156, 42.097375064197735], [-71.87457200667777, 42.09713516921372], [-71.87474796021274, 42.09679922053812], [-71.87533993574748, 42.09660708716778], [-71.87740406147788, 42.09599876586394], [-71.87869998809958, 42.0958391809061], [-71.87986808209531, 42.09395081181222], [-71.87999604081573, 42.09254305274029], [-71.87993196455919, 42.0919349835541], [-71.87959491936486, 42.09125522572064], [-71.87713098821118, 42.09139616542428], [-71.8749430784477, 42.09129474289976], [-71.87453395765208, 42.09080877746437], [-71.87392997917364, 42.0908771506614], [-71.87364999036156, 42.09070194179717], [-71.87166701862739, 42.088435058583315], [-71.87165596555172, 42.087805987912525], [-71.87210897251127, 42.0872131069939], [-71.87292795989367, 42.08636075473453], [-71.87520208107128, 42.08462018694817], [-71.87577295886355, 42.08311588571295], [-71.87612896552531, 42.08296222754351], [-71.87673292967081, 42.083287737819454], [-71.8770239149313, 42.08325076676347], [-71.87797205820756, 42.082701247180715], [-71.87720691891741, 42.08128124519176], [-71.87802604207752, 42.08079293134218], [-71.87804801238654, 42.08004108105232], [-71.87787501306343, 42.07978393190635], [-71.87702392160409, 42.07943278985213], [-71.8770449245472, 42.078740031678144], [-71.87608791531657, 42.07768697181849], [-71.89084405047267, 42.072928244790226], [-71.89487596604303, 42.094462754402855], [-71.90890897919513, 42.09158308786173], [-71.91172494474621, 42.10150309551794], [-71.89932403165392, 42.10439880016803], [-71.90550098774578, 42.13366199018168], [-71.90407691160082, 42.13369403038291], [-71.89932490586938, 42.135038102696605], [-71.89665301417357, 42.135614029457656], [-71.89602905773745, 42.135422050108716], [-71.89426797672947, 42.13433422625669], [-71.8929240577221, 42.13449414845902], [-71.89036405792422, 42.13449389434593], [-71.88943596337249, 42.134813858828274], [-71.8887960091288, 42.13524593746182], [-71.88737196290201, 42.13662206417017], [-71.88593195702768, 42.136813740243255], [-71.88505195784424, 42.137470003567934], [-71.88417200890568, 42.137294017105724], [-71.88396392453444, 42.13742188543341], [-71.8841879676185, 42.137902241420306], [-71.88409199302501, 42.13819010901339], [-71.8833879293552, 42.13822172711536], [-71.8829079153688, 42.13794985815827], [-71.88182000013722, 42.138238215789556], [-71.88060398702451, 42.13906999256451], [-71.8802840826916, 42.13911776339611], [-71.87898809704292, 42.14014223254452], [-71.87833196540589, 42.14108580689023], [-71.87706791301933, 42.14103820405013], [-71.8756120122321, 42.142270235018465], [-71.87492396388491, 42.142654000305356], [-71.873180031447, 42.14291009911278], [-71.87258807945203, 42.14327778166194], [-71.87177191670845, 42.144414272906765], [-71.87068400915774, 42.14508572875425], [-71.87026804084073, 42.145165851635575], [-71.8684280118309, 42.144286087819545], [-71.86831594373025, 42.14406192529195], [-71.86841208279775, 42.14382190511076], [-71.86814002170414, 42.14342213523737], [-71.86748396635213, 42.14300615730209], [-71.86497198830388, 42.14323026178572], [-71.86639602253724, 42.14099009692722], [-71.86673194189959, 42.14007801153307], [-71.86682798531875, 42.139069899180235], [-71.8660279261568, 42.13684584683128], [-71.85701996279641, 42.13900578123061], [-71.85282806035916, 42.138735161475935], [-71.85237996408391, 42.13884682981188], [-71.8513560131191, 42.13955110069556], [-71.84933992617462, 42.14043113584481], [-71.8467959244478, 42.14070277394049], [-71.84566006979689, 42.141423087661764], [-71.84441206667944, 42.14279814472455], [-71.83953098214769, 42.143517778395115], [-71.83909891407193, 42.14763015383095], [-71.8386349712896, 42.14868602738768], [-71.83833092602192, 42.148814095694505], [-71.8355789203293, 42.14886213309681], [-71.83449107648678, 42.149021743698135], [-71.83212307521303, 42.1498057239606], [-71.83135508585133, 42.150222094428266], [-71.83097103279137, 42.15063790994551], [-71.83121092429664, 42.15298987279829], [-71.83039491368358, 42.15563016701846], [-71.83011491342342, 42.1559939108309], [-71.83371503945202, 42.15509386220882], [-71.8343149832535, 42.157293955871666], [-71.82601504848746, 42.15959398599407], [-71.82531507638095, 42.159993798646305], [-71.82581494150917, 42.16569421737703], [-71.8307479457042, 42.16438419157996], [-71.83471491787412, 42.15999374925993], [-71.8422160087316, 42.16019387427659], [-71.84791599413168, 42.16059424125091], [-71.8578160291091, 42.160793909327595], [-71.86481595998694, 42.16469387059068], [-71.86791605942263, 42.166094091311216], [-71.87561599663408, 42.17019428461987], [-71.87851595217066, 42.173493982606], [-71.87931607786768, 42.17469383274126], [-71.8895170627657, 42.18589280247969], [-71.89041691918284, 42.18719295373833], [-71.89501699864003, 42.19229326059385], [-71.8798360149905, 42.210493217281595], [-71.8659159646235, 42.22599287506852], [-71.86121597423892, 42.22639321465596], [-71.85661607407977, 42.22649313012859], [-71.85371598962517, 42.226893173046115], [-71.83521604575267, 42.22859289096447], [-71.81611508115199, 42.23059288359543], [-71.8096679076468, 42.23095482782052], [-71.80651506737487, 42.22369274320199], [-71.80261499752879, 42.21919310316226], [-71.79881503364676, 42.213492846164925], [-71.79831492664863, 42.21229392571335], [-71.79661492245336, 42.20979377698099], [-71.79341495055911, 42.21089419895159], [-71.78531494837097, 42.21459407709074], [-71.7794150205205, 42.21749408707056], [-71.74711390920918, 42.23159272409023], [-71.74281396122217, 42.23379301962172], [-71.73381400462303, 42.237492826585466]]]}}