{"type": "Feature", "properties": {"district_name": "5th Worcester District", "chamber": "house", "vintage": "2022-present"}, "geometry": {"type": "Polygon", "coordinates": [[[-72.288734, 42.35202400000001], [-72.288531, 42.352159], [-72.288381, 42.35270199999999], [-72.288057, 42.352867999999994], [-72.286438, 42.352698], [-72.286168, 42.35286399999999], [-72.286076, 42.353367], [-72.287039, 42.353852], [-72.287287, 42.354152000000006], [-72.287209, 42.35474400000001], [-72.287394, 42.355372999999986], [-72.28414, 42.356584000000005], [-72.283998, 42.35679500000001], [-72.283984, 42.35703999999999], [-72.284345, 42.357393], [-72.285959, 42.357817999999995], [-72.285981, 42.358016], [-72.285318, 42.358319999999985], [-72.28474, 42.359441], [-72.284676, 42.35977299999998], [-72.28550100000001, 42.36055600000001], [-72.285406, 42.360842], [-72.284637, 42.36095199999998], [-72.284367, 42.36138800000001], [-72.284828, 42.36251500000001], [-72.285152, 42.364604], [-72.285038, 42.37307700000001], [-72.284859, 42.37332800000001], [-72.284333, 42.37332], [-72.28410900000002, 42.373176], [-72.284242, 42.37275600000002], [-72.284057, 42.37255], [-72.283617, 42.37238400000001], [-72.2835, 42.372559999999986], [-72.282634, 42.372398999999994], [-72.28203500000001, 42.37191499999999], [-72.28164600000001, 42.372006], [-72.28098, 42.37251400000001], [-72.280287, 42.37376999999999], [-72.27955, 42.37460100000001], [-72.280477, 42.37508199999999], [-72.280931, 42.376138999999995], [-72.280481, 42.37680399999999], [-72.28146, 42.37674599999999], [-72.281013, 42.37766599999999], [-72.28119, 42.377826999999996], [-72.281814, 42.377883999999995], [-72.281856, 42.37824299999999], [-72.281501, 42.37866499999999], [-72.280434, 42.378918000000006], [-72.280026, 42.379285], [-72.279555, 42.38069099999999], [-72.278643, 42.38218], [-72.276748, 42.38294499999999], [-72.274019, 42.384542], [-72.273957, 42.385995000000015], [-72.273247, 42.38711100000001], [-72.272963, 42.387933000000004], [-72.272337, 42.388678], [-72.272861, 42.389136000000015], [-72.272599, 42.389657], [-72.270378, 42.39042900000001], [-72.269784, 42.39035500000001], [-72.269276, 42.390028999999984], [-72.26847400000001, 42.390297999999994], [-72.267927, 42.389995], [-72.267573, 42.38904600000001], [-72.266764, 42.388366000000005], [-72.26596, 42.38727699999998], [-72.265786, 42.38714800000002], [-72.264908, 42.387159], [-72.264118, 42.38662000000001], [-72.258159, 42.393507], [-72.244323, 42.38828000000001], [-72.24226300000001, 42.38810099999999], [-72.241601, 42.388288], [-72.240945, 42.388778000000016], [-72.241021, 42.38908300000001], [-72.240565, 42.38950700000001], [-72.238976, 42.390114000000004], [-72.23798, 42.390690000000006], [-72.237816, 42.391203], [-72.238144, 42.392308], [-72.239081, 42.393145999999994], [-72.239287, 42.393643999999995], [-72.238847, 42.394189], [-72.238512, 42.39526900000001], [-72.23814800000001, 42.395557000000004], [-72.236774, 42.396067000000016], [-72.236519, 42.39725200000001], [-72.235001, 42.39810399999999], [-72.233293, 42.39879], [-72.23109, 42.39889999999999], [-72.230453, 42.399342000000004], [-72.229633, 42.400247], [-72.219029, 42.39549300000001], [-72.20515, 42.417679], [-72.00138, 42.546614], [-71.979686, 42.53231000000001], [-71.91983500000002, 42.491447000000015], [-71.93319100000001, 42.482922999999985], [-71.920293, 42.47453900000001], [-71.965412, 42.446625000000004], [-72.007189, 42.421172], [-72.03508100000002, 42.40391599999999], [-71.989406, 42.31018799999999], [-71.967291, 42.310682000000014], [-71.960534, 42.281424999999984], [-71.885641, 42.28457900000001], [-71.875367, 42.263982999999996], [-71.879998, 42.263127], [-71.881302, 42.26305899999999], [-71.881793, 42.26269899999999], [-71.883968, 42.262484], [-71.88860200000002, 42.25934199999999], [-71.888318, 42.258331000000005], [-71.888366, 42.258033], [-71.88936, 42.257332], [-71.890478, 42.255801999999996], [-71.891381, 42.255573], [-71.890768, 42.25397100000002], [-71.891876, 42.253100999999994], [-71.892315, 42.25218900000001], [-71.892346, 42.251616999999996], [-71.891793, 42.251081], [-71.89054, 42.25042899999999], [-71.889247, 42.25062800000002], [-71.888755, 42.250500999999986], [-71.888239, 42.250027], [-71.887832, 42.249894000000005], [-71.887055, 42.249067000000004], [-71.887109, 42.248934999999996], [-71.886497, 42.24881499999999], [-71.886398, 42.248525], [-71.890657, 42.24676100000001], [-71.892939, 42.24544000000001], [-71.893692, 42.245127000000004], [-71.899894, 42.24622900000001], [-71.903337, 42.246297], [-71.911264, 42.24595099999999], [-71.914269, 42.245346], [-71.91673, 42.24441600000001], [-71.918202, 42.24449799999999], [-71.918294, 42.24396899999999], [-71.918757, 42.24304299999999], [-71.918861, 42.242019000000006], [-71.919312, 42.24117799999999], [-71.920903, 42.23998300000001], [-71.921703, 42.23895499999998], [-71.924504, 42.236954000000004], [-71.925461, 42.23676200000002], [-71.927676, 42.236692999999995], [-71.930636, 42.236986999999985], [-71.931753, 42.23723499999999], [-71.932515, 42.23758800000002], [-71.935446, 42.23797200000001], [-71.936367, 42.23709800000002], [-71.937109, 42.236749], [-71.940383, 42.234110000000015], [-71.941916, 42.233582000000006], [-71.944482, 42.232168], [-71.95094700000001, 42.230381], [-71.951312, 42.230398000000015], [-71.954659, 42.234564999999996], [-71.955205, 42.235019999999984], [-71.957082, 42.23532200000001], [-71.959509, 42.23479599999997], [-71.96090700000002, 42.23531000000002], [-71.962634, 42.236566], [-71.963842, 42.23830199999998], [-71.964232, 42.238625000000006], [-71.968383, 42.240272], [-71.97295300000002, 42.243021999999996], [-71.974588, 42.24367499999999], [-71.976086, 42.24405000000001], [-71.978925, 42.245298999999996], [-71.979826, 42.247453], [-71.981382, 42.24962000000001], [-71.983125, 42.24896399999999], [-71.990901, 42.245181], [-71.992422, 42.244068000000006], [-71.991615, 42.24302999999999], [-71.99153800000002, 42.242515], [-71.991786, 42.241265], [-71.990896, 42.238949000000005], [-71.990369, 42.23814500000002], [-71.988249, 42.23613], [-71.98785700000002, 42.234281], [-71.987183, 42.232741999999995], [-71.987173, 42.231438], [-71.988019, 42.22392999999999], [-71.987811, 42.22215299999999], [-71.986852, 42.221079], [-71.985601, 42.22012], [-71.984706, 42.219908999999994], [-71.983202, 42.22011100000001], [-71.982447, 42.21996400000001], [-71.979655, 42.217802000000006], [-71.977952, 42.214934], [-71.976558, 42.21382100000001], [-71.975618, 42.212492000000005], [-71.97426, 42.21197300000001], [-71.973841, 42.211078000000015], [-71.973156, 42.210358], [-71.97251, 42.208228], [-71.972121, 42.205535], [-71.970894, 42.204468], [-71.972838, 42.20308000000001], [-71.974785, 42.202817999999986], [-71.975125, 42.201699999999995], [-71.97441, 42.197706000000004], [-71.974706, 42.19628700000001], [-71.974214, 42.19430900000001], [-71.974187, 42.19189600000001], [-71.973932, 42.190767], [-71.973201, 42.18995300000001], [-71.973116, 42.18963500000002], [-71.973584, 42.18855000000001], [-71.974759, 42.18720299999999], [-71.9748, 42.186834], [-72.019886, 42.18376199999999], [-72.0186, 42.175699], [-72.089415, 42.167138999999985], [-72.086752, 42.154436000000004], [-72.10868, 42.151588], [-72.111519, 42.164455], [-72.141886, 42.161], [-72.153902, 42.207183], [-72.170099, 42.232581999999965], [-72.170607, 42.233288], [-72.171193, 42.233534], [-72.171059, 42.23380700000003], [-72.171433, 42.234159], [-72.171304, 42.23429300000002], [-72.171661, 42.23457800000002], [-72.171966, 42.23454600000001], [-72.172222, 42.234770000000005], [-72.173159, 42.23505999999999], [-72.17409, 42.23576600000001], [-72.174507, 42.23670199999999], [-72.175809, 42.23700299999999], [-72.176754, 42.236854000000015], [-72.177655, 42.237266999999996], [-72.177498, 42.237697], [-72.177585, 42.23808100000001], [-72.177808, 42.238257999999995], [-72.178018, 42.23882699999999], [-72.17846, 42.23913299999999], [-72.178174, 42.239625999999994], [-72.178733, 42.24175000000001], [-72.178683, 42.24235500000001], [-72.179126, 42.24309400000002], [-72.179121, 42.243655], [-72.179321, 42.24404299999999], [-72.179166, 42.244202999999985], [-72.17935700000001, 42.244410999999985], [-72.179258, 42.244617], [-72.179723, 42.24483], [-72.17942, 42.24553000000001], [-72.179736, 42.24573], [-72.179403, 42.24606200000001], [-72.179567, 42.24625499999999], [-72.18112600000002, 42.24607400000001], [-72.182161, 42.247971], [-72.182506, 42.25138700000002], [-72.211079, 42.251262], [-72.211213, 42.252133], [-72.211457, 42.25241900000001], [-72.211101, 42.25567699999999], [-72.216091, 42.25619699999999], [-72.216549, 42.259689], [-72.218749, 42.261728], [-72.220238, 42.26228], [-72.221267, 42.262881], [-72.222161, 42.263083], [-72.222577, 42.263056000000006], [-72.223186, 42.262711], [-72.224808, 42.26137000000001], [-72.226667, 42.260576999999984], [-72.229691, 42.26002300000001], [-72.231478, 42.25901500000001], [-72.231994, 42.25842200000001], [-72.232914, 42.258775], [-72.233487, 42.25969099999999], [-72.234733, 42.260476999999995], [-72.235776, 42.260372000000004], [-72.23653, 42.259888999999994], [-72.236978, 42.260322000000016], [-72.241215, 42.262008], [-72.241595, 42.260401999999985], [-72.242583, 42.26061299999999], [-72.244448, 42.260650999999996], [-72.24667700000002, 42.260247], [-72.249192, 42.25938300000001], [-72.251377, 42.25947399999999], [-72.252985, 42.259871000000004], [-72.25125, 42.265914], [-72.24966600000002, 42.26792300000001], [-72.247856, 42.26756300000002], [-72.247365, 42.272088], [-72.247285, 42.274916999999995], [-72.246938, 42.275791], [-72.246655, 42.277591999999984], [-72.245575, 42.279766], [-72.244969, 42.281557], [-72.24496, 42.28262], [-72.245225, 42.283885000000005], [-72.245063, 42.285573], [-72.24463, 42.28676999999999], [-72.244648, 42.288365999999996], [-72.243914, 42.29073999999999], [-72.244088, 42.291956000000006], [-72.244578, 42.292909], [-72.245402, 42.295509], [-72.245016, 42.29659000000001], [-72.24489800000002, 42.297644000000005], [-72.244459, 42.298646], [-72.244564, 42.30210899999999], [-72.243682, 42.303420000000024], [-72.2437, 42.30404], [-72.244431, 42.30519], [-72.244543, 42.30603300000002], [-72.261545, 42.303331000000014], [-72.261922, 42.30525799999999], [-72.274639, 42.301963000000015], [-72.280003, 42.329091], [-72.277079, 42.329404999999994], [-72.278491, 42.336465000000004], [-72.281382, 42.336127000000005], [-72.284231, 42.35200999999999], [-72.288734, 42.35202400000001]]]}}