{"type": "Feature", "properties": {"district_name": "15th Worcester", "chamber": "house", "vintage": "2001-2010"}, "geometry": {"type": "Polygon", "coordinates": [[[-71.75513396156505, 42.27427988700053], [-71.75448598191225, 42.27244415716223], [-71.75411395657326, 42.27069277404986], [-71.75151394586838, 42.25579289999807], [-71.75051396934153, 42.25259282037452], [-71.74871406667202, 42.2488931144874], [-71.74851403280339, 42.24819300405877], [-71.74621391570506, 42.24379322686849], [-71.73161400527209, 42.2409932838444], [-71.73311406172913, 42.2381931113246], [-71.73381400462303, 42.237492826585466], [-71.74281396122217, 42.23379301962172], [-71.74751406139464, 42.23639273940724], [-71.74941408559309, 42.24019298043264], [-71.75251403787858, 42.240892941818935], [-71.75271405748607, 42.24139272865133], [-71.75451395882453, 42.240893026507415], [-71.75511393025505, 42.240992978906334], [-71.7614139612831, 42.24489287689904], [-71.76241394501858, 42.245292914169326], [-71.76291395713541, 42.245793131272826], [-71.76461391687889, 42.24669290525168], [-71.76631395458736, 42.24719314413164], [-71.76811408506721, 42.24749280658738], [-71.7682140191079, 42.24869278575606], [-71.76741407151911, 42.24869296829821], [-71.7676139941402, 42.250392950175076], [-71.76681405898223, 42.25049327816905], [-71.76591406896729, 42.250392956760564], [-71.7644139366858, 42.2499929777438], [-71.7616139126526, 42.25049286643854], [-71.76231399518024, 42.25179277372985], [-71.76371408807105, 42.25699274625228], [-71.76471402889514, 42.2591928082137], [-71.76671403461592, 42.257993029546554], [-71.77151500132452, 42.25639274407063], [-71.77421495445753, 42.256093171212235], [-71.77511503610965, 42.256192860254664], [-71.7778150125386, 42.255992794072554], [-71.77971493766901, 42.256092841422095], [-71.78501492988899, 42.25579283594508], [-71.78921502616522, 42.256392855440474], [-71.78911499278671, 42.25559296319838], [-71.79171491909132, 42.25539282184864], [-71.79161504963335, 42.25459293113905], [-71.79281499562359, 42.2545932532987], [-71.79511500049074, 42.25599296288682], [-71.79711493095152, 42.25399306599005], [-71.79780304683072, 42.25467720642918], [-71.79790105993996, 42.25518674894678], [-71.79773496905091, 42.25542125862266], [-71.79811497470085, 42.25529310474492], [-71.79891492048213, 42.255392867249164], [-71.79981503611376, 42.25589300663459], [-71.80041492635388, 42.256492949215755], [-71.80171501185502, 42.25719290212481], [-71.80471500051917, 42.25949313167616], [-71.80631506743396, 42.25829316391691], [-71.80701494686068, 42.25809322799139], [-71.80571500375007, 42.256692781627436], [-71.80621496621168, 42.25619290632714], [-71.80551507899983, 42.25599276968216], [-71.8075150679823, 42.25329327148302], [-71.80834498585054, 42.25282288749952], [-71.80941492930623, 42.253893054424324], [-71.81521498911175, 42.25049325762047], [-71.81551501089669, 42.25089306910922], [-71.81631503358807, 42.25029273219438], [-71.81701493446869, 42.25099303947023], [-71.81831500813983, 42.25039299029404], [-71.81941495487786, 42.25149280877828], [-71.8157149716329, 42.25359287473578], [-71.81831507176396, 42.254892820245175], [-71.81881506063894, 42.25389322063647], [-71.81971506479017, 42.25419288712231], [-71.81891500341978, 42.2559929025433], [-71.82291599625938, 42.256992878238194], [-71.82021505740317, 42.2612931976388], [-71.81941506546328, 42.26109285756729], [-71.81911508612932, 42.26169296035639], [-71.81651500377907, 42.26129276965829], [-71.81291503236847, 42.26119290744663], [-71.8120150404079, 42.261293264418114], [-71.81181497894733, 42.26039294680554], [-71.80951495945813, 42.26049313420694], [-71.80751503162165, 42.26019297187681], [-71.80691500942145, 42.26369281059799], [-71.80721499493201, 42.26369313380053], [-71.80681508107133, 42.265193205927126], [-71.81281502874481, 42.26579316723193], [-71.81271506408793, 42.26549296368067], [-71.81291496672178, 42.26459324233674], [-71.81431498540427, 42.26449319450705], [-71.81421497044258, 42.26399324221699], [-71.81571503800596, 42.26379274480412], [-71.81571493800627, 42.26339323582646], [-71.81841491379491, 42.263192782914594], [-71.81901506915798, 42.26349327676694], [-71.81891506253608, 42.2640928229948], [-71.8160149361264, 42.27019306679317], [-71.81391494391019, 42.272392751928635], [-71.81291502214323, 42.27369191378721], [-71.81231504048925, 42.27409192991662], [-71.80881504597355, 42.27759174066743], [-71.80821491843216, 42.27879187659306], [-71.8082150720867, 42.280692075089874], [-71.8084149497944, 42.281591837727746], [-71.80591506425827, 42.28189224533331], [-71.80539607788461, 42.28119982896548], [-71.80401508502294, 42.28179206282269], [-71.80011504065894, 42.28289224745882], [-71.7997149491333, 42.28089293644111], [-71.79821499831056, 42.28089290619511], [-71.79811507285895, 42.28409203426432], [-71.79701497208453, 42.28409207511346], [-71.7927150284094, 42.28349316096672], [-71.79401497816558, 42.281492862158125], [-71.79271500638241, 42.28119289873789], [-71.79221498664317, 42.281993186772766], [-71.79021497910165, 42.28139280668408], [-71.79051506272279, 42.28069319138848], [-71.7897150020321, 42.28059280318334], [-71.78881507352943, 42.28069297698686], [-71.79001490992285, 42.277992991741236], [-71.78611491732349, 42.277893053539444], [-71.78601499832976, 42.27749322755327], [-71.78321503936881, 42.277393255343604], [-71.78341503247172, 42.27319286588276], [-71.78131501434899, 42.27319296924913], [-71.77801494093704, 42.27359319357763], [-71.77461492416077, 42.27349277950869], [-71.77021496265284, 42.27369283689378], [-71.76981505415995, 42.27359306062627], [-71.76711501948587, 42.273692778061395], [-71.76621500446404, 42.27389293353591], [-71.76431401151453, 42.27379322260687], [-71.7615140109747, 42.27409279663078], [-71.75921392118488, 42.27399278396664], [-71.75811404839129, 42.274192768591966], [-71.75513396156505, 42.27427988700053]]]}}