{"type": "Feature", "properties": {"district_name": "3rd Essex District", "chamber": "house", "vintage": "2012-2020"}, "geometry": {"type": "Polygon", "coordinates": [[[-71.18240399999999, 42.79428900000001], [-71.17440100000002, 42.80171599999999], [-71.166665, 42.808337999999985], [-71.149706, 42.815489], [-71.132503, 42.82138800000001], [-71.118802, 42.818087999999996], [-71.115894, 42.817690000000006], [-71.112993, 42.817088999999996], [-71.10779099999999, 42.815788999999995], [-71.101794, 42.814587], [-71.0651, 42.806289], [-71.064201, 42.806289], [-71.060564, 42.81597899999999], [-71.058099, 42.82198899999999], [-71.05780299999999, 42.823091999999995], [-71.053601, 42.833088999999994], [-71.019413, 42.818890999999994], [-71.00258500000001, 42.81171099999999], [-70.999714, 42.81069100000002], [-70.99877099999999, 42.80899900000001], [-70.998616, 42.808061], [-70.99875, 42.806964999999984], [-70.99983399999999, 42.80503999999999], [-71.001711, 42.802800000000005], [-71.003435, 42.801100999999996], [-71.00552499999999, 42.79979599999999], [-71.012312, 42.796542], [-71.015575, 42.794535999999994], [-71.01735099999999, 42.79301499999999], [-71.018708, 42.79160500000001], [-71.019301, 42.790701], [-71.019757, 42.789525999999974], [-71.02019299999999, 42.78727], [-71.020381, 42.78429599999999], [-71.02190399999999, 42.779633], [-71.02285499999999, 42.778135999999996], [-71.025003, 42.778569000000005], [-71.025837, 42.77920999999999], [-71.026938, 42.779052], [-71.028052, 42.77957], [-71.02812899999999, 42.77981299999999], [-71.027802, 42.780426000000006], [-71.025521, 42.782508], [-71.02510900000001, 42.78318599999999], [-71.02544, 42.78521099999999], [-71.025346, 42.786372], [-71.026276, 42.788788999999994], [-71.026476, 42.789927999999996], [-71.026626, 42.79170000000002], [-71.026522, 42.792269999999995], [-71.024695, 42.79565700000002], [-71.02372700000001, 42.796369], [-71.022564, 42.79653200000003], [-71.027655, 42.798855], [-71.029076, 42.798521], [-71.030113, 42.797812], [-71.031382, 42.79724900000001], [-71.03302599999999, 42.796852000000015], [-71.033062, 42.796464000000014], [-71.033729, 42.79527499999999], [-71.034596, 42.794151], [-71.03490099999999, 42.793260000000004], [-71.035406, 42.79083100000002], [-71.035061, 42.789651], [-71.037233, 42.787755000000004], [-71.038258, 42.786182], [-71.03873899999999, 42.784963000000005], [-71.039642, 42.783620000000006], [-71.04060199999999, 42.78241899999999], [-71.041674, 42.78174100000001], [-71.04179400000001, 42.78143699999999], [-71.041729, 42.780636], [-71.041927, 42.780248000000014], [-71.046061, 42.776338999999986], [-71.046967, 42.774905999999994], [-71.04754900000002, 42.773545000000006], [-71.04758, 42.773141], [-71.046589, 42.770656], [-71.047735, 42.770469999999996], [-71.049548, 42.770463], [-71.05127700000001, 42.768890000000006], [-71.051305, 42.768037], [-71.054305, 42.768603000000006], [-71.056276, 42.765983], [-71.054388, 42.764329000000004], [-71.053381, 42.763806], [-71.053139, 42.76336899999999], [-71.053899, 42.76279499999999], [-71.055355, 42.76368799999999], [-71.05743199999999, 42.765330000000006], [-71.061878, 42.767886], [-71.069056, 42.77236299999998], [-71.07148699999999, 42.773229], [-71.076184, 42.773669000000005], [-71.08410099999999, 42.77179], [-71.08618, 42.770813000000004], [-71.086961, 42.770596999999995], [-71.093587, 42.765892999999984], [-71.09589799999999, 42.763391], [-71.09960199999999, 42.76238999999999], [-71.103702, 42.762589999999996], [-71.10490399999999, 42.763224000000015], [-71.104153, 42.763783999999994], [-71.105756, 42.764562000000005], [-71.10619799999999, 42.765077], [-71.10699, 42.76552100000001], [-71.10911800000001, 42.767207000000006], [-71.108667, 42.767327999999985], [-71.105823, 42.76590899999999], [-71.10460499999999, 42.76726000000001], [-71.104722, 42.767762999999995], [-71.104186, 42.76914999999998], [-71.10446999999999, 42.77031899999998], [-71.105484, 42.77017300000001], [-71.10588899999999, 42.769967000000015], [-71.107181, 42.77064999999998], [-71.107972, 42.769877], [-71.109015, 42.770353], [-71.109471, 42.768825], [-71.110053, 42.76815399999998], [-71.11296, 42.76992999999999], [-71.116503, 42.77275099999999], [-71.119355, 42.77389899999999], [-71.120786, 42.768437000000006], [-71.12110799999999, 42.768468000000006], [-71.12248, 42.768972999999995], [-71.124237, 42.770226], [-71.126366, 42.773345999999975], [-71.127177, 42.773819999999986], [-71.128306, 42.774145], [-71.128117, 42.77472900000001], [-71.128152, 42.77536800000001], [-71.129938, 42.774925999999994], [-71.1316, 42.773983], [-71.13271399999999, 42.77454], [-71.13395299999999, 42.775515000000006], [-71.132211, 42.776317], [-71.12914599999999, 42.776622999999994], [-71.12897699999999, 42.776748000000005], [-71.12876, 42.779708999999976], [-71.131551, 42.779713], [-71.131633, 42.78018899999999], [-71.131401, 42.780592999999996], [-71.130937, 42.78082599999999], [-71.128667, 42.780815000000004], [-71.12845899999999, 42.781766999999995], [-71.127485, 42.783593], [-71.12959099999999, 42.78352599999999], [-71.13112799999999, 42.783790999999994], [-71.132105, 42.784349], [-71.1333, 42.784749999999995], [-71.134207, 42.785515999999994], [-71.134393, 42.78596799999999], [-71.134889, 42.786120000000004], [-71.13565, 42.786096999999984], [-71.138249, 42.787228000000006], [-71.14008, 42.787819999999996], [-71.141586, 42.78758], [-71.145769, 42.788199000000006], [-71.146475, 42.78822199999999], [-71.147601, 42.78798100000001], [-71.148462, 42.788054999999986], [-71.149284, 42.78857], [-71.15045599999999, 42.788637999999985], [-71.15176699999999, 42.789415], [-71.152024, 42.78938799999999], [-71.15337699999999, 42.78824100000002], [-71.153575, 42.78894000000002], [-71.154836, 42.79027599999999], [-71.156399, 42.789252999999995], [-71.155271, 42.787415], [-71.155656, 42.786683], [-71.155683, 42.786197], [-71.15985599999999, 42.779707], [-71.18240399999999, 42.79428900000001]]]}}