{"type": "Feature", "properties": {"district_name": "8th Hampden District", "chamber": "house", "vintage": "2022-present"}, "geometry": {"type": "Polygon", "coordinates": [[[-72.627902, 42.175380000000004], [-72.626851, 42.17923600000001], [-72.625863, 42.18167300000001], [-72.625053, 42.18302099999999], [-72.623113, 42.18508400000002], [-72.621249, 42.18596999999999], [-72.61764, 42.186997000000005], [-72.606928, 42.190968], [-72.604745, 42.19233100000002], [-72.601989, 42.194557], [-72.594771, 42.19878299999999], [-72.591714, 42.20111600000001], [-72.590825, 42.202463000000016], [-72.590312, 42.203680999999996], [-72.590216, 42.20507799999999], [-72.590476, 42.206685000000014], [-72.591781, 42.209829], [-72.593448, 42.211557000000006], [-72.52429, 42.218734000000005], [-72.513909, 42.174431999999996], [-72.518737, 42.173889], [-72.51597700000002, 42.160816999999994], [-72.520146, 42.16128199999997], [-72.522008, 42.161137000000004], [-72.524736, 42.160261000000006], [-72.528736, 42.158305], [-72.533377, 42.15736600000001], [-72.535801, 42.15747799999999], [-72.536463, 42.156963999999995], [-72.537222, 42.155308], [-72.537975, 42.154807999999996], [-72.539482, 42.15487199999999], [-72.540323, 42.15534600000001], [-72.540703, 42.156206], [-72.540815, 42.15754900000001], [-72.591604, 42.136237000000015], [-72.593129, 42.141563000000005], [-72.593446, 42.14442100000001], [-72.599865, 42.14487199999999], [-72.599922, 42.148109000000005], [-72.603548, 42.148183], [-72.603587, 42.149188], [-72.604177, 42.149035], [-72.604183, 42.148306000000005], [-72.607812, 42.148910000000015], [-72.607237, 42.14861200000001], [-72.606983, 42.14829699999999], [-72.607077, 42.147145999999985], [-72.607331, 42.14678800000001], [-72.608055, 42.14705599999998], [-72.608816, 42.14707799999999], [-72.608851, 42.145737000000004], [-72.609256, 42.145649000000006], [-72.610209, 42.14494299999999], [-72.611255, 42.145721999999985], [-72.611883, 42.14524800000001], [-72.612693, 42.145876], [-72.613631, 42.14527699999999], [-72.615819, 42.145111999999976], [-72.616096, 42.144578], [-72.616107, 42.14377300000001], [-72.615534, 42.142796000000004], [-72.618363, 42.143706], [-72.620208, 42.14536900000001], [-72.622419, 42.14697000000003], [-72.621234, 42.148793000000005], [-72.619034, 42.149993], [-72.614363, 42.148891], [-72.613445, 42.149114], [-72.61076, 42.15388900000001], [-72.610211, 42.15547399999997], [-72.610099, 42.157427000000006], [-72.610444, 42.158887], [-72.611258, 42.160896], [-72.611425, 42.162345000000016], [-72.610369, 42.168687], [-72.610093, 42.171527], [-72.610863, 42.171253], [-72.614561, 42.17150499999999], [-72.614639, 42.17552999999999], [-72.620105, 42.17803000000001], [-72.619703, 42.178327000000024], [-72.621858, 42.179258], [-72.624292, 42.180034], [-72.624654, 42.18004200000001], [-72.625816, 42.17521299999999], [-72.627902, 42.175380000000004]]]}}