{"type": "Feature", "properties": {"district_name": "Barnstable-Dukes-Nantucket District", "chamber": "house", "vintage": "2022-present"}, "geometry": {"type": "Polygon", "coordinates": [[[-71.051854, 41.416729], [-70.999482, 41.442372], [-70.956821, 41.46247200000001], [-70.91481, 41.483092], [-70.879213, 41.500105999999995], [-70.763776, 41.55660700000001], [-70.758464, 41.560930999999975], [-70.749476, 41.55639], [-70.697498, 41.527158], [-70.664171, 41.542882999999996], [-70.65623, 41.56651400000001], [-70.648153, 41.57145199999999], [-70.647207, 41.57853899999999], [-70.654276, 41.605216000000006], [-70.654383, 41.62321099999999], [-70.638991, 41.623945000000006], [-70.638717, 41.623332999999995], [-70.637426, 41.62170299999998], [-70.63718, 41.620713], [-70.637538, 41.61971700000001], [-70.639648, 41.61758999999999], [-70.638753, 41.616967], [-70.639534, 41.61612300000001], [-70.63954, 41.615656], [-70.638081, 41.615094000000006], [-70.636926, 41.615049], [-70.633748, 41.614535000000004], [-70.631347, 41.613953], [-70.631685, 41.61293500000001], [-70.632053, 41.612764], [-70.634739, 41.61287000000001], [-70.636259, 41.612293], [-70.638024, 41.612111], [-70.639228, 41.612322], [-70.641311, 41.612342999999996], [-70.641977, 41.611978], [-70.641053, 41.611092], [-70.640273, 41.60998399999999], [-70.640414, 41.609893], [-70.640222, 41.609643], [-70.637118, 41.608739000000014], [-70.63611, 41.608097000000036], [-70.635677, 41.607487], [-70.634549, 41.607558], [-70.63440900000002, 41.607265999999996], [-70.631753, 41.61114800000002], [-70.629076, 41.610848000000004], [-70.628566, 41.61132700000002], [-70.626587, 41.61214399999998], [-70.625125, 41.613965], [-70.622915, 41.615531], [-70.622609, 41.61643800000001], [-70.62283, 41.617673999999994], [-70.61494, 41.615161999999984], [-70.613399, 41.614881], [-70.612289, 41.614786999999986], [-70.610951, 41.61511100000002], [-70.609676, 41.61514599999998], [-70.607468, 41.614498], [-70.60681, 41.614450000000005], [-70.604062, 41.61529700000001], [-70.602727, 41.61539300000001], [-70.600612, 41.614759], [-70.598184, 41.61462500000001], [-70.597309, 41.61437199999999], [-70.59343, 41.61203100000001], [-70.591729, 41.611472000000006], [-70.589065, 41.611331], [-70.584239, 41.611449000000015], [-70.583626, 41.61129600000002], [-70.579968, 41.60984599999999], [-70.578825, 41.60888599999999], [-70.576677, 41.607661], [-70.575045, 41.60639600000001], [-70.57336800000002, 41.604634], [-70.572829, 41.603254], [-70.572708, 41.60238699999999], [-70.573074, 41.60119999999999], [-70.573058, 41.600536000000005], [-70.573403, 41.600269999999995], [-70.574798, 41.597925], [-70.576351, 41.598692000000014], [-70.578413, 41.59825200000001], [-70.579423, 41.59946500000001], [-70.579876, 41.59973900000001], [-70.580308, 41.599911], [-70.581245, 41.59989099999999], [-70.583273, 41.600764], [-70.58668, 41.599726], [-70.587149, 41.599179000000014], [-70.588768, 41.59867400000001], [-70.589801, 41.598091000000004], [-70.591584, 41.597389000000014], [-70.592355, 41.596935000000016], [-70.59260000000002, 41.596531], [-70.592494, 41.59530999999999], [-70.592118, 41.594159999999995], [-70.591083, 41.59318100000002], [-70.590327, 41.592014000000006], [-70.5886, 41.591331000000004], [-70.587174, 41.59133100000001], [-70.585535, 41.591641], [-70.585402, 41.591576999999994], [-70.585541, 41.59134199999999], [-70.58546, 41.59116800000001], [-70.582833, 41.589455], [-70.5851, 41.587138999999986], [-70.589753, 41.581382000000005], [-70.592917, 41.57693], [-70.594082, 41.573564000000005], [-70.59463700000002, 41.56874500000001], [-70.596102, 41.56445899999999], [-70.593288, 41.563949], [-70.592686, 41.560816], [-70.59216600000002, 41.559476], [-70.592165, 41.55842800000001], [-70.591939, 41.557916999999996], [-70.591319, 41.554272], [-70.590606, 41.55331200000001], [-70.58909500000001, 41.550661999999996], [-70.589296, 41.549429], [-70.588827, 41.545753000000005], [-70.588958, 41.545177], [-70.591852, 41.545439], [-70.59183, 41.54523599999999], [-70.592743, 41.54536800000001], [-70.593825, 41.54529599999999], [-70.59381, 41.54509800000001], [-70.594512, 41.545027], [-70.59525, 41.545175], [-70.595206, 41.54487800000001], [-70.596601, 41.54470800000001], [-70.596601, 41.544433000000005], [-70.597514, 41.54412599999999], [-70.597346, 41.54386199999999], [-70.601437, 41.542186000000015], [-70.602263, 41.54199400000001], [-70.603249, 41.542015000000006], [-70.603307, 41.541889000000005], [-70.606596, 41.542837999999996], [-70.607239, 41.54282100000001], [-70.608225, 41.54247999999999], [-70.609015, 41.542848], [-70.610053, 41.543033999999984], [-70.611879, 41.542874], [-70.61399, 41.542208999999986], [-70.615101, 41.542378000000014], [-70.616285, 41.54226199999999], [-70.616723, 41.542031999999985], [-70.616701, 41.541745999999996], [-70.617007, 41.541554], [-70.617241, 41.541554], [-70.617227, 41.54178999999998], [-70.617585, 41.541828], [-70.61776, 41.541799999999995], [-70.617636, 41.54153199999998], [-70.617826, 41.54150400000001], [-70.618082, 41.54185000000002], [-70.620544, 41.54134299999999], [-70.622991, 41.54122100000001], [-70.62641, 41.540192000000005], [-70.62678300000002, 41.539911999999994], [-70.629676, 41.539485000000006], [-70.631796, 41.53884899999999], [-70.631803, 41.538734000000005], [-70.633535, 41.53838300000002], [-70.633711, 41.538163999999995], [-70.634741, 41.537851], [-70.634697, 41.537708999999985], [-70.63863, 41.53601899999999], [-70.640895, 41.534686], [-70.642196, 41.533764999999995], [-70.645639, 41.530543], [-70.646224, 41.52971999999999], [-70.646217, 41.52938000000001], [-70.647387, 41.528093000000005], [-70.647185, 41.52793500000002], [-70.647752, 41.52772800000002], [-70.648366, 41.527173999999995], [-70.64841, 41.526855], [-70.6489, 41.526433000000004], [-70.649002, 41.52606500000001], [-70.649563, 41.52546600000002], [-70.649389, 41.525316999999994], [-70.650033, 41.52460499999999], [-70.650055, 41.52415499999999], [-70.650947, 41.52329300000001], [-70.651561, 41.522163], [-70.653493, 41.520243000000015], [-70.653778, 41.51976100000001], [-70.654302, 41.518052000000004], [-70.654295, 41.51760100000001], [-70.653835, 41.51663500000001], [-70.653814, 41.516278], [-70.654494, 41.515417], [-70.655122, 41.51512600000001], [-70.668001, 41.51198800000001], [-70.664005, 41.508430000000004], [-70.658182, 41.500108999999995], [-70.65732, 41.49835199999999], [-70.653136, 41.492786], [-70.65000900000001, 41.488009000000005], [-70.646412, 41.489323], [-70.640223, 41.491977], [-70.627355, 41.498359999999984], [-70.624473, 41.500108999999995], [-70.602979, 41.511801999999996], [-70.539279, 41.508126], [-70.502832, 41.500635], [-70.50860300000001, 41.498965], [-70.504182, 41.494858], [-70.499472, 41.488233], [-70.494942, 41.479631999999995], [-70.49165800000002, 41.47100900000001], [-70.489689, 41.462976999999995], [-70.485385, 41.463802999999984], [-70.475994, 41.46614099999998], [-70.46395, 41.468], [-70.448007, 41.469355], [-70.436449, 41.46891900000001], [-70.421087, 41.46441600000002], [-70.405928, 41.457012999999996], [-70.392892, 41.44548], [-70.385874, 41.43372099999999], [-70.380807, 41.411996], [-70.380693, 41.385361], [-70.382163, 41.375117999999986], [-70.383449, 41.369933], [-70.370112, 41.36876899999999], [-70.367698, 41.37142700000001], [-70.362641, 41.375117999999986], [-70.353085, 41.381454999999995], [-70.338289, 41.38854999999999], [-70.323593, 41.391607], [-70.308734, 41.390693000000006], [-70.302438, 41.38962500000001], [-70.294179, 41.39144600000001], [-70.283214, 41.39288499999999], [-70.267283, 41.393426000000005], [-70.258549, 41.392106999999996], [-70.249463, 41.390049], [-70.247689, 41.38989099999999], [-70.238142, 41.38620499999999], [-70.233576, 41.38263999999998], [-70.224936, 41.37512000000002], [-70.221622, 41.371769], [-70.21733400000001, 41.364996999999995], [-70.215115, 41.360274999999994], [-70.208297, 41.35802499999999], [-70.198383, 41.35902500000001], [-70.187287, 41.358380000000004], [-70.174906, 41.357290000000006], [-70.159992, 41.35224200000002], [-70.148699, 41.345215999999986], [-70.13794, 41.346371000000005], [-70.132231, 41.348731], [-70.124461, 41.35132699999998], [-70.119335, 41.352638000000006], [-70.110095, 41.353592], [-70.101618, 41.35345000000001], [-70.09784400000001, 41.353584000000005], [-70.103251, 41.359705], [-70.107199, 41.365213000000004], [-70.111328, 41.37038899999998], [-70.11644, 41.38616500000001], [-70.116541, 41.39513199999999], [-70.112734, 41.408126], [-70.105819, 41.419866], [-70.094412, 41.43081], [-70.078847, 41.438015], [-70.06517400000001, 41.442687], [-70.044272, 41.44380099999999], [-70.025902, 41.441079], [-70.006467, 41.43389800000001], [-69.999458, 41.42843199999999], [-69.98922700000001, 41.421225], [-69.98177500000001, 41.41520800000001], [-69.974592, 41.40892200000001], [-69.969634, 41.403510999999995], [-69.957745, 41.38725], [-69.943801, 41.36671700000001], [-69.938456, 41.357645000000005], [-69.929837, 41.34532299999999], [-69.92644, 41.33879399999998], [-69.921579, 41.332398], [-69.91495, 41.32419500000001], [-69.910093, 41.317263], [-69.906211, 41.31080000000001], [-69.898321, 41.29700299999999], [-69.894885, 41.29037199999999], [-69.893789, 41.286925000000004], [-69.89295900000002, 41.28364299999999], [-69.89244500000001, 41.27909000000001], [-69.8925, 41.27621099999999], [-69.892209, 41.271323], [-69.894472, 41.25923999999999], [-69.896044, 41.254119], [-69.897743, 41.25012199999999], [-69.89901, 41.24553800000001], [-69.902992, 41.238416], [-69.910319, 41.226849], [-69.915842, 41.220939], [-69.922911, 41.21583999999999], [-69.930953, 41.21054300000001], [-69.942008, 41.204519999999995], [-69.953586, 41.19967199999999], [-69.973182, 41.193545000000015], [-69.983151, 41.191403], [-69.999457, 41.188305], [-70.012483, 41.18705299999999], [-70.025702, 41.187102], [-70.039705, 41.18819200000001], [-70.051647, 41.190908], [-70.072666, 41.19163400000001], [-70.109684, 41.189803000000005], [-70.12446, 41.19242200000001], [-70.135855, 41.194649], [-70.16117, 41.20068999999998], [-70.178851, 41.204530999999996], [-70.217017, 41.21817599999999], [-70.227997, 41.22266400000001], [-70.239982, 41.228463], [-70.285736, 41.242346000000005], [-70.294484, 41.246499000000014], [-70.314298, 41.260532000000005], [-70.33509000000001, 41.272779], [-70.344083, 41.27614600000001], [-70.357554, 41.27259600000002], [-70.374466, 41.26945800000001], [-70.386671, 41.27128199999999], [-70.396777, 41.273013999999996], [-70.408733, 41.277294000000005], [-70.414493, 41.273953], [-70.429075, 41.268651000000006], [-70.444758, 41.265513000000006], [-70.459851, 41.26525300000001], [-70.475635, 41.270219999999995], [-70.493308, 41.279975], [-70.499469, 41.28574100000001], [-70.512199, 41.298313], [-70.530599, 41.299198999999994], [-70.54521000000001, 41.299672000000015], [-70.571848, 41.30009399999999], [-70.593135, 41.299843999999986], [-70.606672, 41.29940999999999], [-70.62447, 41.298382], [-70.655087, 41.29616499999999], [-70.68502, 41.293176], [-70.686615, 41.292058999999995], [-70.689055, 41.290937000000014], [-70.692874, 41.28963900000001], [-70.700169, 41.289058000000004], [-70.703106, 41.28904], [-70.704591, 41.28483399999999], [-70.707362, 41.280218], [-70.711063, 41.27485699999999], [-70.716499, 41.26945200000001], [-70.721634, 41.265861], [-70.726731, 41.26311000000002], [-70.734843, 41.25923100000001], [-70.734065, 41.256147999999996], [-70.734045, 41.253327000000006], [-70.733667, 41.25011600000003], [-70.73475300000001, 41.24625999999999], [-70.738908, 41.236427], [-70.744307, 41.22603000000001], [-70.749473, 41.22017299999998], [-70.754188, 41.216091], [-70.767837, 41.20648999999999], [-70.783582, 41.201219], [-70.80595, 41.19874200000001], [-70.823645, 41.20064899999999], [-70.847746, 41.20581399999999], [-70.866343, 41.215397], [-70.874474, 41.221380999999994], [-70.877327, 41.224143999999995], [-70.884973, 41.23378399999999], [-70.890541, 41.24309099999999], [-70.89245700000001, 41.25011200000001], [-70.894203, 41.25943899999999], [-70.893595, 41.267993999999995], [-70.890337, 41.27736199999999], [-70.885683, 41.28506600000001], [-70.878182, 41.29214699999999], [-70.874475, 41.29496799999998], [-70.870027, 41.29706799999999], [-70.874474, 41.30134999999999], [-70.877963, 41.30370800000001], [-70.884472, 41.31016199999997], [-70.891363, 41.318817999999986], [-70.897722, 41.327411000000005], [-70.901005, 41.334613], [-70.903815, 41.346727], [-70.903739, 41.35508000000001], [-70.901866, 41.36177], [-70.896017, 41.37014800000001], [-70.902603, 41.36761300000002], [-70.918399, 41.363033], [-70.938664, 41.353986000000006], [-70.955752, 41.35016100000001], [-70.970521, 41.34918700000001], [-70.979229, 41.349643999999984], [-70.990748, 41.351288999999994], [-70.99948, 41.354103], [-71.006315, 41.357319], [-71.014799, 41.362019999999994], [-71.020472, 41.366723], [-71.026103, 41.37169300000001], [-71.032701, 41.38027300000001], [-71.037211, 41.388908000000015], [-71.039918, 41.398259], [-71.038114, 41.405453], [-71.033604, 41.41408500000001], [-71.051854, 41.416729]]]}}