{"type": "Feature", "properties": {"district_name": "30th Middlesex District", "chamber": "house", "vintage": "2012-2020"}, "geometry": {"type": "Polygon", "coordinates": [[[-71.184189, 42.48183599999999], [-71.182944, 42.48212199999999], [-71.181375, 42.483386], [-71.181501, 42.483622], [-71.16892399999999, 42.487086999999995], [-71.17071899999999, 42.489754999999995], [-71.168914, 42.490547000000014], [-71.168444, 42.498299], [-71.16923299999999, 42.506519], [-71.169923, 42.506730999999995], [-71.169423, 42.50732299999999], [-71.16972, 42.507450999999996], [-71.169324, 42.507872], [-71.169473, 42.509487000000014], [-71.169876, 42.50972099999999], [-71.169566, 42.510203999999995], [-71.17025799999999, 42.51045200000001], [-71.169635, 42.51146199999998], [-71.170063, 42.51559700000001], [-71.154298, 42.522127], [-71.153052, 42.52251199999998], [-71.144193, 42.526427], [-71.13545599999999, 42.53000600000001], [-71.128892, 42.517375000000015], [-71.128254, 42.518453000000015], [-71.127819, 42.51863600000001], [-71.127051, 42.518506], [-71.126781, 42.51816099999999], [-71.126481, 42.51699099999999], [-71.125149, 42.515602], [-71.124482, 42.515923], [-71.124969, 42.51647899999998], [-71.12163699999999, 42.51810100000001], [-71.12136799999999, 42.518157], [-71.12061299999999, 42.517815000000006], [-71.119931, 42.51813200000001], [-71.120688, 42.519891999999984], [-71.121105, 42.520394], [-71.119959, 42.520832999999996], [-71.12177299999999, 42.52311299999999], [-71.122545, 42.523636999999994], [-71.12249899999999, 42.524309999999986], [-71.122128, 42.524727], [-71.12132199999999, 42.525093999999996], [-71.12038299999999, 42.52389199999997], [-71.115386, 42.52591599999998], [-71.11465199999999, 42.525244], [-71.112676, 42.525993000000014], [-71.110952, 42.526416000000005], [-71.106197, 42.527092999999994], [-71.1035, 42.525784000000016], [-71.10217999999999, 42.52574899999999], [-71.102016, 42.52657100000001], [-71.10240499999999, 42.527915], [-71.100163, 42.53113299999999], [-71.099366, 42.532666000000006], [-71.098157, 42.53386299999999], [-71.094836, 42.53623500000001], [-71.094073, 42.537151], [-71.092746, 42.536760000000015], [-71.091974, 42.537679000000004], [-71.08953699999999, 42.53702799999999], [-71.088596, 42.537244999999984], [-71.08749499999999, 42.53550399999999], [-71.087507, 42.535282999999986], [-71.08647599999999, 42.53507400000002], [-71.085428, 42.535306], [-71.084796, 42.53408700000001], [-71.082981, 42.532028999999994], [-71.0808, 42.52817100000001], [-71.08014, 42.528132], [-71.07964299999999, 42.527685000000005], [-71.079865, 42.526709], [-71.079745, 42.526725000000006], [-71.08108500000002, 42.525473], [-71.083507, 42.525489000000015], [-71.096773, 42.51167800000001], [-71.09746299999999, 42.510246], [-71.095564, 42.508966], [-71.094351, 42.507808000000004], [-71.094115, 42.507365], [-71.094261, 42.507123], [-71.099693, 42.50630499999998], [-71.10072199999999, 42.50225799999998], [-71.11976, 42.500291999999995], [-71.121765, 42.49872000000001], [-71.116795, 42.49463900000001], [-71.112116, 42.473818000000016], [-71.123862, 42.473392000000004], [-71.146008, 42.465800999999985], [-71.14656099999999, 42.46673900000001], [-71.147868, 42.467976], [-71.150193, 42.471158999999986], [-71.150404, 42.47176600000001], [-71.150033, 42.47253999999999], [-71.150905, 42.47372400000002], [-71.155579, 42.477897000000006], [-71.159572, 42.476932999999995], [-71.16279399999999, 42.476866], [-71.16502899999999, 42.475953], [-71.167024, 42.47540399999999], [-71.167279, 42.47624099999999], [-71.166842, 42.477098000000005], [-71.167821, 42.477332000000004], [-71.168658, 42.47797699999999], [-71.170341, 42.47798100000001], [-71.172442, 42.479077000000004], [-71.174092, 42.48003899999998], [-71.17445099999999, 42.481292], [-71.17880199999999, 42.480506000000005], [-71.181832, 42.480332999999995], [-71.183399, 42.48159400000001], [-71.18406399999999, 42.48152400000002], [-71.184189, 42.48183599999999]]]}}