{"type": "Feature", "properties": {"district_name": "14th Bristol", "chamber": "house", "vintage": "2001-2010"}, "geometry": {"type": "Polygon", "coordinates": [[[-71.28689809658574, 42.014899199280585], [-71.28249798723745, 42.006298905051615], [-71.28189696133069, 42.00549928006828], [-71.28179691912105, 42.00469891618765], [-71.27639692761483, 41.995098781103046], [-71.27529705343738, 41.994098934942926], [-71.27509703653539, 41.9935988548319], [-71.26979694955698, 41.9857992642057], [-71.26139594607625, 41.97419918530046], [-71.2575830055617, 41.979767078002794], [-71.25599601713274, 41.98179902490299], [-71.25439594864673, 41.98479879405223], [-71.24699609029472, 41.994398824740664], [-71.24049600149563, 42.00379897509911], [-71.24099707569745, 42.00450912616514], [-71.24140899716369, 42.00557695715846], [-71.24169599892686, 42.007499256724024], [-71.24049603432225, 42.007999044886176], [-71.24179604450107, 42.00789900685735], [-71.2418060434231, 42.0083621443723], [-71.24137796434941, 42.008804025493475], [-71.24168400526666, 42.01087211376776], [-71.24154596105369, 42.01267191536507], [-71.2423089932489, 42.01476972639217], [-71.24354490616359, 42.016188848794336], [-71.24502496223973, 42.0170519778112], [-71.2476499705335, 42.0173492827111], [-71.24859607197558, 42.01786793328173], [-71.24954300476315, 42.01870675486454], [-71.24993999604438, 42.01936318420109], [-71.24998503735146, 42.020095930035446], [-71.25148092105324, 42.02076712100973], [-71.25164799152186, 42.02122497084758], [-71.25196896864375, 42.02140010707962], [-71.25230495544528, 42.02198773611291], [-71.25283901066199, 42.02243793303907], [-71.25325100327505, 42.022644215737316], [-71.2543490819344, 42.02278106199964], [-71.25449705083592, 42.023498837984654], [-71.25549397317853, 42.023154902712974], [-71.26019708387736, 42.02089883450902], [-71.26101704326395, 42.022795753916114], [-71.26229699738133, 42.02419899825247], [-71.26229699938945, 42.02439876433166], [-71.25589694089854, 42.02689890176396], [-71.24949704118265, 42.02951573418669], [-71.24949705942517, 42.029704237083806], [-71.2355659983907, 42.03531797799207], [-71.22339602756445, 42.03989891183621], [-71.22247203593048, 42.04042674573523], [-71.21106507716637, 42.044923253281404], [-71.21819599739861, 42.035498788711934], [-71.2178960375715, 42.035099084488174], [-71.21809607122215, 42.03449917171375], [-71.21748305094108, 42.0344852800545], [-71.21719608189096, 42.03349926331629], [-71.21559490955576, 42.033598832770586], [-71.21509506965002, 42.0292990587233], [-71.21549508367782, 42.029298928775326], [-71.21479508788089, 42.02739916275052], [-71.2162949139063, 42.02709902897028], [-71.19709398857083, 42.00649905388783], [-71.19139406374477, 42.00009872229576], [-71.2024939842253, 41.99539911084894], [-71.20889497877835, 41.99299874393079], [-71.2206950717522, 41.98809882354058], [-71.22022893420701, 41.987326768543554], [-71.22001506863351, 41.98643490928179], [-71.21862597822324, 41.98617490229463], [-71.21767998968491, 41.98417606763838], [-71.21726796217914, 41.982657977262924], [-71.21688700472026, 41.98225413246239], [-71.21682592014326, 41.98178805537719], [-71.21627702317336, 41.98107880225784], [-71.21650495118946, 41.980659017071034], [-71.21639508279226, 41.980098850198374], [-71.21613893513639, 41.97982811245748], [-71.2151169814871, 41.979843009802885], [-71.21491898598477, 41.979683273075], [-71.21464394965648, 41.97853802955476], [-71.21424704518427, 41.978126257887965], [-71.21324003506643, 41.97776022379136], [-71.21293500144617, 41.97734079995385], [-71.21209500797558, 41.976899204276755], [-71.21169791864135, 41.976494175707074], [-71.2114389645365, 41.97659987950867], [-71.21034007355283, 41.97547110734004], [-71.20974497699403, 41.97557820586441], [-71.20838708515674, 41.97671480599579], [-71.2078939980628, 41.97689924225217], [-71.20820398480613, 41.97647799935436], [-71.20802094520911, 41.976349233432835], [-71.2073939674727, 41.976498995473214], [-71.20709396243788, 41.974299145012026], [-71.20509401193182, 41.974198908628985], [-71.20429401802657, 41.9742992556168], [-71.20283295614932, 41.97030582986027], [-71.20259409295042, 41.96909875111744], [-71.2003300748087, 41.96666697500144], [-71.19889401095216, 41.96169893968548], [-71.20454196927705, 41.95995295407831], [-71.20539402982604, 41.95959895144628], [-71.20729395125313, 41.95839906768503], [-71.20599406700558, 41.95769909087806], [-71.20580803841682, 41.9570081575194], [-71.20593001995967, 41.956671968496934], [-71.20554904384798, 41.95571099723164], [-71.20611305375978, 41.954337743037655], [-71.20609407671252, 41.953998940290255], [-71.20643398956459, 41.95368919583183], [-71.20664696827139, 41.952949210887844], [-71.20702899866899, 41.95269809505041], [-71.20823408407125, 41.952842982455586], [-71.2091940499368, 41.95239919273415], [-71.21023290844411, 41.95271301736466], [-71.21117907767125, 41.95202608348614], [-71.2113169539757, 41.9520410624757], [-71.21111801520695, 41.95240013855677], [-71.21117899908295, 41.95258317031998], [-71.21172792596697, 41.95255304449588], [-71.21241494805595, 41.95215581584552], [-71.21284196474168, 41.951118119412136], [-71.21314791927989, 41.95097314042919], [-71.21365108930867, 41.95105712600107], [-71.21450591863136, 41.95172889489734], [-71.21476500588585, 41.95182013441904], [-71.21487191475397, 41.95168309899756], [-71.21519400420298, 41.952099185281845], [-71.21656596904417, 41.9528200616001], [-71.21731296999063, 41.95278927466721], [-71.21960198026285, 41.951164169431856], [-71.22112799638984, 41.95127087621027], [-71.22118894577844, 41.95095027795593], [-71.22169409139099, 41.95049908736068], [-71.22315694094989, 41.95121672960447], [-71.2235940376162, 41.95119921373025], [-71.22474401000713, 41.95071412127182], [-71.2264540343937, 41.95053815944803], [-71.23017696470927, 41.948700184542105], [-71.23829496651872, 41.946338220090105], [-71.24459504877322, 41.95399919652647], [-71.25019496896361, 41.95429911788717], [-71.2551960467492, 41.954098928483894], [-71.25819600043626, 41.95359887428391], [-71.26159603914013, 41.9539987923273], [-71.26386993841268, 41.95397200194086], [-71.2674959442479, 41.953299112925755], [-71.26929604427811, 41.952799137894544], [-71.27559592626884, 41.95009884015047], [-71.27759600343516, 41.94889911207433], [-71.27949602683043, 41.947399225361885], [-71.28089591503176, 41.946099233083906], [-71.28159607906365, 41.944199170275084], [-71.28249692550942, 41.94459872254611], [-71.2880969081946, 41.93669918943585], [-71.29039694662268, 41.93729878359334], [-71.29147409068861, 41.93793492839122], [-71.29239694559799, 41.93879925330581], [-71.28799708388729, 41.94189903425606], [-71.28449696741254, 41.94459913629786], [-71.28379693363904, 41.944598939159896], [-71.28459708907002, 41.95059897115549], [-71.28614897965777, 41.94930989749182], [-71.28726292342196, 41.94947010376123], [-71.28776597366985, 41.949333170117505], [-71.28852899200847, 41.94979094946188], [-71.28903301455888, 41.94969902906926], [-71.29029704671706, 41.94989887264078], [-71.28969705067392, 41.95239902344413], [-71.28834602716803, 41.95545205828528], [-71.28770499777075, 41.957786125821166], [-71.28819708429138, 41.962099107412165], [-71.28959703887054, 41.96469917212828], [-71.29109706510883, 41.966598821052244], [-71.29149704114307, 41.96809918279714], [-71.2915959273531, 41.96916176282147], [-71.29139692624861, 41.97149890375235], [-71.30779804161328, 41.96099875911205], [-71.33864093125068, 41.94033023049833], [-71.34378302478109, 41.93722500945681], [-71.38146219152898, 41.916383544742864], [-71.3812957329128, 41.98499816739352], [-71.36488707247572, 41.9851752173108], [-71.36355899973628, 41.985479754122665], [-71.34179901691216, 41.994197906146184], [-71.32959907166875, 41.998598211830235], [-71.28689809658574, 42.014899199280585]]]}}