{"type": "Feature", "properties": {"district_name": "3rd Hampden District", "chamber": "house", "vintage": "2022-present"}, "geometry": {"type": "Polygon", "coordinates": [[[-73.075052, 42.105571000000005], [-73.074807, 42.10618100000001], [-73.072889, 42.10701699999999], [-73.072254, 42.107528000000016], [-73.071867, 42.10816299999997], [-73.071837, 42.10935599999999], [-73.07273600000002, 42.110097999999994], [-73.073092, 42.110783999999995], [-73.072934, 42.111247000000006], [-73.072377, 42.11198000000001], [-73.070979, 42.113127], [-73.069227, 42.11392600000001], [-73.065745, 42.11477800000001], [-73.063213, 42.115933000000005], [-73.061517, 42.117580000000004], [-73.061206, 42.118112], [-73.061094, 42.11869999999999], [-73.061764, 42.119917], [-73.06321, 42.121263000000006], [-73.06426, 42.122775], [-73.06621, 42.12418799999999], [-73.066672, 42.12505600000001], [-73.066668, 42.125999000000014], [-73.067206, 42.127351], [-73.067797, 42.12785499999999], [-73.068426, 42.129541], [-73.069285, 42.130869], [-73.069686, 42.13224999999999], [-73.06983, 42.13345799999999], [-73.069442, 42.13498599999999], [-73.0685, 42.13549799999999], [-73.068581, 42.136945], [-73.068941, 42.137747], [-73.0688, 42.138363999999996], [-73.069182, 42.138967], [-73.070106, 42.139576000000005], [-73.070546, 42.140159999999995], [-73.07213, 42.143547999999996], [-73.070295, 42.14491699999999], [-73.070564, 42.145806], [-73.070263, 42.146421], [-73.070405, 42.146956], [-73.071113, 42.148206], [-73.03492, 42.143652], [-73.008264, 42.237010000000005], [-73.004294, 42.25134700000001], [-73.00185, 42.25101699999999], [-73.000278, 42.31259699999999], [-73.000803, 42.312537000000006], [-73.001804, 42.311994], [-73.002069, 42.31037999999998], [-73.00333, 42.309785], [-73.003548, 42.309431000000004], [-73.003432, 42.30840100000001], [-73.00355100000002, 42.30788399999997], [-73.00496, 42.307238999999996], [-73.005809, 42.306470999999995], [-73.005813, 42.305952999999995], [-73.005344, 42.305713], [-73.005211, 42.305465], [-73.005354, 42.3052], [-73.006611, 42.30479399999999], [-73.007611, 42.304939999999995], [-73.008776, 42.304477000000006], [-73.009672, 42.304498], [-73.010537, 42.30484000000001], [-73.011216, 42.30564199999999], [-73.012742, 42.306767], [-73.013232, 42.307592], [-73.014216, 42.30848], [-73.01433, 42.30903699999999], [-73.015908, 42.310667], [-73.016535, 42.31111300000002], [-73.017104, 42.31096], [-73.018241, 42.30900499999999], [-73.019202, 42.30849599999999], [-73.020146, 42.308259], [-73.020709, 42.30839100000002], [-73.021716, 42.309371], [-73.023032, 42.309577], [-73.024924, 42.30917199999998], [-73.026237, 42.30799000000001], [-73.027358, 42.30808900000002], [-73.029398, 42.308568], [-73.031785, 42.309591], [-73.032829, 42.310495], [-73.034163, 42.31211999999997], [-73.034955, 42.312792], [-73.036127, 42.31356199999999], [-73.038954, 42.314955000000005], [-73.039355, 42.315445999999994], [-73.039181, 42.315824000000006], [-73.03972400000002, 42.317853999999976], [-73.039629, 42.31863099999999], [-73.040752, 42.32018300000001], [-73.041873, 42.320304], [-73.042729, 42.320065], [-73.043197, 42.319735000000016], [-73.044549, 42.319405], [-73.045445, 42.31939600000001], [-73.04584, 42.31963800000001], [-73.046255, 42.32037100000001], [-73.046675, 42.320745], [-73.048141, 42.321352000000005], [-73.049016, 42.321418], [-73.05056200000001, 42.322436999999994], [-73.051518, 42.323589999999996], [-73.052656, 42.32428899999999], [-73.055086, 42.32539700000002], [-73.056766, 42.32594499999998], [-73.060602, 42.328039999999994], [-73.062886, 42.328951], [-73.064301, 42.33976999999998], [-73.068508, 42.38072], [-73.065772, 42.389111], [-73.011683, 42.379683], [-73.009085, 42.38773400000001], [-72.976501, 42.391449000000016], [-72.976832, 42.38942699999999], [-72.977248, 42.38805299999999], [-72.97733800000002, 42.38676500000001], [-72.977916, 42.385246], [-72.97777000000002, 42.38498600000001], [-72.975762, 42.38356300000001], [-72.975094, 42.38049599999997], [-72.97435, 42.379234999999994], [-72.974069, 42.377384000000006], [-72.973839, 42.376871], [-72.973168, 42.37631599999999], [-72.971644, 42.375913], [-72.970894, 42.375516000000005], [-72.970074, 42.37476800000001], [-72.969822, 42.373802], [-72.969615, 42.373588], [-72.968504, 42.372898999999975], [-72.967521, 42.37279800000001], [-72.96724500000002, 42.372582], [-72.966937, 42.37189099999999], [-72.965394, 42.370887], [-72.96498, 42.370380000000004], [-72.965089, 42.369709000000014], [-72.966012, 42.369034], [-72.966049, 42.36830999999997], [-72.96629, 42.367856], [-72.968575, 42.36593699999999], [-72.968968, 42.365344], [-72.968904, 42.364888], [-72.968632, 42.36469900000001], [-72.96733, 42.36453300000001], [-72.965999, 42.36403799999999], [-72.965974, 42.36367], [-72.96686000000001, 42.362705], [-72.966828, 42.36254400000001], [-72.965952, 42.361485], [-72.963858, 42.35766399999999], [-72.963534, 42.356469000000004], [-72.963434, 42.35456299999999], [-72.963076, 42.353498], [-72.961821, 42.35274399999999], [-72.960131, 42.35039900000001], [-72.957521, 42.347629], [-72.956741, 42.34712700000001], [-72.95481, 42.346427999999996], [-72.953944, 42.34591199999999], [-72.953377, 42.34474199999999], [-72.953272, 42.343830000000004], [-72.895638, 42.340701999999986], [-72.894788, 42.33149099999999], [-72.885208, 42.332612000000005], [-72.885635, 42.340035999999984], [-72.854244, 42.343405000000004], [-72.85364, 42.342535], [-72.852001, 42.34217600000001], [-72.84884600000001, 42.34251800000001], [-72.847496, 42.342311], [-72.847088, 42.341845000000006], [-72.846673, 42.340597], [-72.846437, 42.340467000000004], [-72.846128, 42.34072199999999], [-72.844985, 42.34340799999999], [-72.843723, 42.344653], [-72.840376, 42.345076999999996], [-72.840032, 42.34464199999999], [-72.839842, 42.34336299999999], [-72.839222, 42.34294500000001], [-72.837686, 42.34275399999998], [-72.835737, 42.34325400000001], [-72.833483, 42.341748], [-72.830911, 42.342278], [-72.828722, 42.34223600000001], [-72.827246, 42.342506], [-72.826388, 42.34236299999999], [-72.825838, 42.34194000000001], [-72.826184, 42.341149000000016], [-72.824724, 42.340447000000005], [-72.823956, 42.339428], [-72.823175, 42.339102999999994], [-72.822012, 42.33936199999999], [-72.821122, 42.33862999999999], [-72.812576, 42.23495400000001], [-72.793414, 42.236853999999994], [-72.791987, 42.217302], [-72.782111, 42.217271], [-72.781039, 42.19974900000001], [-72.785762, 42.200474], [-72.797892, 42.165860999999985], [-72.802506, 42.16288600000001], [-72.80751400000001, 42.157340000000005], [-72.812875, 42.155848000000006], [-72.828936, 42.13698599999999], [-72.83049, 42.138097999999985], [-72.831301, 42.138264999999976], [-72.833276, 42.138021], [-72.835517, 42.137443000000005], [-72.836118, 42.13719], [-72.83633, 42.13680500000002], [-72.836384, 42.13646099999999], [-72.835909, 42.134775999999995], [-72.836117, 42.13433799999999], [-72.836604, 42.133945000000004], [-72.837676, 42.13353399999999], [-72.839215, 42.133375999999984], [-72.840342, 42.13242300000002], [-72.84083100000001, 42.13219599999999], [-72.842526, 42.13222100000001], [-72.843424, 42.132481999999996], [-72.843936, 42.13226399999999], [-72.844251, 42.13136899999999], [-72.844131, 42.12986399999999], [-72.8437, 42.12860900000001], [-72.842746, 42.127137999999995], [-72.842792, 42.12671099999999], [-72.843324, 42.126207000000015], [-72.843815, 42.126063], [-72.844612, 42.126070999999996], [-72.846211, 42.126495000000006], [-72.84701800000002, 42.126413], [-72.847759, 42.126070999999996], [-72.849439, 42.12490200000001], [-72.85061, 42.12508199999999], [-72.851292, 42.124659000000015], [-72.85142, 42.123509], [-72.851642, 42.123033], [-72.851868, 42.122907000000005], [-72.853897, 42.11500600000001], [-72.839319, 42.111726999999995], [-72.837212, 42.10221800000001], [-72.705989, 42.08079700000001], [-72.70565, 42.08214399999997], [-72.702866, 42.08773300000001], [-72.701963, 42.09103800000001], [-72.700659, 42.093253], [-72.696307, 42.102349999999994], [-72.695682, 42.10312], [-72.695461, 42.104741999999995], [-72.694869, 42.105883999999996], [-72.693577, 42.10575500000001], [-72.69107, 42.106225], [-72.688686, 42.106233999999986], [-72.684013, 42.107151999999985], [-72.683258, 42.106972], [-72.682884, 42.106713000000006], [-72.682661, 42.10631200000002], [-72.68252, 42.102846], [-72.682209, 42.101551], [-72.681936, 42.10108100000001], [-72.681442, 42.10069500000001], [-72.680178, 42.100963000000014], [-72.678359, 42.10054800000002], [-72.676712, 42.100512], [-72.676309, 42.10032500000001], [-72.675983, 42.099954000000004], [-72.675717, 42.098412999999994], [-72.673969, 42.096383999999986], [-72.673246, 42.09486300000001], [-72.670284, 42.09333500000002], [-72.668392, 42.091313], [-72.667178, 42.088942], [-72.666658, 42.087048], [-72.665869, 42.086168], [-72.663891, 42.084672999999995], [-72.663737, 42.08344600000001], [-72.66274, 42.08273100000001], [-72.66222, 42.080441], [-72.661468, 42.07950600000001], [-72.661552, 42.079271999999996], [-72.662228, 42.078785999999994], [-72.662788, 42.077758], [-72.66218, 42.077540000000006], [-72.654804, 42.076184], [-72.641156, 42.08685100000001], [-72.639363, 42.08849], [-72.638748, 42.08879699999999], [-72.636164, 42.089491], [-72.63215, 42.08959599999999], [-72.627071, 42.08941], [-72.626819, 42.089864], [-72.624455, 42.088868], [-72.620914, 42.087654], [-72.619477, 42.08749499999998], [-72.615431, 42.08764], [-72.613494, 42.087547], [-72.61048, 42.088494], [-72.609561, 42.08861000000001], [-72.607158, 42.088266], [-72.605721, 42.087824], [-72.602144, 42.086266], [-72.601081, 42.085996], [-72.600739, 42.086253], [-72.598843, 42.09317300000001], [-72.597899, 42.09366399999999], [-72.595872, 42.093859], [-72.59492, 42.09378800000002], [-72.59414, 42.09354299999999], [-72.591763, 42.092022000000036], [-72.588487, 42.09321200000001], [-72.585619, 42.09002000000001], [-72.584912, 42.088843], [-72.584112, 42.08699699999999], [-72.582693, 42.081557999999994], [-72.58258, 42.080452], [-72.582671, 42.079518], [-72.583583, 42.07814299999998], [-72.587002, 42.07513099999996], [-72.588765, 42.073164], [-72.589383, 42.07219099999998], [-72.591813, 42.069561], [-72.600451, 42.057759], [-72.605747, 42.049178000000005], [-72.606804, 42.046737], [-72.607337, 42.044856999999986], [-72.607984, 42.03904200000001], [-72.60813000000002, 42.03274600000001], [-72.607978, 42.031083], [-72.611739, 42.03106799999999], [-72.640191, 42.03204800000002], [-72.673032, 42.035195], [-72.69933, 42.036957], [-72.714561, 42.03691100000001], [-72.714558, 42.03655299999999], [-72.755894, 42.03634899999998], [-72.756046, 42.034943], [-72.756802, 42.03438599999999], [-72.75690600000001, 42.033799], [-72.75730100000001, 42.033381000000006], [-72.754641, 42.03259500000001], [-72.752553, 42.031249], [-72.751944, 42.03013000000001], [-72.752062, 42.02902499999999], [-72.75296700000001, 42.027815], [-72.753842, 42.027258], [-72.753908, 42.02674600000002], [-72.754536, 42.02576], [-72.75578000000002, 42.024732], [-72.756086, 42.02382699999999], [-72.756652, 42.022926], [-72.756591, 42.02187800000002], [-72.757341, 42.020979], [-72.75836, 42.020829], [-72.759232, 42.021077999999996], [-72.759232, 42.021754], [-72.759434, 42.02216300000001], [-72.760567, 42.02265], [-72.761411, 42.022713], [-72.761886, 42.02216800000001], [-72.763487, 42.02118399999999], [-72.763812, 42.02124500000001], [-72.763789, 42.02163300000002], [-72.763952, 42.02191800000001], [-72.76486, 42.02220100000001], [-72.765012, 42.02242700000001], [-72.765252, 42.022366000000005], [-72.765303, 42.021892], [-72.764587, 42.021513999999996], [-72.764477, 42.020873000000016], [-72.765369, 42.02034499999999], [-72.765806, 42.01956800000002], [-72.76556, 42.019448999999994], [-72.765141, 42.01980199999999], [-72.764629, 42.01995300000001], [-72.762947, 42.01968299999999], [-72.762453, 42.01822199999999], [-72.762018, 42.017696], [-72.760735, 42.01709999999999], [-72.760068, 42.017314999999996], [-72.759826, 42.01694400000001], [-72.759999, 42.016355999999995], [-72.759402, 42.01624200000001], [-72.759103, 42.015497], [-72.75895, 42.01546900000001], [-72.759696, 42.01511000000002], [-72.760624, 42.01569], [-72.761004, 42.01470400000002], [-72.762977, 42.01346600000001], [-72.763066, 42.011983000000015], [-72.762543, 42.011458], [-72.761918, 42.01015100000001], [-72.761392, 42.00987599999999], [-72.761501, 42.009302], [-72.76297600000001, 42.008545000000005], [-72.76487400000002, 42.008371000000004], [-72.766253, 42.00787100000001], [-72.766733, 42.00326600000002], [-72.817053, 41.997685], [-72.813784, 42.03674399999999], [-72.86364, 42.037528000000016], [-72.872302, 42.037487], [-72.873327, 42.03767599999999], [-72.979038, 42.03823700000001], [-73.036802, 42.03929399999999], [-73.053288, 42.039865000000006], [-73.055807, 42.04504700000001], [-73.056311, 42.046295], [-73.056549, 42.047419], [-73.056453, 42.04831400000001], [-73.055396, 42.050278000000006], [-73.053995, 42.054589], [-73.053899, 42.055276], [-73.054204, 42.056645], [-73.054899, 42.05793899999999], [-73.055623, 42.058575], [-73.056492, 42.05903100000002], [-73.058248, 42.05959099999998], [-73.06071, 42.06100500000001], [-73.061698, 42.061745], [-73.061666, 42.06217999999998], [-73.060502, 42.06376399999999], [-73.059193, 42.06547200000001], [-73.058342, 42.066254000000015], [-73.058153, 42.066753], [-73.058236, 42.067129], [-73.058556, 42.06770999999999], [-73.060051, 42.068667000000005], [-73.060878, 42.069959000000004], [-73.061805, 42.070637999999995], [-73.073082, 42.094184999999996], [-73.074167, 42.10186699999999], [-73.074805, 42.103996], [-73.075052, 42.105571000000005]]]}}