{"type": "Feature", "properties": {"district_name": "3rd Norfolk District", "chamber": "house", "vintage": "2022-present"}, "geometry": {"type": "Polygon", "coordinates": [[[-71.035093, 42.13563400000001], [-71.027565, 42.15632099999999], [-71.026911, 42.15778399999999], [-71.026132, 42.157477], [-71.026461, 42.155431], [-71.025548, 42.15420000000001], [-71.026544, 42.153475], [-71.026726, 42.152950000000004], [-71.02651, 42.152508000000005], [-71.026522, 42.151967000000006], [-71.025781, 42.15112500000001], [-71.025578, 42.150597000000005], [-71.024715, 42.15001800000001], [-71.021715, 42.14954400000002], [-71.020376, 42.149135], [-71.019767, 42.147983], [-71.01891000000002, 42.14912], [-71.01848, 42.14930999999999], [-71.01788, 42.14927999999999], [-71.01832, 42.14901], [-71.01842, 42.14861000000001], [-71.01804, 42.148249999999976], [-71.01714, 42.14812], [-71.01718, 42.14771], [-71.016864, 42.14763500000001], [-71.016896, 42.14733600000001], [-71.01282, 42.14693], [-71.01274, 42.146739999999994], [-71.01301, 42.145330000000016], [-71.01134, 42.145269999999975], [-71.00935, 42.14573], [-71.0087, 42.145739999999996], [-71.00868, 42.14866999999999], [-71.00826, 42.150999999999975], [-71.00855, 42.15479], [-71.0031, 42.15471000000001], [-70.9978, 42.15232], [-70.99796, 42.151900000000005], [-70.99878, 42.14504999999999], [-70.99879, 42.14467999999999], [-70.9986, 42.144450000000006], [-70.997909, 42.144259999999996], [-70.995251, 42.144079999999995], [-70.99173, 42.144180000000006], [-70.986727, 42.14511299999999], [-70.98302, 42.141509999999975], [-70.98067, 42.139593], [-70.9687, 42.219877999999994], [-70.967684, 42.22066199999997], [-70.968016, 42.221201], [-70.968066, 42.22169000000002], [-70.967022, 42.223353], [-70.965414, 42.22389899999999], [-70.964283, 42.224585], [-70.963728, 42.224694000000014], [-70.962891, 42.225499], [-70.960891, 42.226899], [-70.960596, 42.228539000000005], [-70.960384, 42.22871499999999], [-70.960191, 42.23129899999999], [-70.960491, 42.23509899999997], [-70.967991, 42.237998999999995], [-70.972758, 42.237146], [-70.973408, 42.237356999999996], [-70.974965, 42.23735899999999], [-70.974944, 42.23752999999999], [-70.975868, 42.237846999999995], [-70.976226, 42.23815799999999], [-70.97713, 42.238415], [-70.977817, 42.23827099999999], [-70.978389, 42.237925], [-70.97896, 42.23711699999999], [-70.979737, 42.23647600000001], [-70.980156, 42.23543799999998], [-70.980404, 42.23532], [-70.980662, 42.235641999999984], [-70.981105, 42.235749000000006], [-71.00217, 42.232208], [-71.008337, 42.22966900000001], [-71.01392, 42.23230999999998], [-71.013877, 42.232729000000006], [-71.015992, 42.23389900000001], [-71.01727000000001, 42.23491500000001], [-71.017871, 42.23581000000001], [-71.017622, 42.23568499999999], [-71.01706, 42.23618], [-71.017668, 42.23657700000001], [-71.017802, 42.23736300000002], [-71.017124, 42.23757300000001], [-71.01615, 42.236959999999996], [-71.01501, 42.23791999999998], [-71.01619, 42.2391], [-71.01503, 42.23935000000001], [-71.01399, 42.239119999999986], [-71.01376, 42.23972], [-71.011514, 42.23993900000001], [-71.009719, 42.24048900000001], [-71.0098, 42.24114000000003], [-71.00666, 42.24053], [-71.0044, 42.241509999999984], [-71.005, 42.23901], [-71.00396, 42.23787999999998], [-71.00333, 42.238880000000016], [-71.00324, 42.23975999999999], [-71.00194, 42.240029999999976], [-71.00094, 42.24089000000001], [-71.00092, 42.24116000000001], [-71.00031, 42.24154000000001], [-71.00266, 42.24429], [-71.00305, 42.24412], [-71.00327, 42.24426], [-71.00329, 42.24491999999999], [-71.003116, 42.245459], [-71.00269, 42.245719999999984], [-71.00239, 42.245350000000016], [-71.00209, 42.24529999999999], [-71.00039, 42.245790000000014], [-71.00019, 42.245409999999985], [-70.99762, 42.24677], [-70.99743000000001, 42.247110000000006], [-70.99805, 42.247960000000006], [-70.99854, 42.24828], [-70.99794, 42.24879], [-70.99773, 42.25008], [-70.99716, 42.24992], [-70.99517000000002, 42.25005], [-70.98885, 42.249100000000006], [-70.98704, 42.24911000000001], [-70.98499, 42.24871000000001], [-70.98404, 42.249519999999976], [-70.98574, 42.25025000000001], [-70.9849, 42.251784000000015], [-70.98582, 42.251964], [-70.98477600000001, 42.25350100000002], [-70.983977, 42.253659], [-70.982492, 42.25429900000001], [-70.975392, 42.253699000000005], [-70.97009100000001, 42.249799], [-70.960191, 42.24679900000001], [-70.960909, 42.24609100000001], [-70.962086, 42.24642399999998], [-70.961641, 42.245782], [-70.963479, 42.245967], [-70.962194, 42.24645499999999], [-70.96541, 42.24679099999998], [-70.967124, 42.244256], [-70.965962, 42.243991], [-70.966093, 42.243537999999994], [-70.966663, 42.24310499999999], [-70.966493, 42.24294999999999], [-70.966723, 42.24151499999999], [-70.966877, 42.241494], [-70.966669, 42.24041199999998], [-70.966999, 42.23973600000001], [-70.963629, 42.23893300000002], [-70.96336, 42.240514000000005], [-70.960398, 42.240326000000024], [-70.959759, 42.239989999999985], [-70.958813, 42.239817], [-70.95779, 42.24013200000001], [-70.957251, 42.24012800000001], [-70.954858, 42.23933599999999], [-70.953135, 42.238415], [-70.95218, 42.238218999999994], [-70.951319, 42.23759], [-70.951491, 42.237379999999995], [-70.951198, 42.23713800000001], [-70.95056, 42.236941], [-70.949966, 42.23721900000001], [-70.949961, 42.237939999999995], [-70.949935, 42.23806299999999], [-70.94985, 42.23821699999999], [-70.94978, 42.23823800000001], [-70.949934, 42.237978], [-70.949249, 42.237053999999986], [-70.949279, 42.236607000000014], [-70.949749, 42.236212], [-70.950064, 42.236324], [-70.950872, 42.236224], [-70.951703, 42.236539], [-70.952095, 42.236514], [-70.95198, 42.236174], [-70.953246, 42.236807], [-70.954282, 42.23671500000001], [-70.953939, 42.23571], [-70.952177, 42.23286999999999], [-70.952125, 42.23255600000001], [-70.951763, 42.23249000000001], [-70.950763, 42.23268700000001], [-70.950517, 42.232460999999994], [-70.950694, 42.23215200000001], [-70.950534, 42.23163800000001], [-70.950979, 42.23132999999999], [-70.950956, 42.23109699999999], [-70.949724, 42.23059299999998], [-70.948247, 42.230694], [-70.948266, 42.23051600000001], [-70.950079, 42.230410000000006], [-70.951636, 42.230064000000034], [-70.951344, 42.229775000000004], [-70.95189500000001, 42.228528999999995], [-70.95103, 42.22707], [-70.94807, 42.226839999999996], [-70.9462, 42.227289999999996], [-70.94601, 42.226789999999994], [-70.94535, 42.22612], [-70.94523, 42.22494000000001], [-70.94307, 42.22281999999999], [-70.94516, 42.2216], [-70.94395, 42.22021999999999], [-70.94548, 42.21941000000001], [-70.947267, 42.21880200000002], [-70.948228, 42.21782900000001], [-70.95208, 42.21709], [-70.95613700000001, 42.217248], [-70.955776, 42.206554], [-70.95674, 42.207219999999985], [-70.95718, 42.20775], [-70.956726, 42.20682999999999], [-70.95612, 42.20482000000001], [-70.955659, 42.19449699999999], [-70.959631, 42.195775], [-70.960739, 42.1934], [-70.960308, 42.193341000000004], [-70.962437, 42.19077], [-70.962437, 42.19048], [-70.962074, 42.18882000000001], [-70.962281, 42.18793800000001], [-70.95843000000002, 42.188460000000006], [-70.9556, 42.189031], [-70.95518, 42.18084], [-70.95538, 42.17672999999999], [-70.95721, 42.176899999999996], [-70.96439, 42.178430000000006], [-70.964451, 42.17827], [-70.963318, 42.178053], [-70.963069, 42.177716], [-70.963222, 42.17725000000002], [-70.963699, 42.176837000000006], [-70.96376, 42.17629500000001], [-70.962799, 42.17500100000001], [-70.96279, 42.174448000000005], [-70.959081, 42.169515], [-70.95812700000002, 42.16763900000001], [-70.955356, 42.15847], [-70.948963, 42.14815600000001], [-71.002152, 42.127304], [-71.001974, 42.12652599999999], [-71.021859, 42.118745], [-71.026953, 42.123734], [-71.027521, 42.126414999999994], [-71.027576, 42.12759600000001], [-71.02721, 42.13293899999998], [-71.035093, 42.13563400000001]]]}}