{"type": "Feature", "properties": {"district_name": "11th Essex District", "chamber": "house", "vintage": "2022-present"}, "geometry": {"type": "Polygon", "coordinates": [[[-71.001621, 42.492786999999986], [-71.001071, 42.492611999999994], [-70.999875, 42.492623999999985], [-70.999495, 42.49299], [-70.998332, 42.493263], [-70.996238, 42.49324099999999], [-70.995459, 42.49344399999999], [-70.994586, 42.49333700000001], [-70.993242, 42.49357699999999], [-70.989433, 42.49373300000001], [-70.983014, 42.49343], [-70.981384, 42.49326000000001], [-70.98041, 42.492988999999994], [-70.979391, 42.49310100000001], [-70.97939, 42.493267], [-70.977997, 42.49311999999998], [-70.978438, 42.49287300000001], [-70.979643, 42.492791999999994], [-70.980316, 42.49250299999998], [-70.98305, 42.492435], [-70.984281, 42.49222800000002], [-70.985541, 42.49051400000002], [-70.985905, 42.48917300000001], [-70.987074, 42.48847800000001], [-70.987471, 42.488042000000014], [-70.987456, 42.48741499999999], [-70.987007, 42.48675599999999], [-70.986981, 42.486051], [-70.986601, 42.48529799999999], [-70.985837, 42.484542999999995], [-70.986101, 42.483503999999996], [-70.983488, 42.483509999999995], [-70.982959, 42.483992], [-70.981928, 42.483956000000006], [-70.981799, 42.483823], [-70.981849, 42.483379999999975], [-70.982544, 42.481924], [-70.982188, 42.482089], [-70.982176, 42.482244], [-70.981236, 42.48265200000001], [-70.980987, 42.48111900000001], [-70.980479, 42.480186], [-70.97971, 42.47936500000001], [-70.978794, 42.479434999999995], [-70.977503, 42.48002100000001], [-70.97621, 42.481173000000005], [-70.975319, 42.48235199999999], [-70.975184, 42.482796], [-70.974823, 42.483036000000006], [-70.973642, 42.483594], [-70.971938, 42.483996000000005], [-70.970453, 42.48399800000001], [-70.969383, 42.483739000000014], [-70.969165, 42.48351999999999], [-70.969548, 42.48283], [-70.969334, 42.482407], [-70.967328, 42.480253], [-70.965103, 42.481498], [-70.96403, 42.482779999999984], [-70.963602, 42.48265600000001], [-70.963308, 42.48225699999999], [-70.962014, 42.482795], [-70.961388, 42.482173], [-70.957164, 42.480046999999985], [-70.956963, 42.480245000000004], [-70.956157, 42.479637999999994], [-70.957101, 42.478247], [-70.956364, 42.478468], [-70.957164, 42.47710999999999], [-70.952086, 42.475413], [-70.952301, 42.474754999999995], [-70.952319, 42.473653000000006], [-70.955203, 42.47117000000001], [-70.95434, 42.47032300000002], [-70.955242, 42.46877400000001], [-70.956888, 42.469778000000005], [-70.958376, 42.46854999999999], [-70.957515, 42.46785400000002], [-70.9586, 42.467014999999996], [-70.957335, 42.466047000000025], [-70.957886, 42.465576], [-70.957516, 42.463654], [-70.955332, 42.46379699999999], [-70.95256, 42.46428000000001], [-70.950437, 42.464382], [-70.948505, 42.464410999999984], [-70.946268, 42.46415100000002], [-70.9452, 42.465620000000015], [-70.943127, 42.465404000000014], [-70.942173, 42.46498399999999], [-70.941399, 42.46584200000001], [-70.94114900000001, 42.465531], [-70.94092600000002, 42.46555000000001], [-70.94028, 42.46602699999998], [-70.939825, 42.465680000000006], [-70.937838, 42.46661099999999], [-70.939004, 42.46800099999999], [-70.936926, 42.469041999999995], [-70.93658, 42.46842899999999], [-70.935037, 42.468696], [-70.933912, 42.46764800000002], [-70.934276, 42.466740999999985], [-70.934776, 42.466384], [-70.934969, 42.465680000000006], [-70.934594, 42.464284999999975], [-70.932523, 42.46203300000001], [-70.936536, 42.46070699999999], [-70.937279, 42.461574], [-70.939558, 42.461121], [-70.93975, 42.461808000000005], [-70.942356, 42.46138], [-70.941366, 42.46005499999999], [-70.939145, 42.45949], [-70.939387, 42.458241999999984], [-70.937682, 42.457581000000005], [-70.937475, 42.457423], [-70.937394, 42.457061], [-70.933954, 42.45622800000002], [-70.933996, 42.45611999999999], [-70.905993, 42.43829699999999], [-70.896544, 42.433972], [-70.888486, 42.422849], [-70.88062400000001, 42.41766199999999], [-70.867911, 42.41037500000002], [-70.859212, 42.404324], [-70.854528, 42.39950700000001], [-70.851436, 42.393209000000006], [-70.901292, 42.384098000000016], [-70.924593, 42.386798], [-70.959494, 42.407498000000004], [-70.962093, 42.412397000000006], [-70.959093, 42.41859699999998], [-70.952993, 42.42939599999999], [-70.951393, 42.436996], [-70.950793, 42.44429599999999], [-70.966293, 42.44349700000001], [-70.968594, 42.444396], [-70.972289, 42.44681699999999], [-70.979083, 42.450863000000005], [-70.981404, 42.45126899999998], [-70.983828, 42.452375999999994], [-70.983768, 42.453187], [-70.983353, 42.45380800000001], [-70.979694, 42.455305], [-70.97942, 42.45582100000001], [-70.979494, 42.456196], [-70.982068, 42.45773199999998], [-70.983108, 42.45861000000001], [-70.98416, 42.45861199999999], [-70.984853, 42.458355000000005], [-70.985969, 42.45722500000001], [-70.986094, 42.456796000000004], [-70.985995, 42.45548699999999], [-70.986161, 42.45498700000002], [-70.986694, 42.454596], [-70.987494, 42.45499600000001], [-70.987402, 42.457162999999994], [-70.98568, 42.45921699999999], [-70.985609, 42.459699], [-70.986364, 42.459765999999995], [-70.98736, 42.45894599999999], [-70.988075, 42.45871999999999], [-70.988787, 42.45958199999998], [-70.989139, 42.459689], [-71.001621, 42.492786999999986]]]}}