{"type": "Feature", "properties": {"district_name": "28th Middlesex District", "chamber": "house", "vintage": "2012-2020"}, "geometry": {"type": "Polygon", "coordinates": [[[-71.076419, 42.39777299999999], [-71.075988, 42.399705999999995], [-71.073448, 42.402665000000006], [-71.071297, 42.40692200000001], [-71.072692, 42.408237], [-71.07365899999999, 42.40851899999999], [-71.07374399999999, 42.40867900000001], [-71.073801, 42.409056], [-71.073624, 42.40930300000001], [-71.072161, 42.41036299999999], [-71.071873, 42.411099000000014], [-71.071907, 42.411672], [-71.07211099999999, 42.412081000000015], [-71.073196, 42.41299599999999], [-71.073296, 42.414796], [-71.06450699999999, 42.41524099999999], [-71.064559, 42.41533399999999], [-71.061584, 42.41561000000001], [-71.060441, 42.416007], [-71.05685, 42.418671], [-71.054735, 42.42003799999999], [-71.05442, 42.420044999999995], [-71.050324, 42.42299500000001], [-71.028065, 42.42415499999999], [-71.031275, 42.418433000000014], [-71.032493, 42.415506000000015], [-71.033095, 42.414696000000006], [-71.033442, 42.41338000000001], [-71.038394, 42.40499599999999], [-71.039495, 42.40369599999999], [-71.04057800000001, 42.40196599999999], [-71.048208, 42.396620999999996], [-71.049971, 42.39750600000001], [-71.050681, 42.39764699999999], [-71.051928, 42.397403000000004], [-71.05278, 42.39673699999999], [-71.052995, 42.396196], [-71.052095, 42.394895999999996], [-71.050395, 42.393996000000016], [-71.05000199999999, 42.39347099999999], [-71.05069499999999, 42.391996000000006], [-71.055295, 42.38709700000002], [-71.057395, 42.387297000000004], [-71.06569499999999, 42.38659599999998], [-71.07089599999999, 42.388996], [-71.07029600000001, 42.39019599999999], [-71.067095, 42.393996], [-71.067396, 42.394996], [-71.067996, 42.394996], [-71.069496, 42.393896], [-71.072696, 42.390796], [-71.074086, 42.392588], [-71.075996, 42.39639599999999], [-71.076419, 42.39777299999999]]]}}