{"type": "Feature", "properties": {"district_name": "2nd Franklin", "chamber": "house", "vintage": "2001-2010"}, "geometry": {"type": "Polygon", "coordinates": [[[-72.41197159775793, 42.72532787029727], [-72.28299552892598, 42.72161011487474], [-72.27191207902695, 42.674303734043335], [-72.25838296881557, 42.67540887385228], [-72.25738702471948, 42.66795524214386], [-72.24324694736936, 42.66936307596712], [-72.24195506590415, 42.66170472426574], [-72.22952000103182, 42.66286980182341], [-72.22483294906569, 42.638979901043], [-72.1674009778212, 42.6465199938544], [-72.16429498525915, 42.6326128864628], [-72.15841202600286, 42.63323172445238], [-72.15667298835372, 42.62349595617199], [-72.15464394868954, 42.62370102687848], [-72.15486200740645, 42.62285581354834], [-72.154646010426, 42.620911946773525], [-72.15539002125536, 42.61974698055641], [-72.15616405112905, 42.61901619696722], [-72.157094077093, 42.618307035543545], [-72.15814605156606, 42.61798821045225], [-72.15842498995337, 42.61741609076286], [-72.15848702222351, 42.617028064898875], [-72.15836507720624, 42.61687684393663], [-72.17097506645409, 42.59675180770301], [-72.16802793817692, 42.599868009876964], [-72.1635540587209, 42.59828798985628], [-72.16160899357858, 42.60082603554161], [-72.15896408288188, 42.599511044236586], [-72.15796091134617, 42.60007886310984], [-72.15735001835331, 42.59919390534501], [-72.1601639322163, 42.59638201606494], [-72.16067098845598, 42.595078812016794], [-72.16558193616953, 42.59024720310916], [-72.16323901164868, 42.58868693078861], [-72.167561049188, 42.58483988373213], [-72.17548606169134, 42.58985207699162], [-72.18583396170261, 42.5502308603815], [-72.19618294303532, 42.54871381568143], [-72.24495207754164, 42.513552257436814], [-72.26294692870707, 42.52841408487392], [-72.2692199610497, 42.53340326462313], [-72.27036701795035, 42.54346180464419], [-72.27147802243248, 42.54726085072131], [-72.356387003976, 42.548812273072606], [-72.35392298054299, 42.59821225834402], [-72.35763698869958, 42.598717010809494], [-72.35896696986329, 42.59860190870345], [-72.35977202601758, 42.59814521475752], [-72.3603590394597, 42.597344104002815], [-72.36072897627643, 42.59604102524575], [-72.36205896310099, 42.595332267420666], [-72.36308000263556, 42.59524023805884], [-72.3656180151658, 42.59590206400739], [-72.36924100887566, 42.598002853377785], [-72.37394502234206, 42.59903021569085], [-72.37662607750623, 42.59886809647767], [-72.37894800962702, 42.5980908391093], [-72.38185596086213, 42.598139001093024], [-72.38467301688254, 42.59777421993502], [-72.38523003677622, 42.59759214654963], [-72.38668508619529, 42.59665482589447], [-72.3881400849948, 42.59617605821413], [-72.38903703437185, 42.5961297673175], [-72.39021196471688, 42.596427930940855], [-72.39231600095238, 42.5975038341823], [-72.39358385202617, 42.59784681720823], [-72.39723498924732, 42.5981459727852], [-72.4020310150331, 42.59807878209538], [-72.40295902222161, 42.598445140745234], [-72.40419701141904, 42.59926876193764], [-72.40704200748826, 42.60162373227419], [-72.40728996694534, 42.601647099611355], [-72.4073520088967, 42.60183004256436], [-72.41013602608473, 42.60388888423866], [-72.4128270075771, 42.60523774673235], [-72.41588989407079, 42.60741128052814], [-72.4175610199091, 42.60779975904353], [-72.4219250036768, 42.607548931907615], [-72.42579397833035, 42.60761813054015], [-72.4268780428232, 42.607298271967394], [-72.42817798765618, 42.60661319145419], [-72.42926101157637, 42.60567607276684], [-72.43247096150539, 42.60113418930512], [-72.43348497397317, 42.60042715591683], [-72.4379890146618, 42.59824574110284], [-72.43746299977926, 42.595274030090756], [-72.43755596802283, 42.59422220070933], [-72.44167103709428, 42.59175289387574], [-72.44235214297281, 42.59090725802858], [-72.44352701737323, 42.59001482854039], [-72.44702294272734, 42.58850579701778], [-72.45067409278963, 42.58558025355909], [-72.4521590148518, 42.584641848308934], [-72.45265408120062, 42.58407115252164], [-72.45352007226062, 42.58359022783267], [-72.45587089328531, 42.582995727092225], [-72.45819103524784, 42.581281137717106], [-72.45952098939375, 42.58075524312571], [-72.46109799939485, 42.579543050613424], [-72.46131402740308, 42.57926778995014], [-72.46140692216039, 42.578650888236915], [-72.46239687530814, 42.57789595884766], [-72.46589202325545, 42.5767070835491], [-72.47074700420391, 42.5743959322905], [-72.47309785869436, 42.57382414894568], [-72.4738710394382, 42.573846885975136], [-72.47563495517299, 42.5746692543221], [-72.47739910052785, 42.576681098777094], [-72.47987494185983, 42.578509068945415], [-72.48074093349932, 42.578829192518995], [-72.48244291515171, 42.57894188229193], [-72.48398900492359, 42.57852976620959], [-72.48689700763478, 42.5781628262362], [-72.48903103435521, 42.57823121047926], [-72.48971904080064, 42.57832378588372], [-72.49176798576423, 42.58009777034854], [-72.49307695781889, 42.58064525146867], [-72.49470802152405, 42.58055918231218], [-72.4980970238698, 42.57966677175794], [-72.49919601206949, 42.579525036799666], [-72.50303695464427, 42.5808871678433], [-72.50312601479939, 42.58115478805965], [-72.50297702166894, 42.58141491610253], [-72.49953198316453, 42.58427902775715], [-72.49789103457815, 42.5859649437001], [-72.49787599197325, 42.58662003275965], [-72.49819196807258, 42.58711077503692], [-72.49809504316869, 42.58827523408974], [-72.49785807891338, 42.588812953454386], [-72.49575602114697, 42.59100810601831], [-72.49504504061815, 42.59189989291269], [-72.49492194583358, 42.59247207696484], [-72.49603688420137, 42.59352310617482], [-72.49603800064929, 42.59423207103082], [-72.49569802961166, 42.59503175597246], [-72.49585401330826, 42.596106817737386], [-72.49726598410999, 42.59701572788725], [-72.4985189667452, 42.59665378613689], [-72.50030598392479, 42.59677110758139], [-72.50293095601211, 42.598521893832746], [-72.50451399385385, 42.600076876504886], [-72.50554093998196, 42.6031187745996], [-72.50627001699578, 42.603820837783054], [-72.51531601232186, 42.60459409464509], [-72.51936693260494, 42.6044531840681], [-72.52204699594361, 42.60418303763073], [-72.52375291115239, 42.603757726670416], [-72.53050599183398, 42.6000661155342], [-72.53345103259444, 42.598813147514356], [-72.53912789663292, 42.59681981543905], [-72.5412640300227, 42.59640894165944], [-72.54324701549022, 42.596753972517284], [-72.54441595123532, 42.597328024539436], [-72.54509086403652, 42.598231209773076], [-72.54539700056233, 42.59980788865892], [-72.54516402439293, 42.6020911062787], [-72.54556500416162, 42.60439614926025], [-72.54613806377245, 42.605358768365036], [-72.54703788716168, 42.60613611339233], [-72.55010699135055, 42.6080618665219], [-72.5513379681693, 42.6093071336927], [-72.55228195136458, 42.60997375068103], [-72.55342997557949, 42.61219317841978], [-72.5542679516887, 42.61225699545534], [-72.55614201219797, 42.61179591090781], [-72.55700886934193, 42.61119773213657], [-72.55939799280384, 42.61036726114263], [-72.561265981368, 42.60882186669364], [-72.56297795694307, 42.60800205207675], [-72.56476898375644, 42.607394167064115], [-72.56617000328124, 42.60633184198307], [-72.5698919784732, 42.60286505102008], [-72.57038692405325, 42.602750735761866], [-72.57116096842731, 42.6021791905964], [-72.57585590566038, 42.59697572699379], [-72.5765900077098, 42.596419136351145], [-72.57805597576213, 42.59567396595693], [-72.58127204069557, 42.594624869755556], [-72.58230497929856, 42.59386400090562], [-72.58293499493274, 42.592994933186404], [-72.58315195553715, 42.59231992589786], [-72.58323507629524, 42.58924182238017], [-72.58298112706672, 42.588671949152896], [-72.58249197815688, 42.588313042338456], [-72.58047091752324, 42.58736585128433], [-72.58006700249949, 42.586302211568594], [-72.57966601754117, 42.58418125959671], [-72.57964399397443, 42.5814119216472], [-72.5794699689959, 42.58060328018728], [-72.57803102329565, 42.57856123847197], [-72.57780999189092, 42.57537511551419], [-72.57810100154425, 42.57383288310308], [-72.57865300032225, 42.57241200130726], [-72.58026499540226, 42.57080901500426], [-72.58116003621804, 42.570623948279284], [-72.5866110407471, 42.570245820218865], [-72.59074698841803, 42.5697420176495], [-72.59180086606831, 42.56945577476667], [-72.59259302634204, 42.569146107807555], [-72.59321598463588, 42.56849086315023], [-72.59403896076752, 42.566586238382726], [-72.59483202252173, 42.56620002087322], [-72.59640695019252, 42.566114734558], [-72.59683899587519, 42.566484255091744], [-72.59898199584117, 42.56749077053525], [-72.60021896673493, 42.568355096820135], [-72.6010139795133, 42.56905087724287], [-72.60221897487943, 42.57113089006557], [-72.60377301466725, 42.57161795578273], [-72.60566503051491, 42.57134775736327], [-72.60739804181583, 42.57037400642436], [-72.60882505074628, 42.56987019433814], [-72.61109096328752, 42.56970209863601], [-72.61343591332759, 42.56927323210229], [-72.6149790167384, 42.56945696668501], [-72.61552401663839, 42.57013593258123], [-72.61625006759174, 42.570177861076935], [-72.61692903812614, 42.56986687919173], [-72.61826700404181, 42.569916942156006], [-72.62098803344719, 42.57033619272409], [-72.62132806247524, 42.57062098742533], [-72.62263192611415, 42.57085476904148], [-72.62396589408581, 42.57079114118872], [-72.62984999852195, 42.578804936581314], [-72.64998596599709, 42.576906145711746], [-72.63296211609459, 42.64526482431848], [-72.62321003006586, 42.64659006389956], [-72.54406396471735, 42.65585180573256], [-72.54451501725718, 42.65523498474024], [-72.54097307657999, 42.65547626099185], [-72.5408029613586, 42.65619519450395], [-72.48958299323482, 42.66238382209218], [-72.49623401161737, 42.67854099038976], [-72.48915001359497, 42.68022904569318], [-72.48939697387917, 42.679633885734155], [-72.48976097468814, 42.67751572394176], [-72.48941397546783, 42.67397278921178], [-72.48646799080726, 42.67328619487411], [-72.48533094922333, 42.67584082436582], [-72.48494612354654, 42.67756810346084], [-72.48261099983162, 42.678083119872184], [-72.48052203826094, 42.67711675689728], [-72.4785830400445, 42.675026021201965], [-72.47662500159173, 42.67246726887674], [-72.47569098312822, 42.67073596957586], [-72.47502103816606, 42.67089579276385], [-72.47201299810831, 42.67010189120444], [-72.47238600937447, 42.669181045296256], [-72.47198202546353, 42.668021980685616], [-72.47185100882903, 42.6651912000312], [-72.47149687826307, 42.66417913134154], [-72.47080897051501, 42.66303988570375], [-72.46515396425693, 42.656928893349416], [-72.46485903767994, 42.65533619611329], [-72.46527897945322, 42.653528783370604], [-72.46703501545409, 42.65186999065258], [-72.47218907969953, 42.64789089040307], [-72.47623598567687, 42.6456848702031], [-72.48058609229388, 42.64314528215649], [-72.48198587036667, 42.64212509026475], [-72.48302399894922, 42.64163179901182], [-72.48382801186523, 42.6409098068217], [-72.48401289913886, 42.64049410756146], [-72.48709205027177, 42.63819183539443], [-72.48872097811956, 42.63637005018263], [-72.4894621406883, 42.63471226142647], [-72.48911701684226, 42.63337718591291], [-72.48783603150198, 42.63158479172875], [-72.48595097110909, 42.6279311551401], [-72.48401293636674, 42.62508480865379], [-72.48234703049998, 42.62312176045901], [-72.4804369896883, 42.61963704361478], [-72.47992801936401, 42.61600987250632], [-72.48155000220065, 42.6120112423465], [-72.48333103485994, 42.61018821214956], [-72.48661597365377, 42.608625780988156], [-72.48883297950123, 42.60693904650971], [-72.49048698984048, 42.604405207401605], [-72.46166200496857, 42.60645619995047], [-72.46342996875289, 42.62007107146387], [-72.440269037308, 42.62508516437293], [-72.3770389956438, 42.63932903955239], [-72.41197159775793, 42.72532787029727]]]}}