{"type": "Feature", "properties": {"district_name": "13th Bristol District", "chamber": "house", "vintage": "2022-present"}, "geometry": {"type": "Polygon", "coordinates": [[[-70.972785, 41.660505999999984], [-70.947223, 41.66258599999999], [-70.951532, 41.65946700000002], [-70.952269, 41.65865700000001], [-70.953002, 41.65726699999999], [-70.953211, 41.65612899999999], [-70.953379, 41.652235], [-70.95285, 41.65217700000001], [-70.952863, 41.651578], [-70.952219, 41.650644999999976], [-70.95224, 41.65009600000001], [-70.95144, 41.648774], [-70.943156, 41.65195200000001], [-70.942846, 41.651390000000006], [-70.93908, 41.652102], [-70.941228, 41.65589899999999], [-70.939216, 41.656228000000006], [-70.938351, 41.65456600000001], [-70.93694200000002, 41.65250699999999], [-70.93607, 41.652671999999995], [-70.933411, 41.647028], [-70.933325, 41.646705999999995], [-70.93356800000001, 41.645824], [-70.933058, 41.64302600000001], [-70.938809, 41.642491], [-70.938987, 41.643398], [-70.951222, 41.64220199999999], [-70.949885, 41.63963800000002], [-70.949572, 41.63832200000001], [-70.945237, 41.63880999999999], [-70.944375, 41.634373], [-70.937279, 41.63518500000001], [-70.937021, 41.63384400000002], [-70.930498, 41.63454600000001], [-70.930211, 41.633182000000005], [-70.929115, 41.63154799999998], [-70.928156, 41.628271], [-70.926608, 41.62590999999998], [-70.92555, 41.624837], [-70.92425, 41.624990999999994], [-70.92434300000001, 41.62557000000001], [-70.922651, 41.625730999999995], [-70.923676, 41.63197799999999], [-70.921374, 41.632211999999996], [-70.920634, 41.632052], [-70.918235, 41.632497000000015], [-70.913182, 41.63450400000001], [-70.910282, 41.632004000000016], [-70.907582, 41.63050400000001], [-70.906695, 41.625134], [-70.906381, 41.624404000000006], [-70.904081, 41.62100399999999], [-70.897281, 41.61340400000001], [-70.878749, 41.591791999999984], [-70.911743, 41.58184], [-70.924782, 41.604803999999994], [-70.927282, 41.60880399999998], [-70.932347, 41.60820700000001], [-70.933009, 41.610986], [-70.934652, 41.610038], [-70.936423, 41.614370000000015], [-70.949731, 41.620932999999994], [-70.959753, 41.63683299999999], [-70.960454, 41.640225], [-70.969695, 41.648655000000005], [-70.972785, 41.660505999999984]]]}}