{"type": "Feature", "properties": {"district_name": "14th Essex", "chamber": "house", "vintage": "2001-2010"}, "geometry": {"type": "Polygon", "coordinates": [[[-71.13420296357631, 42.72139119124286], [-71.12003695022997, 42.73578802242621], [-71.11560296746599, 42.741190846903145], [-71.11490198100394, 42.74048974305514], [-71.10877499442105, 42.735663848665254], [-71.09071801037982, 42.71913904923333], [-71.08460893304516, 42.71320521062438], [-71.07524696996947, 42.70455627207538], [-71.06436305306255, 42.694720988398885], [-71.0466949404885, 42.67837107269861], [-71.04959497039727, 42.67617125977339], [-71.05539892561274, 42.67809205232129], [-71.05599904108799, 42.678092108305705], [-71.06029904314309, 42.673492143882], [-71.0638989723533, 42.6708917858917], [-71.06496297805413, 42.67019925468379], [-71.07258703220116, 42.66625212639691], [-71.08360002990862, 42.668991845473045], [-71.08511996784647, 42.66733416615094], [-71.08551996087517, 42.667345728668764], [-71.08735106362056, 42.6676048987245], [-71.08780896791372, 42.668174792604724], [-71.08844308313999, 42.66838185088511], [-71.08900404580733, 42.669312192101046], [-71.08964695470137, 42.66925427913542], [-71.09095597268224, 42.66952673254101], [-71.0938529355683, 42.66941710307221], [-71.09550806988989, 42.66963783301719], [-71.09880000778486, 42.6723921454394], [-71.10110003521898, 42.672891846441495], [-71.10220002974276, 42.67329173037607], [-71.10369990862252, 42.673092084299086], [-71.10430006326271, 42.67429085426592], [-71.10720008071915, 42.67699124974756], [-71.10920898495793, 42.67912987238202], [-71.10967591299752, 42.678964911131], [-71.11010096036848, 42.679190830743714], [-71.111101061314, 42.67789114617527], [-71.11250093058919, 42.67729102318973], [-71.11190001968932, 42.67399086154152], [-71.11400000286496, 42.672791043390376], [-71.11340004392474, 42.672090816503726], [-71.11330005693623, 42.670991098764226], [-71.11420000243406, 42.66989077953591], [-71.1148000212808, 42.66609220088135], [-71.11529997458717, 42.66509181186357], [-71.1175999489588, 42.663192117460426], [-71.11890007380906, 42.66109216195713], [-71.12310093425238, 42.6670912306643], [-71.1243010259197, 42.66829073654174], [-71.1290009126272, 42.67459107264632], [-71.13440100570476, 42.67679072767644], [-71.14530093249928, 42.679790872498266], [-71.1503010472639, 42.681590766669224], [-71.15540192481143, 42.68109127359232], [-71.1599020107841, 42.67999116113194], [-71.16929799912707, 42.67852688708545], [-71.16950200102991, 42.679791135792634], [-71.16900202834609, 42.68159124334859], [-71.16900202044422, 42.68239074328043], [-71.17100197164095, 42.68259112155427], [-71.1724019606471, 42.68239085849117], [-71.17260206074427, 42.68409113033401], [-71.17150192644552, 42.684291113952185], [-71.17210195955077, 42.68589124828336], [-71.17110193975574, 42.686991158432434], [-71.17190195916298, 42.687391204809565], [-71.17330197660094, 42.68669075938269], [-71.17280204251705, 42.68919078781798], [-71.17300199286859, 42.690191146611], [-71.17180194079555, 42.69059114562256], [-71.16910201826228, 42.690891211895845], [-71.16710192290564, 42.691391267920736], [-71.16570196894288, 42.694091213582084], [-71.16330192313137, 42.694690761407216], [-71.16360192697076, 42.695390983833114], [-71.16240203101154, 42.6955911576428], [-71.16270204437312, 42.69629081511505], [-71.16140295459046, 42.69649181442539], [-71.16020195000694, 42.69389120718363], [-71.15720208101632, 42.694891137963204], [-71.15610202360666, 42.69409119196436], [-71.15670206585969, 42.69399114404653], [-71.15630197485598, 42.69309087759587], [-71.15350206206053, 42.693891011690155], [-71.15380199087127, 42.69469084028299], [-71.15330202024606, 42.69469103467623], [-71.15340206121799, 42.704290858753346], [-71.15030190765026, 42.70449082264677], [-71.14590191402547, 42.70549128485587], [-71.13860191730802, 42.70669072532871], [-71.13680207366767, 42.70739117700913], [-71.13510207949385, 42.70879126285672], [-71.13380200465208, 42.71359084041586], [-71.13830208649252, 42.71439098986038], [-71.14160208167283, 42.713691231032], [-71.14240204428164, 42.71399077224676], [-71.1437020842021, 42.713091210623205], [-71.14510200291086, 42.71428995979382], [-71.1464020057551, 42.71349108201923], [-71.14730207489077, 42.714890261362974], [-71.15020193429103, 42.7136899852934], [-71.15260199536006, 42.71748986476332], [-71.15320197027545, 42.71869005104066], [-71.15330206383271, 42.71939025326148], [-71.15530193449707, 42.719289889710545], [-71.15570193139695, 42.71998985765966], [-71.15570202448197, 42.72038988671763], [-71.15790195822034, 42.71938987814942], [-71.15840194654987, 42.7200901323141], [-71.1593019183395, 42.71939007599255], [-71.16090205689767, 42.71959000307451], [-71.16180202320052, 42.72008999554781], [-71.16220199896365, 42.72049006762684], [-71.16530196514393, 42.71939014620738], [-71.16680198272525, 42.71919024933601], [-71.16720207323654, 42.72069022554445], [-71.16670192202724, 42.72119007695014], [-71.16740204986806, 42.721690016571365], [-71.16550198107541, 42.72249021195495], [-71.14910199829215, 42.72208998572148], [-71.13420296357631, 42.72139119124286]]]}}