{"type": "Feature", "properties": {"district_name": "2nd Berkshire District", "chamber": "house", "vintage": "2012-2020"}, "geometry": {"type": "Polygon", "coordinates": [[[-73.248403, 42.487109000000004], [-73.24804, 42.487685], [-73.247218, 42.48848100000001], [-73.247188, 42.488848999999995], [-73.24461, 42.49149599999999], [-73.243172, 42.492391000000005], [-73.242141, 42.492594999999994], [-73.240614, 42.49353399999999], [-73.240191, 42.493584000000006], [-73.23996199999999, 42.49397799999999], [-73.182199, 42.485414999999996], [-73.162765, 42.51562800000001], [-73.146637, 42.541067000000005], [-73.10781399999999, 42.536487], [-73.103841, 42.55082199999999], [-73.08855799999999, 42.54840900000001], [-73.085424, 42.55950099999999], [-73.095553, 42.56124000000001], [-73.080486, 42.57362299999999], [-73.084312, 42.594726], [-73.067548, 42.594019999999986], [-73.063634, 42.64987700000001], [-73.054401, 42.649302999999996], [-73.011612, 42.64722200000001], [-73.011478, 42.64660200000001], [-73.011659, 42.645835], [-73.011394, 42.64553900000001], [-73.01094499999999, 42.645472000000005], [-73.010296, 42.645737], [-73.00976899999999, 42.64570399999998], [-73.00877299999999, 42.64488399999998], [-73.008738, 42.644255], [-73.00961699999999, 42.643361000000006], [-73.0096, 42.64321299999999], [-73.009025, 42.642883], [-73.00900299999999, 42.64155799999999], [-73.008861, 42.64126100000001], [-73.007775, 42.640864], [-73.00683099999999, 42.64088999999998], [-73.006101, 42.640606], [-73.00348699999999, 42.638408], [-73.001272, 42.63843700000001], [-73.00076, 42.63827800000001], [-73.000044, 42.63747999999999], [-72.999963, 42.637001], [-73.000332, 42.636417], [-73.001026, 42.635810000000006], [-73.001086, 42.63543200000001], [-73.000852, 42.635124], [-73.00038599999999, 42.634942999999986], [-72.99862499999999, 42.634921], [-72.997935, 42.63398699999999], [-72.997513, 42.63368], [-72.99531, 42.63326800000001], [-72.991862, 42.63398300000001], [-72.990284, 42.63415099999999], [-72.988446, 42.634697], [-72.986694, 42.634511], [-72.986417, 42.63470699999999], [-72.986404, 42.635003999999995], [-72.987267, 42.63615400000001], [-72.98727, 42.63647400000001], [-72.985925, 42.63687000000001], [-72.98557400000001, 42.63740800000002], [-72.98567299999999, 42.638071], [-72.98556599999999, 42.638255], [-72.985293, 42.638495000000006], [-72.984808, 42.63853], [-72.983621, 42.638329], [-72.981293, 42.63756499999999], [-72.975413, 42.63241699999998], [-72.97475299999999, 42.63243500000001], [-72.974347, 42.632668], [-72.974167, 42.63318299999999], [-72.974322, 42.633798999999996], [-72.974156, 42.63443], [-72.97385, 42.63469899999999], [-72.973263, 42.63480999999998], [-72.972183, 42.634665], [-72.97139299999999, 42.63433399999999], [-72.970918, 42.63392299999998], [-72.970505, 42.633175], [-72.969995, 42.63278700000001], [-72.968858, 42.63272099999999], [-72.967117, 42.63326], [-72.966803, 42.633532], [-72.966498, 42.634994000000006], [-72.96712699999999, 42.635960000000004], [-72.96705299999999, 42.63730300000001], [-72.966399, 42.63800199999999], [-72.96482100000001, 42.63905899999999], [-72.963616, 42.64086699999998], [-72.962813, 42.64153799999999], [-72.961867, 42.641681000000005], [-72.960381, 42.64134200000001], [-72.955455, 42.641537], [-72.95393899999999, 42.64142000000001], [-72.952024, 42.640972000000005], [-72.951039, 42.64100599999998], [-72.952826, 42.65086600000002], [-72.953644, 42.651033], [-72.954145, 42.651413000000005], [-72.954518, 42.65250400000001], [-72.955304, 42.653774], [-72.955589, 42.65459899999999], [-72.955742, 42.65840399999998], [-72.954529, 42.66233199999999], [-72.95464000000001, 42.66504399999999], [-72.955111, 42.665869], [-72.957048, 42.666799000000005], [-72.960886, 42.66732799999999], [-72.962338, 42.666823999999984], [-72.962929, 42.665774000000006], [-72.963251, 42.664815], [-72.964018, 42.66424999999999], [-72.966229, 42.663982999999995], [-72.96832599999999, 42.664224], [-72.970238, 42.663936], [-72.97241199999999, 42.663039999999995], [-72.973762, 42.661714999999994], [-72.974599, 42.661124000000015], [-72.975134, 42.66090999999999], [-72.975686, 42.660918], [-72.976872, 42.66148299999999], [-72.97895799999999, 42.663304999999994], [-72.981074, 42.66473299999999], [-72.982474, 42.665279000000005], [-72.98492, 42.66582899999998], [-72.988591, 42.66731700000001], [-72.994428, 42.67210399999999], [-72.995635, 42.67334200000001], [-72.995727, 42.673749000000015], [-72.99492599999999, 42.67437400000002], [-72.99009, 42.674120000000016], [-72.988648, 42.67443199999999], [-72.98842499999999, 42.67483300000001], [-72.98855999999999, 42.67581700000001], [-72.98893, 42.676327], [-72.989772, 42.678219000000006], [-72.98939899999999, 42.67850800000001], [-72.984877, 42.679185000000004], [-72.982607, 42.679229], [-72.980824, 42.679046], [-72.97617500000001, 42.67911300000001], [-72.975556, 42.67972100000001], [-72.97547399999999, 42.680518], [-72.977036, 42.683052999999994], [-72.977226, 42.68426399999999], [-72.97742800000002, 42.684422000000005], [-72.977564, 42.685660999999996], [-72.976023, 42.686362], [-72.975442, 42.687152999999995], [-72.974705, 42.68865999999996], [-72.973241, 42.68895299999999], [-72.97130299999999, 42.689008], [-72.965246, 42.68765], [-72.963156, 42.68765500000001], [-72.962074, 42.687887], [-72.960855, 42.688463999999996], [-72.95838599999999, 42.690002999999955], [-72.957404, 42.690146999999996], [-72.954608, 42.69010599999999], [-72.953659, 42.69074100000001], [-72.951955, 42.692673000000006], [-72.951504, 42.694094], [-72.951628, 42.695507000000006], [-72.95382, 42.69815700000001], [-72.953777, 42.69858600000001], [-72.951533, 42.700581], [-72.950604, 42.700995], [-72.94980799999999, 42.701674999999994], [-72.94882199999999, 42.703464999999994], [-72.94883800000001, 42.704263000000005], [-72.949742, 42.70510300000001], [-72.99787800000001, 42.70126399999999], [-73.023709, 42.70269], [-73.02309199999999, 42.737810999999994], [-73.022903, 42.741133000000005], [-72.923563, 42.73916399999999], [-72.809113, 42.736581000000015], [-72.721319, 42.734099], [-72.570932, 42.73014800000001], [-72.412015, 42.72543499999999], [-72.383202, 42.654101999999995], [-72.381067, 42.64890600000002], [-72.380456, 42.64780500000002], [-72.380089, 42.646519], [-72.37713099999999, 42.63930799999999], [-72.46341799999999, 42.619982999999976], [-72.46165100000002, 42.60647999999999], [-72.491, 42.60400800000001], [-72.49004, 42.60519499999999], [-72.48857699999999, 42.60776800000001], [-72.487415, 42.60851200000001], [-72.483823, 42.609820000000006], [-72.48196899999999, 42.61141600000001], [-72.48155, 42.612011], [-72.479928, 42.61600999999998], [-72.479897, 42.61720000000001], [-72.48041599999999, 42.619307000000006], [-72.487855, 42.63149200000002], [-72.489094, 42.633137000000005], [-72.489548, 42.634181999999996], [-72.489237, 42.635464000000006], [-72.488721, 42.636370000000014], [-72.487195, 42.63812500000001], [-72.48164799999999, 42.64250999999999], [-72.47281, 42.647358], [-72.47037999999999, 42.64919400000001], [-72.46654800000002, 42.652497000000004], [-72.465384, 42.653682999999994], [-72.465152, 42.65430800000001], [-72.46511199999999, 42.655358], [-72.465356, 42.656785], [-72.46607399999999, 42.65807600000001], [-72.470345, 42.662588000000014], [-72.471482, 42.66437], [-72.472049, 42.668934], [-72.471811, 42.67010299999999], [-72.475087, 42.670835999999994], [-72.47579, 42.67067999999998], [-72.476776, 42.672380000000004], [-72.478718, 42.674882999999994], [-72.48067000000002, 42.67705300000001], [-72.48250399999999, 42.678096], [-72.48505399999999, 42.677464000000015], [-72.485361, 42.675742], [-72.48654499999999, 42.67327299999998], [-72.48937699999999, 42.674031], [-72.49011399999999, 42.67999599999999], [-72.496234, 42.678540999999996], [-72.489473, 42.66242499999999], [-72.540527, 42.656327000000005], [-72.541018, 42.653845000000004], [-72.54109799999999, 42.652044000000004], [-72.54089499999999, 42.651527], [-72.539896, 42.650763], [-72.540914, 42.64955], [-72.541292, 42.64850600000001], [-72.54099, 42.64792200000002], [-72.540979, 42.647203999999974], [-72.540322, 42.645949999999985], [-72.540371, 42.64505499999999], [-72.540711, 42.64481700000001], [-72.541628, 42.644909000000006], [-72.541988, 42.645256], [-72.542226, 42.64528000000001], [-72.54328799999999, 42.64454599999999], [-72.54404, 42.64424999999997], [-72.544639, 42.64415699999999], [-72.545202, 42.644307000000005], [-72.54606, 42.644274], [-72.546994, 42.643235], [-72.547755, 42.64195900000001], [-72.549049, 42.641213000000015], [-72.54912399999999, 42.639676], [-72.548827, 42.63871100000001], [-72.549011, 42.638009999999994], [-72.5488, 42.63730799999999], [-72.54819499999999, 42.63632800000001], [-72.547558, 42.635782999999996], [-72.54690099999999, 42.635551], [-72.546705, 42.63515700000001], [-72.547131, 42.63423100000001], [-72.54834, 42.632567], [-72.548777, 42.63225400000001], [-72.549711, 42.63204899999998], [-72.550119, 42.63121200000002], [-72.55103199999999, 42.63063], [-72.55120200000002, 42.629923000000005], [-72.550675, 42.629214], [-72.550604, 42.62876700000001], [-72.551666, 42.62705699999999], [-72.551541, 42.62680900000001], [-72.550887, 42.62641299999999], [-72.54934, 42.626457], [-72.54878099999999, 42.625865999999995], [-72.548957, 42.625452], [-72.549983, 42.624683999999995], [-72.550156, 42.624251], [-72.54966499999999, 42.622492], [-72.549853, 42.62071000000002], [-72.549234, 42.61987200000001], [-72.54971499999999, 42.618114], [-72.549347, 42.61766999999999], [-72.549364, 42.61740299999999], [-72.550191, 42.61652300000001], [-72.55219900000002, 42.615077], [-72.552775, 42.61327600000001], [-72.552686, 42.612195000000014], [-72.55479199999999, 42.61221499999999], [-72.558014, 42.61134500000001], [-72.564253, 42.60777900000001], [-72.566751, 42.60618000000001], [-72.569563, 42.60405900000001], [-72.57263999999999, 42.601121000000006], [-72.57533699999999, 42.597939000000004], [-72.576663, 42.596759999999996], [-72.579183, 42.59552300000002], [-72.580911, 42.595234000000005], [-72.58219799999999, 42.59441100000001], [-72.582787, 42.593578], [-72.583176, 42.592403999999995], [-72.583289, 42.59093800000001], [-72.58317, 42.590297], [-72.58224899999999, 42.58906299999999], [-72.58073999999999, 42.587697], [-72.58021699999999, 42.58677099999999], [-72.579821, 42.58466300000001], [-72.579967, 42.581573], [-72.57940900000001, 42.58034800000001], [-72.578138, 42.57848800000001], [-72.577958, 42.577871], [-72.577786, 42.57515000000001], [-72.57808899999999, 42.57372399999999], [-72.578863, 42.57176799999999], [-72.579483, 42.57118800000002], [-72.58068, 42.57079000000001], [-72.585846, 42.57046799999999], [-72.59158, 42.569791], [-72.592647, 42.56904900000001], [-72.593854, 42.566687], [-72.594664, 42.56629199999999], [-72.595064, 42.566266], [-72.596474, 42.566475000000004], [-72.597515, 42.567098], [-72.599048, 42.56763399999999], [-72.600167, 42.568382999999976], [-72.600967, 42.56928399999998], [-72.601474, 42.570765999999985], [-72.60176799999999, 42.57110300000001], [-72.60253, 42.57165900000001], [-72.603337, 42.571901000000004], [-72.605392, 42.57176799999999], [-72.606258, 42.57139899999999], [-72.607703, 42.570431000000006], [-72.60927, 42.570009000000006], [-72.611128, 42.57005400000002], [-72.61370000000001, 42.569795], [-72.615207, 42.56990799999999], [-72.615927, 42.57022], [-72.617319, 42.56986599999999], [-72.618324, 42.569833], [-72.62102999999999, 42.57042899999998], [-72.621937, 42.570937], [-72.622483, 42.571049], [-72.622839, 42.570612999999994], [-72.623891, 42.57052300000001], [-72.62981599999999, 42.578714000000005], [-72.63756599999999, 42.57789700000001], [-72.649929, 42.576874], [-72.632942, 42.645362999999996], [-72.73501, 42.633188], [-72.735376, 42.63266199999999], [-72.736085, 42.632104999999996], [-72.73634799999999, 42.631325], [-72.736345, 42.630697999999995], [-72.737034, 42.62892], [-72.73688899999999, 42.62702100000003], [-72.73817, 42.627125], [-72.73834699999999, 42.627306], [-72.739803, 42.627254], [-72.741289, 42.62748100000001], [-72.743361, 42.627112], [-72.74490899999999, 42.626114], [-72.745912, 42.62478199999998], [-72.746721, 42.624171], [-72.746996, 42.623577], [-72.746892, 42.62272100000001], [-72.745531, 42.62134400000001], [-72.745573, 42.62089400000001], [-72.74528, 42.61967099999999], [-72.746353, 42.618896], [-72.748384, 42.618038000000006], [-72.749595, 42.61805], [-72.750142, 42.61823200000001], [-72.75218, 42.620059000000005], [-72.753057, 42.62062399999999], [-72.754099, 42.62097899999999], [-72.75534999999999, 42.620827], [-72.75922899999999, 42.61987400000001], [-72.76198, 42.619767], [-72.764282, 42.61942800000001], [-72.772842, 42.620135], [-72.778354, 42.621057000000015], [-72.783541, 42.62129600000001], [-72.788945, 42.620160000000006], [-72.797902, 42.617608], [-72.80311, 42.616625], [-72.808533, 42.616999], [-72.81504799999999, 42.61674999999999], [-72.816958, 42.617141], [-72.820664, 42.618589], [-72.82248, 42.61879799999999], [-72.823661, 42.618624999999994], [-72.83174799999999, 42.616626999999994], [-72.8485, 42.559062000000004], [-72.876977, 42.555455999999985], [-72.876947, 42.541152000000004], [-72.975379, 42.555932999999996], [-72.97914, 42.541657], [-72.96855099999999, 42.539953999999994], [-72.97854699999999, 42.500085000000006], [-72.979383, 42.497751000000015], [-72.986473, 42.46670600000001], [-72.988153, 42.466848], [-72.992643, 42.449094], [-73.003176, 42.40959], [-73.009192, 42.38776599999999], [-73.011704, 42.37976700000001], [-73.065913, 42.38903], [-73.068595, 42.38073], [-73.09156999999999, 42.384822], [-73.140788, 42.39310800000001], [-73.135639, 42.41195899999999], [-73.169292, 42.412759], [-73.201787, 42.41374800000002], [-73.199148, 42.423682], [-73.19870999999999, 42.424751], [-73.198562, 42.425711], [-73.191026, 42.452289], [-73.186144, 42.47088999999999], [-73.189481, 42.47079599999999], [-73.19624499999999, 42.46994699999999], [-73.199434, 42.469307000000015], [-73.202687, 42.468225], [-73.207296, 42.468297], [-73.208157, 42.46851599999998], [-73.210871, 42.46971500000001], [-73.21211699999999, 42.470963], [-73.214946, 42.473051], [-73.218239, 42.47521100000001], [-73.219368, 42.475635000000004], [-73.224603, 42.475271000000006], [-73.22823799999999, 42.475557], [-73.22949299999999, 42.475453], [-73.236999, 42.47398200000001], [-73.23721499999999, 42.472895], [-73.24407599999999, 42.473828999999995], [-73.244615, 42.47576000000001], [-73.244963, 42.475566], [-73.24471199999999, 42.476109], [-73.24636699999999, 42.481711000000004], [-73.246365, 42.482420000000005], [-73.245938, 42.483858], [-73.24634, 42.483937999999995], [-73.24651700000001, 42.484398], [-73.246346, 42.48448099999999], [-73.246369, 42.48464500000002], [-73.246584, 42.48494199999999], [-73.24812000000001, 42.485988999999975], [-73.248402, 42.48659299999999], [-73.248403, 42.487109000000004]]]}}