{"type": "Feature", "properties": {"district_name": "16th Suffolk", "chamber": "house", "vintage": "2001-2010"}, "geometry": {"type": "MultiPolygon", "coordinates": [[[[-70.99254816534669, 42.424114651781906], [-70.99169856414713, 42.4244856456428], [-70.9915730624346, 42.425452334932665], [-70.9917236971059, 42.42577540849364], [-70.99236628042493, 42.426240204434876], [-70.99424308789482, 42.42696306168758], [-70.99418297013115, 42.428566421008405], [-70.99463799723792, 42.429056253650934], [-70.99530601110266, 42.42936415347192], [-70.99576461176085, 42.429383610230175], [-70.99732134991208, 42.42892002145892], [-70.99822004923244, 42.428322438000066], [-70.99889090615056, 42.4282730355502], [-70.9994745144952, 42.42895471786405], [-70.99978223201879, 42.42908434497286], [-71.0000293769101, 42.42950349007006], [-71.00018193404941, 42.430644130639884], [-70.99996598186782, 42.4309633501274], [-70.99949218262968, 42.43103838237376], [-70.99720524935188, 42.43052932174626], [-70.99661833578635, 42.43062072839493], [-70.99427263708013, 42.43178756403259], [-70.992977109729, 42.43281887069444], [-70.99205197323182, 42.4338079176649], [-70.99131054642147, 42.43421708018288], [-70.990508068026, 42.43428499629935], [-70.98979724458805, 42.4340539613234], [-70.98921032738014, 42.43357815467268], [-70.98905543366638, 42.43303110617379], [-70.98865413496006, 42.432615196352835], [-70.98865367086502, 42.43227308822077], [-70.98951725135385, 42.43122190994542], [-70.98868286097651, 42.43030892526489], [-70.98843566381683, 42.43042148751752], [-70.98871395495755, 42.43083065830615], [-70.98862159417574, 42.43130964693252], [-70.98821998106733, 42.431379884868385], [-70.98584189147893, 42.429854011230056], [-70.98510070720872, 42.43039817718813], [-70.98491670271201, 42.43077097027813], [-70.98642947549666, 42.43110464640762], [-70.98723318580946, 42.43202763885388], [-70.98677026052495, 42.43207171565427], [-70.98593583731777, 42.431842923415644], [-70.98460763018569, 42.431136451183846], [-70.98399019058942, 42.431336248643696], [-70.98383576877656, 42.43113186819904], [-70.98473031358105, 42.42978320449885], [-70.98272341950157, 42.42969205502237], [-70.98269183912019, 42.429467410276125], [-70.98287734754928, 42.42932925836537], [-70.9854084727453, 42.42905082572758], [-70.98497663856452, 42.42875236058153], [-70.98340174814714, 42.428941683111205], [-70.9831852387109, 42.42845906148971], [-70.9829689874269, 42.42836411931096], [-70.98253678939257, 42.428506789675794], [-70.98244475582453, 42.42910224454422], [-70.98121025701029, 42.4297364547964], [-70.98013026193712, 42.43067405972575], [-70.97898774357708, 42.43126983233794], [-70.975902420753, 42.43388127106893], [-70.97503834617689, 42.43516642713007], [-70.97318604388629, 42.43694558009219], [-70.9720133141694, 42.43836152439866], [-70.971829205529, 42.43907640175843], [-70.97099559821919, 42.44024350471777], [-70.97108919529127, 42.441404168437714], [-70.9706570642263, 42.44206894694895], [-70.9696692340247, 42.44230185041283], [-70.96923677849037, 42.442075355688814], [-70.96877357427255, 42.442074345222274], [-70.96793977588561, 42.44244016818981], [-70.96658096244816, 42.44222906888162], [-70.96611695855108, 42.44193995492721], [-70.96503652994394, 42.44173350360945], [-70.96160908987486, 42.441684337336724], [-70.96095994633953, 42.44150630441078], [-70.96080527422794, 42.44129288940523], [-70.96080530900237, 42.4408872058349], [-70.9610213490483, 42.44049659577894], [-70.96170045584361, 42.439854380142314], [-70.96799876975227, 42.43640463776969], [-70.97154881015607, 42.43400148315998], [-70.97324561319061, 42.43312585844444], [-70.97784530716751, 42.4298309607933], [-70.98154630937785, 42.42550664945788], [-70.98571080858459, 42.420273311189916], [-70.98683366791691, 42.41860660620652], [-70.98859398866692, 42.41869603250748], [-70.9898940379608, 42.41679601111742], [-70.99039395212694, 42.41629575966056], [-70.9910939914684, 42.4160957258948], [-70.99269391429085, 42.413196000017614], [-70.99299405622881, 42.41139619774519], [-70.99289503175393, 42.40989678928953], [-70.99329393331242, 42.408796823677996], [-70.99829392764627, 42.410695818040494], [-71.000194046087, 42.409596169016595], [-70.99749405416429, 42.41319624100488], [-70.99499502350845, 42.416196749488385], [-70.9938939133663, 42.41809601031106], [-70.99239502275319, 42.419896726457196], [-70.99069396511288, 42.42229577369706], [-70.99169407068241, 42.42289607189878], [-70.99189401593948, 42.42369595387648], [-70.99403390385964, 42.423350892829056], [-70.99390791631166, 42.4240992555764], [-70.99254816534669, 42.424114651781906]]], [[[-70.98747099429518, 42.45898859648167], [-70.98751836568219, 42.45869902728439], [-70.98666802777188, 42.45944978703159], [-70.98605049303315, 42.45941889989936], [-70.98617371998506, 42.4591465498013], [-70.98710026370965, 42.45839164061622], [-70.98768616691355, 42.45754404769691], [-70.98833303099701, 42.4549383795114], [-70.98731285259068, 42.45427214158363], [-70.98644871311522, 42.45436788932242], [-70.98586106344942, 42.45480133361628], [-70.98573840000692, 42.4551457081025], [-70.98558479439563, 42.456932066157336], [-70.98447381147301, 42.45798717162505], [-70.98401075972377, 42.45813927018058], [-70.98357851598068, 42.457984844776924], [-70.98283643715634, 42.457133007338335], [-70.98169254206401, 42.45635982398224], [-70.98036617712249, 42.456040435534085], [-70.9802405919784, 42.455836181831906], [-70.98224827612744, 42.45546767574137], [-70.98323604553397, 42.45509962300128], [-70.98388447501883, 42.454529730713325], [-70.98428560784522, 42.45407238742853], [-70.9845623891985, 42.452581421012916], [-70.98400513213137, 42.45173547622262], [-70.98286243971735, 42.45075580327816], [-70.98280083030313, 42.450531583120586], [-70.98048367492575, 42.45030171232959], [-70.97961911610486, 42.45073106700117], [-70.97918619606129, 42.45054962222603], [-70.97958748382366, 42.449912240348745], [-70.97807413643261, 42.449091767922845], [-70.97714625748253, 42.44815352270579], [-70.97597206587876, 42.447326683768495], [-70.9746132241214, 42.44678313572096], [-70.97464439084101, 42.44648506118404], [-70.9756628554321, 42.44625169637863], [-70.97695993183778, 42.44661601263501], [-70.97702163720376, 42.44643511216276], [-70.97655870874407, 42.446281087351906], [-70.97652779258728, 42.44604687485073], [-70.97711483684903, 42.446028160095665], [-70.97816447027586, 42.44638853021512], [-70.97887478341933, 42.446231947419015], [-70.97970924960767, 42.446820900078215], [-70.98004900743598, 42.446733532184076], [-70.9797703473494, 42.446252318331894], [-70.97878169887471, 42.44556701389267], [-70.9789976375458, 42.44549990304947], [-70.97905913408165, 42.44506636481634], [-70.98063398985185, 42.44447197579573], [-70.98088067223335, 42.44415236434319], [-70.98091122433073, 42.443647221548716], [-70.98081853403481, 42.443369968484305], [-70.98023103775864, 42.44293856133109], [-70.97890330033462, 42.44243009818641], [-70.97911842860081, 42.442228508988386], [-70.98118883675096, 42.44270599932413], [-70.98177568453342, 42.44298435155254], [-70.98174539758178, 42.44338989816186], [-70.98227009203288, 42.44437130944169], [-70.98273390109063, 42.444741381754824], [-70.9831046107891, 42.444699157726], [-70.98261022386423, 42.44421248071811], [-70.9822699378537, 42.44329997911334], [-70.9825785161699, 42.4428894891725], [-70.98263957896154, 42.44215828822761], [-70.9822068877347, 42.44188682747749], [-70.98199095791479, 42.44207041325851], [-70.9822073527288, 42.44257159854007], [-70.98192989635761, 42.44263899683003], [-70.97982873312986, 42.44167579818534], [-70.9790257016031, 42.44163558981271], [-70.97902511802418, 42.4409693816154], [-70.97883988768827, 42.44058536719592], [-70.97853075053317, 42.440671744832166], [-70.97840789836918, 42.440899066801315], [-70.97806789067636, 42.44085983163464], [-70.97775868243083, 42.44033401783445], [-70.97649393629281, 42.441904886999], [-70.97701963348788, 42.44291389404471], [-70.97714187755398, 42.441614115044565], [-70.97741952375834, 42.441249070262266], [-70.97822315807971, 42.44197350369334], [-70.97822390086988, 42.44255024290595], [-70.97995403350326, 42.44357369877001], [-70.97995379750971, 42.44376331408624], [-70.97847183243948, 42.44405877240278], [-70.9780088477486, 42.444535505218525], [-70.97754633338663, 42.44451652770487], [-70.97760828623461, 42.445154880124456], [-70.9770823821721, 42.44524533898069], [-70.97655777102624, 42.445065151022355], [-70.97519936605569, 42.44550291351446], [-70.9747357675676, 42.44529486160631], [-70.97479728558798, 42.44506838935643], [-70.9752912810783, 42.44477185713241], [-70.97529133365522, 42.44453722710965], [-70.97492041704268, 42.444192863974976], [-70.9746734526376, 42.444269386618515], [-70.97306870917693, 42.44627811821182], [-70.97254391684812, 42.44623351091229], [-70.97254333316764, 42.446007880787185], [-70.97325335692635, 42.44511310395927], [-70.97325320133334, 42.44474398953745], [-70.97244871854528, 42.443190704290195], [-70.9731597738215, 42.44312474606535], [-70.97393145415532, 42.442552663168605], [-70.97485641582591, 42.44117664171704], [-70.97510314544675, 42.440532942378574], [-70.97599932167651, 42.44085944036568], [-70.97556554279534, 42.43937200657668], [-70.9754724757851, 42.438481990460915], [-70.97562616801113, 42.43815521407084], [-70.97692301031475, 42.43740319463033], [-70.9786207357809, 42.43579770242904], [-70.9794229806071, 42.434702991625045], [-70.97979366612857, 42.43463321174633], [-70.98075063374519, 42.43520245629741], [-70.9809053799287, 42.43501972216104], [-70.98028779565736, 42.43456172820979], [-70.98019446331595, 42.43420344591425], [-70.98034864358661, 42.43381308750921], [-70.98297226637601, 42.43193036819633], [-70.98352783074904, 42.431821451963806], [-70.98380530722171, 42.43197911984723], [-70.98402218887989, 42.43241672750777], [-70.98788358823904, 42.43467285232291], [-70.98887205238405, 42.4350429824975], [-70.9908484034901, 42.43538709213143], [-70.99193011453195, 42.43611546870343], [-70.99297999030634, 42.43634009722708], [-70.993876437937, 42.43680205732451], [-70.99347451060343, 42.437097381695814], [-70.99347462781246, 42.437484501646416], [-70.9938453541194, 42.43750526269852], [-70.99480232291027, 42.43647977248281], [-70.9954194564408, 42.4362258992141], [-70.99548131892274, 42.43601742284395], [-70.99486332533078, 42.435929187059536], [-70.99372152939978, 42.43627358841939], [-70.99338094680326, 42.4360003235393], [-70.99236169199972, 42.435675668683366], [-70.99513869043665, 42.43345631310538], [-70.99560158040978, 42.43265596850534], [-70.99701249525573, 42.431080467896514], [-70.99748359768196, 42.430938480328365], [-70.99771733099067, 42.431178632279085], [-70.99745288074219, 42.43169570582898], [-70.99850346293454, 42.432064899308436], [-70.99949543027068, 42.43216261944525], [-71.00086095990744, 42.43192040338481], [-71.00129388507696, 42.43156160974362], [-71.0026217336154, 42.43098892444602], [-71.00305458755952, 42.430396042410905], [-71.00475234960874, 42.43034821551892], [-71.00481449995495, 42.43005026553819], [-71.00321212446978, 42.42992126704294], [-71.00228290228148, 42.430274547577795], [-71.00178355743732, 42.43094253740129], [-71.00095429337343, 42.43087423408226], [-71.00120171970566, 42.43032050945089], [-71.00070947587861, 42.428861049258984], [-71.00040098427085, 42.42854180445247], [-70.99913305974282, 42.42814635760173], [-71.003994031779, 42.42189582747112], [-71.00469392286445, 42.42159612152278], [-71.00509390761485, 42.420995779121945], [-71.00509399845492, 42.42059627996636], [-71.0053939234259, 42.419996073388575], [-71.00599397910473, 42.419496176210565], [-71.00799403806907, 42.41669586474738], [-71.00889407574368, 42.416795930170785], [-71.00899408285902, 42.41699610219473], [-71.00989407280117, 42.41739606121922], [-71.01039405362823, 42.4178961612838], [-71.01109398075039, 42.418196228779415], [-71.01239399124941, 42.417196236977304], [-71.01442193092119, 42.4177877410303], [-71.01489392810691, 42.41669588981927], [-71.0163940414763, 42.417196230899414], [-71.01679408163393, 42.416595848031264], [-71.01889601081002, 42.41719715380006], [-71.01919503177709, 42.41659577326463], [-71.02168897788606, 42.417025918826745], [-71.02229495496049, 42.41569601986522], [-71.01789391569424, 42.41449605261844], [-71.01819407083327, 42.41369605897527], [-71.01419395739379, 42.41269625547165], [-71.01469403851087, 42.411996145101625], [-71.01299395911093, 42.41159621652045], [-71.01169408442931, 42.41109611226464], [-71.01129401379347, 42.41179607635467], [-71.0090949563979, 42.411096877177606], [-71.00749408978804, 42.41139613451464], [-71.00799397135319, 42.409095799146556], [-71.00869409048306, 42.408796069618674], [-71.00919397487202, 42.408295727345575], [-71.00539393471252, 42.406895841476775], [-71.00569396968037, 42.406296191085694], [-71.00499398660467, 42.40609624556487], [-71.00489391294605, 42.40629612826495], [-71.00399406382822, 42.4060958748724], [-71.00519407081866, 42.405196822006985], [-71.00266698082078, 42.40422600156178], [-71.00059403813097, 42.40269722756876], [-70.9984940598241, 42.401597067293714], [-70.99649504689857, 42.40019795591622], [-70.99899399349671, 42.39819672362416], [-71.00109400873666, 42.398797226774164], [-71.00319397955195, 42.39829708312643], [-71.0070940558306, 42.39599674394884], [-71.00949402936998, 42.39599687067808], [-71.01122068089653, 42.396560143926145], [-71.0074950537816, 42.40121111268913], [-71.00752609297545, 42.40148977559962], [-71.00888292708113, 42.40210551658129], [-71.01076610032732, 42.402108468834264], [-71.01079646985268, 42.402477156321], [-71.01193761283842, 42.402862371434125], [-71.01351412625161, 42.403033906335246], [-71.01338907800172, 42.40268395943907], [-71.01158943924811, 42.402037692481265], [-71.0112121387848, 42.40166641587114], [-71.01382497656338, 42.40025109083636], [-71.02069496899513, 42.39699781351736], [-71.02049493496651, 42.39779823361841], [-71.02309403084851, 42.396597025948054], [-71.02399403627365, 42.39759725034312], [-71.02299408264194, 42.398196867592276], [-71.02349401349255, 42.39879706065818], [-71.02099394524636, 42.400796007915616], [-71.02169392301508, 42.40119616955585], [-71.01919407365575, 42.40349610594229], [-71.01889398625916, 42.403596133771295], [-71.02099399312836, 42.403495733935294], [-71.02139391545285, 42.403995929657626], [-71.02036305558856, 42.40480020056427], [-71.02179405348576, 42.40479602712222], [-71.02229402506465, 42.405396233468025], [-71.02269508351156, 42.405095735452], [-71.0232950930008, 42.40549603925463], [-71.02489503412804, 42.405895961523264], [-71.0258950086003, 42.40639580769019], [-71.02639496758079, 42.406296017123175], [-71.0271950445297, 42.406496243412704], [-71.02789493349772, 42.40539627035208], [-71.02879493314504, 42.404796211076494], [-71.02959493106935, 42.40449619642002], [-71.02949505302644, 42.404195885955794], [-71.0285949080121, 42.40359576507254], [-71.0329950872942, 42.4032957873382], [-71.03419497776065, 42.40309583568696], [-71.03519493559432, 42.402595720228675], [-71.03469497167903, 42.4024957941604], [-71.03149501457743, 42.39989618996773], [-71.03289492517439, 42.39889581364264], [-71.03429504380311, 42.398195890798604], [-71.03729591871813, 42.40079686851002], [-71.03669605147985, 42.40109717530181], [-71.03739599424378, 42.40169699561518], [-71.0399950795887, 42.402195817076546], [-71.04059603373048, 42.401797024610445], [-71.0401950875698, 42.40269627315839], [-71.03839492314684, 42.404996040434604], [-71.0347950060436, 42.410696083770326], [-71.03449507526952, 42.41149612126165], [-71.03399500825664, 42.41209616063473], [-71.03339599115591, 42.413396890282], [-71.03309499156896, 42.414696007832404], [-71.03209492217353, 42.41669619573081], [-71.03119605186143, 42.41799681898296], [-71.0294960417739, 42.42109697273862], [-71.0288959330074, 42.42259685911171], [-71.02679496896238, 42.42659617448276], [-71.02619598328877, 42.427297053240046], [-71.02519496543135, 42.42969610388582], [-71.02269493834655, 42.43359578808511], [-71.02239493653947, 42.43449594616116], [-71.02179507032982, 42.43509607458999], [-71.02089497435776, 42.43719617073892], [-71.02009509179966, 42.438296236212324], [-71.02299496104486, 42.441495827069616], [-71.02329505744687, 42.44209575255825], [-71.0246950923175, 42.443795739263294], [-71.02529496286658, 42.444895989923744], [-71.02479492065913, 42.445395830494036], [-71.02349507441825, 42.44609604942261], [-71.02309491787803, 42.44659572861874], [-71.02239501160429, 42.44699626794359], [-71.02029490879795, 42.448896119984276], [-71.01849500588172, 42.45009610094847], [-71.01829500333363, 42.44959617105192], [-71.01679490963348, 42.44819615548522], [-71.0123950217569, 42.44309611884568], [-71.01029508895253, 42.44159612692949], [-71.00949502934452, 42.44119604240253], [-71.00899495740536, 42.44239577948954], [-71.00559508598188, 42.44189620971492], [-71.00509408156417, 42.441096188006476], [-71.00429407519295, 42.4413960231373], [-71.00389401861258, 42.44099592813878], [-71.00179400538283, 42.44199573863382], [-71.0012939344571, 42.44139601574072], [-71.00009396391052, 42.44339617812655], [-71.0007940065609, 42.444095803255586], [-70.99819395082706, 42.447795889128784], [-70.9961939923309, 42.4495961434148], [-70.99569398605078, 42.449795958807734], [-70.99909406213884, 42.45009606636828], [-71.0011950377807, 42.45009618183186], [-71.00129493336887, 42.450796019536476], [-71.0004470089239, 42.45079627914293], [-71.00076203346929, 42.45181777272841], [-70.9998939827686, 42.452296211668525], [-71.00019498556588, 42.45249614567296], [-70.99969399343831, 42.452796120520354], [-70.99979491437436, 42.45319605536187], [-71.00059500593676, 42.453196151199435], [-71.00089507824491, 42.45459625192836], [-71.00159501898129, 42.45609598693328], [-71.0020949334012, 42.4556958439553], [-71.00342501217696, 42.45524019582095], [-71.00399493314988, 42.45639612612242], [-71.00439499315844, 42.45639615562108], [-71.0040950317243, 42.457196107311496], [-71.00639495310676, 42.45719585789436], [-71.00639506053015, 42.45759592141674], [-71.00709508654087, 42.45759610118818], [-71.00709496479529, 42.45819590706867], [-71.0072949982528, 42.458196204685756], [-71.00719507774211, 42.45909604934302], [-71.00539495996732, 42.458895900934515], [-71.00519499328072, 42.45939581850302], [-71.00289495728808, 42.459496199090886], [-71.0012950406234, 42.45939588036387], [-71.00039503961754, 42.45909601588425], [-70.99999496792988, 42.459695769978005], [-70.99969506206232, 42.45949584972784], [-70.99917007973347, 42.46089574241591], [-70.99809500638227, 42.45979610716472], [-70.99599404016679, 42.460395743125375], [-70.9932939414166, 42.46079577240945], [-70.99449403892562, 42.4616962487929], [-70.99639501162814, 42.46159598419555], [-70.9994950335816, 42.46179573419682], [-70.9990950091417, 42.46269595975291], [-71.00079495473526, 42.46399578658847], [-71.00100708408613, 42.46400795901902], [-71.00189490907225, 42.46489575941486], [-71.00119493454918, 42.46509584991103], [-70.99779496226135, 42.46429615893034], [-70.9960950401422, 42.464095735553585], [-70.99509498961102, 42.46349605219117], [-70.99409397412417, 42.464395875385826], [-70.99329403031963, 42.46459604609791], [-70.993494077066, 42.465096009341664], [-70.9921939755178, 42.465095912584054], [-70.99159391530931, 42.46439612261342], [-70.99069404654004, 42.46419577149131], [-70.98899390910177, 42.46019610158374], [-70.988393975345, 42.46019624751605], [-70.98859408206707, 42.45969580107502], [-70.98799404587044, 42.45949620086217], [-70.98747099429518, 42.45898859648167]]]]}}