{"type": "Feature", "properties": {"district_name": "13th Suffolk", "chamber": "house", "vintage": "2001-2010"}, "geometry": {"type": "Polygon", "coordinates": [[[-71.0459949853022, 42.31269072007694], [-71.04458404629229, 42.31230420230628], [-71.04384496707246, 42.3113447017611], [-71.04381389084999, 42.31097601333289], [-71.04399900103516, 42.310747171338924], [-71.04467733538397, 42.31042912889933], [-71.04455366780981, 42.31015179635783], [-71.0421807078026, 42.31019470162814], [-71.04245837850593, 42.30969444793136], [-71.04298260233887, 42.30935161064664], [-71.04436991302389, 42.30884957494072], [-71.04486263763418, 42.30832710216007], [-71.04541772148855, 42.307272570853655], [-71.04612764009791, 42.3050533160904], [-71.0465896732806, 42.30454928765834], [-71.04751404748924, 42.304343611309896], [-71.0480688100262, 42.304757115367465], [-71.04760520971597, 42.30717935255557], [-71.04772888883821, 42.30745612381343], [-71.04849883146306, 42.30770391643543], [-71.05068746437433, 42.307637094768886], [-71.05250584333079, 42.307775859353875], [-71.05287508886387, 42.307363725513554], [-71.05290596265301, 42.3063993982802], [-71.05272183081637, 42.30571838719781], [-71.04970258801379, 42.30270128041684], [-71.04930182903132, 42.302510078572254], [-71.04905550386468, 42.3025327450369], [-71.04880829712882, 42.30310459167241], [-71.04800748858054, 42.303498144351224], [-71.04748369050215, 42.30315565156797], [-71.04742228736443, 42.30217464773155], [-71.04711369155469, 42.30208115084396], [-71.0467136204149, 42.30240368202608], [-71.04671270748949, 42.30306145709885], [-71.04649733050815, 42.30312812989516], [-71.04375524662831, 42.30249269003027], [-71.04350833044643, 42.30230771455292], [-71.04338573152945, 42.30125612436391], [-71.04378664594607, 42.30050146276685], [-71.04378616065232, 42.299727200529674], [-71.04588224823738, 42.298789060951904], [-71.04477299331954, 42.29788999526466], [-71.04452669970212, 42.29711981816246], [-71.04461960572742, 42.296136605101324], [-71.04489647442384, 42.296131517080745], [-71.04520488468303, 42.296405080091674], [-71.04591272811211, 42.298211862206024], [-71.0462827196326, 42.298169434129726], [-71.04579034709266, 42.296728129171576], [-71.04400366867549, 42.293706718458935], [-71.04289531320951, 42.29293424658355], [-71.04246435782713, 42.292266306019094], [-71.04191043235625, 42.28984453039271], [-71.04157176786207, 42.28977846553865], [-71.04166319874813, 42.291307664547006], [-71.04203237292181, 42.2922651429693], [-71.04203210935795, 42.29345354335553], [-71.0416011107005, 42.29352441597342], [-71.04095476230266, 42.29313976414706], [-71.03947512229394, 42.29285981683136], [-71.03935240265385, 42.292565033364205], [-71.03876719424476, 42.29247659827365], [-71.03870511970604, 42.29218037396831], [-71.03885940824767, 42.29180792522396], [-71.03873584831582, 42.291396107052535], [-71.03784340378199, 42.290754429371106], [-71.03784370019596, 42.29014222330146], [-71.03759767415923, 42.28927299719984], [-71.03725799357267, 42.28885580551947], [-71.0372586305579, 42.288378646348555], [-71.03787543933579, 42.28734971258361], [-71.03796742680076, 42.28684366081332], [-71.03784543115881, 42.28653031391546], [-71.03806024448411, 42.28645465198004], [-71.03836795760095, 42.28671022527498], [-71.03861440692226, 42.286687582379635], [-71.03852234012707, 42.28614027697268], [-71.03864544013933, 42.28591288609639], [-71.03913825278896, 42.28572354936958], [-71.03923191316886, 42.28547915000908], [-71.04026842822574, 42.28461394985033], [-71.04249406858445, 42.28589789339914], [-71.04442603319833, 42.28469521917598], [-71.04679500807987, 42.283858870237886], [-71.04960604798607, 42.28326615483565], [-71.056556997306, 42.282309057679036], [-71.05539094284937, 42.28377317293129], [-71.0547400605284, 42.28546378318643], [-71.05449391210875, 42.28689825651565], [-71.0551959773652, 42.28820022435243], [-71.07125002630174, 42.28367815998671], [-71.07107290643103, 42.2877609347675], [-71.07149490491712, 42.29029798856007], [-71.07149498386988, 42.29109813305448], [-71.07399506066315, 42.290498043157], [-71.07489508921758, 42.293197783171685], [-71.07819506634736, 42.29249814064168], [-71.07839500169578, 42.294397953645195], [-71.07642709321894, 42.29485211985249], [-71.07109493846878, 42.29569775278292], [-71.07139501922703, 42.29749778372583], [-71.07069503299158, 42.297697738196796], [-71.07129497457098, 42.29889794654427], [-71.06631300844309, 42.30034674106705], [-71.06429407831716, 42.29919797052344], [-71.06159403831691, 42.30009812997669], [-71.05889400181884, 42.30019808293351], [-71.0558940553276, 42.3010980823433], [-71.05629398205105, 42.30289797995659], [-71.05809702244483, 42.302257269527715], [-71.05778895850308, 42.30165119871242], [-71.05946994165697, 42.30116924230032], [-71.0597939673942, 42.30149796886619], [-71.0592939314949, 42.30309802138464], [-71.05729399619015, 42.31289798157234], [-71.05889409488094, 42.31269819090445], [-71.05919407774847, 42.31109793397302], [-71.06249491761615, 42.311997910226516], [-71.06219496869389, 42.312397959341055], [-71.06359493751087, 42.313098207153885], [-71.0632950674523, 42.313597859430146], [-71.06239495743776, 42.313297894958666], [-71.06079506096144, 42.31499785851745], [-71.06009502501978, 42.314597924138155], [-71.05889492589571, 42.31869812830675], [-71.05929500012509, 42.31919820326191], [-71.05689403143832, 42.31899821656314], [-71.05689400616622, 42.3205979384502], [-71.05599403646464, 42.32099790691091], [-71.0541940417136, 42.32139776605592], [-71.05179498828035, 42.32139912235821], [-71.05117594948612, 42.32115025004639], [-71.04939394571755, 42.31789826781], [-71.04738105139904, 42.31364206972752], [-71.04689499990766, 42.313098849006295], [-71.04627694661104, 42.313042950707924], [-71.0459949853022, 42.31269072007694]]]}}