{"type": "Feature", "properties": {"district_name": "8th Bristol District", "chamber": "house", "vintage": "2022-present"}, "geometry": {"type": "Polygon", "coordinates": [[[-71.1621, 41.66575899999998], [-71.160442, 41.667671000000006], [-71.159512, 41.668485], [-71.1604, 41.670061999999994], [-71.162014, 41.676308000000006], [-71.15483, 41.674885], [-71.154109, 41.674910999999994], [-71.155118, 41.677620999999995], [-71.146842, 41.676062000000016], [-71.144584, 41.68230599999999], [-71.147403, 41.68284500000001], [-71.14615900000001, 41.686535000000006], [-71.143126, 41.68602], [-71.13865, 41.68925599999999], [-71.138266, 41.69003700000001], [-71.136946, 41.68976199999999], [-71.135973, 41.692130999999996], [-71.134278, 41.690664999999996], [-71.134137, 41.690996], [-71.130558, 41.69027900000001], [-71.130511, 41.68957999999999], [-71.130353, 41.68956], [-71.13038, 41.68993], [-71.121693, 41.688217], [-71.123052, 41.692032999999995], [-71.123262, 41.693179], [-71.123233, 41.694555000000015], [-71.119266, 41.707956999999986], [-71.119003, 41.70723699999998], [-71.118831, 41.707779], [-71.118336, 41.70822299999999], [-71.110905, 41.707], [-71.109897, 41.709754000000004], [-71.109565, 41.712231], [-71.108861, 41.71256700000001], [-71.108554, 41.713044000000004], [-71.108263, 41.71537200000001], [-71.108395, 41.715844000000004], [-71.10881300000001, 41.716239], [-71.108696, 41.71701300000001], [-71.107452, 41.717979], [-71.107415, 41.71845099999999], [-71.107108, 41.71908199999999], [-71.106632, 41.719516000000006], [-71.107036, 41.720367], [-71.105798, 41.721114], [-71.105741, 41.722102], [-71.105301, 41.722558], [-71.105448, 41.722689], [-71.105997, 41.722475], [-71.106049, 41.72269999999999], [-71.105602, 41.72310600000001], [-71.104708, 41.723194], [-71.103647, 41.72425400000001], [-71.104226, 41.724781], [-71.104578, 41.725516000000006], [-71.104571, 41.725719], [-71.103941, 41.72648800000001], [-71.104191, 41.727261999999996], [-71.104558, 41.72768400000001], [-71.103606, 41.728502999999996], [-71.103174, 41.729182999999985], [-71.103504, 41.72977000000001], [-71.103593, 41.73082400000001], [-71.103044, 41.731747], [-71.102766, 41.732866], [-71.101998, 41.73391000000001], [-71.101697, 41.733833], [-71.101522, 41.735090000000014], [-71.10161700000002, 41.73606899999999], [-71.099782, 41.73671000000001], [-71.097997, 41.736763], [-71.095646, 41.73621099999998], [-71.092581, 41.735822999999996], [-71.090208, 41.73521500000001], [-71.090162, 41.735586999999995], [-71.085909, 41.73896400000001], [-71.084791, 41.73919900000001], [-71.07826400000002, 41.73967099999998], [-71.077547, 41.739920999999995], [-71.076931, 41.740374], [-71.075864, 41.74178100000001], [-71.075096, 41.74463600000001], [-71.074921, 41.74838600000001], [-71.073829, 41.752019000000004], [-71.072854, 41.754334], [-71.07203000000001, 41.75750099999999], [-71.113368, 41.76496599999999], [-71.10558, 41.76781799999999], [-71.077037, 41.778961], [-71.074917, 41.77998600000001], [-71.07269, 41.781353999999986], [-71.062729, 41.79000799999999], [-71.060607, 41.79197299999999], [-71.058724, 41.794111000000015], [-71.062487, 41.795154000000004], [-71.06432000000001, 41.79555400000001], [-71.065806, 41.79568700000001], [-71.06534, 41.796049], [-71.064597, 41.797021], [-71.063799, 41.79758499999999], [-71.062527, 41.798110999999984], [-71.059772, 41.798893], [-71.058029, 41.79905600000001], [-71.052213, 41.801725999999995], [-71.052285, 41.800914000000006], [-71.052745, 41.800439000000004], [-71.047705, 41.799533], [-71.04545, 41.798923000000016], [-71.037979, 41.797673], [-71.033943, 41.79761000000001], [-71.031121, 41.797283], [-71.029296, 41.79739], [-71.02917, 41.79761800000001], [-71.028559, 41.79778199999998], [-71.028337, 41.798646000000005], [-71.028077, 41.79888900000002], [-71.02619800000001, 41.799111], [-71.025938, 41.799359], [-71.026144, 41.799635], [-71.026174, 41.800048000000004], [-71.025853, 41.80040100000001], [-71.025906, 41.80079200000002], [-71.025722, 41.80117299999999], [-71.02597500000002, 41.801696000000014], [-71.025591, 41.802779], [-71.02592, 41.803493000000024], [-71.025018, 41.804036], [-71.024621, 41.80386700000001], [-71.02404, 41.80463400000001], [-71.02349, 41.804342], [-71.023176, 41.804564000000006], [-71.023451, 41.805158000000006], [-71.023137, 41.80576199999999], [-71.023657, 41.805950999999986], [-71.023611, 41.80626800000001], [-71.023157, 41.80617600000001], [-71.014591, 41.79956800000001], [-71.026288, 41.778888], [-70.921782, 41.791244], [-70.905211, 41.759819], [-70.904438, 41.75800000000001], [-70.886439, 41.760232], [-70.859489, 41.684736], [-70.860067, 41.684602], [-70.86099, 41.684931000000006], [-70.861437, 41.68529899999999], [-70.86247, 41.68549599999999], [-70.863363, 41.685457000000014], [-70.86377300000001, 41.685627000000004], [-70.863978, 41.68579200000001], [-70.864081, 41.68622499999999], [-70.864829, 41.686664], [-70.864836, 41.686982], [-70.86551, 41.68760800000001], [-70.86565, 41.68808], [-70.866493, 41.688759999999995], [-70.868169, 41.688441000000005], [-70.868923, 41.687782000000006], [-70.869025, 41.687122999999985], [-70.86991, 41.685931000000004], [-70.870107, 41.68526200000001], [-70.870722, 41.684915000000004], [-70.872069, 41.684585000000006], [-70.87316800000002, 41.685095], [-70.873923, 41.685973000000004], [-70.874733, 41.686359999999986], [-70.875429, 41.687008], [-70.875546, 41.68715], [-70.875464, 41.687892000000005], [-70.875684, 41.68821599999999], [-70.876108, 41.688495999999994], [-70.876855, 41.68854000000002], [-70.879256, 41.688441000000005], [-70.879272, 41.687993000000006], [-70.879812, 41.687705000000015], [-70.884851, 41.686437], [-70.888152, 41.685834], [-70.899565, 41.684195], [-70.899915, 41.684287], [-70.900279, 41.684827999999996], [-70.900555, 41.684912999999995], [-70.904434, 41.68432500000001], [-70.904653, 41.68624299999999], [-70.906466, 41.68657699999999], [-70.90519, 41.688705000000006], [-70.903137, 41.69277700000001], [-70.907047, 41.693303000000036], [-70.906865, 41.694212], [-70.907556, 41.69436199999999], [-70.908413, 41.69532599999999], [-70.911185, 41.69651000000001], [-70.912473, 41.696666], [-70.914241, 41.696236], [-70.914507, 41.695628000000006], [-70.914376, 41.695189000000006], [-70.914486, 41.694397999999985], [-70.914969, 41.69407400000001], [-70.91527, 41.693641], [-70.915738, 41.69343200000001], [-70.915724, 41.69319099999999], [-70.91524, 41.692686], [-70.9159, 41.69217], [-70.915966, 41.691894999999995], [-70.91579, 41.69140099999998], [-70.916691, 41.69080900000001], [-70.916838, 41.690178], [-70.917204, 41.68983200000002], [-70.919188, 41.690397000000004], [-70.919569, 41.690633000000005], [-70.919994, 41.69112799999998], [-70.920294, 41.692225], [-70.920704, 41.69269200000001], [-70.921773, 41.692261], [-70.922677, 41.69213599999999], [-70.922946, 41.69268700000001], [-70.923001, 41.693447], [-70.925786, 41.69430100000001], [-70.926557, 41.69482600000003], [-70.928829, 41.701821], [-70.935733, 41.700019000000005], [-70.935574, 41.69909700000001], [-70.942248, 41.69746700000001], [-70.943334, 41.702439000000005], [-70.943721, 41.703255999999996], [-70.93959100000001, 41.710893], [-70.939176, 41.71206000000003], [-70.939035, 41.71338999999999], [-70.93918, 41.714447], [-70.939577, 41.715682], [-70.942051, 41.71932600000002], [-70.938494, 41.719528], [-70.938443, 41.718315000000004], [-70.938002, 41.71665800000001], [-70.93555800000001, 41.71676999999999], [-70.934716, 41.715226000000015], [-70.933383, 41.715599], [-70.942993, 41.74466800000001], [-71.06663, 41.68561900000002], [-71.076675, 41.68746900000001], [-71.075118, 41.678069], [-71.063763, 41.666849], [-71.061362, 41.663666000000006], [-71.059527, 41.66077399999999], [-71.055968, 41.655882999999996], [-71.053848, 41.65263699999999], [-71.053091, 41.65087599999999], [-71.051732, 41.64844999999999], [-71.049462, 41.64135999999999], [-71.048874, 41.64014799999999], [-71.04642300000002, 41.63738200000001], [-71.04505, 41.63676500000001], [-71.044718, 41.63643600000001], [-71.043067, 41.633277], [-71.04221800000002, 41.63251999999999], [-71.040675, 41.63042399999999], [-71.038517, 41.628043999999996], [-71.036637, 41.62409499999999], [-71.038538, 41.62290100000002], [-71.037817, 41.622256000000014], [-71.037405, 41.621514], [-71.036531, 41.617643], [-71.036822, 41.615254999999976], [-71.038072, 41.610203999999996], [-71.038321, 41.608091], [-71.036814, 41.598175], [-71.037307, 41.597921], [-71.039016, 41.59565600000001], [-71.039601, 41.593837], [-71.04109, 41.59294599999999], [-71.044813, 41.58989699999999], [-71.045045, 41.58807400000002], [-71.044898, 41.58730699999998], [-71.04446, 41.586428], [-71.040947, 41.582268], [-71.034574, 41.57332199999998], [-71.03283, 41.570458], [-71.032171, 41.56905299999999], [-71.031578, 41.566058], [-71.029731, 41.56055500000001], [-71.029115, 41.55822200000001], [-71.02904, 41.557363999999986], [-71.029599, 41.555243000000004], [-71.031015, 41.552057000000005], [-71.030875, 41.550736], [-71.030175, 41.548604], [-71.030188, 41.54816000000002], [-71.031352, 41.546766999999996], [-71.031438, 41.546380000000006], [-71.029649, 41.538849], [-71.028839, 41.536526999999985], [-71.026287, 41.53050700000001], [-71.032708, 41.52777300000001], [-71.029674, 41.516994000000004], [-71.028858, 41.514459000000016], [-71.028183, 41.513175999999994], [-71.021757, 41.503716999999995], [-71.016759, 41.49829100000001], [-71.00413, 41.48403099999999], [-71.033164, 41.484162000000005], [-71.033164, 41.480332000000004], [-71.041236, 41.480332000000004], [-71.041373, 41.48420000000001], [-71.116404, 41.484567999999996], [-71.121116, 41.492787000000014], [-71.119874, 41.49460400000001], [-71.120617, 41.497901000000006], [-71.122437, 41.522074999999994], [-71.126819, 41.554975], [-71.13162, 41.593716], [-71.138346, 41.603676], [-71.140308, 41.60484999999999], [-71.141958, 41.612533], [-71.140185, 41.623869000000006], [-71.135307, 41.62848799999999], [-71.134354, 41.64404700000001], [-71.132557, 41.660363], [-71.1621, 41.66575899999998]]]}}