{"type": "Feature", "properties": {"district_name": "15th Suffolk District", "chamber": "house", "vintage": "2022-present"}, "geometry": {"type": "Polygon", "coordinates": [[[-71.125816, 42.30232200000001], [-71.125399, 42.302878], [-71.124893, 42.302566], [-71.123556, 42.302923], [-71.123579, 42.304137999999995], [-71.122022, 42.306507], [-71.12241900000001, 42.30668300000002], [-71.120783, 42.30835900000002], [-71.121671, 42.30865600000001], [-71.120727, 42.30900900000002], [-71.118393, 42.30875099999997], [-71.116722, 42.309096999999994], [-71.115472, 42.30967500000001], [-71.114654, 42.31075], [-71.114397, 42.31162100000001], [-71.1185, 42.31449799999999], [-71.11717800000001, 42.315407], [-71.116899, 42.31575300000001], [-71.116736, 42.317636], [-71.116468, 42.31858299999999], [-71.113084, 42.317484000000015], [-71.109773, 42.32197799999998], [-71.115599, 42.321065999999995], [-71.117117, 42.32105500000001], [-71.119364, 42.321538000000004], [-71.119607, 42.322614], [-71.119539, 42.322745], [-71.11887, 42.322858], [-71.118509, 42.323116], [-71.118398, 42.323454999999996], [-71.116772, 42.323769999999996], [-71.116537, 42.32393900000002], [-71.115948, 42.325734999999995], [-71.115965, 42.32637900000001], [-71.115271, 42.326933999999994], [-71.11504, 42.32730800000001], [-71.113575, 42.330467000000006], [-71.113212, 42.332458], [-71.112192, 42.333801000000015], [-71.110591, 42.335249000000005], [-71.110553, 42.335464000000016], [-71.110808, 42.335586000000006], [-71.110063, 42.336307], [-71.109333, 42.33700000000001], [-71.107508, 42.335842], [-71.108018, 42.335335999999984], [-71.106676, 42.334452000000006], [-71.107027, 42.334066], [-71.107282, 42.33215100000001], [-71.106503, 42.331942], [-71.106724, 42.331418000000006], [-71.102293, 42.330354], [-71.1014, 42.331459], [-71.098495, 42.330067], [-71.097603, 42.33077200000001], [-71.097185, 42.331782], [-71.095351, 42.33155399999999], [-71.096506, 42.330212], [-71.097601, 42.328377], [-71.098917, 42.325025000000025], [-71.098398, 42.324933999999985], [-71.098636, 42.32395900000002], [-71.098412, 42.31957200000001], [-71.096319, 42.319424], [-71.095743, 42.31925], [-71.095305, 42.31882499999998], [-71.097701, 42.316419], [-71.094088, 42.31414199999999], [-71.096391, 42.312391999999996], [-71.097488, 42.311856999999996], [-71.097796, 42.31141900000001], [-71.09807, 42.30972200000001], [-71.099384, 42.309076], [-71.09934, 42.308834000000004], [-71.099954, 42.30789800000001], [-71.100248, 42.307861999999986], [-71.100716, 42.30656599999998], [-71.101486, 42.306574], [-71.101977, 42.30598400000001], [-71.10269, 42.30596599999999], [-71.102713, 42.30526900000001], [-71.103079, 42.30478900000001], [-71.103303, 42.30382800000001], [-71.10485, 42.30232], [-71.104583, 42.301332], [-71.104661, 42.300271], [-71.10383200000001, 42.300102], [-71.103291, 42.299806], [-71.098852, 42.29564], [-71.096181, 42.292885999999996], [-71.09633, 42.29286199999999], [-71.096546, 42.293221999999986], [-71.099821, 42.292943], [-71.101683, 42.293164999999995], [-71.105666, 42.289745], [-71.107089, 42.289234000000015], [-71.10976300000002, 42.28763900000001], [-71.110563, 42.28694999999999], [-71.110681, 42.28730900000001], [-71.111749, 42.28822300000001], [-71.11351, 42.289066000000005], [-71.113983, 42.289480000000005], [-71.11448400000002, 42.29118799999999], [-71.114329, 42.291833999999994], [-71.1139, 42.29248199999999], [-71.114437, 42.29304599999998], [-71.115471, 42.292348000000004], [-71.116804, 42.29234099999999], [-71.11704, 42.291150999999985], [-71.119171, 42.291205000000005], [-71.118942, 42.292214], [-71.118415, 42.29340899999999], [-71.119916, 42.294166999999995], [-71.119786, 42.294287], [-71.121294, 42.295199000000004], [-71.12016, 42.295951999999986], [-71.12066, 42.296129], [-71.120361, 42.29640600000001], [-71.120304, 42.29668699999999], [-71.12050900000001, 42.297842], [-71.121626, 42.297621], [-71.122582, 42.297823], [-71.123637, 42.298913], [-71.124954, 42.299473], [-71.125587, 42.30039099999999], [-71.125504, 42.302001], [-71.125816, 42.30232200000001]]]}}