{"type": "Feature", "properties": {"district_name": "6th Hampden", "chamber": "house", "vintage": "2001-2010"}, "geometry": {"type": "Polygon", "coordinates": [[[-72.62763404403016, 42.16199194184217], [-72.62773399902123, 42.153992101208345], [-72.62603400273255, 42.14999306287372], [-72.62253395953091, 42.14679273421316], [-72.61863403075017, 42.14379316529256], [-72.61575799291478, 42.14500521713179], [-72.61333395585986, 42.14519311195243], [-72.61103309002834, 42.142693217682556], [-72.61103289846703, 42.142492882342644], [-72.60993294381045, 42.14099313327001], [-72.6074329723625, 42.138792792718434], [-72.60573297421159, 42.14019299322447], [-72.60463300569965, 42.140192913507875], [-72.6021329529236, 42.140892835827856], [-72.60293298883043, 42.14339272751058], [-72.60353301023123, 42.14469308520806], [-72.60553300036354, 42.14679310492884], [-72.60373304283773, 42.1472927200154], [-72.6035330570001, 42.148093183735696], [-72.6036130267217, 42.14919707524105], [-72.60043305440294, 42.149292928569004], [-72.60013301679587, 42.14959293735031], [-72.59573295989655, 42.14989282240885], [-72.5913330140955, 42.14939288433853], [-72.58693300957742, 42.150393040404694], [-72.58873295633643, 42.155193029902925], [-72.58823302166925, 42.160093071265926], [-72.5820329791953, 42.15979273136131], [-72.58193300618935, 42.15829284023385], [-72.58103304483059, 42.15709313023944], [-72.58103304206973, 42.15679318475508], [-72.57793311523986, 42.1559928969245], [-72.57703199764201, 42.15559281732424], [-72.57373211213859, 42.15319273518431], [-72.57283211161247, 42.152693011926], [-72.5681319013588, 42.15079320222338], [-72.56653198260645, 42.14989308454504], [-72.56583193150526, 42.14929296219194], [-72.56343199534096, 42.148092982153145], [-72.57873299606382, 42.141593259204576], [-72.58193299886872, 42.14009320976371], [-72.58413300677427, 42.13579275296103], [-72.58113303480263, 42.13529324288913], [-72.57900288436545, 42.13331108100251], [-72.58003296442593, 42.132892825198134], [-72.58113296891105, 42.13199275922858], [-72.57813201540765, 42.12959279317523], [-72.57973302280965, 42.1286930848108], [-72.58143299991193, 42.1274930397837], [-72.58493300471848, 42.12469294303248], [-72.58573300342839, 42.12509279157377], [-72.59107504629017, 42.12893173439667], [-72.5891330569648, 42.13049325498924], [-72.58963300117544, 42.13079294189328], [-72.5899329216938, 42.13119301420152], [-72.59233298154919, 42.13219322852681], [-72.59393298044421, 42.13339293421768], [-72.59543302424686, 42.132092728312266], [-72.59703308883189, 42.133292948886535], [-72.59563302171743, 42.13449317666698], [-72.61163302501481, 42.12759287822172], [-72.6130329485044, 42.12679312620007], [-72.62133403187083, 42.123393101270544], [-72.62153400082603, 42.118392818642945], [-72.61413303416651, 42.10849314515469], [-72.60393312345956, 42.10339381023407], [-72.59913297350067, 42.101294216126746], [-72.59503293698398, 42.09879381717581], [-72.59143297095036, 42.09579384951267], [-72.58863293126349, 42.09289421634085], [-72.59093290942693, 42.09219421318503], [-72.5955330012028, 42.09349413858273], [-72.59863298893886, 42.092893813344986], [-72.59963298981002, 42.09019427840113], [-72.59873299467131, 42.09029408277704], [-72.59853304014567, 42.08989419892823], [-72.60033300373901, 42.08879418876043], [-72.60083298525583, 42.08599421492448], [-72.61023303645356, 42.08849378680926], [-72.62033396228288, 42.08759404730088], [-72.62683395487713, 42.08989381868106], [-72.6298339868969, 42.09209387616093], [-72.63083397648228, 42.09459387396801], [-72.63063399810622, 42.095493998590705], [-72.62963401335624, 42.097493752624224], [-72.63113397190479, 42.09989427203664], [-72.63313409659749, 42.100393923211186], [-72.63823402301894, 42.09889426257199], [-72.64603404821507, 42.09919295928615], [-72.65173485605493, 42.09769287331795], [-72.65833496635666, 42.095494030861104], [-72.66043511637733, 42.09219416755941], [-72.66063498378172, 42.08589380157198], [-72.66203499078462, 42.084293760389365], [-72.66653496778262, 42.08739379968136], [-72.66803498861645, 42.09119398298982], [-72.67283496750959, 42.09469309324493], [-72.67523500951127, 42.09779290084417], [-72.67643492661199, 42.1003928868475], [-72.68123599000779, 42.10069293503788], [-72.68303601567756, 42.106892794010534], [-72.68383597588885, 42.10719291806064], [-72.69443601095715, 42.105392918608814], [-72.69403587672359, 42.10619282696983], [-72.69113596111512, 42.11989288925982], [-72.68993600202565, 42.1287929305524], [-72.68623603167299, 42.13549203535177], [-72.68653602663703, 42.13849177482556], [-72.6870359621826, 42.14009212425269], [-72.68683602754874, 42.1406918375246], [-72.6871359969776, 42.14229201491302], [-72.68673597391462, 42.143691781976315], [-72.6890360048873, 42.146191878807834], [-72.68803596155337, 42.14909198214242], [-72.68653598120407, 42.15079182949969], [-72.68483603524508, 42.16299183127491], [-72.64953499955581, 42.16239176085163], [-72.64733501525136, 42.16219207773419], [-72.64573404024516, 42.162291934121185], [-72.62763404403016, 42.16199194184217]]]}}