{"type": "Feature", "properties": {"district_name": "33rd Middlesex District", "chamber": "house", "vintage": "2012-2020"}, "geometry": {"type": "Polygon", "coordinates": [[[-71.08943, 42.426724], [-71.089062, 42.42911499999999], [-71.088031, 42.42902600000001], [-71.087263, 42.434140000000006], [-71.085859, 42.43275100000001], [-71.08227099999999, 42.43301600000001], [-71.08187199999999, 42.431968999999995], [-71.08176999999999, 42.43122799999998], [-71.078059, 42.431472], [-71.074826, 42.431958], [-71.072307, 42.432058], [-71.072276, 42.433089], [-71.071944, 42.433786999999995], [-71.071995, 42.43536199999999], [-71.072576, 42.435824], [-71.072848, 42.435846], [-71.072819, 42.43668499999999], [-71.071412, 42.436430999999985], [-71.071232, 42.43684100000001], [-71.071085, 42.4378], [-71.071619, 42.44000000000001], [-71.06765700000001, 42.44041099999999], [-71.06719799999999, 42.43956499999999], [-71.06707999999999, 42.438812999999996], [-71.067191, 42.437380999999974], [-71.067633, 42.43657], [-71.06777199999999, 42.43484], [-71.066521, 42.434872], [-71.06499699999999, 42.43528799999999], [-71.06449200000002, 42.43516], [-71.064334, 42.435036], [-71.06414199999999, 42.43311], [-71.063563, 42.43230399999999], [-71.062856, 42.43223799999999], [-71.060467, 42.432715], [-71.060935, 42.43416899999998], [-71.059817, 42.434177], [-71.057789, 42.434692999999996], [-71.054247, 42.43502000000001], [-71.054017, 42.43445599999999], [-71.053108, 42.43383999999998], [-71.053125, 42.433541], [-71.051189, 42.43334199999998], [-71.050817, 42.43333200000001], [-71.04893, 42.434175999999994], [-71.05033399999999, 42.436284], [-71.050377, 42.43665800000001], [-71.04971499999999, 42.439432], [-71.048175, 42.439452], [-71.04909099999999, 42.44053999999999], [-71.049206, 42.441724], [-71.050169, 42.442161999999996], [-71.02577699999999, 42.44475299999999], [-71.020377, 42.43824999999998], [-71.028257, 42.42414799999998], [-71.050324, 42.42299500000001], [-71.052853, 42.421176999999986], [-71.05554599999999, 42.42312800000001], [-71.05339099999999, 42.424772], [-71.055064, 42.426036], [-71.05646, 42.428363000000004], [-71.059451, 42.42703300000001], [-71.060009, 42.42790699999997], [-71.063295, 42.426170000000006], [-71.066172, 42.425261], [-71.072634, 42.42552400000001], [-71.074519, 42.42597799999998], [-71.076241, 42.421700999999985], [-71.076701, 42.42013399999998], [-71.07679800000001, 42.41326500000003], [-71.07713199999999, 42.413285], [-71.07930999999999, 42.414938], [-71.07991, 42.415166000000006], [-71.081724, 42.41515700000001], [-71.08349, 42.41600700000001], [-71.085785, 42.417895], [-71.088171, 42.423390999999995], [-71.08943, 42.426724]]]}}