{"type": "Feature", "properties": {"district_name": "4th Suffolk District", "chamber": "house", "vintage": "2012-2020"}, "geometry": {"type": "Polygon", "coordinates": [[[-71.066388, 42.32632200000001], [-71.06058399999999, 42.335446], [-71.060042, 42.33656399999998], [-71.059697, 42.336801], [-71.060001, 42.340054999999985], [-71.059983, 42.34207099999999], [-71.059782, 42.34298499999998], [-71.059265, 42.343989000000015], [-71.05825, 42.345506], [-71.054469, 42.34677800000001], [-71.054788, 42.34687100000001], [-71.054771, 42.347253], [-71.05218599999999, 42.350922], [-71.05218800000002, 42.351121], [-71.049595, 42.35449699999999], [-71.049396, 42.354498], [-71.042596, 42.363797999999996], [-71.026895, 42.353097999999996], [-71.010994, 42.34269800000001], [-70.988173, 42.34344700000002], [-70.975094, 42.34349900000001], [-70.972893, 42.35359699999999], [-70.968935, 42.35592500000001], [-70.96882, 42.35586600000001], [-70.967257, 42.357069], [-70.96704799999999, 42.356953999999995], [-70.917892, 42.385997], [-70.901292, 42.384098000000016], [-70.85143599999999, 42.393209000000006], [-70.749487, 42.400819999999996], [-70.748802, 42.400211999999996], [-70.748847, 42.373751999999996], [-70.749488, 42.37333999999999], [-70.851191, 42.372499], [-70.894292, 42.372398999999994], [-70.905692, 42.316998999999996], [-70.917091, 42.314198000000005], [-70.927191, 42.310097999999996], [-70.937091, 42.311097999999994], [-70.94899099999999, 42.301298], [-70.96019199999999, 42.29949800000001], [-70.97599199999999, 42.300097999999984], [-70.981781, 42.30838199999999], [-70.988693, 42.31359800000001], [-70.998593, 42.311997999999996], [-71.002093, 42.308697999999985], [-71.00979099999999, 42.305198999999995], [-71.015393, 42.30669799999998], [-71.022093, 42.305597999999975], [-71.028395, 42.30879899999999], [-71.037094, 42.306598], [-71.041589, 42.311256000000014], [-71.0467, 42.313016000000005], [-71.04775599999999, 42.31475099999998], [-71.04829699999999, 42.315941], [-71.048076, 42.31595099999999], [-71.049039, 42.31767099999999], [-71.051035, 42.32107000000001], [-71.051653, 42.32171], [-71.051994, 42.321459999999995], [-71.054977, 42.32131999999999], [-71.056769, 42.320721999999996], [-71.056795, 42.32250199999999], [-71.06020000000001, 42.323650999999984], [-71.06101199999999, 42.322424999999996], [-71.062962, 42.323403000000006], [-71.06382099999999, 42.323662], [-71.064132, 42.32350299999999], [-71.066388, 42.32632200000001]]]}}