{"type": "Feature", "properties": {"district_name": "14th Suffolk District", "chamber": "house", "vintage": "2012-2020"}, "geometry": {"type": "Polygon", "coordinates": [[[-71.157761, 42.263738], [-71.157381, 42.26374299999999], [-71.15578599999999, 42.262454], [-71.14847499999999, 42.269017], [-71.140653, 42.27517900000001], [-71.14074699999999, 42.276291], [-71.141378, 42.277727999999996], [-71.14373100000002, 42.28030200000001], [-71.146361, 42.282528000000006], [-71.14725299999999, 42.28361000000002], [-71.147662, 42.285042999999995], [-71.147752, 42.286562999999994], [-71.13941799999999, 42.28668699999999], [-71.13933, 42.28616600000002], [-71.13943499999999, 42.285961], [-71.14044100000001, 42.285106000000006], [-71.139496, 42.284549000000005], [-71.139392, 42.28359900000002], [-71.137475, 42.28365999999998], [-71.13604099999999, 42.28273099999999], [-71.13532900000001, 42.28335100000001], [-71.134119, 42.282559], [-71.132699, 42.28220100000001], [-71.128967, 42.285675000000005], [-71.12794199999999, 42.282665000000016], [-71.126616, 42.281262000000005], [-71.124997, 42.280568], [-71.12387, 42.279247000000005], [-71.123592, 42.278065000000005], [-71.121687, 42.278096999999995], [-71.12087199999999, 42.278617000000004], [-71.11999300000001, 42.278818999999984], [-71.121776, 42.270675999999995], [-71.12143999999999, 42.27038599999999], [-71.121185, 42.270683999999996], [-71.12060699999999, 42.27028399999999], [-71.118391, 42.266842999999994], [-71.11799900000001, 42.26457999999999], [-71.118251, 42.26404499999998], [-71.115493, 42.264587], [-71.110828, 42.266065000000005], [-71.10842, 42.262590999999986], [-71.107743, 42.262975000000004], [-71.10690300000002, 42.261928000000005], [-71.1085, 42.261061000000005], [-71.108891, 42.26123800000001], [-71.10961, 42.26126699999998], [-71.11138799999999, 42.260715000000005], [-71.113277, 42.258911999999995], [-71.109544, 42.255411999999986], [-71.109347, 42.24798999999999], [-71.12637699999999, 42.23916200000001], [-71.125681, 42.237900999999994], [-71.124932, 42.23746499999999], [-71.12435099999999, 42.23653100000001], [-71.122879, 42.235256], [-71.122709, 42.23449900000001], [-71.123272, 42.23419600000001], [-71.124184, 42.234217999999984], [-71.124673, 42.234004999999996], [-71.12483399999999, 42.232624], [-71.12650599999999, 42.23123199999999], [-71.127629, 42.23097200000001], [-71.128438, 42.230056000000005], [-71.128997, 42.229663999999985], [-71.12947199999999, 42.22878300000001], [-71.130173, 42.22856900000001], [-71.130808, 42.22788], [-71.142681, 42.235997999999995], [-71.14453499999999, 42.24510699999999], [-71.144396, 42.24529799999998], [-71.146642, 42.25575500000001], [-71.152312, 42.258336], [-71.155958, 42.256484999999984], [-71.156707, 42.259954999999984], [-71.157761, 42.263738]]]}}