{"type": "Feature", "properties": {"district_name": "31st Middlesex", "chamber": "house", "vintage": "2001-2010"}, "geometry": {"type": "Polygon", "coordinates": [[[-71.10170804487413, 42.501980977682464], [-71.09442995856594, 42.50208894628799], [-71.09009706360828, 42.50149520465431], [-71.09009692235986, 42.50119474322244], [-71.0889980053509, 42.498796144321126], [-71.08739798670237, 42.496095846177255], [-71.08709698455458, 42.49509491362506], [-71.08559692440566, 42.49239494527005], [-71.07989792847202, 42.489696038286425], [-71.07495499227274, 42.48791283512625], [-71.07629708715, 42.48039496067785], [-71.07609705880324, 42.479195191323804], [-71.07659703418015, 42.47729522262057], [-71.07759703760136, 42.477395104054736], [-71.07785303640216, 42.474236115119005], [-71.07819706356256, 42.47359481124], [-71.07839699388201, 42.46889503348057], [-71.07909602841073, 42.46099494131334], [-71.07979600984716, 42.45789494886266], [-71.08009596743122, 42.4552948250589], [-71.08039599561124, 42.45439509142387], [-71.08039608741814, 42.45309476110701], [-71.08199606601283, 42.44399603848064], [-71.08439598878547, 42.44439577509395], [-71.08509599311925, 42.44469483037052], [-71.08569596987401, 42.44469473966558], [-71.10499697839467, 42.44909510376689], [-71.1097969594211, 42.45069481316843], [-71.11149702313077, 42.450994830900285], [-71.1191970254665, 42.45339500198365], [-71.12389708129415, 42.44429523112555], [-71.12379700893507, 42.44349479004716], [-71.12229704961662, 42.4405949552642], [-71.12209700287595, 42.43949484409554], [-71.12549703653474, 42.43929494642039], [-71.12699702344831, 42.438895260486355], [-71.12829693968719, 42.43699482496468], [-71.12879702071005, 42.43549523683421], [-71.12899693533522, 42.43579522115517], [-71.13019696450822, 42.43549523997528], [-71.13119697217944, 42.435495071188996], [-71.13239691881006, 42.43569528423003], [-71.14659803528248, 42.43589504114339], [-71.15559795864384, 42.435795147927294], [-71.16439803559065, 42.4360951470323], [-71.17519896242106, 42.435995022600544], [-71.17669897032073, 42.43629520720729], [-71.17849891700601, 42.4360948685212], [-71.18199892550393, 42.43629476918059], [-71.18099898388822, 42.436994779826485], [-71.17769903785452, 42.4401950462347], [-71.17879899635804, 42.44109501105919], [-71.18239893808556, 42.44349520467367], [-71.18238701688219, 42.44420300645655], [-71.18319891835462, 42.44409496009435], [-71.18373103885624, 42.44448522075418], [-71.1842719651075, 42.44451821431678], [-71.18422096264702, 42.444843862885506], [-71.18587494332935, 42.445092016214524], [-71.18959891116526, 42.449794747729875], [-71.17989907691887, 42.45359489114124], [-71.17852402967283, 42.454001807253306], [-71.16939893989273, 42.4578949366906], [-71.1630980638117, 42.46029501460922], [-71.16239791157341, 42.45949510595793], [-71.15609802451571, 42.456995116227816], [-71.1545980042558, 42.45999526075869], [-71.152297961986, 42.46369517750008], [-71.14239801485039, 42.466895134020504], [-71.13799808528152, 42.46869485547592], [-71.12909802923026, 42.47159521904141], [-71.12379802158513, 42.47349502747263], [-71.11209693970683, 42.47359521042456], [-71.11299700609982, 42.47809504766871], [-71.11329700041891, 42.47869472891476], [-71.11339804186817, 42.48009890877074], [-71.11479690120262, 42.4852969722857], [-71.11569803160917, 42.48949519029826], [-71.11409801888165, 42.48919500897336], [-71.11329802054073, 42.489294731914846], [-71.11339809068518, 42.4921950264584], [-71.11189792300107, 42.49249494714789], [-71.11109707240203, 42.493094862615294], [-71.10959701199897, 42.49309485066267], [-71.10859695320073, 42.492895094422636], [-71.10765906690308, 42.49021476054905], [-71.10625104694152, 42.48982284712543], [-71.10599702482081, 42.488895269815615], [-71.10629696304143, 42.48849512113001], [-71.1047970823483, 42.48769494096776], [-71.10429690965954, 42.48759476322486], [-71.10279706819537, 42.48809487456278], [-71.10199694797285, 42.486795172276075], [-71.10009698297839, 42.486794788684264], [-71.10039696470373, 42.48999512835937], [-71.10059708109335, 42.494894914853674], [-71.10099692065243, 42.49779513086152], [-71.1009970747792, 42.49969524197577], [-71.10170804487413, 42.501980977682464]]]}}