{"type": "Feature", "properties": {"district_name": "14th Worcester", "chamber": "house", "vintage": "2001-2010"}, "geometry": {"type": "Polygon", "coordinates": [[[-71.77721497047412, 42.40039104357478], [-71.76921509544484, 42.400591215984925], [-71.76351495567548, 42.400392277534486], [-71.74361495931986, 42.393591788186335], [-71.74141490719092, 42.392592060003224], [-71.74151495655332, 42.3867918234347], [-71.75121491048702, 42.38369210640237], [-71.75321498974188, 42.38279194580451], [-71.75911491356376, 42.370092184925696], [-71.76011497298045, 42.36459202906237], [-71.76101494555063, 42.35749182280488], [-71.7630149688884, 42.34659214470959], [-71.76381503736226, 42.3279920648818], [-71.76391502494899, 42.317691961334646], [-71.76431501439632, 42.312891922358965], [-71.76681490218668, 42.313291844043775], [-71.7669149683796, 42.3114921531876], [-71.76751491909988, 42.31129212670694], [-71.76821503105838, 42.31129218736561], [-71.763014914082, 42.30319312688815], [-71.76141502479986, 42.30119306632564], [-71.76031496710014, 42.29929312563335], [-71.75881395525401, 42.29719320402049], [-71.75841401736992, 42.29609293593659], [-71.75621406292109, 42.281693128246175], [-71.75581397375814, 42.28019277414648], [-71.75561402533181, 42.27829302406121], [-71.75492793768579, 42.27486103699024], [-71.75513396156505, 42.27427988700053], [-71.75811404839129, 42.274192768591966], [-71.75921392118488, 42.27399278396664], [-71.7615140109747, 42.27409279663078], [-71.76431401151453, 42.27379322260687], [-71.76621500446404, 42.27389293353591], [-71.76711501948587, 42.273692778061395], [-71.76981505415995, 42.27359306062627], [-71.77021496265284, 42.27369283689378], [-71.77461492416077, 42.27349277950869], [-71.77801494093704, 42.27359319357763], [-71.78131501434899, 42.27319296924913], [-71.78341503247172, 42.27319286588276], [-71.78321503936881, 42.277393255343604], [-71.78601499832976, 42.27749322755327], [-71.78611491732349, 42.277893053539444], [-71.79001490992285, 42.277992991741236], [-71.78881507352943, 42.28069297698686], [-71.7897150020321, 42.28059280318334], [-71.79051506272279, 42.28069319138848], [-71.79021497910165, 42.28139280668408], [-71.79221498664317, 42.281993186772766], [-71.79271500638241, 42.28119289873789], [-71.79401497816558, 42.281492862158125], [-71.7927150284094, 42.28349316096672], [-71.79701497208453, 42.28409207511346], [-71.79811507285895, 42.28409203426432], [-71.79821499831056, 42.28089290619511], [-71.7997149491333, 42.28089293644111], [-71.80011504065894, 42.28289224745882], [-71.80401508502294, 42.28179206282269], [-71.80539607788461, 42.28119982896548], [-71.80591506425827, 42.28189224533331], [-71.8084149497944, 42.281591837727746], [-71.80841507808879, 42.282591727435864], [-71.80761495838703, 42.284791727069845], [-71.8068149712635, 42.28609198872918], [-71.80691496270768, 42.28659194527847], [-71.81101504448412, 42.286892087745905], [-71.81098499989946, 42.28810475359012], [-71.81134409252734, 42.28823376594382], [-71.81081497246254, 42.29179193262673], [-71.81147490380654, 42.291949948070474], [-71.81191498311777, 42.29009189048542], [-71.81311601049703, 42.29109189691803], [-71.81391607594685, 42.290892206232456], [-71.81551597323708, 42.29189222231706], [-71.81581606232086, 42.2932919183418], [-71.81641609467755, 42.29389178288363], [-71.81681599629782, 42.295391926089465], [-71.815815957555, 42.295892093392716], [-71.81471608029986, 42.299792269362385], [-71.81571602756574, 42.30169195924903], [-71.81541601487449, 42.30229204697776], [-71.81661599484214, 42.30329200898867], [-71.81681594092753, 42.30409216255201], [-71.8160160746306, 42.304591778244124], [-71.81341596716301, 42.30239205087919], [-71.81211603331278, 42.302591961742145], [-71.81201601995191, 42.3032922129717], [-71.81141597668866, 42.302892084029274], [-71.81061593364505, 42.30309175632169], [-71.80901494535131, 42.30249174989857], [-71.80721506801956, 42.30409178212394], [-71.8069150654645, 42.300491970078035], [-71.80661498757752, 42.299491750519664], [-71.8048979503987, 42.29932020393156], [-71.8026149239721, 42.296892064741385], [-71.8026150433514, 42.29759204457028], [-71.80221496999312, 42.29809219463981], [-71.80211492442275, 42.29849196401027], [-71.80171494276081, 42.29909227887282], [-71.80121497503796, 42.29939181359674], [-71.80081506115971, 42.29989195813035], [-71.80111507697124, 42.302491900081435], [-71.80071497975163, 42.30519214846962], [-71.79901503392718, 42.30859181872594], [-71.79711492822433, 42.31509179464981], [-71.797614925331, 42.31489187840079], [-71.79891496045312, 42.31489188053551], [-71.79981507165316, 42.31529184961578], [-71.80011491815424, 42.31209221847574], [-71.80101495566772, 42.310292086715585], [-71.8017149781715, 42.31079216456555], [-71.80181497748839, 42.31189195241826], [-71.8054150113178, 42.314591756395735], [-71.80771602568844, 42.31499187556614], [-71.81181602977337, 42.31409178512659], [-71.81401598318676, 42.31379207438469], [-71.81781604166903, 42.31449173477013], [-71.81811591032518, 42.313892209976], [-71.8181159863694, 42.313492146326894], [-71.81881598525088, 42.3139921201997], [-71.81971607594768, 42.315491984304096], [-71.8210160820916, 42.316792093019785], [-71.81951602716384, 42.31919217728799], [-71.82071601002373, 42.319592283167346], [-71.82271597885202, 42.31859186156232], [-71.80161506891277, 42.3313922216272], [-71.80261604290746, 42.33499187318494], [-71.8067000745351, 42.34761208787693], [-71.81011593078202, 42.35979223307398], [-71.81766006200816, 42.38463518163315], [-71.82351602685053, 42.40459095581198], [-71.81731591964493, 42.40389081466547], [-71.78761605350407, 42.399191218322635], [-71.78651604342495, 42.39869093344429], [-71.77721497047412, 42.40039104357478]]]}}