{"type": "Feature", "properties": {"district_name": "10th Norfolk District", "chamber": "house", "vintage": "2012-2020"}, "geometry": {"type": "Polygon", "coordinates": [[[-71.455902, 42.034914], [-71.454754, 42.04411699999999], [-71.45468699999999, 42.052223999999995], [-71.45496, 42.06312800000001], [-71.455872, 42.063187], [-71.45527400000002, 42.07275300000001], [-71.453698, 42.072621], [-71.45197399999999, 42.08373300000001], [-71.44659, 42.102137], [-71.44400999999999, 42.117312], [-71.442553, 42.13165000000001], [-71.44197500000001, 42.131709999999984], [-71.441761, 42.13188199999998], [-71.442414, 42.13213], [-71.44206799999999, 42.132747], [-71.442252, 42.133136], [-71.44203399999999, 42.133525], [-71.44275999999999, 42.134085000000006], [-71.442529, 42.13447899999999], [-71.441816, 42.134605999999984], [-71.441346, 42.13489200000001], [-71.441885, 42.135287999999996], [-71.442345, 42.13533199999999], [-71.442403, 42.13566900000002], [-71.44258500000001, 42.13575900000001], [-71.444681, 42.135552000000004], [-71.44266, 42.13693], [-71.44283999999999, 42.140420000000006], [-71.44282, 42.14394000000001], [-71.443309, 42.15243299999998], [-71.44376, 42.168289999999985], [-71.4441, 42.17252999999998], [-71.44406699999999, 42.17488900000001], [-71.430174, 42.179386], [-71.423598, 42.179258], [-71.423326, 42.17798200000002], [-71.415047, 42.178483], [-71.40222, 42.178797999999986], [-71.375618, 42.13545399999999], [-71.376834, 42.13561], [-71.37822, 42.135429], [-71.378989, 42.13579099999999], [-71.37967900000001, 42.135682], [-71.379978, 42.135160000000006], [-71.379994, 42.13459100000001], [-71.379218, 42.13344099999998], [-71.37953399999999, 42.13313799999998], [-71.380248, 42.132966], [-71.380231, 42.132636000000005], [-71.38075800000001, 42.132756], [-71.38109299999999, 42.1326], [-71.381029, 42.13226399999999], [-71.380417, 42.131578], [-71.380398, 42.131375999999996], [-71.38074499999999, 42.13101299999998], [-71.381743, 42.13086600000001], [-71.381841, 42.13028800000001], [-71.382178, 42.12978099999999], [-71.38149700000001, 42.129678], [-71.380798, 42.12907100000001], [-71.38051399999999, 42.128051], [-71.380074, 42.127384], [-71.379982, 42.126549999999995], [-71.367718, 42.107262999999996], [-71.35933299999999, 42.089667000000006], [-71.365303, 42.07622200000002], [-71.388272, 42.04099999999999], [-71.455902, 42.034914]]]}}