{"type": "Feature", "properties": {"district_name": "26th Middlesex District", "chamber": "house", "vintage": "2012-2020"}, "geometry": {"type": "Polygon", "coordinates": [[[-71.106831, 42.37161399999999], [-71.105738, 42.371190000000006], [-71.103937, 42.373417999999994], [-71.104995, 42.37387700000001], [-71.104716, 42.374233999999994], [-71.10305, 42.374018], [-71.103172, 42.374297000000006], [-71.099477, 42.374385999999994], [-71.099204, 42.37496999999999], [-71.100036, 42.375196], [-71.09950599999999, 42.37651599999999], [-71.09788999999999, 42.376644], [-71.09789599999999, 42.375918000000006], [-71.09622999999999, 42.37606], [-71.09558899999999, 42.376972], [-71.095868, 42.377872], [-71.09928, 42.379652000000014], [-71.104309, 42.38094900000001], [-71.103082, 42.38299200000001], [-71.10166699999999, 42.38254], [-71.100403, 42.384362], [-71.099312, 42.383244999999995], [-71.10055, 42.38151000000001], [-71.096684, 42.380053], [-71.096186, 42.379684000000005], [-71.092157, 42.37948099999999], [-71.089741, 42.380109000000004], [-71.09031000000002, 42.38176900000001], [-71.091951, 42.384005000000016], [-71.09373699999999, 42.38579000000001], [-71.09352799999999, 42.386378999999984], [-71.09541999999999, 42.387429999999995], [-71.096284, 42.388304], [-71.093175, 42.38736099999998], [-71.091859, 42.38950200000001], [-71.090623, 42.390964], [-71.090215, 42.390764999999995], [-71.08650899999999, 42.393587000000004], [-71.085748, 42.39288299999997], [-71.08532900000002, 42.39481899999999], [-71.083423, 42.40001299999999], [-71.077152, 42.39677799999999], [-71.075996, 42.39639599999999], [-71.074086, 42.392588], [-71.07349599999999, 42.391795999999985], [-71.076628, 42.387197], [-71.076796, 42.38669600000001], [-71.077096, 42.386495999999994], [-71.07978500000002, 42.382932000000004], [-71.080947, 42.382378], [-71.080595, 42.380996999999994], [-71.075696, 42.38019699999999], [-71.072932, 42.373839], [-71.072728, 42.373321999999995], [-71.072968, 42.37334200000001], [-71.07259499999999, 42.372597000000006], [-71.06709099999999, 42.371843], [-71.065347, 42.370017999999995], [-71.064095, 42.368997], [-71.065827, 42.36909700000001], [-71.065731, 42.368961000000006], [-71.066039, 42.368901], [-71.066195, 42.36909700000001], [-71.069795, 42.36909700000001], [-71.07073799999999, 42.367995], [-71.07311299999999, 42.369131], [-71.075363, 42.366908], [-71.075565, 42.367002], [-71.07673, 42.36574600000001], [-71.082022, 42.36639799999999], [-71.083472, 42.363851], [-71.084389, 42.362713], [-71.083683, 42.362202999999994], [-71.082484, 42.361972000000016], [-71.085219, 42.36237800000001], [-71.090021, 42.362691000000005], [-71.090227, 42.362452], [-71.094852, 42.36016600000001], [-71.097684, 42.361816000000005], [-71.09852699999999, 42.36140400000001], [-71.10193199999999, 42.363418], [-71.102432, 42.36286299999999], [-71.105104, 42.364520999999996], [-71.103146, 42.36634400000002], [-71.10175, 42.36830199999999], [-71.10692, 42.370049], [-71.106493, 42.37067700000001], [-71.107275, 42.37094299999999], [-71.106831, 42.37161399999999]]]}}