{"type": "Feature", "properties": {"district_name": "8th Plymouth", "chamber": "house", "vintage": "2001-2010"}, "geometry": {"type": "Polygon", "coordinates": [[[-71.09379106115274, 42.03859892919712], [-71.08135595817132, 42.0000999448918], [-71.07919001506912, 41.990099864700326], [-71.0554890158717, 41.98549999746225], [-71.05435401471732, 41.98088017543013], [-71.03378793820633, 41.98720019251225], [-71.02748793127662, 41.98930027483855], [-71.02608805567452, 41.989899964750045], [-71.00258708679887, 41.998000063878024], [-70.99038696196885, 42.00389989902592], [-70.98518697947017, 42.00550004498282], [-70.98238697344345, 42.00610021043534], [-70.97858709357946, 42.007199939620875], [-70.97938693251164, 42.01090008239326], [-70.95368592038774, 42.00570110057536], [-70.94178600645822, 42.00660081570603], [-70.93538605533608, 42.00790079305319], [-70.93148598419818, 42.0078010074884], [-70.92548608056458, 42.00890096636845], [-70.9242859465147, 42.00870078821495], [-70.91998602748691, 42.007001028875024], [-70.91738599069622, 42.00470091520489], [-70.91748608128479, 42.00240102173944], [-70.91428504599945, 41.99920079391544], [-70.91378505044625, 41.99830125374954], [-70.91108501981623, 41.99680123638164], [-70.91018504999911, 41.996700934952806], [-70.90828509354239, 41.9961008189655], [-70.89918502113983, 41.996300962389775], [-70.89928502911167, 41.991900998571516], [-70.9012850850386, 41.98260124599718], [-70.91148506107984, 41.98020074023977], [-70.91218498323168, 41.97850097524885], [-70.91218505745455, 41.97790111312304], [-70.90858501893885, 41.97420120944727], [-70.90858492611287, 41.972101125724286], [-70.90718500757593, 41.9706009728044], [-70.90718492729874, 41.96830111672441], [-70.9088850177903, 41.96640116371708], [-70.91088492427879, 41.965800939375825], [-70.9098850605259, 41.964201022103275], [-70.91238490506372, 41.96330116505331], [-70.91378502908773, 41.96330103564114], [-70.91488496652208, 41.962001153713636], [-70.91368494159725, 41.96150093190874], [-70.92018495012405, 41.96210076237593], [-70.92028497660256, 41.963101224731936], [-70.92368507201806, 41.9592007420195], [-70.92828505880716, 41.96030090015691], [-70.93038491253229, 41.96020109238688], [-70.93448491433477, 41.95550077643284], [-70.93708499750231, 41.94960107753099], [-70.93658496091051, 41.94750077996095], [-70.94028506707693, 41.9391011888085], [-70.94298503331629, 41.93670085871159], [-70.94678598873763, 41.93270092327726], [-70.94858603764546, 41.93450077194775], [-70.95168591597518, 41.93450106268414], [-70.95668598589698, 41.934200825054724], [-70.9605860160957, 41.93600088954188], [-70.96558596937673, 41.936800947424985], [-70.96858605431119, 41.938701189304844], [-70.97348602117088, 41.94010086386416], [-70.97578608436427, 41.93960104757821], [-70.97948606194618, 41.94060104564563], [-70.98168602633173, 41.93980072828076], [-70.9848859520692, 41.936500769069085], [-70.9863860957631, 41.935800744846716], [-70.98851007928049, 41.93091684350368], [-70.99188600644098, 41.931500818210736], [-70.9977899246819, 41.93454874387042], [-70.9980459628432, 41.93440525426609], [-70.99849507528978, 41.93390921368908], [-70.99871898092418, 41.93330077339613], [-70.99862207867255, 41.93043721970016], [-70.99948606671728, 41.93002909644878], [-70.99998696920294, 41.92960080353688], [-70.99988696923769, 41.92950076847556], [-71.00014309038217, 41.92905621387929], [-70.99998706380485, 41.92870101618489], [-70.99959301542965, 41.928452818329085], [-70.99925397553325, 41.928445138033425], [-70.99722495093332, 41.9276439121135], [-70.99646206287565, 41.9269191417228], [-70.99576007132009, 41.925333111772616], [-70.99582106553584, 41.9247678406794], [-70.99632505396197, 41.92406610329734], [-70.99665394372734, 41.9239730158753], [-70.99625190817791, 41.922525047003454], [-70.99710206865983, 41.91910912507283], [-70.9970060833663, 41.91728492309572], [-70.9965630147734, 41.91636291475025], [-70.99811191584295, 41.91613901617966], [-70.99744008105019, 41.915658872777364], [-70.99647999832723, 41.91540311108011], [-70.99611194845279, 41.91564289122018], [-70.99606400569833, 41.916347208476424], [-70.99561601184558, 41.91661928114568], [-70.99456003546892, 41.91665118481736], [-70.99396794411165, 41.91642684996239], [-70.99356798055142, 41.916058748943314], [-70.99318398307484, 41.91493891063541], [-70.9930880254594, 41.9139790467095], [-70.99230408941517, 41.910698823471485], [-70.99231994906164, 41.90981879502282], [-70.99276800468256, 41.908138811172016], [-70.99329607977191, 41.90754692007944], [-70.99537001690095, 41.90592026386759], [-70.99597995670061, 41.90480595684276], [-70.99749109624601, 41.90334109178904], [-70.99890991900173, 41.90074698780552], [-71.00080207903622, 41.89785612619003], [-70.9955219542061, 41.89750484399843], [-70.99488203102162, 41.896185241115916], [-70.99520209395439, 41.89314794855356], [-70.99549206892631, 41.8924311948407], [-70.99552190599441, 41.891896739041165], [-70.99366095516051, 41.890141804661525], [-70.99675808177973, 41.884801744163305], [-71.000176035004, 41.88339813961746], [-71.00339595800769, 41.882528150568625], [-71.00446391060939, 41.88209274200148], [-71.00495197133903, 41.88261200770241], [-71.0050740275082, 41.883016005563945], [-71.0049830372978, 41.8832907874639], [-71.0053489220225, 41.883664896897066], [-71.00513502094843, 41.88398528053082], [-71.00507394125904, 41.88501480030605], [-71.00603599611631, 41.88457273229608], [-71.00771404540114, 41.884146117439826], [-71.0079429698034, 41.88490115433424], [-71.00733306690839, 41.8859159279261], [-71.00919506244631, 41.89094288479555], [-71.01209405293363, 41.89041678157472], [-71.01351401453648, 41.89239294030368], [-71.0140320388936, 41.89248405699024], [-71.01574105418604, 41.8922397778395], [-71.01635207817199, 41.89183608217296], [-71.01751092043122, 41.890173074867086], [-71.01853394751681, 41.889432916200526], [-71.02227206295535, 41.889089037179446], [-71.02285189972254, 41.888792093758326], [-71.0238740661983, 41.887754198954255], [-71.02509507338497, 41.88680772540282], [-71.0264840731853, 41.88638075745431], [-71.03121390372931, 41.88596079852399], [-71.03347196937457, 41.88662505917219], [-71.03524496819158, 41.88637794125015], [-71.03644792669576, 41.885503860185956], [-71.037760021889, 41.883855902199755], [-71.03878195865997, 41.88342786522766], [-71.03897795228232, 41.88350406186381], [-71.03882800161715, 41.884740878591245], [-71.03896498200368, 41.88524394769655], [-71.03960600284445, 41.885610053781036], [-71.04055202440107, 41.8856099220345], [-71.04085694926064, 41.88543502137077], [-71.0414839492391, 41.88539702574247], [-71.04279607784301, 41.88427515152], [-71.04374196584152, 41.88376404991909], [-71.0440020884042, 41.88395472237495], [-71.04412404000132, 41.88443521622605], [-71.0434680503267, 41.886236115077274], [-71.04418497391393, 41.88625923822043], [-71.04449000856575, 41.88606800487767], [-71.0450849315207, 41.885381047126394], [-71.04517695660601, 41.88506909846082], [-71.04539003274279, 41.885443036698334], [-71.04592399125822, 41.88530503974125], [-71.0467019361452, 41.885403794632715], [-71.04720596430349, 41.8858998652864], [-71.04772507765499, 41.886021787681756], [-71.0489759690572, 41.8870221881786], [-71.04964704181062, 41.88850198768958], [-71.04952493254486, 41.88889090950088], [-71.04848792115823, 41.88966224333314], [-71.0481669995759, 41.8905011129579], [-71.04781608795092, 41.89081372232801], [-71.04734302049656, 41.891042005229465], [-71.04592400452192, 41.891247953028234], [-71.04601607731658, 41.891988861392335], [-71.04633600845148, 41.89248420316202], [-71.04810601994726, 41.893178869703725], [-71.04801490982997, 41.89341485218754], [-71.04656504477647, 41.894192969622814], [-71.04560403263918, 41.89501016421774], [-71.04476496535374, 41.89507097167901], [-71.04450494299726, 41.89409417468895], [-71.04433705544606, 41.89397983485978], [-71.04331490688651, 41.89439216466858], [-71.04276597904456, 41.894796252687236], [-71.04273492824034, 41.89505610586834], [-71.04325397092698, 41.89587975769538], [-71.04499308037158, 41.89724511281153], [-71.04563408695441, 41.89797807858033], [-71.04604605814328, 41.89959472862579], [-71.04597995921823, 41.8999647366184], [-71.04627505447243, 41.90165519989532], [-71.04746509168648, 41.902646936370736], [-71.04836598505072, 41.90408094127133], [-71.04949497898393, 41.90476797790124], [-71.05303499444739, 41.905142032111975], [-71.05434703530571, 41.90500422952539], [-71.05512493613234, 41.90431005619478], [-71.055216957615, 41.90305104483383], [-71.05550700968428, 41.901990882274426], [-71.05588795567448, 41.901479162987314], [-71.05643807779009, 41.901090205813006], [-71.05692601650787, 41.901219842640884], [-71.05930606678878, 41.90257789212076], [-71.06452506042837, 41.90338685185825], [-71.07792298573705, 41.91962887098319], [-71.07888897546417, 41.92129977936742], [-71.0859889625192, 41.93010021081731], [-71.09128995520423, 41.93700022243434], [-71.09288995391968, 41.93879988107045], [-71.09186700390372, 41.94077418961299], [-71.09153107726543, 41.94062105515677], [-71.09018797197965, 41.94249797419253], [-71.08745704290696, 41.945031063639995], [-71.08721296304354, 41.945534944528134], [-71.08688991388605, 41.94719998004598], [-71.08617506210054, 41.94796775835001], [-71.08586991833192, 41.95008922414786], [-71.08413096353279, 41.95449123814434], [-71.08279006700313, 41.95649975342178], [-71.08149005601797, 41.958900053891306], [-71.08099002231725, 41.959300001731464], [-71.08098995070654, 41.96019978195554], [-71.08119002684195, 41.96089997743324], [-71.08420704385544, 41.96595799856367], [-71.0838100355753, 41.96904811948974], [-71.08139891709385, 41.97364908886708], [-71.08110904380231, 41.97464122599375], [-71.08094104744703, 41.97656284939708], [-71.08135293619766, 41.97854680352931], [-71.08211601273342, 41.97982921210564], [-71.08289496825084, 41.980591723646185], [-71.08477093108313, 41.98163676850839], [-71.08625099867034, 41.983581811733224], [-71.08908996519928, 41.99200014446913], [-71.1017909531201, 41.99480013563331], [-71.10999105835047, 41.995400117274784], [-71.11516807742541, 41.99643786340915], [-71.11716705865284, 41.99666684113265], [-71.12059095947085, 41.997700141607915], [-71.15669308662925, 41.999999249307], [-71.15960890994936, 42.015071768261244], [-71.15638902423102, 42.014707064945064], [-71.15563703136257, 42.01475488919207], [-71.1549330158743, 42.01454681491438], [-71.15536503340716, 42.01342719563357], [-71.1554449104638, 42.01261093693404], [-71.15581307410221, 42.011922727917636], [-71.15479304131033, 42.01179923338161], [-71.15229300170299, 42.01039894346003], [-71.14969308373469, 42.01019912928723], [-71.14527706192085, 42.01300976598909], [-71.14352997154045, 42.013905240786876], [-71.14339292164888, 42.014998725802236], [-71.14169299532647, 42.020098893664446], [-71.13949301612384, 42.022998949852806], [-71.13609208714398, 42.023199202675144], [-71.13409198069762, 42.0235991002809], [-71.12999200630372, 42.02359885018047], [-71.12689202017029, 42.02339915180021], [-71.11999195545482, 42.02359927223926], [-71.11979201719015, 42.026399221077696], [-71.12049202616326, 42.028799264990326], [-71.11929194923496, 42.03009907625058], [-71.12049208700934, 42.03169891373284], [-71.11549205651444, 42.029798826956664], [-71.1137919219595, 42.030399136416435], [-71.11079192344587, 42.032099055584375], [-71.10659203369383, 42.034099199291624], [-71.09829103694352, 42.03559923907896], [-71.09609100501196, 42.036298827118614], [-71.09569095228251, 42.037099274170274], [-71.09379106115274, 42.03859892919712]]]}}