{"type": "Feature", "properties": {"district_name": "2nd Franklin District", "chamber": "house", "vintage": "2012-2020"}, "geometry": {"type": "Polygon", "coordinates": [[[-72.55268199999999, 42.61085800000001], [-72.552775, 42.61327600000001], [-72.55219900000002, 42.615077], [-72.55011, 42.61658999999999], [-72.549329, 42.617491000000015], [-72.54971499999999, 42.618114], [-72.549234, 42.61987200000001], [-72.549853, 42.62071000000002], [-72.54966499999999, 42.622492], [-72.550156, 42.624251], [-72.549983, 42.624683999999995], [-72.549035, 42.625382], [-72.54876, 42.62577600000001], [-72.54934, 42.626457], [-72.550887, 42.62641299999999], [-72.55166, 42.626965], [-72.550604, 42.62876700000001], [-72.550675, 42.629214], [-72.55120200000002, 42.629923000000005], [-72.55118, 42.63028399999999], [-72.550964, 42.630703000000004], [-72.550119, 42.63121200000002], [-72.549711, 42.63204899999998], [-72.548777, 42.63225400000001], [-72.54827, 42.632642], [-72.547131, 42.63423100000001], [-72.546705, 42.63515700000001], [-72.54690099999999, 42.635551], [-72.547558, 42.635782999999996], [-72.54819499999999, 42.63632800000001], [-72.5488, 42.63730799999999], [-72.549011, 42.638009999999994], [-72.548827, 42.63871100000001], [-72.54912399999999, 42.639676], [-72.549049, 42.641213000000015], [-72.547755, 42.64195900000001], [-72.546994, 42.643235], [-72.54606, 42.644274], [-72.545202, 42.644307000000005], [-72.544639, 42.64415699999999], [-72.54404, 42.64424999999997], [-72.54328799999999, 42.64454599999999], [-72.542226, 42.64528000000001], [-72.541988, 42.645256], [-72.541628, 42.644909000000006], [-72.540711, 42.64481700000001], [-72.540371, 42.64505499999999], [-72.540322, 42.645949999999985], [-72.540979, 42.647203999999974], [-72.54099, 42.64792200000002], [-72.541292, 42.64850600000001], [-72.540914, 42.64955], [-72.539896, 42.650763], [-72.54089499999999, 42.651527], [-72.54109799999999, 42.652044000000004], [-72.541018, 42.653845000000004], [-72.540527, 42.656327000000005], [-72.489473, 42.66242499999999], [-72.496234, 42.678540999999996], [-72.49011399999999, 42.67999599999999], [-72.48937699999999, 42.674031], [-72.48654499999999, 42.67327299999998], [-72.485361, 42.675742], [-72.48505399999999, 42.677464000000015], [-72.48250399999999, 42.678096], [-72.48067000000002, 42.67705300000001], [-72.478718, 42.674882999999994], [-72.476776, 42.672380000000004], [-72.47579, 42.67067999999998], [-72.475087, 42.670835999999994], [-72.471811, 42.67010299999999], [-72.472049, 42.668934], [-72.471482, 42.66437], [-72.470345, 42.662588000000014], [-72.465822, 42.65771899999999], [-72.465356, 42.656785], [-72.465087, 42.65496399999999], [-72.465384, 42.653682999999994], [-72.46579799999999, 42.653213], [-72.47037999999999, 42.64919400000001], [-72.47281, 42.647358], [-72.48164799999999, 42.64250999999999], [-72.487195, 42.63812500000001], [-72.488721, 42.636370000000014], [-72.489237, 42.635464000000006], [-72.489548, 42.634181999999996], [-72.489094, 42.633137000000005], [-72.487855, 42.63149200000002], [-72.48041599999999, 42.619307000000006], [-72.479897, 42.61720000000001], [-72.479928, 42.61600999999998], [-72.48155, 42.612011], [-72.48196899999999, 42.61141600000001], [-72.483823, 42.609820000000006], [-72.487415, 42.60851200000001], [-72.48857699999999, 42.60776800000001], [-72.49004, 42.60519499999999], [-72.491, 42.60400800000001], [-72.46165100000002, 42.60647999999999], [-72.46341799999999, 42.619982999999976], [-72.37713099999999, 42.63930799999999], [-72.380089, 42.646519], [-72.380456, 42.64780500000002], [-72.381067, 42.64890600000002], [-72.383202, 42.654101999999995], [-72.412015, 42.72543499999999], [-72.285996, 42.72162599999998], [-72.124526, 42.717637], [-72.111071, 42.71717200000001], [-72.11619, 42.631975], [-72.116631, 42.62660699999999], [-72.075749, 42.625235], [-72.03604, 42.593871000000014], [-72.041853, 42.59196499999998], [-72.041939, 42.59177799999998], [-72.042007, 42.590026], [-72.042227, 42.589378999999994], [-72.04123299999999, 42.58836799999999], [-72.039986, 42.587838999999995], [-72.039562, 42.58681099999999], [-72.038974, 42.586591999999996], [-72.038876, 42.586338000000005], [-72.039541, 42.58544400000002], [-72.040312, 42.585350999999996], [-72.040705, 42.585069000000004], [-72.04151399999999, 42.584872999999995], [-72.042283, 42.58396600000001], [-72.042237, 42.58362499999999], [-72.041626, 42.583245], [-72.04151399999999, 42.582894], [-72.042025, 42.582108], [-72.041646, 42.580890000000004], [-72.042198, 42.580259999999996], [-72.042041, 42.579780999999976], [-72.041338, 42.57942999999999], [-72.040385, 42.578581999999976], [-72.039526, 42.57864799999999], [-72.03783, 42.57832399999998], [-72.037595, 42.577871], [-72.038217, 42.57733000000001], [-72.038207, 42.57715700000001], [-72.03799699999999, 42.577070000000006], [-72.03707399999999, 42.57748599999999], [-72.03580099999999, 42.57891499999999], [-72.03558799999999, 42.57995700000001], [-72.03514899999999, 42.58008], [-72.034402, 42.579904], [-72.03282899999999, 42.578765999999995], [-72.031729, 42.57833599999999], [-72.032243, 42.577231999999995], [-72.032933, 42.576799], [-72.033029, 42.57635900000001], [-72.03289699999999, 42.57611199999997], [-72.032377, 42.575881999999986], [-72.031142, 42.575934999999994], [-72.031426, 42.57460599999999], [-72.031311, 42.57421500000001], [-72.030476, 42.573977000000006], [-72.02967000000001, 42.574242000000005], [-72.02862, 42.573999000000015], [-72.027833, 42.57403600000001], [-72.026928, 42.573301], [-72.02346399999999, 42.573747], [-72.023123, 42.574386000000004], [-72.020038, 42.57551799999999], [-72.019769, 42.57582000000001], [-72.01947899999999, 42.57667], [-72.01845999999999, 42.57656999999999], [-72.01761499999999, 42.575864], [-72.017149, 42.57528599999998], [-72.01702999999999, 42.574434999999994], [-72.016317, 42.57395900000001], [-72.016254, 42.57365400000001], [-72.01696799999999, 42.572979999999994], [-72.017459, 42.572073999999986], [-72.019526, 42.571029], [-72.019641, 42.57073599999999], [-72.018669, 42.570229999999995], [-72.016926, 42.56989600000001], [-72.015053, 42.567879], [-72.02700999999999, 42.563240999999984], [-72.001376, 42.54661], [-72.116734, 42.473753], [-72.132526, 42.463522000000005], [-72.205412, 42.417475], [-72.219168, 42.395588], [-72.229688, 42.400310999999995], [-72.230211, 42.399572], [-72.23109, 42.398900000000005], [-72.233293, 42.39879], [-72.235001, 42.39810399999999], [-72.236519, 42.39725200000001], [-72.236774, 42.396067000000016], [-72.23814800000001, 42.395557000000004], [-72.238512, 42.39526900000001], [-72.23884699999999, 42.394189], [-72.23928699999999, 42.393643999999995], [-72.239081, 42.393145999999994], [-72.23814399999999, 42.392308], [-72.237816, 42.391203], [-72.23798, 42.390690000000006], [-72.238976, 42.390114000000004], [-72.240565, 42.389507], [-72.241021, 42.38908300000001], [-72.240945, 42.38877800000001], [-72.241601, 42.388288], [-72.24226300000001, 42.38810099999999], [-72.244323, 42.38828000000001], [-72.25822099999999, 42.393530999999996], [-72.264118, 42.38662000000001], [-72.26490799999999, 42.38715899999998], [-72.26578599999999, 42.38714800000002], [-72.26595999999999, 42.38727699999998], [-72.266764, 42.388366000000005], [-72.267573, 42.38904600000001], [-72.267927, 42.389995], [-72.26847400000001, 42.390297999999994], [-72.26927599999999, 42.390028999999984], [-72.269784, 42.39035500000001], [-72.270378, 42.39042900000001], [-72.272599, 42.389657], [-72.27286099999999, 42.389136000000015], [-72.272337, 42.388678], [-72.27296299999999, 42.387933000000004], [-72.273247, 42.38711100000001], [-72.273957, 42.385995000000015], [-72.274019, 42.384542], [-72.276748, 42.38294499999999], [-72.278643, 42.38218], [-72.279555, 42.38069099999999], [-72.28002599999999, 42.37928499999998], [-72.280434, 42.378918000000006], [-72.28150099999999, 42.37866499999999], [-72.28185599999999, 42.37824299999999], [-72.281814, 42.377883999999995], [-72.28119, 42.377826999999996], [-72.281013, 42.37766599999999], [-72.28146, 42.37674599999999], [-72.280481, 42.37680399999999], [-72.280931, 42.37613899999999], [-72.280477, 42.37508199999999], [-72.279511, 42.374565999999994], [-72.280287, 42.37376999999999], [-72.28098, 42.372513999999995], [-72.281655, 42.371990999999994], [-72.28207499999999, 42.371885], [-72.282634, 42.372398999999994], [-72.2835, 42.372559999999986], [-72.28361699999999, 42.37238400000001], [-72.28405699999999, 42.37255], [-72.28424199999999, 42.372755999999995], [-72.28410900000002, 42.373176], [-72.284333, 42.37332], [-72.284823, 42.37331100000001], [-72.285063, 42.37315300000001], [-72.285045, 42.369326], [-72.28523799999999, 42.367841000000006], [-72.285152, 42.364604], [-72.28482799999999, 42.36251499999998], [-72.284337, 42.361219], [-72.284637, 42.360885999999994], [-72.285406, 42.360842], [-72.285467, 42.36055699999999], [-72.28461999999999, 42.35978599999999], [-72.285318, 42.358319999999985], [-72.28598099999999, 42.358016], [-72.28595899999999, 42.357817999999995], [-72.28573899999999, 42.35770599999999], [-72.284982, 42.357624], [-72.28401699999999, 42.357229000000004], [-72.283931, 42.356893], [-72.28414, 42.356584000000005], [-72.287438, 42.35533600000002], [-72.28720899999999, 42.35474400000001], [-72.28728699999999, 42.354152000000006], [-72.286301, 42.35363999999999], [-72.286076, 42.353367], [-72.286168, 42.35286399999999], [-72.28643799999999, 42.352698], [-72.287793, 42.35290500000001], [-72.288214, 42.35277500000001], [-72.288433, 42.35250800000001], [-72.288414, 42.352239], [-72.289166, 42.351913], [-72.29040499999999, 42.352133], [-72.29028799999999, 42.351645], [-72.290384, 42.351319000000025], [-72.29118, 42.350989999999996], [-72.29134599999999, 42.351176], [-72.29123899999999, 42.351552999999996], [-72.291574, 42.351748], [-72.29198099999999, 42.351752], [-72.292458, 42.35156299999999], [-72.292677, 42.351287], [-72.293412, 42.35122599999999], [-72.2937, 42.35092700000001], [-72.294094, 42.35097199999999], [-72.294608, 42.35060700000001], [-72.295366, 42.35056300000001], [-72.295765, 42.350297000000005], [-72.296241, 42.349504], [-72.297693, 42.349088], [-72.298157, 42.34906600000002], [-72.298707, 42.349272], [-72.299117, 42.34904100000001], [-72.299671, 42.34901999999999], [-72.300311, 42.34858], [-72.301126, 42.34841099999999], [-72.301638, 42.347474999999996], [-72.3027, 42.346762], [-72.303927, 42.34558], [-72.305142, 42.345187], [-72.305284, 42.34549000000001], [-72.30483, 42.34565400000002], [-72.304839, 42.34579700000001], [-72.305545, 42.346096999999986], [-72.306382, 42.346053], [-72.30642000000002, 42.34581], [-72.306175, 42.345556], [-72.306269, 42.34532999999999], [-72.30703000000001, 42.34507600000001], [-72.30695399999999, 42.344848999999996], [-72.30653699999999, 42.344812000000005], [-72.306417, 42.344525999999995], [-72.306794, 42.344244], [-72.30806, 42.34422899999999], [-72.308786, 42.34402499999999], [-72.308859, 42.34436100000001], [-72.30838299999999, 42.344491], [-72.30863500000001, 42.34498899999999], [-72.309331, 42.344549], [-72.309505, 42.34421500000001], [-72.30933999999999, 42.34392799999998], [-72.309411, 42.343728000000006], [-72.309763, 42.343638], [-72.31021299999999, 42.34375099999999], [-72.310446, 42.343266], [-72.310913, 42.343067999999995], [-72.311521, 42.343132000000004], [-72.31233, 42.34275199999999], [-72.312811, 42.343067], [-72.313579, 42.34307299999998], [-72.313799, 42.343461], [-72.314179, 42.34367399999999], [-72.314599, 42.343526], [-72.314841, 42.343216999999996], [-72.314606, 42.340934], [-72.314933, 42.33954299999998], [-72.315647, 42.339389], [-72.316859, 42.339844000000014], [-72.317494, 42.339688999999986], [-72.318134, 42.33919900000001], [-72.31994000000002, 42.33707400000001], [-72.320048, 42.336663000000016], [-72.321969, 42.33515099999999], [-72.323061, 42.333884000000005], [-72.32316999999999, 42.33341500000001], [-72.323075, 42.33297700000001], [-72.322386, 42.332283999999994], [-72.32258399999999, 42.331168999999996], [-72.323084, 42.330972], [-72.324643, 42.330892], [-72.324985, 42.330676], [-72.325711, 42.329062], [-72.326079, 42.328628], [-72.32612, 42.328141999999986], [-72.324741, 42.326805], [-72.32458, 42.326215999999995], [-72.324754, 42.32595699999999], [-72.325884, 42.325177000000004], [-72.326336, 42.325131], [-72.326448, 42.32518999999999], [-72.326499, 42.32623100000001], [-72.326909, 42.326738000000006], [-72.32739400000001, 42.32679200000002], [-72.328032, 42.326395000000005], [-72.328336, 42.325768], [-72.328267, 42.325104], [-72.3274, 42.323477], [-72.327225, 42.32241], [-72.327351, 42.321529999999996], [-72.327161, 42.32069699999999], [-72.327344, 42.319800000000015], [-72.328127, 42.318791], [-72.32884299999999, 42.318503], [-72.328884, 42.319477], [-72.32950199999999, 42.31971699999999], [-72.330857, 42.319669], [-72.333193, 42.31902399999999], [-72.33377, 42.318164], [-72.334805, 42.31765200000001], [-72.334682, 42.316879], [-72.335157, 42.31608499999999], [-72.33492799999999, 42.315563], [-72.33500099999999, 42.31522800000002], [-72.336925, 42.314848], [-72.337936, 42.314462000000006], [-72.339112, 42.31430299999999], [-72.34016, 42.31446200000002], [-72.341989, 42.31443499999998], [-72.342399, 42.314169], [-72.343597, 42.31188699999999], [-72.344475, 42.311280999999994], [-72.345201, 42.311035000000004], [-72.346316, 42.30975099999999], [-72.348402, 42.309112999999996], [-72.34894299999999, 42.309208999999996], [-72.350326, 42.310278], [-72.35095799999999, 42.310316], [-72.351458, 42.310067999999994], [-72.351463, 42.30974099999998], [-72.3508, 42.308795999999994], [-72.349864, 42.30874600000001], [-72.34961799999999, 42.30858500000001], [-72.349668, 42.308283], [-72.350146, 42.30802699999999], [-72.35196499999999, 42.30787299999999], [-72.35260000000002, 42.30767600000001], [-72.352774, 42.307391999999986], [-72.352429, 42.307071], [-72.35195500000002, 42.30704199999999], [-72.351238, 42.30743899999998], [-72.350855, 42.30739399999998], [-72.350197, 42.306877000000014], [-72.34979, 42.30616899999999], [-72.349555, 42.30528599999999], [-72.34989399999999, 42.30451600000001], [-72.35074900000001, 42.303960999999994], [-72.351495, 42.30389900000001], [-72.351745, 42.30448900000001], [-72.3516, 42.30591499999999], [-72.35196599999999, 42.306354000000006], [-72.352316, 42.306289], [-72.354017, 42.30576500000001], [-72.354852, 42.305074999999995], [-72.35601799999999, 42.30328300000001], [-72.354186, 42.302747], [-72.353646, 42.302353], [-72.353734, 42.30207], [-72.354664, 42.301035999999996], [-72.354896, 42.29984600000001], [-72.35486, 42.29922500000001], [-72.35452599999999, 42.29895399999998], [-72.352812, 42.29884799999999], [-72.351886, 42.29850599999999], [-72.350708, 42.298414], [-72.350824, 42.298220000000015], [-72.35168399999999, 42.29802499999999], [-72.35202699999999, 42.297750999999984], [-72.352375, 42.297149000000005], [-72.35263499999999, 42.29573399999999], [-72.352199, 42.29543299999998], [-72.350596, 42.29501199999999], [-72.35004099999999, 42.29464799999999], [-72.348631, 42.29458599999999], [-72.348531, 42.29419299999998], [-72.348805, 42.29215299999999], [-72.348788, 42.290994999999995], [-72.349797, 42.288663], [-72.350214, 42.287019], [-72.35067599999999, 42.286266999999995], [-72.350872, 42.285278], [-72.350742, 42.28491599999997], [-72.350276, 42.284384], [-72.349862, 42.28421499999999], [-72.348445, 42.283792], [-72.34679, 42.283609999999996], [-72.345567, 42.28312200000001], [-72.344427, 42.28239699999999], [-72.34633199999999, 42.280575], [-72.34716, 42.280303999999994], [-72.348945, 42.28006200000001], [-72.34984399999999, 42.279616999999995], [-72.352184, 42.276571000000004], [-72.354188, 42.27669800000001], [-72.36326199999999, 42.275950999999985], [-72.369385, 42.276845], [-72.371442, 42.27740399999999], [-72.376735, 42.279530999999984], [-72.37812, 42.280287], [-72.380811, 42.282192], [-72.383679, 42.28336699999999], [-72.385457, 42.283818000000004], [-72.39006499999999, 42.28438400000002], [-72.390202, 42.284162], [-72.39211499999999, 42.283435], [-72.394207, 42.28190100000001], [-72.397111, 42.28094099999999], [-72.39748399999999, 42.28054800000001], [-72.398425, 42.278685], [-72.40129499999999, 42.27652099999999], [-72.402866, 42.275752999999995], [-72.406016, 42.27485799999999], [-72.41277, 42.27178699999999], [-72.41407699999999, 42.27090099999999], [-72.41552399999999, 42.269254999999994], [-72.416389, 42.26871799999999], [-72.420484, 42.267564], [-72.42159199999999, 42.267509], [-72.422395, 42.267779000000004], [-72.423575, 42.268820000000005], [-72.424611, 42.269238], [-72.425489, 42.269249999999985], [-72.428263, 42.268798999999994], [-72.430914, 42.26880899999999], [-72.43109799999999, 42.26999000000001], [-72.432054, 42.273201], [-72.431418, 42.275492], [-72.431538, 42.276927000000015], [-72.430613, 42.278661], [-72.42938199999999, 42.280213], [-72.429154, 42.28104200000002], [-72.427492, 42.28177399999999], [-72.425392, 42.283678], [-72.423473, 42.284132], [-72.422591, 42.284946], [-72.420898, 42.285440999999985], [-72.422656, 42.287326], [-72.42352199999999, 42.288630000000005], [-72.423925, 42.289575], [-72.424724, 42.292702999999996], [-72.424694, 42.29421500000001], [-72.424381, 42.295483000000026], [-72.422798, 42.297945000000006], [-72.4225, 42.29879400000001], [-72.422524, 42.300187], [-72.422915, 42.301370000000006], [-72.421764, 42.30134999999999], [-72.420978, 42.30108800000001], [-72.418223, 42.30133099999999], [-72.409617, 42.30294599999999], [-72.40635499999999, 42.302279], [-72.406086, 42.304431000000015], [-72.406498, 42.31008799999999], [-72.406168, 42.315000000000005], [-72.406441, 42.32065100000002], [-72.40619199999999, 42.3218], [-72.405648, 42.32298000000002], [-72.40407499999999, 42.325430999999995], [-72.402331, 42.32774599999999], [-72.40169, 42.32920499999998], [-72.40157599999999, 42.33082199999998], [-72.402356, 42.336884999999995], [-72.39347, 42.338168999999986], [-72.393708, 42.339296], [-72.38404, 42.34025], [-72.378568, 42.34069799999999], [-72.355396, 42.34067800000002], [-72.35524, 42.34090000000001], [-72.355541, 42.341153999999996], [-72.355417, 42.341992000000005], [-72.356112, 42.34235], [-72.355597, 42.34275700000001], [-72.355261, 42.342595], [-72.355041, 42.34287899999999], [-72.35526, 42.34337599999999], [-72.355605, 42.34372300000001], [-72.35629, 42.34323300000001], [-72.356482, 42.34328499999998], [-72.356454, 42.343637], [-72.356643, 42.343848], [-72.35705899999999, 42.34392699999999], [-72.357871, 42.34475599999999], [-72.358791, 42.345190999999986], [-72.35922599999999, 42.34553], [-72.35941199999999, 42.34595899999999], [-72.359284, 42.34623500000001], [-72.359024, 42.346191], [-72.358679, 42.34584499999998], [-72.358587, 42.345978], [-72.358548, 42.34633899999998], [-72.358997, 42.347265], [-72.35834799999999, 42.34763799999999], [-72.35806, 42.348005], [-72.358611, 42.348161], [-72.358909, 42.34863300000001], [-72.358758, 42.348925], [-72.35815, 42.348803], [-72.358254, 42.349391999999995], [-72.35840999999999, 42.34949400000001], [-72.359304, 42.349399999999996], [-72.359472, 42.349485], [-72.359436, 42.34964400000002], [-72.35901199999999, 42.350044], [-72.35852899999999, 42.349838999999996], [-72.357993, 42.35016999999998], [-72.356794, 42.35029499999998], [-72.35642899999999, 42.350569], [-72.356583, 42.35079700000001], [-72.35736899999999, 42.351172999999996], [-72.356757, 42.35130200000001], [-72.356627, 42.35163699999999], [-72.357626, 42.352089], [-72.357856, 42.35255299999999], [-72.357869, 42.353182], [-72.357599, 42.353095999999994], [-72.357314, 42.35331199999998], [-72.35730699999999, 42.35374899999999], [-72.357542, 42.35394399999999], [-72.35724100000002, 42.35439499999999], [-72.35765599999999, 42.35459900000001], [-72.357754, 42.354876999999995], [-72.358171, 42.354914], [-72.35874799999999, 42.355606], [-72.358606, 42.35606699999999], [-72.358935, 42.356682], [-72.358053, 42.357490000000006], [-72.357985, 42.358261000000006], [-72.357219, 42.358860000000014], [-72.357305, 42.35917099999999], [-72.357174, 42.359615], [-72.35780299999999, 42.360651999999995], [-72.35775, 42.361138], [-72.357901, 42.36159299999999], [-72.358389, 42.362251], [-72.357941, 42.36270900000002], [-72.358295, 42.363223999999995], [-72.359135, 42.363708999999986], [-72.359163, 42.36411200000003], [-72.35851699999999, 42.365021999999996], [-72.357637, 42.36491399999999], [-72.35728399999999, 42.365062999999985], [-72.357044, 42.36526199999999], [-72.35698, 42.365749], [-72.356282, 42.36639799999999], [-72.356931, 42.366814000000005], [-72.357992, 42.366864], [-72.35854300000001, 42.36705299999999], [-72.359354, 42.367965999999996], [-72.360674, 42.36883199999998], [-72.360564, 42.369409999999995], [-72.360694, 42.369789000000004], [-72.36106199999999, 42.37009399999998], [-72.360505, 42.370307999999994], [-72.360468, 42.370493], [-72.360681, 42.37060299999998], [-72.360598, 42.37087100000001], [-72.36078599999999, 42.37115000000001], [-72.36127200000001, 42.37115300000002], [-72.36137099999999, 42.37131399999998], [-72.361255, 42.37154799999999], [-72.36276, 42.37217199999999], [-72.363843, 42.373774999999995], [-72.36358299999999, 42.374537], [-72.364336, 42.375186], [-72.363857, 42.375679000000005], [-72.364383, 42.376043], [-72.364211, 42.37631], [-72.363749, 42.37634199999999], [-72.363643, 42.376760999999995], [-72.36407299999999, 42.377601999999996], [-72.363873, 42.378415], [-72.364187, 42.378585000000015], [-72.36422999999999, 42.37877], [-72.36446699999999, 42.37874600000001], [-72.364637, 42.37857900000001], [-72.364485, 42.378083], [-72.365098, 42.37770799999999], [-72.365672, 42.37777800000003], [-72.366163, 42.37820800000001], [-72.366525, 42.379090999999995], [-72.366688, 42.38075400000001], [-72.366559, 42.381198000000005], [-72.366002, 42.381631999999996], [-72.365269, 42.38174599999999], [-72.36485499999999, 42.381458000000016], [-72.363736, 42.38174700000001], [-72.36371199999999, 42.38189799999999], [-72.36515, 42.382291], [-72.365664, 42.38267099999998], [-72.36702199999999, 42.384263999999995], [-72.36712899999999, 42.384868999999995], [-72.366968, 42.385145000000016], [-72.365532, 42.385600000000004], [-72.36376, 42.386816], [-72.364133, 42.38779199999999], [-72.364378, 42.388045000000005], [-72.36578200000001, 42.388521999999995], [-72.36603699999999, 42.388968], [-72.36594699999999, 42.389966000000015], [-72.365568, 42.390626999999995], [-72.36573500000002, 42.39081299999999], [-72.36676899999999, 42.39107], [-72.366857, 42.391347], [-72.36660599999999, 42.391631000000004], [-72.366648, 42.39192499999999], [-72.367233, 42.391945], [-72.367693, 42.39215699999999], [-72.367901, 42.392804], [-72.36739399999999, 42.39275100000001], [-72.367224, 42.39286], [-72.367232, 42.393153000000005], [-72.367807, 42.394155], [-72.367138, 42.394521], [-72.367543, 42.394674], [-72.367573, 42.39500999999999], [-72.368222, 42.39540799999999], [-72.368877, 42.39635099999999], [-72.368785, 42.396509999999985], [-72.36845799999999, 42.396549999999976], [-72.368352, 42.396953], [-72.367897, 42.397328000000016], [-72.36809199999999, 42.39815899999999], [-72.368554, 42.39816099999999], [-72.36898, 42.39839], [-72.368787, 42.39949700000001], [-72.36933400000001, 42.40007899999999], [-72.36940899999999, 42.40040599999998], [-72.368599, 42.401267000000004], [-72.368651, 42.40175399999998], [-72.36837400000002, 42.40230699999998], [-72.367615, 42.40270599999999], [-72.366643, 42.402928], [-72.366605, 42.403279999999995], [-72.36759599999999, 42.40449299999999], [-72.36786099999999, 42.404998], [-72.367756, 42.40528299999999], [-72.367922, 42.405603000000006], [-72.368605, 42.406009000000005], [-72.36907099999999, 42.40677499999998], [-72.36939699999999, 42.40682699999999], [-72.369473, 42.40714599999999], [-72.370096, 42.40793], [-72.37027499999999, 42.408057], [-72.370884, 42.40804299999998], [-72.37151899999999, 42.40869199999998], [-72.37115200000001, 42.40932799999999], [-72.369917, 42.409918000000005], [-72.369856, 42.410278999999996], [-72.37041300000001, 42.41097], [-72.370873, 42.411173999999995], [-72.371207, 42.41158600000001], [-72.372284, 42.412094999999994], [-72.373008, 42.41291299999998], [-72.37359, 42.41331899999999], [-72.37348, 42.41409900000001], [-72.372455, 42.41509199999999], [-72.37207599999999, 42.415712], [-72.372173, 42.416191], [-72.372585, 42.416637], [-72.37338199999999, 42.41698499999999], [-72.37432799999999, 42.417124], [-72.37408599999999, 42.41760999999999], [-72.37556800000002, 42.41919500000001], [-72.37544799999999, 42.420429999999996], [-72.37485699999999, 42.42047700000001], [-72.37604700000001, 42.422706], [-72.376639, 42.424659], [-72.37631999999999, 42.425583], [-72.374802, 42.42703], [-72.374572, 42.427583], [-72.374611, 42.428241], [-72.37509299999999, 42.43000899999999], [-72.376217, 42.430917], [-72.37629299999999, 42.432016000000004], [-72.375965, 42.43287800000002], [-72.375937, 42.434667000000005], [-72.37563999999999, 42.43638000000002], [-72.37610699999999, 42.43681900000001], [-72.378548, 42.438083], [-72.378826, 42.438108], [-72.37920799999999, 42.437807000000014], [-72.379531, 42.437905999999984], [-72.380569, 42.43899200000002], [-72.38022099999999, 42.439533999999995], [-72.37992299999999, 42.439543], [-72.37951, 42.43981499999998], [-72.379265, 42.440304999999995], [-72.37911199999999, 42.44095600000001], [-72.379849, 42.443988000000004], [-72.379524, 42.444964000000006], [-72.37874099999999, 42.445195], [-72.378489, 42.44542099999998], [-72.378281, 42.44573499999998], [-72.378242, 42.44641100000001], [-72.379388, 42.44765800000001], [-72.37941599999999, 42.44816499999998], [-72.379181, 42.448872], [-72.379312, 42.44930199999998], [-72.38069, 42.45110300000001], [-72.381121, 42.45204], [-72.38229299999999, 42.45364100000001], [-72.382385, 42.45421300000001], [-72.38177, 42.454957000000014], [-72.3819, 42.45666200000001], [-72.382461, 42.45776099999999], [-72.38242799999999, 42.458248], [-72.381151, 42.459492], [-72.38101999999999, 42.460544000000006], [-72.38176, 42.461802000000006], [-72.382037, 42.463059], [-72.382291, 42.46315600000001], [-72.383049, 42.46398999999998], [-72.38477499999999, 42.464635000000015], [-72.36853099999999, 42.464483], [-72.368543, 42.49431399999998], [-72.368415, 42.502509], [-72.440929, 42.510410999999976], [-72.439607, 42.51858599999999], [-72.45964099999999, 42.51642699999998], [-72.452685, 42.55501599999999], [-72.45325, 42.555766000000006], [-72.453987, 42.557708999999996], [-72.45406, 42.559033], [-72.45526199999999, 42.560668], [-72.456203, 42.561377], [-72.457717, 42.56203000000001], [-72.45825599999999, 42.56262499999999], [-72.459182, 42.563163], [-72.459937, 42.564306], [-72.460912, 42.564833], [-72.460954, 42.56559799999999], [-72.461756, 42.566592], [-72.46243500000001, 42.56702699999999], [-72.462525, 42.56820299999998], [-72.463141, 42.56904900000001], [-72.463371, 42.569780000000016], [-72.464274, 42.570733999999995], [-72.46378299999999, 42.571905000000015], [-72.464229, 42.57316100000001], [-72.46396399999999, 42.574006000000004], [-72.465851, 42.57619], [-72.466104, 42.57671800000001], [-72.470432, 42.574512], [-72.472932, 42.57394499999999], [-72.473554, 42.573955999999995], [-72.47474799999999, 42.574207], [-72.475512, 42.57463400000001], [-72.476346, 42.57534500000003], [-72.47724699999999, 42.57667600000001], [-72.479123, 42.57825800000002], [-72.480054, 42.57883199999999], [-72.481428, 42.579201999999995], [-72.482962, 42.579138000000015], [-72.48415899999999, 42.578494000000006], [-72.487833, 42.578354000000004], [-72.490045, 42.578800000000015], [-72.491857, 42.580188], [-72.493146, 42.580698999999996], [-72.494227, 42.58075799999999], [-72.49569799999999, 42.58060799999999], [-72.496054, 42.580323], [-72.497608, 42.58010900000001], [-72.499544, 42.57961000000001], [-72.500941, 42.579480000000025], [-72.502248, 42.579613999999985], [-72.50350999999999, 42.580368], [-72.50371799999999, 42.580954], [-72.501513, 42.582666999999994], [-72.497928, 42.585944000000005], [-72.497664, 42.586416], [-72.49761099999999, 42.587188], [-72.497849, 42.588048], [-72.498228, 42.58851999999999], [-72.498225, 42.588809000000005], [-72.497856, 42.58968799999999], [-72.49743699999999, 42.590298000000004], [-72.49642399999999, 42.59114799999999], [-72.495077, 42.59272900000001], [-72.496116, 42.593474000000015], [-72.49645, 42.593959999999996], [-72.496152, 42.595141999999996], [-72.496156, 42.596298], [-72.49637799999999, 42.59689600000001], [-72.49707099999999, 42.59756900000001], [-72.498621, 42.596857000000014], [-72.500306, 42.596771], [-72.502996, 42.59849], [-72.50445599999999, 42.599889999999995], [-72.505506, 42.601952999999995], [-72.50562800000002, 42.60302699999999], [-72.506039, 42.60352900000001], [-72.507632, 42.60389500000001], [-72.51327599999999, 42.60444800000001], [-72.513382, 42.60430699999998], [-72.52015399999999, 42.60450599999999], [-72.522071, 42.604395000000004], [-72.523766, 42.603914999999986], [-72.528887, 42.600833999999985], [-72.531909, 42.59934600000002], [-72.539172, 42.596751], [-72.54109799999999, 42.59639899999999], [-72.542205, 42.59646600000001], [-72.543059, 42.596636], [-72.54423, 42.597155000000015], [-72.545065, 42.598031999999996], [-72.545279, 42.598548], [-72.545456, 42.599932], [-72.54543, 42.60353500000001], [-72.54578099999999, 42.604763], [-72.54613900000001, 42.605366000000004], [-72.54704, 42.606144], [-72.549421, 42.607472], [-72.550328, 42.60820000000002], [-72.552347, 42.61032900000001], [-72.55268199999999, 42.61085800000001]]]}}