{"type": "Feature", "properties": {"district_name": "8th Norfolk", "chamber": "house", "vintage": "2001-2010"}, "geometry": {"type": "Polygon", "coordinates": [[[-71.17766502277098, 42.163735164765136], [-71.17572891020016, 42.15564483539], [-71.17640308428389, 42.15524103821469], [-71.1715590866784, 42.15127316146446], [-71.16210797400711, 42.14516683565277], [-71.16332691017391, 42.14141326014268], [-71.1443960423118, 42.13749989028783], [-71.13914800543691, 42.13993574336302], [-71.13868407006893, 42.141911050654485], [-71.1386010503714, 42.1395941475756], [-71.13518300960625, 42.13846184709361], [-71.1315779186664, 42.137824030439866], [-71.13132095957877, 42.13627914720491], [-71.1328610547654, 42.13391173542539], [-71.1334269119555, 42.13381281856697], [-71.13383505629865, 42.13173099604484], [-71.1313849042048, 42.13132024490248], [-71.12989495333103, 42.13060025062495], [-71.13169402970142, 42.12699911692014], [-71.13159401581203, 42.12589927206918], [-71.12819398481236, 42.12399872924505], [-71.11889300185122, 42.12169877759077], [-71.11949301013678, 42.12149876540846], [-71.11859298094738, 42.11649895357077], [-71.11929295208132, 42.11499885915509], [-71.1194929865813, 42.113999033867685], [-71.12029296894215, 42.112699020998356], [-71.11929291719738, 42.11219883748545], [-71.11569409227747, 42.11079974696493], [-71.11319392743626, 42.11229995031333], [-71.11119395257067, 42.11299993797577], [-71.10779294930008, 42.11369903712933], [-71.10719292661636, 42.113999158700416], [-71.10579297412626, 42.11419917470523], [-71.1041940256824, 42.11410025223803], [-71.10059294149939, 42.11459924868761], [-71.10069403954219, 42.11700010352003], [-71.09549397938825, 42.1203001402561], [-71.09699403716824, 42.12179997204425], [-71.09849299831937, 42.122199128480396], [-71.09929299363498, 42.1225991990252], [-71.10019303997846, 42.12319881069246], [-71.1013930576906, 42.124299141163974], [-71.10009294736112, 42.1248989558655], [-71.09709307475156, 42.12679882495478], [-71.09439302836549, 42.129099206684465], [-71.0928930278309, 42.12889919132418], [-71.08699301111503, 42.12909921586792], [-71.08419306530583, 42.129700187287256], [-71.07819291872117, 42.12860011376575], [-71.07499201827412, 42.12759904972533], [-71.07329205004612, 42.126798758529596], [-71.07219195382274, 42.12809900797419], [-71.0724919892316, 42.12869884644989], [-71.07125808655255, 42.13027093685305], [-71.0705579532449, 42.12987104505014], [-71.06919196000281, 42.125999004248854], [-71.06569202010652, 42.11739889314718], [-71.06169097411956, 42.108098986751884], [-71.0612909388368, 42.10619887965481], [-71.0619910904736, 42.10339927410839], [-71.06769104065278, 42.10119879182188], [-71.0758919302532, 42.0972989427702], [-71.1274929098727, 42.07709883159536], [-71.14174100343627, 42.07196401475872], [-71.1438839548575, 42.07110019616249], [-71.14439296271998, 42.07059927567501], [-71.14721298173735, 42.069823027683334], [-71.16859498234645, 42.06170177727028], [-71.16169290405013, 42.02619880715579], [-71.18339393548337, 42.02979924571601], [-71.18542194103512, 42.030983154563], [-71.18749406192899, 42.03149921564194], [-71.18659392189731, 42.033198945752986], [-71.18617004099526, 42.034552788594695], [-71.18603304403989, 42.035621002651204], [-71.18629401795897, 42.038299089812774], [-71.18679491783219, 42.03939887049532], [-71.18799500766636, 42.03919900665279], [-71.18853596610435, 42.04075580849504], [-71.1895949592298, 42.04189873462488], [-71.19094695114468, 42.04392196079341], [-71.19074907468116, 42.0459589899884], [-71.19103896566797, 42.04852291498598], [-71.19236105013334, 42.05161517813749], [-71.19230304472815, 42.052290839223126], [-71.17801390233903, 42.05797089674284], [-71.18421206842685, 42.06692677118299], [-71.19356202285796, 42.079429079510184], [-71.19594195344649, 42.083207804672824], [-71.19743802848976, 42.08212799645698], [-71.20112308120018, 42.07880195466763], [-71.20575591820469, 42.0751687452044], [-71.21188994327561, 42.080298774338594], [-71.22538208825556, 42.0923321729142], [-71.22651000923992, 42.09312885239085], [-71.22717099550617, 42.093981237776724], [-71.22899293961885, 42.09565510224145], [-71.23818796023099, 42.10385314065463], [-71.23880791471248, 42.1047818907591], [-71.23879898109881, 42.10663091239193], [-71.24654402741888, 42.106370894928965], [-71.25245508253872, 42.105759222019856], [-71.25538291947558, 42.104713258049664], [-71.25746907010485, 42.10376672665448], [-71.26311704126688, 42.10182821891453], [-71.26322005287291, 42.10510505422358], [-71.26345290992435, 42.10608913934826], [-71.26532096012677, 42.110466862058665], [-71.26538005296896, 42.11201103743903], [-71.26515495815897, 42.11341002032217], [-71.26208398637762, 42.12708407807495], [-71.25922400085535, 42.13661024838667], [-71.2537590407625, 42.144721201905185], [-71.2541110369781, 42.14515580328781], [-71.25575301751203, 42.14621718869649], [-71.25464804320387, 42.14696997096995], [-71.23992597090994, 42.147389921707784], [-71.23758390934161, 42.14764004910583], [-71.23662603989291, 42.14791807641363], [-71.23006205719854, 42.14560811657301], [-71.22819598651535, 42.145334735989024], [-71.22604906819375, 42.14456772892417], [-71.21821504975755, 42.140125911965654], [-71.21466104438409, 42.140535767706815], [-71.21011303601466, 42.14241783698648], [-71.20626900132451, 42.14431617143544], [-71.18649695233997, 42.153299070678585], [-71.18717499766092, 42.15535084342324], [-71.18844997300033, 42.16075398062281], [-71.18801100236648, 42.16108590484372], [-71.18655400286403, 42.161195028603004], [-71.18564807201747, 42.161930809627336], [-71.18458990716255, 42.16225089269724], [-71.18286402476606, 42.16379299623334], [-71.18050093722296, 42.16531078273783], [-71.17978799538574, 42.16622486784472], [-71.17950797484872, 42.1654711940926], [-71.17776006935146, 42.16605600343136], [-71.17766502277098, 42.163735164765136]]]}}