{"type": "Feature", "properties": {"district_name": "5th Bristol District", "chamber": "house", "vintage": "2022-present"}, "geometry": {"type": "Polygon", "coordinates": [[[-71.227249, 41.72688800000001], [-71.226708, 41.727133], [-71.224555, 41.726819000000006], [-71.226479, 41.72760099999999], [-71.226518, 41.727880000000006], [-71.226129, 41.728837000000006], [-71.226603, 41.72986900000001], [-71.225939, 41.730404], [-71.225813, 41.730782000000005], [-71.225464, 41.73072700000001], [-71.225193, 41.731157], [-71.224897, 41.73108800000001], [-71.22435600000001, 41.731359], [-71.224372, 41.73095399999999], [-71.224656, 41.73079900000001], [-71.224556, 41.730624], [-71.224247, 41.73072100000001], [-71.223131, 41.73059499999999], [-71.222991, 41.73041799999999], [-71.22276, 41.730509999999995], [-71.223027, 41.73172], [-71.222905, 41.732167], [-71.223109, 41.738744000000004], [-71.223598, 41.745104000000005], [-71.2245, 41.749506], [-71.225089, 41.75103700000002], [-71.224599, 41.752819], [-71.224171, 41.756325000000004], [-71.225114, 41.76160399999999], [-71.21194, 41.76359299999998], [-71.211325, 41.76337], [-71.211226, 41.763534], [-71.210974, 41.76335000000001], [-71.210905, 41.76355900000001], [-71.210737, 41.76358399999998], [-71.21036300000002, 41.76324900000001], [-71.210263, 41.76172900000001], [-71.209682, 41.76088000000001], [-71.209751, 41.76061799999999], [-71.209285, 41.76019400000001], [-71.209041, 41.75955099999999], [-71.209162, 41.75909299999999], [-71.208811, 41.75879], [-71.208589, 41.758005999999995], [-71.208742, 41.75693600000001], [-71.208306, 41.756800000000005], [-71.208596, 41.75618600000001], [-71.208528, 41.75519200000001], [-71.208291, 41.7544], [-71.208336, 41.753745999999985], [-71.208107, 41.75340799999999], [-71.207695, 41.75352899999999], [-71.207717, 41.751682], [-71.207114, 41.751535999999994], [-71.206633, 41.751675999999996], [-71.206533, 41.751353], [-71.206113, 41.751270999999996], [-71.205212, 41.750717], [-71.204849, 41.75015599999998], [-71.204823, 41.75031899999998], [-71.204235, 41.75065899999999], [-71.203911, 41.750305999999995], [-71.203125, 41.75079000000001], [-71.20248, 41.75095100000001], [-71.196075, 41.75162499999998], [-71.195437, 41.749209000000015], [-71.192837, 41.74948599999999], [-71.192849, 41.750228], [-71.193943, 41.751535999999994], [-71.193242, 41.75167999999999], [-71.192463, 41.75229], [-71.192005, 41.75215], [-71.191661, 41.752264], [-71.191997, 41.752479000000015], [-71.191928, 41.752926], [-71.192196, 41.753245], [-71.190943, 41.75407899999999], [-71.191043, 41.754802000000005], [-71.190867, 41.75543600000001], [-71.191051, 41.75586100000001], [-71.192211, 41.75624799999999], [-71.192005, 41.75695000000002], [-71.193005, 41.757539000000016], [-71.193281, 41.758577999999986], [-71.192594, 41.75958700000001], [-71.192975, 41.759633], [-71.192731, 41.76000299999999], [-71.192403, 41.759991], [-71.191761, 41.76030099999997], [-71.190883, 41.76191100000001], [-71.189158, 41.763411999999995], [-71.188614, 41.763627], [-71.189064, 41.764161], [-71.190102, 41.764618999999996], [-71.188186, 41.76580100000001], [-71.18649200000002, 41.768161000000006], [-71.183706, 41.77118599999999], [-71.18159, 41.773008], [-71.180651, 41.77355200000002], [-71.183641, 41.779093999999986], [-71.186376, 41.77883700000001], [-71.186746, 41.778863], [-71.186848, 41.779131], [-71.187656, 41.784012000000004], [-71.188326, 41.78632100000001], [-71.193489, 41.81620700000001], [-71.203463, 41.881843], [-71.187585, 41.879467], [-71.130638, 41.87028000000001], [-71.13073700000001, 41.86900599999999], [-71.130419, 41.868356], [-71.129026, 41.867869], [-71.125882, 41.867803], [-71.125258, 41.86697700000001], [-71.124671, 41.866510000000005], [-71.123791, 41.86685], [-71.122783, 41.866423], [-71.121896, 41.86528199999999], [-71.121483, 41.864999], [-71.121278, 41.86458100000002], [-71.121381, 41.864386999999994], [-71.119007, 41.863908], [-71.11357, 41.861568000000005], [-71.113775, 41.864815999999976], [-71.111592, 41.86996], [-71.110137, 41.872123000000016], [-71.107002, 41.87326000000001], [-71.109167, 41.874658999999994], [-71.112748, 41.87570899999998], [-71.114844, 41.876028], [-71.115593, 41.87827000000001], [-71.116594, 41.880351000000005], [-71.11733, 41.882883], [-71.116662, 41.884523], [-71.116403, 41.88481800000001], [-71.11442, 41.88570399999999], [-71.113561, 41.88720499999999], [-71.112665, 41.88802300000001], [-71.110627, 41.886688], [-71.109143, 41.886446], [-71.108211, 41.88593699999998], [-71.105671, 41.885676], [-71.105311, 41.885291], [-71.104488, 41.883373999999996], [-71.104064, 41.882850000000005], [-71.10179500000001, 41.881568999999985], [-71.099186, 41.88066299999999], [-71.09702500000002, 41.88117799999999], [-71.095896, 41.88219099999999], [-71.094984, 41.885935], [-71.094162, 41.88735599999999], [-71.092649, 41.88837299999999], [-71.090198, 41.887572], [-71.089134, 41.888749], [-71.088661, 41.889533], [-71.088348, 41.890586000000006], [-71.088795, 41.891888], [-71.089814, 41.893228000000015], [-71.090862, 41.894187999999986], [-71.091351, 41.896263999999995], [-71.090769, 41.897083999999985], [-71.090818, 41.897783], [-71.08806000000001, 41.89644200000001], [-71.085735, 41.895036999999995], [-71.084396, 41.89776100000001], [-71.082357, 41.89672299999999], [-71.080069, 41.89681999999998], [-71.079378, 41.896714], [-71.075981, 41.89551399999999], [-71.072672, 41.89355799999999], [-71.066808, 41.884674], [-71.06453, 41.879737], [-71.055612, 41.872092], [-71.05829500000002, 41.862675], [-71.072191, 41.86967799999999], [-71.07644600000002, 41.87297], [-71.09419, 41.87256599999999], [-71.093235, 41.872695000000014], [-71.092963, 41.872901], [-71.093594, 41.87300700000001], [-71.09457, 41.87277799999998], [-71.099743, 41.87242700000001], [-71.101971, 41.871855000000004], [-71.102871, 41.871519], [-71.103115, 41.871275], [-71.103405, 41.870786], [-71.10342, 41.86961200000001], [-71.104397, 41.86790299999999], [-71.104397, 41.866804], [-71.10487, 41.864178999999986], [-71.104916, 41.86362199999999], [-71.104275, 41.86060899999999], [-71.104427, 41.860441], [-71.106838, 41.859776999999994], [-71.10729000000002, 41.859052000000005], [-71.107388, 41.857609999999994], [-71.108281, 41.855966], [-71.108685, 41.85407000000001], [-71.10807400000002, 41.853672], [-71.107819, 41.85323899999999], [-71.107918, 41.852693], [-71.111264, 41.851043999999995], [-71.1117, 41.85053700000001], [-71.112389, 41.849207000000014], [-71.112554, 41.848569], [-71.112845, 41.84868000000001], [-71.112845, 41.84729400000002], [-71.110891, 41.84452699999999], [-71.110528, 41.843563000000024], [-71.110913, 41.841670000000015], [-71.110685, 41.840643], [-71.109708, 41.839667], [-71.10838100000001, 41.83693200000002], [-71.108259, 41.83568599999999], [-71.108839, 41.832719000000004], [-71.109516, 41.83169600000001], [-71.114577, 41.82975], [-71.114926, 41.828859], [-71.114743, 41.82808899999999], [-71.115294, 41.827303], [-71.116468, 41.826718], [-71.117292, 41.825956000000005], [-71.117765, 41.824668], [-71.116101, 41.822390000000006], [-71.115385, 41.818442999999995], [-71.114972, 41.817445], [-71.114499, 41.816553], [-71.112699, 41.814915], [-71.11236300000002, 41.813575], [-71.114911, 41.810762999999994], [-71.116498, 41.809826], [-71.118329, 41.808219000000015], [-71.118863, 41.80719100000001], [-71.119214, 41.805004000000004], [-71.119092, 41.803723000000005], [-71.117917, 41.80107999999999], [-71.117551, 41.79975300000001], [-71.117916, 41.79849599999999], [-71.118618, 41.797612999999984], [-71.119442, 41.79542600000001], [-71.11961, 41.790968000000014], [-71.114489, 41.778800999999966], [-71.117189, 41.773801], [-71.123989, 41.766701], [-71.131289, 41.757502], [-71.131889, 41.749402], [-71.140489, 41.738602000000014], [-71.151972, 41.72712], [-71.15828900000001, 41.721202], [-71.16851700000001, 41.708226999999994], [-71.17419000000001, 41.70220199999999], [-71.18979, 41.691502], [-71.19619, 41.68630200000001], [-71.201162, 41.681909], [-71.222471, 41.707679], [-71.226082, 41.712344999999985], [-71.22598, 41.71250299999999], [-71.22621700000002, 41.712647000000004], [-71.226271, 41.713029], [-71.225768, 41.71382599999999], [-71.225967, 41.71436300000002], [-71.225593, 41.715284], [-71.225182, 41.71569300000001], [-71.225235, 41.71658799999999], [-71.225121, 41.71679700000003], [-71.225411, 41.717256000000006], [-71.224855, 41.717756999999985], [-71.224863, 41.718072], [-71.225229, 41.718308], [-71.225183, 41.718724], [-71.225374, 41.71901700000001], [-71.225444, 41.71988000000001], [-71.225329, 41.72008099999999], [-71.225384, 41.720877], [-71.225605, 41.721093], [-71.225475, 41.721423999999985], [-71.225743, 41.72212199999999], [-71.225804, 41.72308], [-71.226156, 41.72365399999999], [-71.225836, 41.72430800000001], [-71.225852, 41.72613199999999], [-71.22528, 41.72656199999998], [-71.225479, 41.726665999999994], [-71.226119, 41.726437], [-71.22686, 41.72660799999999], [-71.227249, 41.72688800000001]]]}}