{"type": "Feature", "properties": {"district_name": "16th Middlesex District", "chamber": "house", "vintage": "2022-present"}, "geometry": {"type": "Polygon", "coordinates": [[[-71.417642, 42.653774], [-71.412309, 42.64941000000001], [-71.411978, 42.64797400000001], [-71.409764, 42.648785], [-71.405309, 42.648138000000024], [-71.404028, 42.648405999999994], [-71.402782, 42.646770999999994], [-71.39889, 42.64494900000002], [-71.398312, 42.64550199999999], [-71.401094, 42.649182999999994], [-71.40211, 42.651603], [-71.398995, 42.652467], [-71.398173, 42.65101899999998], [-71.396968, 42.649637], [-71.394341, 42.648474], [-71.392488, 42.648476], [-71.38522, 42.649599], [-71.382483, 42.64938699999997], [-71.38092, 42.649007999999995], [-71.38027900000002, 42.650017000000005], [-71.380247, 42.65035999999999], [-71.380531, 42.650859999999994], [-71.38224, 42.651877], [-71.382474, 42.652770999999994], [-71.378204, 42.660686999999996], [-71.368882, 42.661753000000004], [-71.357523, 42.654454000000044], [-71.299569, 42.66651499999999], [-71.28686, 42.648867999999986], [-71.286011, 42.64955900000001], [-71.28638, 42.649007999999995], [-71.286397, 42.64813600000002], [-71.2866, 42.64766699999999], [-71.288335, 42.64635000000003], [-71.290319, 42.645229], [-71.292152, 42.64462100000001], [-71.293904, 42.64464], [-71.295396, 42.64514], [-71.298376, 42.646544], [-71.302832, 42.647281000000014], [-71.307923, 42.649301999999985], [-71.309151, 42.65001399999999], [-71.311882, 42.65199400000001], [-71.315392, 42.65473299999999], [-71.319537, 42.655851], [-71.322451, 42.653929], [-71.324397, 42.65188800000001], [-71.327006, 42.653806], [-71.327614, 42.653316999999994], [-71.325955, 42.65206200000001], [-71.327285, 42.651733000000014], [-71.329334, 42.651783], [-71.329981, 42.65149900000001], [-71.331612, 42.65022199999998], [-71.330541, 42.649613999999985], [-71.334338, 42.64668900000001], [-71.337374, 42.643917], [-71.339705, 42.64209300000001], [-71.34354100000002, 42.640629], [-71.343544, 42.64029], [-71.351003, 42.639229], [-71.355489, 42.63892699999998], [-71.361954, 42.637843], [-71.364749, 42.63762400000001], [-71.359943, 42.625972], [-71.329328, 42.61398499999998], [-71.327936, 42.613155000000006], [-71.325698, 42.613263999999994], [-71.324975, 42.611601], [-71.325408, 42.611250999999996], [-71.323807, 42.607568], [-71.326945, 42.607269], [-71.335776, 42.60692800000003], [-71.339238, 42.60651000000001], [-71.356269, 42.602601000000014], [-71.358351, 42.60194000000001], [-71.36078, 42.60085999999999], [-71.363245, 42.60109899999999], [-71.36495, 42.60087500000001], [-71.365689, 42.60225100000001], [-71.365714, 42.602632], [-71.365552, 42.602898], [-71.366225, 42.604035999999994], [-71.366442, 42.604778999999986], [-71.367775, 42.606572], [-71.368069, 42.60908100000001], [-71.367661, 42.609575], [-71.367687, 42.609832000000004], [-71.368768, 42.61185199999999], [-71.369464, 42.612456], [-71.369901, 42.613077999999994], [-71.368058, 42.61390200000002], [-71.367049, 42.614858000000005], [-71.365283, 42.61503200000001], [-71.365138, 42.61460700000001], [-71.36469100000001, 42.61409], [-71.364411, 42.61399599999999], [-71.362098, 42.61498399999999], [-71.359908, 42.61293299999999], [-71.35707, 42.615174], [-71.358957, 42.61685799999999], [-71.356961, 42.617863], [-71.357599, 42.61888199999999], [-71.355322, 42.619034000000006], [-71.353389, 42.618794], [-71.352217, 42.618851], [-71.352091, 42.61944], [-71.351781, 42.619847], [-71.351193, 42.619817999999995], [-71.350596, 42.620367999999985], [-71.350857, 42.62047299999999], [-71.354997, 42.620312000000006], [-71.357704, 42.62060000000002], [-71.379368, 42.62551899999999], [-71.389853, 42.62721199999999], [-71.396561, 42.622542], [-71.398067, 42.621701], [-71.398995, 42.621523], [-71.399576, 42.621582999999994], [-71.400086, 42.62147800000001], [-71.400198, 42.621278], [-71.400862, 42.62197999999999], [-71.402036, 42.62166400000001], [-71.40206, 42.62133399999998], [-71.403083, 42.61981699999999], [-71.403672, 42.618467], [-71.40709, 42.616432], [-71.417642, 42.653774]]]}}