{"type": "Feature", "properties": {"district_name": "3rd Suffolk District", "chamber": "house", "vintage": "2012-2020"}, "geometry": {"type": "Polygon", "coordinates": [[[-71.079972, 42.344149999999985], [-71.077962, 42.34578599999999], [-71.076538, 42.34485000000001], [-71.071815, 42.34867700000001], [-71.073067, 42.351243], [-71.067533, 42.352513], [-71.064562, 42.352382999999996], [-71.063419, 42.355059999999966], [-71.061956, 42.356534], [-71.063169, 42.357748], [-71.062642, 42.357977000000005], [-71.06287499999999, 42.359483000000004], [-71.066306, 42.359354999999994], [-71.06638199999999, 42.36119699999999], [-71.06375500000001, 42.36124100000001], [-71.063835, 42.362792000000006], [-71.063294, 42.36431], [-71.058525, 42.36695199999999], [-71.059795, 42.368767], [-71.057141, 42.369982], [-71.05499499999999, 42.370697], [-71.050895, 42.370697], [-71.049095, 42.371196999999995], [-71.042596, 42.363797999999996], [-71.049396, 42.354498], [-71.049595, 42.35449699999999], [-71.05218800000002, 42.351121], [-71.05218599999999, 42.350922], [-71.054771, 42.347253], [-71.054788, 42.34687100000001], [-71.054469, 42.34677800000001], [-71.05825, 42.345506], [-71.058143, 42.34564699999999], [-71.058757, 42.345554], [-71.059821, 42.34471500000001], [-71.060609, 42.34371799999999], [-71.060906, 42.343775], [-71.060513, 42.34471099999998], [-71.06062899999999, 42.345072], [-71.06129299999999, 42.34387100000001], [-71.062052, 42.344041999999995], [-71.063796, 42.34054], [-71.065001, 42.3396], [-71.069295, 42.340998], [-71.069671, 42.341343], [-71.070707, 42.34079], [-71.07160499999999, 42.34154900000001], [-71.07141399999999, 42.34166099999999], [-71.073157, 42.34316], [-71.07659199999999, 42.341336], [-71.078097, 42.34289000000001], [-71.079972, 42.344149999999985]]]}}