{"type": "Feature", "properties": {"district_name": "30th Middlesex District", "chamber": "house", "vintage": "2022-present"}, "geometry": {"type": "Polygon", "coordinates": [[[-71.182944, 42.48212199999999], [-71.181375, 42.483386], [-71.181501, 42.483622], [-71.168924, 42.487087], [-71.170719, 42.48975500000001], [-71.168914, 42.490547000000014], [-71.168444, 42.498299], [-71.169199, 42.506508000000004], [-71.169923, 42.506730999999995], [-71.169395, 42.507311], [-71.16972, 42.507451], [-71.169324, 42.507872], [-71.169473, 42.509487000000014], [-71.169876, 42.50972099999999], [-71.16954, 42.510242], [-71.170258, 42.51045200000001], [-71.169635, 42.511461999999995], [-71.170033, 42.515537], [-71.131295, 42.53182000000002], [-71.134922, 42.546204], [-71.133643, 42.54681800000001], [-71.132889, 42.547105], [-71.131307, 42.54698799999999], [-71.129982, 42.54677400000001], [-71.128941, 42.54620700000001], [-71.12766, 42.54518899999999], [-71.127057, 42.54451100000001], [-71.126886, 42.54406500000003], [-71.127028, 42.54325], [-71.125528, 42.541962999999996], [-71.124525, 42.54048899999999], [-71.1231, 42.53898100000001], [-71.122225, 42.537330999999995], [-71.119725, 42.536015000000006], [-71.119152, 42.53540099999999], [-71.119054, 42.534960999999996], [-71.119573, 42.534147000000004], [-71.119754, 42.533437999999975], [-71.119142, 42.531943], [-71.12107000000002, 42.53126300000002], [-71.12274, 42.530465000000014], [-71.119795, 42.52832600000001], [-71.11951200000001, 42.527335], [-71.116659, 42.52540599999999], [-71.115386, 42.525915999999995], [-71.114652, 42.525244], [-71.112676, 42.525993000000014], [-71.110952, 42.526416000000005], [-71.106197, 42.527092999999994], [-71.1035, 42.525784000000016], [-71.10218000000002, 42.52574899999999], [-71.102016, 42.52657100000001], [-71.102405, 42.527915], [-71.100163, 42.53113299999999], [-71.099366, 42.532666000000006], [-71.098157, 42.53386299999999], [-71.094836, 42.53623500000001], [-71.094073, 42.537151], [-71.092746, 42.536760000000015], [-71.091974, 42.537679000000004], [-71.089537, 42.53702799999999], [-71.088596, 42.537244999999984], [-71.08749500000002, 42.53550399999999], [-71.087507, 42.535282999999986], [-71.086476, 42.53507400000002], [-71.085428, 42.535306], [-71.084796, 42.53408700000001], [-71.082981, 42.532028999999994], [-71.0808, 42.52817100000001], [-71.079865, 42.526709], [-71.079745, 42.526725000000006], [-71.08108500000002, 42.525473], [-71.083507, 42.525489000000015], [-71.096773, 42.51167800000001], [-71.097463, 42.510246], [-71.095564, 42.508966], [-71.094351, 42.507808000000004], [-71.094115, 42.507365], [-71.094289, 42.50708699999999], [-71.099645, 42.50643099999999], [-71.100727, 42.502242], [-71.11976, 42.500291999999995], [-71.121765, 42.49872000000001], [-71.116795, 42.49463900000001], [-71.112056, 42.47381999999999], [-71.123862, 42.473392000000004], [-71.146008, 42.465800999999985], [-71.146561, 42.46673900000001], [-71.147868, 42.467976], [-71.150193, 42.471158999999986], [-71.150404, 42.47176600000002], [-71.150033, 42.47254], [-71.150905, 42.47372400000002], [-71.155579, 42.477897000000006], [-71.159572, 42.476933], [-71.162841, 42.476941], [-71.165029, 42.475953], [-71.167024, 42.47540399999999], [-71.167279, 42.47624099999999], [-71.166842, 42.477098000000005], [-71.167821, 42.477332000000004], [-71.168658, 42.47797699999999], [-71.170341, 42.47798100000001], [-71.172442, 42.479077000000004], [-71.174092, 42.48003899999998], [-71.174451, 42.48129200000001], [-71.178802, 42.480506000000005], [-71.181832, 42.48033300000001], [-71.182944, 42.48212199999999]]]}}