{"type": "Feature", "properties": {"district_name": "13th Worcester District", "chamber": "house", "vintage": "2022-present"}, "geometry": {"type": "Polygon", "coordinates": [[[-71.884043, 42.281253], [-71.811841, 42.32536100000001], [-71.811038, 42.323967], [-71.810823, 42.323121], [-71.810846, 42.322355000000016], [-71.810445, 42.321604], [-71.80975200000002, 42.321356000000016], [-71.809228, 42.320824], [-71.807341, 42.317920999999984], [-71.8054, 42.31732800000001], [-71.807399, 42.31470399999999], [-71.805831, 42.314299], [-71.806571, 42.311915000000006], [-71.807231, 42.30701499999999], [-71.805983, 42.30691400000001], [-71.800857, 42.30511799999999], [-71.801247, 42.30359799999999], [-71.80134, 42.30216599999999], [-71.800915, 42.30001600000002], [-71.802502, 42.298564], [-71.802845, 42.297840000000015], [-71.803134, 42.29654500000002], [-71.804779, 42.29907499999999], [-71.805127, 42.298939999999995], [-71.807243, 42.29906699999999], [-71.807126, 42.300428999999994], [-71.806787, 42.300814999999986], [-71.806834, 42.301179], [-71.806626, 42.301602999999986], [-71.80775, 42.30361], [-71.809112, 42.302554999999984], [-71.809597, 42.302552], [-71.810868, 42.302984999999985], [-71.81133, 42.30296899999998], [-71.811661, 42.30272199999999], [-71.812292, 42.30315700000001], [-71.812646, 42.302599], [-71.813663, 42.30237600000002], [-71.814255, 42.30264900000001], [-71.815287, 42.30367799999998], [-71.816226, 42.304190000000006], [-71.816686, 42.30470700000001], [-71.818032, 42.30479100000001], [-71.817776, 42.302096000000006], [-71.817884, 42.299881000000006], [-71.819058, 42.30019599999999], [-71.820961, 42.300375], [-71.820642, 42.29895599999999], [-71.818671, 42.296272], [-71.819704, 42.296376], [-71.820263, 42.293065000000006], [-71.818063, 42.292744000000006], [-71.818194, 42.292260000000006], [-71.817682, 42.29219399999999], [-71.817817, 42.291286], [-71.816932, 42.291133], [-71.81607, 42.29118799999999], [-71.812841, 42.28987899999999], [-71.812966, 42.289243], [-71.811968, 42.28901900000001], [-71.812291, 42.28705300000001], [-71.807228, 42.286542], [-71.80728100000002, 42.286756000000004], [-71.807022, 42.286515000000016], [-71.806557, 42.286525], [-71.808464, 42.283486], [-71.80856, 42.28164300000001], [-71.80598900000001, 42.281862999999994], [-71.806233, 42.28226600000001], [-71.804233, 42.28264800000001], [-71.804291, 42.28295400000001], [-71.803268, 42.283353], [-71.799681, 42.284150000000004], [-71.799653, 42.285481999999995], [-71.800536, 42.28717800000001], [-71.799587, 42.28749799999999], [-71.798132, 42.287655000000015], [-71.79758700000001, 42.28797300000001], [-71.797434, 42.28756699999998], [-71.797843, 42.286454], [-71.797976, 42.284940999999996], [-71.797829, 42.279016], [-71.79767100000001, 42.27786900000001], [-71.797207, 42.27649099999999], [-71.79424800000001, 42.27067], [-71.793474, 42.268764], [-71.795039, 42.269163000000006], [-71.795489, 42.269088], [-71.79627700000002, 42.26865500000001], [-71.798439, 42.26873799999999], [-71.798673, 42.270027999999996], [-71.798628, 42.271413000000024], [-71.802258, 42.271443], [-71.806729, 42.27108299999999], [-71.806885, 42.26779400000001], [-71.80868, 42.267981000000006], [-71.809317, 42.26398600000001], [-71.812204, 42.26403799999999], [-71.814574, 42.263732], [-71.81527, 42.266093999999995], [-71.814618, 42.270444], [-71.816409, 42.27031600000002], [-71.816994, 42.26956], [-71.817673, 42.267466000000006], [-71.820675, 42.26149300000001], [-71.818441, 42.26089199999999], [-71.820765, 42.256441999999986], [-71.825792, 42.25768000000001], [-71.827475, 42.25859], [-71.829803, 42.258755], [-71.830989, 42.259232999999995], [-71.830117, 42.26301600000001], [-71.832759, 42.263522], [-71.836545, 42.265648000000006], [-71.838222, 42.26446099999999], [-71.837567, 42.26396700000001], [-71.837646, 42.26384500000001], [-71.839614, 42.263095], [-71.839015, 42.26218399999999], [-71.844487, 42.260287999999996], [-71.845161, 42.260186000000004], [-71.845745, 42.26036500000001], [-71.8482, 42.26222000000001], [-71.848267, 42.261321], [-71.84783500000002, 42.260675], [-71.847766, 42.260019000000014], [-71.847301, 42.259459999999976], [-71.847185, 42.25882200000001], [-71.845867, 42.25868700000001], [-71.846608, 42.258194], [-71.848507, 42.25775399999998], [-71.850537, 42.261948000000004], [-71.851654, 42.26333299999998], [-71.853965, 42.266796], [-71.854395, 42.268724000000006], [-71.854869, 42.27004300000001], [-71.854708, 42.271538999999976], [-71.854889, 42.273078], [-71.854708, 42.27381600000001], [-71.856744, 42.273353000000014], [-71.858162, 42.27255199999999], [-71.860074, 42.27188900000001], [-71.861023, 42.27118099999999], [-71.861392, 42.27063900000002], [-71.861608, 42.269826999999985], [-71.861234, 42.268347], [-71.861253, 42.267503], [-71.86235, 42.265968], [-71.876726, 42.266692000000006], [-71.884043, 42.281253]]]}}