{"type": "Feature", "properties": {"district_name": "12th Worcester District", "chamber": "house", "vintage": "2012-2020"}, "geometry": {"type": "Polygon", "coordinates": [[[-71.780734, 42.470508], [-71.779011, 42.47265099999999], [-71.776512, 42.474424000000006], [-71.776051, 42.474836], [-71.775685, 42.475464], [-71.775516, 42.474827], [-71.774236, 42.474714999999996], [-71.77252399999999, 42.47500300000001], [-71.77081199999999, 42.474795000000015], [-71.770348, 42.47500300000001], [-71.770076, 42.47477900000001], [-71.767826, 42.474950000000014], [-71.768101, 42.476415], [-71.769373, 42.478748], [-71.769385, 42.47980199999999], [-71.76848, 42.480065], [-71.767571, 42.48006899999999], [-71.765299, 42.47951800000001], [-71.765199, 42.480965000000005], [-71.76677699999999, 42.48142000000001], [-71.766723, 42.48156399999999], [-71.728385, 42.475128000000005], [-71.71674, 42.518971], [-71.712384, 42.52132899999999], [-71.702236, 42.53389499999997], [-71.67898, 42.53035099999999], [-71.675714, 42.52998999999999], [-71.635812, 42.52409099999999], [-71.636032, 42.523078], [-71.63474, 42.522548], [-71.634326, 42.522244], [-71.634117, 42.52182399999998], [-71.633264, 42.521195], [-71.63279399999999, 42.52006499999999], [-71.631974, 42.51898900000001], [-71.63168399999999, 42.51889], [-71.631012, 42.51911099999999], [-71.630478, 42.518836], [-71.63035599999999, 42.518104], [-71.63057, 42.517356], [-71.630875, 42.51714299999999], [-71.632187, 42.516883], [-71.63230899999999, 42.516296], [-71.631913, 42.51589899999999], [-71.630982, 42.515762], [-71.63002, 42.515922], [-71.629578, 42.51578500000001], [-71.629303, 42.515335], [-71.629303, 42.51464], [-71.629685, 42.51377800000001], [-71.629227, 42.513381], [-71.628022, 42.513244], [-71.627472, 42.512657], [-71.628022, 42.51153499999999], [-71.628022, 42.51072599999999], [-71.628159, 42.51052800000001], [-71.628632, 42.51045200000001], [-71.62924199999999, 42.511138], [-71.629532, 42.51123799999999], [-71.629914, 42.51094], [-71.629914, 42.510191999999996], [-71.63009699999999, 42.50993299999999], [-71.631028, 42.509482999999996], [-71.631455, 42.509643000000004], [-71.631745, 42.50949800000001], [-71.631363, 42.50814], [-71.631501, 42.507812], [-71.632508, 42.506918999999996], [-71.63394199999999, 42.504653000000005], [-71.63394199999999, 42.503868], [-71.633515, 42.50355499999999], [-71.633545, 42.502905999999996], [-71.633408, 42.502632], [-71.632508, 42.502395], [-71.631546, 42.502531999999995], [-71.62912, 42.501296], [-71.626862, 42.500372999999996], [-71.62617999999999, 42.499231], [-71.626282, 42.497828000000005], [-71.62702, 42.495767], [-71.62796800000001, 42.494949], [-71.628165, 42.49445000000001], [-71.627944, 42.49354400000002], [-71.627974, 42.492990999999996], [-71.629173, 42.49029799999999], [-71.62926800000001, 42.48880799999999], [-71.631109, 42.48744999999998], [-71.63186, 42.485487000000006], [-71.63229, 42.485485999999995], [-71.63311399999999, 42.486138000000004], [-71.63352499999999, 42.48624300000001], [-71.633996, 42.486075], [-71.634282, 42.485648], [-71.634301, 42.48540500000001], [-71.633951, 42.485163], [-71.63259599999999, 42.48493799999999], [-71.631896, 42.48366399999999], [-71.631908, 42.48326600000001], [-71.63207299999999, 42.483205000000005], [-71.632942, 42.483541999999986], [-71.633273, 42.483418999999984], [-71.633436, 42.48203699999999], [-71.633724, 42.481241999999995], [-71.634134, 42.480800000000016], [-71.633354, 42.47856899999999], [-71.63362599999999, 42.47784699999999], [-71.635299, 42.477362], [-71.635429, 42.47717900000001], [-71.635335, 42.476744999999994], [-71.642426, 42.479502999999994], [-71.660574, 42.41821], [-71.63041799999999, 42.40953700000001], [-71.580043, 42.386949000000016], [-71.607759, 42.370022], [-71.603065, 42.367267], [-71.610007, 42.357403000000005], [-71.624702, 42.35046500000001], [-71.62582499999999, 42.34972399999999], [-71.62065799999999, 42.345248999999995], [-71.619131, 42.343348999999996], [-71.61825999999999, 42.342589], [-71.62294899999999, 42.33796500000001], [-71.625042, 42.336898999999995], [-71.625767, 42.336300000000016], [-71.62680999999999, 42.334578], [-71.628537, 42.332840999999995], [-71.630082, 42.33084199999997], [-71.630843, 42.328889], [-71.63344, 42.32733999999999], [-71.639343, 42.322973999999995], [-71.638291, 42.322259], [-71.637267, 42.32190400000001], [-71.636844, 42.32139600000001], [-71.63595, 42.32111100000001], [-71.635638, 42.32066999999999], [-71.636684, 42.320254999999996], [-71.6375, 42.318802], [-71.640053, 42.31675099999999], [-71.642892, 42.31552000000001], [-71.643527, 42.314551000000016], [-71.644346, 42.312174], [-71.644513, 42.31035699999999], [-71.64635899999999, 42.310316], [-71.647126, 42.311097999999994], [-71.647686, 42.31090800000001], [-71.648174, 42.310041999999996], [-71.648686, 42.309658], [-71.6485, 42.30914600000002], [-71.64773699999999, 42.308308], [-71.647781, 42.308068000000006], [-71.648209, 42.307694000000005], [-71.64893200000002, 42.30814300000001], [-71.649726, 42.30759099999999], [-71.650031, 42.307537999999994], [-71.65092, 42.30826999999999], [-71.651383, 42.30917600000003], [-71.652763, 42.30979], [-71.652694, 42.31010499999999], [-71.652248, 42.31033499999999], [-71.654432, 42.311457], [-71.657157, 42.307928], [-71.65838, 42.307127999999985], [-71.660001, 42.306636999999995], [-71.662734, 42.305969], [-71.667632, 42.30534599999999], [-71.671103, 42.30559900000001], [-71.675963, 42.305625], [-71.67771499999999, 42.305257999999995], [-71.68025399999999, 42.304233999999994], [-71.680421, 42.30517100000001], [-71.684362, 42.311370999999994], [-71.68974399999999, 42.318861000000005], [-71.687938, 42.32551599999999], [-71.689537, 42.325973000000005], [-71.69113899999999, 42.326904999999975], [-71.69096499999999, 42.328959], [-71.697589, 42.327552], [-71.697643, 42.329179], [-71.695477, 42.330268000000004], [-71.698673, 42.33240599999999], [-71.71955, 42.325074999999984], [-71.7209, 42.324467], [-71.730071, 42.321187], [-71.731715, 42.318024], [-71.741745, 42.315726], [-71.741452, 42.317175], [-71.756289, 42.312115999999996], [-71.764442, 42.312911000000014], [-71.763738, 42.344194999999985], [-71.759706, 42.370742], [-71.753805, 42.383131], [-71.741919, 42.38685000000001], [-71.741916, 42.392773000000005], [-71.76330399999999, 42.40036699999999], [-71.77029, 42.400388], [-71.769683, 42.40248200000002], [-71.769577, 42.40342999999999], [-71.77035599999999, 42.40797200000001], [-71.770669, 42.408887], [-71.774151, 42.415127], [-71.77458899999999, 42.41615600000001], [-71.775262, 42.419631], [-71.77500800000001, 42.421643], [-71.774335, 42.423038000000005], [-71.773062, 42.42435300000001], [-71.77085199999999, 42.426328000000005], [-71.767853, 42.428495999999996], [-71.765452, 42.43069899999999], [-71.762474, 42.435863999999995], [-71.761969, 42.436423], [-71.76077099999999, 42.437301], [-71.759714, 42.43940700000001], [-71.75942599999999, 42.440732], [-71.75974699999999, 42.44233400000001], [-71.760106, 42.44294700000001], [-71.76066399999999, 42.44329000000001], [-71.76296099999999, 42.44411300000001], [-71.763465, 42.444497], [-71.76473899999999, 42.44693099999999], [-71.765866, 42.44970000000001], [-71.765844, 42.450506], [-71.764713, 42.454192], [-71.76411999999999, 42.457000999999984], [-71.764264, 42.457286], [-71.765678, 42.458039000000014], [-71.765838, 42.458277], [-71.76651199999999, 42.460515], [-71.76642, 42.461048], [-71.76600499999999, 42.46164799999998], [-71.766044, 42.46190199999999], [-71.769188, 42.46536899999999], [-71.769669, 42.465555], [-71.770394, 42.465576], [-71.77221, 42.46483799999999], [-71.77262900000001, 42.46539599999999], [-71.77390299999999, 42.465973999999996], [-71.77391399999999, 42.46619199999999], [-71.773354, 42.466858], [-71.773271, 42.46782399999998], [-71.774039, 42.468378], [-71.774284, 42.468875], [-71.775532, 42.469163], [-71.775852, 42.46919500000002], [-71.776924, 42.468635], [-71.776828, 42.469019], [-71.776268, 42.46924299999999], [-71.776332, 42.469435000000004], [-71.777676, 42.469675], [-71.777436, 42.470907000000004], [-71.7779, 42.471387], [-71.77852399999999, 42.471498999999994], [-71.779564, 42.47125900000001], [-71.780734, 42.470508]]]}}