{"type": "Feature", "properties": {"district_name": "6th Bristol", "chamber": "house", "vintage": "2001-2010"}, "geometry": {"type": "Polygon", "coordinates": [[[-71.00798900275697, 41.837965054223226], [-71.0324190890516, 41.81932626004121], [-71.03664602833233, 41.81632787499538], [-71.02316605908075, 41.805909136814115], [-71.02332592473707, 41.80517319237838], [-71.02367800715702, 41.80458099245627], [-71.02441391435907, 41.80422898025812], [-71.02473402202915, 41.80381277248324], [-71.02487792718706, 41.803525256573295], [-71.0247820204519, 41.8029970196859], [-71.02490990184135, 41.802437077470806], [-71.02591805065397, 41.8019567719367], [-71.02591796699943, 41.801461005351754], [-71.02559804647673, 41.800868811907776], [-71.026206076983, 41.7993497291397], [-71.02620604868052, 41.79882189183215], [-71.0277099301023, 41.79874204023113], [-71.02921397813122, 41.797493941031696], [-71.02935807264252, 41.796998211614536], [-71.03766307628118, 41.79722127622352], [-71.04271905430302, 41.797973215078855], [-71.04803101389885, 41.79928473529601], [-71.0526709085888, 41.80013305340972], [-71.05215904530029, 41.80054915293596], [-71.05219100351579, 41.80138098638047], [-71.0580950330686, 41.798660737720304], [-71.05836704315738, 41.798692746298826], [-71.0594870001235, 41.7940050778942], [-71.05846298076685, 41.79376477102339], [-71.05851105022805, 41.79363721409769], [-71.06700704699468, 41.78613323396271], [-71.06811091884536, 41.78547678329366], [-71.07119898955324, 41.78259716284088], [-71.0725429229703, 41.78152515600413], [-71.07454308040361, 41.78029295331643], [-71.07676691023661, 41.7793012765647], [-71.07740791255218, 41.77917310330455], [-71.0836160449872, 41.77637276188865], [-71.0860479181018, 41.775540911519975], [-71.11528808868813, 41.763901026694896], [-71.07348708217177, 41.75310205590634], [-71.07398693981906, 41.751702172102696], [-71.07518697927958, 41.74510194571004], [-71.07608695094197, 41.74210202647475], [-71.0769870538409, 41.740601769709166], [-71.07828697713332, 41.73990205794873], [-71.07889696055871, 41.739745068192164], [-71.08608700560384, 41.73910178430394], [-71.09028703813017, 41.7355020233392], [-71.09186493982088, 41.73561404019373], [-71.09596593594344, 41.73639397108713], [-71.10040206717689, 41.736217739258194], [-71.10158800677924, 41.736301801588134], [-71.10148801438224, 41.73610224697882], [-71.10308804788316, 41.72930223605105], [-71.10458803816313, 41.72790176718171], [-71.10368793580106, 41.72690204675776], [-71.10438803658967, 41.72620220026224], [-71.10398802492915, 41.724902039594326], [-71.10358808060073, 41.724502238253244], [-71.1051879270403, 41.72330188133469], [-71.10578802369496, 41.72130178395971], [-71.10718803346684, 41.72030215377151], [-71.10668807019336, 41.719801852977604], [-71.10878808663439, 41.7168018845297], [-71.10818792813939, 41.71580211295549], [-71.10888799687285, 41.71290198279629], [-71.1097879906181, 41.7127019230653], [-71.11108800134026, 41.711001881361824], [-71.11398793949459, 41.711002181413896], [-71.11538804387312, 41.70980213044006], [-71.11568796184069, 41.70810202047911], [-71.11028805622057, 41.71050225446712], [-71.10628805909043, 41.71030223207785], [-71.10748800205769, 41.70870204119955], [-71.10838794129965, 41.70810189919976], [-71.10918795201327, 41.707202037127566], [-71.11198802043036, 41.70680195252389], [-71.11318800297805, 41.705502206619315], [-71.11658804688217, 41.707901916573], [-71.11818807049829, 41.708101997778535], [-71.11868802595228, 41.70640199272873], [-71.11918800492796, 41.70740194104862], [-71.12288801379434, 41.69580186357219], [-71.12788804989651, 41.696602193815615], [-71.1288880919569, 41.69690201986622], [-71.13458805018183, 41.697901856331725], [-71.13398796281423, 41.69970177301425], [-71.13608900664936, 41.70020201562257], [-71.13878909367439, 41.70060227343647], [-71.13958895446326, 41.700901927795464], [-71.13948907692415, 41.70180197095028], [-71.13838899344957, 41.703501853233135], [-71.14118892192378, 41.7040019685067], [-71.1405889646359, 41.70590208470704], [-71.14188901330812, 41.706102010521356], [-71.14148896963495, 41.707101842664024], [-71.14088897637959, 41.707601901595005], [-71.1406890482281, 41.708701959873125], [-71.14188908168238, 41.70870179803714], [-71.14408905417478, 41.70930180964511], [-71.14278891962182, 41.71300215656461], [-71.1457890788085, 41.71370198969205], [-71.15038900603494, 41.71450177277377], [-71.15088891759396, 41.712901793944155], [-71.15008906966602, 41.71280199135621], [-71.15168896820663, 41.70800179141338], [-71.1518890742211, 41.70690228216004], [-71.15268902293623, 41.70690190772646], [-71.15318901956321, 41.70720224332791], [-71.1537889869375, 41.70530206192837], [-71.15438906268035, 41.70570172711575], [-71.1551890006875, 41.70340205303728], [-71.15518906815672, 41.70290178690657], [-71.15428891034323, 41.70280226773049], [-71.15358900395888, 41.703302089705126], [-71.15218907218414, 41.70290222963805], [-71.15318903788103, 41.70000218186125], [-71.15358901394508, 41.69980194467522], [-71.15288893032287, 41.69930180512818], [-71.1501890093117, 41.69660202318585], [-71.15248909080003, 41.695402030517215], [-71.15598902672458, 41.697202127344376], [-71.15738891302745, 41.69780227072156], [-71.1589890521688, 41.69820210896248], [-71.16068898839674, 41.6972021645462], [-71.16038907447384, 41.69790186604738], [-71.16628895698011, 41.69890183484235], [-71.16598894251753, 41.69970227371236], [-71.1658889591198, 41.700802101118185], [-71.16618904019903, 41.700602093688055], [-71.16798894341332, 41.70080206100773], [-71.16828890862124, 41.701201902406176], [-71.16618893411156, 41.700801855883114], [-71.16368899056735, 41.70300206698059], [-71.16318899560466, 41.70380190746752], [-71.16248902722047, 41.70450211354775], [-71.15948902412235, 41.70410208033587], [-71.15858891976886, 41.70680215230324], [-71.15498908987287, 41.7123020507815], [-71.15510603453632, 41.712341237624926], [-71.1547890610408, 41.71280226879869], [-71.15468895932875, 41.71350199395841], [-71.15842979890382, 41.714234133909216], [-71.15838461855877, 41.71460707982813], [-71.15972732350512, 41.71565439138122], [-71.15945290084323, 41.7159563162584], [-71.15865905720662, 41.71602540919349], [-71.15829210995241, 41.71624883069556], [-71.15817064740212, 41.71705260306208], [-71.15841433531983, 41.7173723944777], [-71.15835288137121, 41.71780607471519], [-71.15746729837245, 41.71799417253243], [-71.15700930065047, 41.71856114477924], [-71.1570089815829, 41.71879523697758], [-71.15816954690035, 41.7192241468606], [-71.15697709012089, 41.72123736270498], [-71.15554198231041, 41.72192237108014], [-71.15508378617375, 41.723003097493354], [-71.15172388121383, 41.72450716389808], [-71.15053200169461, 41.72567397771947], [-71.14775294331504, 41.72743799470375], [-71.14604159813302, 41.72885750487432], [-71.14375099301083, 41.729702325515525], [-71.14200996722285, 41.730023245065865], [-71.14200929951934, 41.73077954421822], [-71.1427716170728, 41.73228778805147], [-71.14261924550233, 41.732534341307655], [-71.14164117529398, 41.73299382665286], [-71.14060239807519, 41.734229671335676], [-71.13977714818618, 41.734893896345966], [-71.13818888720338, 41.73513983603251], [-71.13779227664556, 41.73546213709625], [-71.1380663006212, 41.736655425341205], [-71.13736280164176, 41.73703752334678], [-71.13589635350074, 41.73745263633433], [-71.13387944135124, 41.73864364696796], [-71.13277885355409, 41.73951064221918], [-71.1323516832178, 41.74004103388159], [-71.13170869941345, 41.74125106433789], [-71.13152390552645, 41.7429392064582], [-71.1313409037361, 41.74324023439597], [-71.13008769556251, 41.74387598380371], [-71.12972106810733, 41.74422537411136], [-71.12944592195528, 41.74499596963776], [-71.12874199881819, 41.745910359475786], [-71.12791674023059, 41.74652891395403], [-71.12684565183942, 41.748999703721026], [-71.12747341368184, 41.75013621058794], [-71.12843014263403, 41.751113973839985], [-71.12882574406464, 41.75328682038955], [-71.12937427855621, 41.75475393986484], [-71.12925069403832, 41.755684283187904], [-71.1287611637494, 41.75635063773194], [-71.1273547077144, 41.75753902034105], [-71.12704842231912, 41.757995517104476], [-71.12695576300264, 41.758933837324115], [-71.1264358429866, 41.75987188260945], [-71.12527390832166, 41.76074028864321], [-71.12530346794395, 41.76165818417473], [-71.12450324987151, 41.76216425187425], [-71.12377023744101, 41.762232178461524], [-71.12325022197423, 41.76177352802482], [-71.12303561126282, 41.761110487394994], [-71.1224554565512, 41.761130516925014], [-71.12098983851162, 41.762436797426695], [-71.12068475524826, 41.7629647426701], [-71.12053289577312, 41.76369746190079], [-71.11912693842734, 41.763741164484685], [-71.11805863879732, 41.7646351374319], [-71.11634802537445, 41.76534235674369], [-71.11466795247784, 41.76571540461797], [-71.11268148572795, 41.76582402261973], [-71.11185667619516, 41.76605530887036], [-71.11060548558149, 41.767087019263286], [-71.10932173739327, 41.76781359880557], [-71.10636002539484, 41.770039112883204], [-71.10596268772898, 41.77072201221201], [-71.10608546376193, 41.77086367604909], [-71.10660409711217, 41.77074617036941], [-71.1108195004834, 41.768137793970695], [-71.11161417227126, 41.76820408902046], [-71.1119198343663, 41.76843247115249], [-71.1119816096787, 41.76887273186963], [-71.1101801970511, 41.770725823506226], [-71.10932509848851, 41.77184046498912], [-71.10935613637888, 41.77232676510009], [-71.10990652369975, 41.77344228634625], [-71.11076294693079, 41.77399443388697], [-71.11232204978859, 41.77442516855308], [-71.11336172105649, 41.77556821269176], [-71.11336180698031, 41.77580230615449], [-71.11210933079431, 41.77655491772155], [-71.11094810823612, 41.77685538809069], [-71.11061281802947, 41.77713222849309], [-71.11058319097022, 41.77838475086824], [-71.11116393362249, 41.77995955193247], [-71.11040173537633, 41.78154157917945], [-71.10914966659394, 41.78266329779381], [-71.1087223258413, 41.78350929353917], [-71.10606509601025, 41.785891157685214], [-71.10426190808336, 41.787077318031315], [-71.10282671739337, 41.78931984491979], [-71.10206394995214, 41.790216417073665], [-71.10200415876045, 41.792388889728876], [-71.10160644434912, 41.79280166501793], [-71.09968179281012, 41.79403459764569], [-71.09900934254539, 41.794155474926136], [-71.09729734781256, 41.79406052874786], [-71.09671662689597, 41.793854769440635], [-71.09546317410339, 41.79271530868753], [-71.09530954241161, 41.79236699983405], [-71.0941781729133, 41.79122571619312], [-71.09359681553835, 41.79094790987474], [-71.09249664745343, 41.79081511329978], [-71.09240479885912, 41.79127566048324], [-71.09396480568675, 41.793058311432986], [-71.09414874151734, 41.793901927193225], [-71.09405753031524, 41.794263429442594], [-71.09378217300666, 41.79452130148424], [-71.09369092642325, 41.79547760711872], [-71.09424148515168, 41.79575587033607], [-71.09482284684354, 41.79648385232029], [-71.09488443490842, 41.79747389814449], [-71.09463996172201, 41.79813591778932], [-71.09424232355525, 41.798521657076854], [-71.09188939531673, 41.79985254021911], [-71.09109452375841, 41.799849133404074], [-71.09023847977485, 41.79950448141177], [-71.0882194898264, 41.79781128438908], [-71.08662960376573, 41.79730864881893], [-71.08559055293281, 41.796580087128184], [-71.08427575740497, 41.795964180786285], [-71.08393970801994, 41.79569115428596], [-71.08393929214063, 41.79488927508399], [-71.08424499027457, 41.794135772690865], [-71.08470225775021, 41.793605102468604], [-71.0848241118594, 41.7919809655979], [-71.08522164918644, 41.79161326579138], [-71.08571079564864, 41.79152388348919], [-71.08665835823672, 41.7917946134212], [-71.08711698666423, 41.79168767445415], [-71.08726969017367, 41.791387165504304], [-71.08690253418547, 41.79104257349188], [-71.08708606033692, 41.79021941004633], [-71.08659626449749, 41.78985918355945], [-71.08656560165021, 41.78928284252655], [-71.08619854268593, 41.78898326645998], [-71.08574062960462, 41.788982728410474], [-71.0853120823389, 41.78848597237807], [-71.0845478493477, 41.78830142457151], [-71.08424238694523, 41.78795592324498], [-71.08427262823521, 41.78761277158848], [-71.08525054818475, 41.78658599048244], [-71.0852501315114, 41.78621684165971], [-71.08494477918298, 41.78582575736552], [-71.08494438597681, 41.78551063016722], [-71.08567834130756, 41.78479470607338], [-71.0857390505563, 41.78383885318286], [-71.08607491189775, 41.783291979812645], [-71.08604407809531, 41.782743215811735], [-71.08546334386347, 41.78287953508634], [-71.08479087463158, 41.78333345214207], [-71.08466897687265, 41.784389804824706], [-71.08381380940651, 41.78507152538945], [-71.08366065329214, 41.78578618447588], [-71.08304941652446, 41.786329234522235], [-71.08347829690483, 41.78896041023407], [-71.08375377370209, 41.78923490078956], [-71.08503725187693, 41.78978824195588], [-71.08537454750268, 41.79024133275106], [-71.08427402437424, 41.79106340332357], [-71.08384645744704, 41.79168365798112], [-71.08366319000979, 41.79323666633228], [-71.083356882292, 41.793305324875405], [-71.08308253662173, 41.79305784838574], [-71.08283819935899, 41.79221568581142], [-71.08237947016406, 41.791935452784806], [-71.07883335445786, 41.79312607664195], [-71.07846664963121, 41.79431262807276], [-71.07846719050623, 41.7947718132977], [-71.07865093531504, 41.794930622781536], [-71.07950654179977, 41.79475314338468], [-71.07990379802202, 41.794863218560174], [-71.08005734797936, 41.79521210633784], [-71.07996562553936, 41.79612338199058], [-71.08011867913376, 41.796606763461156], [-71.08149442209647, 41.79781605309011], [-71.08259537729164, 41.800084492458204], [-71.08238158221918, 41.800376893226776], [-71.08253484479825, 41.80086027200504], [-71.08391123158697, 41.802394221368964], [-71.08424828588915, 41.80511735200447], [-71.08327039473136, 41.807243687444206], [-71.08351499346045, 41.80796881155702], [-71.0839440320872, 41.80786176790042], [-71.08492132234815, 41.80625875792154], [-71.08547181600608, 41.80600528425509], [-71.08580768525388, 41.806026195876896], [-71.08629661635999, 41.806278387880795], [-71.08669475061733, 41.80675814731108], [-71.08698083441288, 41.80677437316541], [-71.08736799149493, 41.80651129491058], [-71.08749009962777, 41.80600472708931], [-71.08828372656163, 41.80513480678602], [-71.0891401310205, 41.804704599134055], [-71.0914328615157, 41.80438365030803], [-71.09464291069924, 41.80424373267048], [-71.09519363304253, 41.804449962822126], [-71.09543844367138, 41.80483291676464], [-71.0952557556008, 41.80609783833836], [-71.09589787550625, 41.80618508304512], [-71.09678440986401, 41.8052045812171], [-71.09815863180052, 41.804584810341375], [-71.0976383461401, 41.803486789504774], [-71.09769965232454, 41.8030081325354], [-71.09809689006556, 41.80259536910748], [-71.09638362999594, 41.80085162497707], [-71.09623055695654, 41.80035025870575], [-71.09641343261995, 41.800121315016085], [-71.09751454088125, 41.79971385261805], [-71.09797258384118, 41.79931818601311], [-71.09800304858244, 41.7988675562062], [-71.09867517045497, 41.79817945798312], [-71.09870532054586, 41.79733210208646], [-71.10160764187218, 41.79474756820274], [-71.10234068467884, 41.793832888235556], [-71.10350074021068, 41.790902320440054], [-71.10377548888583, 41.79049136206064], [-71.10478355095057, 41.78980665534623], [-71.1054557077212, 41.78865933486532], [-71.11012992679441, 41.78554611800731], [-71.1114422948057, 41.78360357572028], [-71.11187094911882, 41.78330735104296], [-71.11287860701634, 41.783027165700865], [-71.11434647633901, 41.78335176967129], [-71.114653890105, 41.78579672307422], [-71.11535847788211, 41.78815297163531], [-71.11566534300337, 41.78988606993273], [-71.11606298540653, 41.79043719551488], [-71.11719497114603, 41.791101073262034], [-71.11854104342771, 41.79290517568483], [-71.11860288566838, 41.79359753233802], [-71.11805361330342, 41.79453544098753], [-71.11646440120577, 41.795429336403245], [-71.11631241067418, 41.79647718292069], [-71.11600762162948, 41.797140728268346], [-71.11579534154593, 41.79961318618991], [-71.11591856663638, 41.80075480411722], [-71.11570501660897, 41.80128135151114], [-71.11533877679052, 41.80127899080062], [-71.11506322571402, 41.801049595018426], [-71.11423701571171, 41.79991179373728], [-71.11393069176695, 41.79995352364111], [-71.11374774522395, 41.8003895771385], [-71.11377866674357, 41.80068623256571], [-71.115492217424, 41.80215004572206], [-71.11640995203169, 41.803520554745084], [-71.11723900129545, 41.806955951788545], [-71.11723956405824, 41.80786531395634], [-71.11699596542094, 41.808257276441005], [-71.11644560204219, 41.808600938033685], [-71.11522232869879, 41.809055997900735], [-71.11412285179256, 41.81027451609829], [-71.11345052263367, 41.81075505483385], [-71.11131066482164, 41.81148832304786], [-71.11051723285405, 41.81304323253819], [-71.10889712836234, 41.81373039410303], [-71.10819400707462, 41.81437398604459], [-71.10746127885754, 41.81539674704205], [-71.10782841574239, 41.816335506864924], [-71.10834944976239, 41.816776788873966], [-71.10834964910906, 41.81747962595656], [-71.10813630991835, 41.81825826865453], [-71.10847296805755, 41.81862125144244], [-71.10981831664257, 41.81878567634428], [-71.11024725434807, 41.81912927877896], [-71.11165381239051, 41.81887804357451], [-71.11354962424832, 41.81901446904368], [-71.11477380982572, 41.819811492149796], [-71.11462237531279, 41.822652162209074], [-71.11477542087108, 41.823127058915986], [-71.11550998104289, 41.823699013195025], [-71.11682596037687, 41.82435900985524], [-71.11707144166557, 41.825480777419294], [-71.11649141733933, 41.826446710699294], [-71.11404619514701, 41.8277979985107], [-71.1138932026106, 41.828278045522154], [-71.11392465060004, 41.82914249349956], [-71.11331396814211, 41.829721153930684], [-71.11086687694059, 41.830423553239015], [-71.10973606526352, 41.83100322780783], [-71.10894054650366, 41.83168421498991], [-71.1077185680246, 41.8336529230489], [-71.10726068692894, 41.83384154739032], [-71.1072608777697, 41.834543825531505], [-71.10661901381805, 41.83509645769587], [-71.10668159004352, 41.83626656868432], [-71.10686489583868, 41.83665041903368], [-71.10735436356123, 41.837019558231425], [-71.10772193315071, 41.83818397431386], [-71.10882454738648, 41.83965027145654], [-71.10965121375794, 41.84047299406077], [-71.11026406032889, 41.84168662567519], [-71.11038704343375, 41.84234262140297], [-71.11032698694976, 41.844226409230956], [-71.11048050729399, 41.84456569213324], [-71.11142861029062, 41.84548109327246], [-71.11256236949794, 41.84712191166926], [-71.11253231623466, 41.847609126582924], [-71.11213573436176, 41.848499130015924], [-71.11146342013272, 41.84918729715088], [-71.11063837110315, 41.85041853726372], [-71.10944533215881, 41.85126922884015], [-71.10767122685814, 41.85193222207725], [-71.10681573341687, 41.85271426910226], [-71.10696896600079, 41.853557754120374], [-71.10779490681314, 41.85421842255344], [-71.10804068550453, 41.854673379008965], [-71.10801071586705, 41.855385681505425], [-71.1067887854678, 41.857633488156544], [-71.10669763292512, 41.858499765012944], [-71.10645284177193, 41.85913479613986], [-71.1058410318344, 41.8596864021001], [-71.10386484823445, 41.86039365614124], [-71.10379172130123, 41.86056165144194], [-71.10431354760517, 41.863597655886124], [-71.10434537717424, 41.86511036103566], [-71.10370535929545, 41.86822111370182], [-71.10260446677741, 41.86997972775195], [-71.10254369425726, 41.870368360874025], [-71.10187133478946, 41.871191524460514], [-71.10107572036529, 41.87158434341657], [-71.09801546386419, 41.87209074091815], [-71.09382278680675, 41.87239271186376], [-71.09314926428259, 41.87263903547962], [-71.09288073195233, 41.87292337300695], [-71.07735799804182, 41.87273976595228], [-71.07218793544729, 41.869672799319886], [-71.05894193070576, 41.86293104134077], [-71.0319459990127, 41.84882123015979], [-71.00798900275697, 41.837965054223226]]]}}