{"type": "Feature", "properties": {"district_name": "11th Hampden District", "chamber": "house", "vintage": "2012-2020"}, "geometry": {"type": "Polygon", "coordinates": [[[-72.58402699999999, 42.10225199999999], [-72.58151699999999, 42.10426000000001], [-72.582199, 42.104905], [-72.577035, 42.108074], [-72.578816, 42.110461], [-72.578431, 42.112111000000006], [-72.57853899999999, 42.11263100000001], [-72.582187, 42.115821], [-72.58279300000001, 42.117549999999994], [-72.583636, 42.11849000000001], [-72.576728, 42.12102899999999], [-72.574933, 42.121846], [-72.568517, 42.125969], [-72.568685, 42.125809999999994], [-72.566915, 42.126670000000004], [-72.566694, 42.131886999999985], [-72.566964, 42.13192899999998], [-72.571283, 42.129978], [-72.573301, 42.13246099999999], [-72.571021, 42.13408600000001], [-72.57091799999999, 42.13394399999999], [-72.569074, 42.135165], [-72.552026, 42.143995], [-72.55080199999999, 42.14336000000001], [-72.550131, 42.142615000000006], [-72.546928, 42.137094000000005], [-72.546554, 42.13605300000002], [-72.546188, 42.133634999999984], [-72.545737, 42.133767], [-72.545509, 42.13331399999999], [-72.542812, 42.13348199999999], [-72.542677, 42.132637], [-72.540714, 42.13267300000001], [-72.535918, 42.13117700000001], [-72.535595, 42.131654], [-72.53575099999999, 42.132401999999985], [-72.535535, 42.13292599999999], [-72.533952, 42.132385], [-72.53470999999999, 42.130790999999995], [-72.53300999999999, 42.13001299999999], [-72.531171, 42.129619999999996], [-72.528258, 42.129763], [-72.526528, 42.13119799999998], [-72.526066, 42.130961], [-72.519742, 42.13166100000001], [-72.51979299999999, 42.13187800000001], [-72.518891, 42.13200499999999], [-72.518563, 42.130695], [-72.51489800000002, 42.131062], [-72.514881, 42.130648], [-72.51512100000001, 42.130569], [-72.513832, 42.12957599999999], [-72.51410299999999, 42.129471999999986], [-72.514827, 42.128669000000016], [-72.514892, 42.12804899999998], [-72.51543199999999, 42.12734900000001], [-72.516161, 42.12695899999999], [-72.516499, 42.12658800000002], [-72.516621, 42.124920999999986], [-72.517727, 42.12336399999999], [-72.51763100000001, 42.123068999999994], [-72.51791399999999, 42.12231899999999], [-72.519588, 42.122044], [-72.520203, 42.120180000000005], [-72.523515, 42.11809899999999], [-72.52383499999999, 42.118043], [-72.524134, 42.118207], [-72.52443199999999, 42.118092], [-72.524109, 42.116409000000004], [-72.524175, 42.11561899999999], [-72.523872, 42.113813000000015], [-72.523674, 42.11330299999998], [-72.52328, 42.11286699999999], [-72.522212, 42.11214400000001], [-72.520016, 42.112475999999994], [-72.518743, 42.113025], [-72.517888, 42.107461000000015], [-72.518219, 42.106376], [-72.517828, 42.104005000000015], [-72.521523, 42.103597000000015], [-72.52175299999999, 42.104642999999996], [-72.522136, 42.10476399999999], [-72.524446, 42.104318], [-72.52508399999999, 42.103981000000005], [-72.525168, 42.104064000000015], [-72.52663900000002, 42.10355499999999], [-72.527658, 42.103776], [-72.52949900000002, 42.103694], [-72.53258699999999, 42.10562999999999], [-72.533931, 42.107693999999995], [-72.542531, 42.10789400000001], [-72.543823, 42.10581199999999], [-72.546415, 42.105727], [-72.54616399999999, 42.10518600000002], [-72.545563, 42.104903], [-72.54236399999999, 42.10491700000001], [-72.540206, 42.10513100000001], [-72.539205, 42.10497300000001], [-72.53814899999999, 42.104449], [-72.53768099999999, 42.103972000000006], [-72.53734399999999, 42.10346399999998], [-72.537297, 42.102744], [-72.538152, 42.10065599999998], [-72.538178, 42.099771999999994], [-72.540019, 42.09961], [-72.541366, 42.099134], [-72.540824, 42.095326], [-72.54201599999999, 42.094842999999976], [-72.54303999999999, 42.094208000000016], [-72.544664, 42.093112999999995], [-72.545452, 42.092228000000006], [-72.54244899999999, 42.09195600000001], [-72.542074, 42.08924800000001], [-72.552363, 42.087245], [-72.55083499999999, 42.08487600000001], [-72.557763, 42.086267], [-72.556604, 42.08643800000001], [-72.557099, 42.087832], [-72.555998, 42.08805599999997], [-72.556378, 42.089164999999994], [-72.555302, 42.089382], [-72.552629, 42.091315000000016], [-72.551084, 42.09162400000002], [-72.551316, 42.09311899999999], [-72.551186, 42.09328899999999], [-72.552669, 42.09359199999999], [-72.555475, 42.094483], [-72.561238, 42.096509999999995], [-72.56324, 42.096692], [-72.563617, 42.09711399999998], [-72.564273, 42.099033999999996], [-72.564819, 42.099650999999994], [-72.57109299999999, 42.10391800000001], [-72.571884, 42.103261], [-72.57164999999999, 42.10225499999999], [-72.571213, 42.101566], [-72.57334, 42.100069999999995], [-72.574934, 42.09962500000001], [-72.57568100000002, 42.099754000000004], [-72.57849399999999, 42.099501], [-72.580235, 42.100522], [-72.576814, 42.10330000000001], [-72.576576, 42.103570000000005], [-72.57692999999999, 42.10411], [-72.577789, 42.103663], [-72.578623, 42.104109], [-72.58161299999999, 42.10149299999999], [-72.58239499999999, 42.10199899999999], [-72.58402699999999, 42.10225199999999]]]}}