{"type": "Feature", "properties": {"district_name": "5th Worcester District", "chamber": "house", "vintage": "2012-2020"}, "geometry": {"type": "Polygon", "coordinates": [[[-72.288414, 42.352239], [-72.288433, 42.35250800000001], [-72.288214, 42.35277500000001], [-72.287793, 42.35290500000001], [-72.28643799999999, 42.352698], [-72.286091, 42.353086999999995], [-72.286076, 42.353367], [-72.286301, 42.35363999999999], [-72.28728699999999, 42.354152000000006], [-72.28720899999999, 42.35474400000001], [-72.287438, 42.35533600000002], [-72.28414, 42.356584000000005], [-72.283931, 42.356893], [-72.28401699999999, 42.357229000000004], [-72.284982, 42.357624], [-72.28573899999999, 42.35770599999999], [-72.28595899999999, 42.357817999999995], [-72.28598099999999, 42.358016], [-72.285318, 42.358319999999985], [-72.28461999999999, 42.35978599999999], [-72.285467, 42.36055699999999], [-72.285406, 42.360842], [-72.284637, 42.360885999999994], [-72.284337, 42.361219], [-72.28482799999999, 42.36251499999998], [-72.285152, 42.364604], [-72.28523799999999, 42.367841000000006], [-72.285045, 42.369326], [-72.285063, 42.37315300000001], [-72.284823, 42.37331100000001], [-72.284333, 42.37332], [-72.28410900000002, 42.373176], [-72.28424199999999, 42.372755999999995], [-72.28405699999999, 42.37255], [-72.28361699999999, 42.37238400000001], [-72.2835, 42.372559999999986], [-72.282634, 42.372398999999994], [-72.28207499999999, 42.371885], [-72.281655, 42.371990999999994], [-72.28098, 42.372513999999995], [-72.280287, 42.37376999999999], [-72.279511, 42.374565999999994], [-72.280477, 42.37508199999999], [-72.280931, 42.37613899999999], [-72.280481, 42.37680399999999], [-72.28146, 42.37674599999999], [-72.281013, 42.37766599999999], [-72.28119, 42.377826999999996], [-72.281814, 42.377883999999995], [-72.28185599999999, 42.37824299999999], [-72.28150099999999, 42.37866499999999], [-72.280434, 42.378918000000006], [-72.28002599999999, 42.37928499999998], [-72.279555, 42.38069099999999], [-72.278643, 42.38218], [-72.276748, 42.38294499999999], [-72.274019, 42.384542], [-72.273957, 42.385995000000015], [-72.273247, 42.38711100000001], [-72.27296299999999, 42.387933000000004], [-72.272337, 42.388678], [-72.27286099999999, 42.389136000000015], [-72.272599, 42.389657], [-72.270378, 42.39042900000001], [-72.269784, 42.39035500000001], [-72.26927599999999, 42.390028999999984], [-72.26847400000001, 42.390297999999994], [-72.267927, 42.389995], [-72.267573, 42.38904600000001], [-72.266764, 42.388366000000005], [-72.26595999999999, 42.38727699999998], [-72.26578599999999, 42.38714800000002], [-72.26490799999999, 42.38715899999998], [-72.264118, 42.38662000000001], [-72.25822099999999, 42.393530999999996], [-72.244323, 42.38828000000001], [-72.24226300000001, 42.38810099999999], [-72.241601, 42.388288], [-72.240945, 42.38877800000001], [-72.241021, 42.38908300000001], [-72.240565, 42.389507], [-72.238976, 42.390114000000004], [-72.23798, 42.390690000000006], [-72.237816, 42.391203], [-72.23814399999999, 42.392308], [-72.239081, 42.393145999999994], [-72.23928699999999, 42.393643999999995], [-72.23884699999999, 42.394189], [-72.238512, 42.39526900000001], [-72.23814800000001, 42.395557000000004], [-72.236774, 42.396067000000016], [-72.236519, 42.39725200000001], [-72.235001, 42.39810399999999], [-72.233293, 42.39879], [-72.23109, 42.398900000000005], [-72.230211, 42.399572], [-72.229688, 42.400310999999995], [-72.219168, 42.395588], [-72.205412, 42.417475], [-72.132526, 42.463522000000005], [-72.116734, 42.473753], [-72.001396, 42.54662400000001], [-71.979721, 42.53238899999999], [-71.91983499999999, 42.491447000000015], [-71.93319100000001, 42.482922999999985], [-71.920293, 42.47453900000001], [-71.968964, 42.444331000000005], [-72.007189, 42.421172], [-72.035114, 42.403966999999994], [-71.99378, 42.31933599999999], [-71.989503, 42.310154999999995], [-71.967231, 42.310683], [-71.96406, 42.297183], [-71.96067, 42.281563], [-71.958624, 42.27322900000001], [-71.948928, 42.230951000000005], [-71.951312, 42.230398000000015], [-71.95465899999999, 42.23456499999998], [-71.95520499999999, 42.235019999999984], [-71.95688299999999, 42.235325], [-71.959155, 42.23481100000001], [-71.960247, 42.235014000000014], [-71.961092, 42.235412000000004], [-71.962634, 42.236566], [-71.963842, 42.23830199999998], [-71.964445, 42.23874299999998], [-71.968383, 42.240272], [-71.97295299999999, 42.243021999999996], [-71.974588, 42.24367499999998], [-71.976086, 42.24405000000001], [-71.978925, 42.245298999999996], [-71.979826, 42.247453], [-71.981382, 42.24962000000001], [-71.983125, 42.24896399999999], [-71.990901, 42.245181], [-71.99242199999999, 42.244068000000006], [-71.991615, 42.24302999999999], [-71.99153799999999, 42.242515], [-71.99178599999999, 42.241265], [-71.99089599999999, 42.238949000000005], [-71.990369, 42.238145], [-71.988249, 42.23612999999999], [-71.98785699999999, 42.234281], [-71.987183, 42.23274199999999], [-71.987173, 42.231438], [-71.988019, 42.22392999999999], [-71.987811, 42.22215299999999], [-71.986852, 42.22107899999999], [-71.985601, 42.22012], [-71.984706, 42.219908999999994], [-71.98320199999999, 42.22011099999999], [-71.982447, 42.21996400000001], [-71.979655, 42.217802000000006], [-71.977952, 42.214934], [-71.976558, 42.213820999999996], [-71.975618, 42.212492000000005], [-71.97426, 42.21197300000001], [-71.973841, 42.211078000000015], [-71.973156, 42.210358], [-71.97251, 42.208228], [-71.972121, 42.205535], [-71.970894, 42.204468], [-71.972838, 42.20308000000001], [-71.974785, 42.202817999999986], [-71.97512499999999, 42.201699999999995], [-71.97440999999999, 42.197706000000004], [-71.974706, 42.19628700000001], [-71.974214, 42.19430900000001], [-71.974187, 42.19189600000001], [-71.97393199999999, 42.190767], [-71.973201, 42.18995300000001], [-71.97311599999999, 42.189635], [-71.973584, 42.18855000000001], [-71.97475899999999, 42.18720299999999], [-71.97480399999999, 42.186910000000005], [-72.019886, 42.18376199999999], [-72.0186, 42.175699], [-72.089483, 42.16721599999999], [-72.086766, 42.15446300000001], [-72.10867999999999, 42.151588], [-72.111505, 42.164391], [-72.12813, 42.16260600000001], [-72.141843, 42.160898], [-72.15011299999999, 42.192364000000005], [-72.153807, 42.207052999999995], [-72.167371, 42.228249000000005], [-72.171054, 42.234266], [-72.173383, 42.235239000000014], [-72.17506800000001, 42.236607000000014], [-72.17693100000001, 42.23698599999999], [-72.177388, 42.237233999999994], [-72.17822699999999, 42.239414000000004], [-72.178839, 42.24277399999999], [-72.17963999999999, 42.245657000000016], [-72.179912, 42.246255999999995], [-72.18112599999999, 42.24607400000001], [-72.182161, 42.247971], [-72.182506, 42.25138700000002], [-72.211187, 42.251262], [-72.211316, 42.25197000000003], [-72.211275, 42.255635], [-72.216138, 42.256143999999985], [-72.216629, 42.259778999999995], [-72.218749, 42.261728], [-72.220238, 42.26228], [-72.221267, 42.262881], [-72.222161, 42.26308299999999], [-72.222577, 42.263056000000006], [-72.223186, 42.262711], [-72.224808, 42.26137000000001], [-72.22666699999999, 42.260576999999984], [-72.229691, 42.26002300000001], [-72.231478, 42.25901500000001], [-72.231994, 42.25842200000001], [-72.232914, 42.258775], [-72.233487, 42.25969099999999], [-72.23473299999999, 42.260476999999995], [-72.235776, 42.260372000000004], [-72.23653, 42.259888999999994], [-72.236978, 42.260321999999995], [-72.241215, 42.262008], [-72.241595, 42.260401999999985], [-72.242583, 42.26061299999999], [-72.24444799999999, 42.260650999999996], [-72.24667699999999, 42.260247], [-72.249192, 42.25938300000001], [-72.25137699999999, 42.25947399999999], [-72.252985, 42.259871000000004], [-72.25125, 42.265914], [-72.24966599999999, 42.26792299999999], [-72.247856, 42.267563], [-72.247365, 42.272088], [-72.24728499999999, 42.274916999999995], [-72.246938, 42.275791], [-72.24665499999999, 42.277591999999984], [-72.245575, 42.279765999999995], [-72.244969, 42.281557], [-72.24495999999999, 42.28262], [-72.24522499999999, 42.283885000000005], [-72.245063, 42.285573], [-72.24463, 42.28676999999999], [-72.244648, 42.288365999999996], [-72.243914, 42.29073999999999], [-72.24408799999999, 42.291956000000006], [-72.24457799999999, 42.292909], [-72.245402, 42.29550899999999], [-72.24501599999999, 42.29659], [-72.24489799999999, 42.297644000000005], [-72.24445899999999, 42.298646], [-72.244564, 42.30210899999999], [-72.24368199999999, 42.30342], [-72.2437, 42.30404], [-72.244431, 42.30519], [-72.24456599999999, 42.30608699999999], [-72.26153699999999, 42.30329599999999], [-72.261978, 42.305264000000015], [-72.274639, 42.301963000000015], [-72.280138, 42.32907699999999], [-72.277152, 42.329395999999996], [-72.278471, 42.336508], [-72.2814, 42.336222000000014], [-72.284239, 42.35205699999999], [-72.28873399999999, 42.35202400000001], [-72.288414, 42.352239]]]}}