{"type": "Feature", "properties": {"district_name": "1st Bristol District", "chamber": "house", "vintage": "2012-2020"}, "geometry": {"type": "Polygon", "coordinates": [[[-71.289424, 42.059136], [-71.287099, 42.06370699999999], [-71.287707, 42.076933000000004], [-71.285387, 42.08201199999999], [-71.28464799999999, 42.083269], [-71.27173599999999, 42.09844499999999], [-71.255347, 42.10413099999999], [-71.25330199999999, 42.105343999999995], [-71.238829, 42.10640800000001], [-71.238811, 42.10413900000001], [-71.205934, 42.074127000000004], [-71.19637399999999, 42.082468000000006], [-71.196277, 42.082394], [-71.178457, 42.057362], [-71.192629, 42.051824999999994], [-71.19243, 42.05091199999998], [-71.191386, 42.04963], [-71.190743, 42.048317], [-71.190387, 42.046655000000015], [-71.19026099999999, 42.043561], [-71.190021, 42.04269599999999], [-71.187985, 42.040386], [-71.187589, 42.03950900000001], [-71.18759399999999, 42.038508000000014], [-71.188209, 42.036342999999995], [-71.188301, 42.033663999999995], [-71.189263, 42.03162399999999], [-71.185254, 42.03065400000001], [-71.182277, 42.029228], [-71.180816, 42.028748], [-71.161448, 42.02601000000001], [-71.15644999999999, 42.001042000000034], [-71.100854, 41.993151], [-71.126128, 41.966645], [-71.15567, 41.937999], [-71.158772, 41.93577], [-71.15921399999999, 41.937235], [-71.160792, 41.940112000000006], [-71.16146499999999, 41.94096], [-71.16233, 41.941689999999994], [-71.163994, 41.942564000000004], [-71.175669, 41.946373], [-71.182323, 41.951257000000005], [-71.183584, 41.953872], [-71.185535, 41.956618000000006], [-71.185934, 41.957412000000005], [-71.187001, 41.962022999999995], [-71.186955, 41.96594399999999], [-71.187146, 41.96637899999999], [-71.187767, 41.96705300000001], [-71.190908, 41.96439600000001], [-71.19229899999999, 41.963488999999996], [-71.198515, 41.961595999999986], [-71.199863, 41.96628300000001], [-71.200153, 41.96670999999999], [-71.201893, 41.96813199999998], [-71.203823, 41.97375200000001], [-71.204993, 41.973578], [-71.20671, 41.973693000000004], [-71.20716, 41.97606599999999], [-71.207455, 41.976352000000006], [-71.20930299999999, 41.975472999999994], [-71.210023, 41.975437], [-71.21147599999999, 41.976827], [-71.21283, 41.977346], [-71.213971, 41.97807999999999], [-71.21413299999999, 41.979017999999996], [-71.21431799999999, 41.97921300000001], [-71.216056, 41.979800999999995], [-71.216383, 41.98033500000002], [-71.216573, 41.981074000000014], [-71.216505, 41.98201199999999], [-71.21717000000001, 41.98259400000002], [-71.217395, 41.983828], [-71.217781, 41.984122000000006], [-71.21794, 41.984682], [-71.21854499999999, 41.985445], [-71.218749, 41.985994000000005], [-71.219932, 41.98625100000001], [-71.220945, 41.988073], [-71.221345, 41.98823200000001], [-71.221469, 41.98857699999999], [-71.259289, 41.974216], [-71.260361, 41.975674], [-71.225173, 42.02533500000003], [-71.22399399999999, 42.02424999999998], [-71.22379, 42.023423], [-71.214366, 42.024966], [-71.216115, 42.02687499999998], [-71.21477, 42.027115000000016], [-71.215324, 42.02908999999997], [-71.215008, 42.029132], [-71.215142, 42.030507], [-71.218459, 42.0301], [-71.218723, 42.03331999999999], [-71.218199, 42.03455600000001], [-71.218221, 42.03517399999999], [-71.21158, 42.04442800000001], [-71.28826500000001, 42.014461999999995], [-71.289424, 42.059136]]]}}