{"type": "Feature", "properties": {"district_name": "17th Essex", "chamber": "house", "vintage": "2001-2010"}, "geometry": {"type": "Polygon", "coordinates": [[[-71.15720208101632, 42.694891137963204], [-71.16020195000694, 42.69389120718363], [-71.16140295459046, 42.69649181442539], [-71.16270204437312, 42.69629081511505], [-71.16240203101154, 42.6955911576428], [-71.16360192697076, 42.695390983833114], [-71.16330192313137, 42.694690761407216], [-71.16570196894288, 42.694091213582084], [-71.16710192290564, 42.691391267920736], [-71.16910201826228, 42.690891211895845], [-71.17180194079555, 42.69059114562256], [-71.17300199286859, 42.690191146611], [-71.17280204251705, 42.68919078781798], [-71.17330197660094, 42.68669075938269], [-71.17190195916298, 42.687391204809565], [-71.17110193975574, 42.686991158432434], [-71.17210195955077, 42.68589124828336], [-71.17150192644552, 42.684291113952185], [-71.17260206074427, 42.68409113033401], [-71.1724019606471, 42.68239085849117], [-71.17100197164095, 42.68259112155427], [-71.16900202044422, 42.68239074328043], [-71.16900202834609, 42.68159124334859], [-71.16950200102991, 42.679791135792634], [-71.16929799912707, 42.67852688708545], [-71.1599020107841, 42.67999116113194], [-71.15540192481143, 42.68109127359232], [-71.1503010472639, 42.681590766669224], [-71.14530093249928, 42.679790872498266], [-71.13440100570476, 42.67679072767644], [-71.1290009126272, 42.67459107264632], [-71.12670095371423, 42.67159103550485], [-71.1277010610438, 42.669791021336216], [-71.12770103570655, 42.66899095834984], [-71.12880097618005, 42.668090908680234], [-71.13000090666583, 42.666290956445636], [-71.13040093710296, 42.66529075015419], [-71.13310100703816, 42.66399123631299], [-71.13510096618619, 42.66259098553076], [-71.13620095148947, 42.66039173945313], [-71.13880103486359, 42.65879188841516], [-71.14070102916087, 42.65689217503307], [-71.14130109011096, 42.654892186854205], [-71.14300093338709, 42.65179226621123], [-71.14430106858946, 42.648891953596035], [-71.14290092297362, 42.64819221748422], [-71.1436009175589, 42.643891907119716], [-71.1438009574087, 42.64359207627795], [-71.14440091391207, 42.640691845428854], [-71.14390095256194, 42.63999206869041], [-71.14320097982252, 42.63969227858211], [-71.14220007168535, 42.635692207515966], [-71.14159996982464, 42.63499210933157], [-71.14480000965047, 42.632492069886894], [-71.14809990157985, 42.6278919102561], [-71.15600096855957, 42.627092008341826], [-71.15828100244539, 42.62557627560604], [-71.15970203640562, 42.626508825194854], [-71.16050101806616, 42.61839172204155], [-71.1616010232916, 42.61549172622979], [-71.15730008915554, 42.615491988352915], [-71.155399982056, 42.61599214358355], [-71.15596792637606, 42.61504297405303], [-71.15732302080742, 42.61421598701123], [-71.15862204223689, 42.61294319748422], [-71.15924608744628, 42.60783794795884], [-71.16070606242731, 42.6052152665408], [-71.16366206476978, 42.602135007468846], [-71.16501703975315, 42.59796526005354], [-71.17030095522716, 42.601592080687425], [-71.18120092924433, 42.60799179857144], [-71.18111697337459, 42.60847599643415], [-71.18198107324999, 42.60791573819355], [-71.18174098717367, 42.60402778970802], [-71.18247697303255, 42.60514778102247], [-71.18326108943008, 42.60484385751571], [-71.18314896080115, 42.60559580644519], [-71.1839489925033, 42.606524107201096], [-71.18376202011478, 42.60693825757423], [-71.1854850119086, 42.606075937531685], [-71.18916507948745, 42.60678020253445], [-71.19002892888918, 42.60478007907003], [-71.19143704475701, 42.60301997312612], [-71.1933569774392, 42.60722802059617], [-71.19498901565349, 42.608924200276036], [-71.19556501020648, 42.60975617812637], [-71.1983009569047, 42.611003985798085], [-71.2029089561046, 42.61257219596221], [-71.20801400802662, 42.612379848888764], [-71.2150380114187, 42.612732170776546], [-71.22119799220033, 42.611643866296035], [-71.2252940614938, 42.60794813569269], [-71.22590198099311, 42.607092116350074], [-71.22599807603024, 42.60666811345983], [-71.23166193457706, 42.611099831898144], [-71.23134196020142, 42.611916040663544], [-71.2316460769179, 42.61321194382529], [-71.23171005425914, 42.61455623310358], [-71.23070202817821, 42.61679206456325], [-71.22958207294973, 42.61833220271636], [-71.22897409277631, 42.61967605048079], [-71.25240305493861, 42.62289180382583], [-71.25130302619411, 42.624990885567065], [-71.25270307942252, 42.62739072409161], [-71.25680293688225, 42.630591268542986], [-71.25860302247085, 42.63099114002406], [-71.25970309480155, 42.630390846263104], [-71.26080295557911, 42.630790917079736], [-71.26010292067026, 42.63139091845175], [-71.26107090953657, 42.63125901742584], [-71.26873500035967, 42.628827150239054], [-71.27409507877076, 42.626506760847725], [-71.27596694523127, 42.62546727897342], [-71.27463896432393, 42.62898679773715], [-71.27123104388824, 42.64346681529211], [-71.27150395013038, 42.648591248969424], [-71.27470409474671, 42.65599108179739], [-71.26420397840646, 42.657691217736875], [-71.25610297967405, 42.65669092484423], [-71.25030307731545, 42.660591074944904], [-71.24950299531454, 42.660888104932994], [-71.24219807297851, 42.662299997244126], [-71.23810303456304, 42.66949076229692], [-71.2344479479297, 42.67207783587131], [-71.22963698957444, 42.677824057206074], [-71.22770804200506, 42.68085716202901], [-71.22565405285224, 42.68572296497], [-71.22532504379649, 42.68785003743441], [-71.22539692248598, 42.690689219507476], [-71.22525104957458, 42.692044800972745], [-71.22483796226399, 42.693459951504224], [-71.22160298086472, 42.69819006849733], [-71.21510291247283, 42.70108975673831], [-71.20990299662778, 42.70049001670043], [-71.20121590670338, 42.69872488668843], [-71.1961539382736, 42.69864924103838], [-71.19525407375076, 42.698488212825495], [-71.18870200465852, 42.6961910019051], [-71.18960294138884, 42.703389964522366], [-71.19040307723567, 42.70758984185178], [-71.19069305454258, 42.71067604353999], [-71.18746308137521, 42.71231922142772], [-71.1833030029066, 42.71488978516234], [-71.18180291235728, 42.71388982647359], [-71.18020305660991, 42.71219022736477], [-71.18120300544517, 42.71179014976269], [-71.18170294432501, 42.710390037029875], [-71.18150307606534, 42.70868979708507], [-71.1811019696269, 42.707489745303654], [-71.18120206146935, 42.70569018277298], [-71.1816019066803, 42.70468981321891], [-71.1831020386274, 42.704689999667515], [-71.18270192426701, 42.70298977688815], [-71.18250192477272, 42.70279005887491], [-71.18190191442272, 42.70099026121192], [-71.183502058752, 42.70069026705284], [-71.18310198347999, 42.699590927248174], [-71.18150191961956, 42.699991063407516], [-71.17870194920883, 42.701290858568015], [-71.17910190780498, 42.70229006563101], [-71.17540205525871, 42.703990119065836], [-71.17500200636849, 42.70409026795248], [-71.17440195260467, 42.703590094705014], [-71.17440202639679, 42.701991115206965], [-71.17640194413966, 42.701691218846626], [-71.17620202801498, 42.70059073175754], [-71.17730191876389, 42.70049084131807], [-71.17770193543588, 42.69909101992565], [-71.17780196926995, 42.697690928232774], [-71.17760207301173, 42.69599124110084], [-71.1746020494077, 42.694990923412185], [-71.17380208221932, 42.69489077249296], [-71.17610691577164, 42.69376581445934], [-71.17500195725594, 42.69269090596132], [-71.17320209068663, 42.69469103388979], [-71.16750203337153, 42.69769102738039], [-71.16600198266622, 42.69889072377609], [-71.16480195907695, 42.700391145360854], [-71.16450203854136, 42.70099115960435], [-71.16490209312005, 42.70139122540501], [-71.16020190359654, 42.703290994248384], [-71.15970202874462, 42.70259074397156], [-71.1594019020709, 42.701491057657705], [-71.15960193354903, 42.700190856354496], [-71.15940205133404, 42.69949091952018], [-71.16070193966975, 42.697491234297516], [-71.15870197942431, 42.69809073447103], [-71.15720208101632, 42.694891137963204]]]}}