{"type": "Feature", "properties": {"district_name": "16th Essex", "chamber": "house", "vintage": "2001-2010"}, "geometry": {"type": "Polygon", "coordinates": [[[-71.16550198107541, 42.72249021195495], [-71.16740204986806, 42.721690016571365], [-71.16670192202724, 42.72119007695014], [-71.16720207323654, 42.72069022554445], [-71.16680198272525, 42.71919024933601], [-71.16530196514393, 42.71939014620738], [-71.16220199896365, 42.72049006762684], [-71.16180202320052, 42.72008999554781], [-71.16090205689767, 42.71959000307451], [-71.1593019183395, 42.71939007599255], [-71.15840194654987, 42.7200901323141], [-71.15790195822034, 42.71938987814942], [-71.15570202448197, 42.72038988671763], [-71.15570193139695, 42.71998985765966], [-71.15530193449707, 42.719289889710545], [-71.15330206383271, 42.71939025326148], [-71.15320197027545, 42.71869005104066], [-71.15260199536006, 42.71748986476332], [-71.15020193429103, 42.7136899852934], [-71.14730207489077, 42.714890261362974], [-71.1464020057551, 42.71349108201923], [-71.14510200291086, 42.71428995979382], [-71.1437020842021, 42.713091210623205], [-71.14240204428164, 42.71399077224676], [-71.14160208167283, 42.713691231032], [-71.13830208649252, 42.71439098986038], [-71.13380200465208, 42.71359084041586], [-71.13510207949385, 42.70879126285672], [-71.13680207366767, 42.70739117700913], [-71.13860191730802, 42.70669072532871], [-71.14590191402547, 42.70549128485587], [-71.15030190765026, 42.70449082264677], [-71.15340206121799, 42.704290858753346], [-71.15330202024606, 42.69469103467623], [-71.15380199087127, 42.69469084028299], [-71.15350206206053, 42.693891011690155], [-71.15630197485598, 42.69309087759587], [-71.15670206585969, 42.69399114404653], [-71.15610202360666, 42.69409119196436], [-71.15720208101632, 42.694891137963204], [-71.15870197942431, 42.69809073447103], [-71.16070193966975, 42.697491234297516], [-71.15940205133404, 42.69949091952018], [-71.15960193354903, 42.700190856354496], [-71.1594019020709, 42.701491057657705], [-71.15970202874462, 42.70259074397156], [-71.16020190359654, 42.703290994248384], [-71.16490209312005, 42.70139122540501], [-71.16450203854136, 42.70099115960435], [-71.16480195907695, 42.700391145360854], [-71.16600198266622, 42.69889072377609], [-71.16750203337153, 42.69769102738039], [-71.17320209068663, 42.69469103388979], [-71.17500195725594, 42.69269090596132], [-71.17610691577164, 42.69376581445934], [-71.17380208221932, 42.69489077249296], [-71.1746020494077, 42.694990923412185], [-71.17760207301173, 42.69599124110084], [-71.17780196926995, 42.697690928232774], [-71.17770193543588, 42.69909101992565], [-71.17730191876389, 42.70049084131807], [-71.17620202801498, 42.70059073175754], [-71.17640194413966, 42.701691218846626], [-71.17440202639679, 42.701991115206965], [-71.17440195260467, 42.703590094705014], [-71.17500200636849, 42.70409026795248], [-71.17540205525871, 42.703990119065836], [-71.17910190780498, 42.70229006563101], [-71.17870194920883, 42.701290858568015], [-71.18150191961956, 42.699991063407516], [-71.18310198347999, 42.699590927248174], [-71.183502058752, 42.70069026705284], [-71.18190191442272, 42.70099026121192], [-71.18250192477272, 42.70279005887491], [-71.18270192426701, 42.70298977688815], [-71.1831020386274, 42.704689999667515], [-71.1816019066803, 42.70468981321891], [-71.18120206146935, 42.70569018277298], [-71.1811019696269, 42.707489745303654], [-71.18150307606534, 42.70868979708507], [-71.18170294432501, 42.710390037029875], [-71.18120300544517, 42.71179014976269], [-71.18020305660991, 42.71219022736477], [-71.18180291235728, 42.71388982647359], [-71.1833030029066, 42.71488978516234], [-71.18200393489795, 42.71559118232074], [-71.18130296450872, 42.716190133629496], [-71.17860303916478, 42.71789022574077], [-71.17845504236855, 42.717811047376365], [-71.17800300194813, 42.71798982894842], [-71.17810307370688, 42.718189833731834], [-71.17390292214124, 42.721090199280496], [-71.17210302819065, 42.72208995323434], [-71.1706029232689, 42.7233898474344], [-71.16750192782467, 42.72239020470658], [-71.16550198107541, 42.72249021195495]]]}}