{"type": "Feature", "properties": {"district_name": "2nd Plymouth", "chamber": "house", "vintage": "2001-2010"}, "geometry": {"type": "MultiPolygon", "coordinates": [[[[-70.6155381612027, 41.727870568747186], [-70.61623933187353, 41.726383601801814], [-70.61660571776164, 41.726152908628166], [-70.61800988954163, 41.72652057793236], [-70.62008665300606, 41.72678875839699], [-70.62115531039814, 41.72667433295822], [-70.62127747590404, 41.72628528623356], [-70.62051461581802, 41.726314286460614], [-70.62048308755512, 41.725575715982096], [-70.62084862100782, 41.7247783097965], [-70.62118434079873, 41.7247550152125], [-70.62265120356301, 41.72632851965958], [-70.62323140495404, 41.72658172415768], [-70.6244842755797, 41.726564353278796], [-70.62758490527352, 41.72559828344685], [-70.62886872336179, 41.724796630020464], [-70.63045624625923, 41.72422463271728], [-70.6318623933441, 41.72317739639557], [-70.63397176852641, 41.72084117335912], [-70.63415511931214, 41.720226354015914], [-70.63415542256351, 41.719677113918515], [-70.63339262968213, 41.718903721044434], [-70.63317933638156, 41.71796118176498], [-70.63269152435763, 41.71757198813575], [-70.63296704472884, 41.717027653617244], [-70.63305996885025, 41.714828581922596], [-70.63321261114525, 41.71451122864902], [-70.63409839522195, 41.71446225336623], [-70.6364181543875, 41.715176557779294], [-70.63742574109435, 41.71570249269945], [-70.63931758089285, 41.71718896098273], [-70.63947060239647, 41.717510884189196], [-70.63947012913071, 41.71785303142411], [-70.63895034427381, 41.718356132652396], [-70.63733177089708, 41.718991606565325], [-70.6361098447804, 41.71995476953588], [-70.63577248119265, 41.72054534565841], [-70.6355591067102, 41.721188067930306], [-70.63561990472672, 41.72171863839979], [-70.63592456061323, 41.722380491979756], [-70.63690133881626, 41.72324947312965], [-70.63687075010313, 41.723456890788654], [-70.63607587662449, 41.72418918747589], [-70.63503641142206, 41.72448292816506], [-70.63384539571688, 41.725094589377335], [-70.62782837647738, 41.72674815611545], [-70.62369068377404, 41.727656175741316], [-70.62369138553397, 41.728070364357734], [-70.62387477048776, 41.72836553055969], [-70.6271224295017, 41.73074839131521], [-70.62739690881223, 41.73111346350761], [-70.62715225082819, 41.73134231523725], [-70.62620591367882, 41.73102273596336], [-70.62448852769825, 41.73099603777629], [-70.62448976208066, 41.73148226224682], [-70.62507631439436, 41.731660097383056], [-70.62507515021653, 41.7320742715304], [-70.62473835293216, 41.732529760648106], [-70.62381804115174, 41.73310456503342], [-70.62369600079127, 41.73337599633472], [-70.62384912780053, 41.73390559130165], [-70.62415490596037, 41.734288929094554], [-70.62412439864734, 41.734541364141094], [-70.62226236118913, 41.734729615948524], [-70.62177415365778, 41.73463750461312], [-70.6215597048275, 41.73438824093144], [-70.6210106525165, 41.73443240039833], [-70.62052227494573, 41.73481748452041], [-70.62076698063808, 41.73562467255404], [-70.62110378814216, 41.73582704400669], [-70.62211075618612, 41.73589390472523], [-70.62253889241607, 41.73625736386524], [-70.62266120127323, 41.73665166320266], [-70.62009783906623, 41.7378142251388], [-70.61957889597791, 41.738506330198085], [-70.61915132777365, 41.73878271450286], [-70.6161576137285, 41.73864471779167], [-70.61542565129854, 41.73843869567202], [-70.614996934562, 41.73852596281691], [-70.61463134628083, 41.73880111921753], [-70.61466154193099, 41.73916995929655], [-70.61542583408638, 41.739510729983664], [-70.61573158804846, 41.73981248717248], [-70.6155183011985, 41.74010402767864], [-70.61145725590006, 41.741800613257475], [-70.60983894794204, 41.742327656702926], [-70.6026014066664, 41.74405082926315], [-70.59395829300355, 41.74574774910815], [-70.58968165024662, 41.74697814313845], [-70.58555483480758, 41.7486232075082], [-70.589235820778, 41.74715184988029], [-70.58881193026775, 41.746524931279566], [-70.589861023644, 41.74609718327152], [-70.5913590765508, 41.74580188294304], [-70.59529884449267, 41.744634030257494], [-70.59536395333183, 41.74425412806699], [-70.59508200957949, 41.743497235111654], [-70.59508216066395, 41.743062234592905], [-70.59413483638646, 41.742148107458796], [-70.59392115931726, 41.74134674332882], [-70.59413389751, 41.740889231150454], [-70.59587382862684, 41.73912814265408], [-70.5926351121742, 41.73709279513779], [-70.59226787744916, 41.737002079229875], [-70.59217716762693, 41.73674981094486], [-70.59110682134238, 41.73585775380266], [-70.58948781201438, 41.733822850397324], [-70.59000692925717, 41.73364016678092], [-70.59177797968222, 41.733753918026885], [-70.59251082988052, 41.734073775972725], [-70.5950468873942, 41.73459874201718], [-70.5976118803244, 41.73494099110672], [-70.5974590019894, 41.73446088322277], [-70.5979020709462, 41.73367710157923], [-70.59944988360452, 41.73241303513119], [-70.60069394450886, 41.73214993796903], [-70.60120809187858, 41.73156873710128], [-70.60175585014349, 41.73156293001432], [-70.60198282683204, 41.73126196064664], [-70.60246399161883, 41.731262936201276], [-70.60277592844056, 41.731492187497324], [-70.60326101508066, 41.73097320932046], [-70.60401982575145, 41.73121103594014], [-70.60463582908045, 41.73121307227021], [-70.60558410261609, 41.73060993664344], [-70.60548714626492, 41.73031823767375], [-70.60502903009765, 41.73006590217711], [-70.60493707611543, 41.72963186172794], [-70.60444814075386, 41.729060197676624], [-70.60560811247524, 41.729082821372565], [-70.60597393365211, 41.72860172926279], [-70.60624897186369, 41.728487962012494], [-70.60655381073549, 41.728579268988334], [-70.60628012521187, 41.72956305925053], [-70.60695184547114, 41.73006580078332], [-70.60765496941276, 41.73020299688737], [-70.60820392944314, 41.72981394007985], [-70.60869216725875, 41.7288762779114], [-70.60948498173657, 41.728372071741965], [-70.60991302661253, 41.728302819531336], [-70.61058512688062, 41.728806109753094], [-70.61180616414646, 41.72891974552724], [-70.61180595845634, 41.72839413567421], [-70.61128603445896, 41.727913992342636], [-70.61003415157353, 41.72777703248394], [-70.60948507216636, 41.727503186598604], [-70.60862816221908, 41.72530681649882], [-70.60768103083728, 41.72414125768743], [-70.60767985001446, 41.7236612271007], [-70.6078629937884, 41.72329518205641], [-70.60838206827863, 41.722997056100645], [-70.6089931450618, 41.722996770891136], [-70.6092978757776, 41.72320287086382], [-70.60951194517767, 41.7234999936741], [-70.60966581309583, 41.724506268486984], [-70.61055218366953, 41.72569497128619], [-70.610429958861, 41.726542075933004], [-70.61250782048857, 41.72832476740435], [-70.6129049283047, 41.728507941925166], [-70.61476794009504, 41.72834686383986], [-70.6155381612027, 41.727870568747186]]], [[[-70.6444679946727, 41.73296783424476], [-70.64483374321509, 41.73379106740595], [-70.64483315481925, 41.73459297353261], [-70.64468063179092, 41.73487432717801], [-70.64434447938768, 41.734870117997666], [-70.64431450303968, 41.734023520607074], [-70.64416185615251, 41.733836666762116], [-70.6438866225004, 41.73391281517378], [-70.64361134113537, 41.73441215767688], [-70.6432447624795, 41.734408274644466], [-70.6416267993298, 41.73390930844912], [-70.64126018430444, 41.733545260236745], [-70.64129135905432, 41.733265814256235], [-70.64196372779222, 41.732652418649515], [-70.64266558725653, 41.73219175030426], [-70.64336879762102, 41.73196575809251], [-70.64376578684, 41.73194173213747], [-70.64394890275867, 41.73248897403705], [-70.6444679946727, 41.73296783424476]]], [[[-70.65405600073726, 41.73683744254266], [-70.65414693556835, 41.73743069484895], [-70.6536578434999, 41.73779790649523], [-70.65326120163571, 41.73782141151337], [-70.65252895432094, 41.737346066352316], [-70.65262031820708, 41.736858282002736], [-70.65310921151882, 41.73656310492352], [-70.65362842657973, 41.73647410746632], [-70.65405600073726, 41.73683744254266]]], [[[-70.53942368953231, 41.775012017662206], [-70.53160089683267, 41.773955351729875], [-70.52037421008286, 41.77271586149332], [-70.520433007792, 41.771479988922074], [-70.5232170015412, 41.76802100284822], [-70.52579811102929, 41.76902117135173], [-70.52952385562321, 41.77016609751785], [-70.53202919349395, 41.77121780942078], [-70.53590918326404, 41.7725681192321], [-70.54085812506497, 41.77375790547543], [-70.5433640098006, 41.77394217099397], [-70.54342800607589, 41.775215089686164], [-70.53942368953231, 41.775012017662206]]], [[[-70.73108415958554, 41.90383689816069], [-70.71575816242914, 41.886063251124554], [-70.7090640374981, 41.87760186730808], [-70.70645597301292, 41.87510320904548], [-70.68642306106183, 41.852215042852], [-70.68370315894906, 41.848870936319514], [-70.68053500362656, 41.84552691925342], [-70.68221494476002, 41.84557499091101], [-70.6836389746667, 41.844918904923425], [-70.68488713948838, 41.84400718550878], [-70.68787913027806, 41.84119118378958], [-70.68955895329594, 41.83984692464856], [-70.68984683960878, 41.83800712112253], [-70.6908708416164, 41.837783098847176], [-70.69256713177113, 41.83658297483727], [-70.69365507878392, 41.83611909435474], [-70.6941350808715, 41.83535097291942], [-70.69442287246704, 41.83451902321073], [-70.6948709797245, 41.834070868844975], [-70.69496706680633, 41.832598848196426], [-70.69727103350013, 41.83056727679395], [-70.69743111458948, 41.83010301180658], [-70.69727101026402, 41.829463177911535], [-70.6974951512995, 41.82931900087397], [-70.69831104984948, 41.829655073152026], [-70.69906301407747, 41.82951122589032], [-70.69979889917633, 41.82971897868861], [-70.69997508047115, 41.82883896189256], [-70.70024687139765, 41.82861521350753], [-70.70064700678503, 41.828566804981854], [-70.70269503954546, 41.82880680590161], [-70.70335102157392, 41.829206992792294], [-70.70368706241014, 41.829078783839606], [-70.70487098700885, 41.82931889403188], [-70.7059110737595, 41.82920684004438], [-70.70664709831125, 41.8289508509979], [-70.7070631414867, 41.828438841157514], [-70.70720711996378, 41.82775104731627], [-70.70747902075016, 41.82733481625908], [-70.70802309898606, 41.82687096295847], [-70.70784691646323, 41.82479097420755], [-70.7079588925356, 41.82440683719321], [-70.70891913296768, 41.82344727208703], [-70.70976718310288, 41.82288703490315], [-70.71090280865702, 41.82167094234771], [-70.71151109494312, 41.8213031740199], [-70.71173490879085, 41.82066319687905], [-70.71208715978068, 41.82037525719168], [-70.7125670229663, 41.819590734859005], [-70.71368707997796, 41.81843921828586], [-70.71448699945918, 41.817991162810316], [-70.71479106662694, 41.817399002920155], [-70.71483902882274, 41.81704705746465], [-70.71437516377145, 41.8165351445029], [-70.71469495270054, 41.81640679164651], [-70.7147428713977, 41.81611899836954], [-70.71512716081168, 41.81597477354542], [-70.7155110160805, 41.81525485609003], [-70.71538315686536, 41.81451903672846], [-70.71554304461795, 41.81408682646445], [-70.71531885670932, 41.8127431421936], [-70.71613485416037, 41.81195923442535], [-70.71639109968565, 41.81103078073353], [-70.71715903182165, 41.81002312278199], [-70.71739913484608, 41.8093669316338], [-70.71661508860207, 41.80847072330155], [-70.71743109766622, 41.807895020782986], [-70.71767114966349, 41.807302972172295], [-70.71770284224078, 41.805607088353604], [-70.71682282742835, 41.804230775947076], [-70.71690281625311, 41.80405518299609], [-70.71776714531097, 41.80376680820756], [-70.71787891645151, 41.803575117686975], [-70.7175910220312, 41.80215109081962], [-70.71765508614105, 41.80152688787484], [-70.68173409063125, 41.80333602660031], [-70.66149287767476, 41.804760117338], [-70.65061284046354, 41.805287892219354], [-70.63267684764341, 41.80642408922663], [-70.61645995282323, 41.80547006473632], [-70.62447587319305, 41.79255326800214], [-70.6267880248713, 41.788663856223216], [-70.62728381701783, 41.787351950679074], [-70.62881993399584, 41.787080078970156], [-70.6300678098204, 41.78723986030386], [-70.63069187277034, 41.786855768545685], [-70.63051613556735, 41.78604012828966], [-70.62990793369904, 41.78559204155508], [-70.62982797407003, 41.78503206030696], [-70.63016401617152, 41.78476000510466], [-70.63013204751711, 41.784567868792024], [-70.63061209732483, 41.78437625428445], [-70.63078796806272, 41.78391220843726], [-70.63051593599793, 41.783736239813564], [-70.6305801269901, 41.78308000806426], [-70.63078790019355, 41.78284016999626], [-70.63069204837893, 41.78223223907769], [-70.63094802557474, 41.782152030414274], [-70.63066003525594, 41.78176772387923], [-70.63077183585554, 41.7814798918935], [-70.63051600226123, 41.78088818098898], [-70.63051598961333, 41.780391837778225], [-70.63003611555108, 41.78010398329935], [-70.6293159118195, 41.780072038002764], [-70.62898003604137, 41.779672171462174], [-70.62902813371362, 41.778791834867626], [-70.62944400598691, 41.77823226540579], [-70.62936391473673, 41.77784785973159], [-70.62961998991737, 41.777400185330684], [-70.62976405004493, 41.77725609680153], [-70.63003602275047, 41.77735214791112], [-70.63064383366411, 41.77685594165452], [-70.63058004355554, 41.775992200431375], [-70.6300998497717, 41.775287919356344], [-70.63006794267487, 41.775064260509374], [-70.63029182153929, 41.77474407801742], [-70.63010011153528, 41.7745518476593], [-70.63019618682718, 41.7742318150515], [-70.63037190474454, 41.77383191285727], [-70.63064416334473, 41.77376815354087], [-70.63094798611186, 41.773400183457106], [-70.63166787670094, 41.77325598119295], [-70.6329959614144, 41.77247205379579], [-70.63285213192404, 41.771992065744506], [-70.63357213156425, 41.770951958673756], [-70.63427602159611, 41.77048797802428], [-70.63509207724573, 41.77034391782963], [-70.63586005307191, 41.76997608102228], [-70.63614798835174, 41.76964005796648], [-70.63611586136516, 41.769320173957425], [-70.63544410105233, 41.768440001899805], [-70.63531589110485, 41.767527945541], [-70.63445206949093, 41.766456100857546], [-70.63435596141822, 41.7656720262534], [-70.6326758129613, 41.763832010766585], [-70.63253181839745, 41.76283991138274], [-70.62619617504207, 41.76554389639395], [-70.6240489039825, 41.76621283388227], [-70.60295686150506, 41.774654832970434], [-70.56912382821149, 41.78560809040655], [-70.56528095899586, 41.78670495724423], [-70.53750436230764, 41.81067045121721], [-70.53265679638719, 41.80479085976048], [-70.52584443238611, 41.79848008155101], [-70.52312242421368, 41.796460699848275], [-70.52092055911568, 41.794518869886915], [-70.5194268897739, 41.79293876135506], [-70.52028401633649, 41.77462507767527], [-70.5432123662313, 41.777113702473656], [-70.54837782530701, 41.77677316148959], [-70.55097504419976, 41.77635981024244], [-70.55522354471674, 41.77531069621259], [-70.5614269786072, 41.77254200806181], [-70.56488026970251, 41.769837678297534], [-70.56677454986188, 41.76793816944106], [-70.569890955264, 41.76368899074438], [-70.5723955898709, 41.759952481113224], [-70.57395304599011, 41.75810244441412], [-70.57923733485573, 41.75430056260366], [-70.58586482797635, 41.750092225420744], [-70.58986573267565, 41.74821879177772], [-70.59536363856573, 41.74661092485109], [-70.6016250494993, 41.745379667689186], [-70.60703041226304, 41.7445741092987], [-70.61298526907328, 41.743148491975184], [-70.61390138920348, 41.74278420909189], [-70.61591751367641, 41.74266538546938], [-70.61649793823739, 41.74239582647342], [-70.61698588245818, 41.74180366403813], [-70.61927544974883, 41.74097839565245], [-70.62199196474026, 41.73950808756331], [-70.62449546079475, 41.73756280187699], [-70.62638268301721, 41.73850527256792], [-70.62720661502527, 41.73918688862756], [-70.62775567380682, 41.7400526587852], [-70.6277250746807, 41.740422712877546], [-70.62751069506244, 41.74063266403585], [-70.62524994184605, 41.740898946322666], [-70.62449882056211, 41.74129216758899], [-70.62434751702037, 41.74254593372711], [-70.62401117428759, 41.74307345631199], [-70.62379894706567, 41.74419337720097], [-70.6229141137759, 41.744908577271474], [-70.62163201480527, 41.745413048626304], [-70.62147884924204, 41.74556831139128], [-70.6214494685347, 41.74601040525999], [-70.62056351414255, 41.747130748883656], [-70.6198922142942, 41.74714919882615], [-70.61955607229714, 41.74776674999888], [-70.61989364444801, 41.7485453941561], [-70.62172872733356, 41.75007447903349], [-70.62182151732038, 41.75067676827187], [-70.62169923109504, 41.75129091409461], [-70.6219743554087, 41.75147592407601], [-70.62264668778673, 41.75135842572955], [-70.62295189877284, 41.751651154541634], [-70.62264863923039, 41.75403318892756], [-70.62237447505316, 41.754515040555575], [-70.622007835486, 41.754835232711976], [-70.62127548348995, 41.75499840994258], [-70.62096876522605, 41.754813712836246], [-70.6208460140395, 41.75414928038978], [-70.62057138760588, 41.754008724249196], [-70.6202348951058, 41.75413105598393], [-70.62005241196208, 41.75442171745037], [-70.6199916160562, 41.75520627762626], [-70.61968633317785, 41.755381747275834], [-70.61867908446543, 41.75550395792549], [-70.61797586735054, 41.75543266874345], [-70.61809784759313, 41.75492658107897], [-70.6174559106315, 41.75490866145517], [-70.61709012567428, 41.75540949148373], [-70.6163263001185, 41.755618538488214], [-70.6149231035129, 41.757493411349415], [-70.614616911648, 41.75751579281331], [-70.61443383592324, 41.756897038579496], [-70.61351763344899, 41.75690116707693], [-70.61214238411884, 41.75721797615655], [-70.61039983096722, 41.75541427085747], [-70.60966568367182, 41.75546030784229], [-70.60908623771229, 41.755756852660625], [-70.60890307156686, 41.756011466371675], [-70.60905562767559, 41.756577101813484], [-70.60988185073786, 41.75747495600324], [-70.61104312661983, 41.7580889753475], [-70.61156355018556, 41.759549997478416], [-70.61229928398993, 41.762799976803606], [-70.6122698421892, 41.76362023538883], [-70.6114451180825, 41.764496763494755], [-70.61104792545878, 41.76449309761923], [-70.61089493906124, 41.764333208524874], [-70.6111693468749, 41.76376191302656], [-70.61110845990365, 41.763465431966615], [-70.61080297944932, 41.76332573722537], [-70.60997777439655, 41.7634003290956], [-70.60976461792755, 41.764133046712715], [-70.6090619307424, 41.764583947567935], [-70.60826753583108, 41.764361069295276], [-70.6077477182778, 41.76371996707534], [-70.60777767883722, 41.76335047995254], [-70.60854153744746, 41.76250163926292], [-70.60881510610743, 41.761426119392716], [-70.60948733768963, 41.76081291040856], [-70.60945564685619, 41.76047163663644], [-70.60890638814467, 41.759920916418025], [-70.60859971755289, 41.75933043956477], [-70.60838539585099, 41.75834282540136], [-70.60792698522131, 41.75806968395617], [-70.60545203868804, 41.75839298513502], [-70.60533036773552, 41.758574927707], [-70.60539144907227, 41.75909651350857], [-70.60640118649088, 41.760198982089314], [-70.6063704662519, 41.760379946427506], [-70.60572821022349, 41.7605150354844], [-70.60481172805437, 41.76040147301748], [-70.60401770123174, 41.76071937431768], [-70.60297970463324, 41.76136399511325], [-70.60258281271648, 41.76198214483581], [-70.60258276885165, 41.7622522643325], [-70.60298087856769, 41.762805210698524], [-70.60301227837402, 41.76402099709795], [-70.60337920837902, 41.764547242682724], [-70.60463154555576, 41.76486266061479], [-70.60533489309229, 41.76573538762352], [-70.60606887259426, 41.7661395757725], [-70.60872825460032, 41.76708387857079], [-70.60936957349774, 41.766966781819875], [-70.6101942208692, 41.76636939128811], [-70.61138547021055, 41.76583957558913], [-70.61220932802648, 41.76510711380482], [-70.61260564357812, 41.76403872757301], [-70.61294168053698, 41.76357482126331], [-70.61376689659072, 41.76328355420724], [-70.61462192649577, 41.763442702989956], [-70.61532563293527, 41.76405425480045], [-70.61550937081148, 41.764925123755994], [-70.61578415650413, 41.76508370095343], [-70.61627332557393, 41.76506780484336], [-70.61682232468489, 41.764150279912855], [-70.6170963922018, 41.76316477590979], [-70.61749406273066, 41.76288873389417], [-70.61847159732501, 41.76261380255482], [-70.61926549135529, 41.762682970866976], [-70.6211609359843, 41.76332282698917], [-70.62274973796897, 41.76355285167196], [-70.62333032752107, 41.76404860467911], [-70.6231479422907, 41.76501512793386], [-70.623301226147, 41.765238030404184], [-70.62394250214213, 41.76514785453988], [-70.6244921235092, 41.76477954044097], [-70.62547310645321, 41.76296264586199], [-70.6275217524652, 41.76163676296277], [-70.62828702068944, 41.76060829071203], [-70.62889809398987, 41.76019372243106], [-70.63042566927973, 41.76030724622045], [-70.62978540207614, 41.758866224404244], [-70.6295422737709, 41.75726672997787], [-70.63015314861359, 41.75719486267015], [-70.63039788727785, 41.7569665628973], [-70.63073440315857, 41.75612388408411], [-70.63076589993668, 41.75502451504915], [-70.63058410324697, 41.75413567860967], [-70.63079800555472, 41.753465948295165], [-70.63153152562997, 41.7531040735532], [-70.63140950874218, 41.75273678976382], [-70.63116521779101, 41.75271354218533], [-70.63034095848616, 41.7528957769372], [-70.62890397706565, 41.75273678914752], [-70.62743771077591, 41.75309979815456], [-70.62701049323773, 41.75296146506175], [-70.6267355856528, 41.752785464045886], [-70.62649153136535, 41.75216738784419], [-70.62649377379971, 41.75049209891318], [-70.62615795569683, 41.75010066838768], [-70.62389498904385, 41.74872311646844], [-70.62172531144842, 41.747699653370496], [-70.62172465539813, 41.74747454883843], [-70.6229153507892, 41.74632276963609], [-70.62340399771242, 41.746252816130955], [-70.62539755037243, 41.747103261348606], [-70.62698534893671, 41.74737824224988], [-70.62964224247528, 41.74824945209567], [-70.63095546258117, 41.74838385167864], [-70.63156762354538, 41.74790680866952], [-70.63156761038819, 41.7474656141251], [-70.63132363559012, 41.7471986947359], [-70.62802533583786, 41.74545317337848], [-70.62695653240498, 41.74522551340489], [-70.62701872134194, 41.74490915827304], [-70.62762984032462, 41.74428806483187], [-70.62839394801178, 41.74388085801933], [-70.63343329658788, 41.744403277215305], [-70.6350828262852, 41.744361792660705], [-70.63679370096949, 41.74392289105928], [-70.63709949439064, 41.74367534841873], [-70.63709952951783, 41.743450249592485], [-70.63685518969207, 41.74323736309081], [-70.63691681407111, 41.742596864935145], [-70.63780439598195, 41.740774090734604], [-70.63810998096362, 41.73978766064782], [-70.63798855845859, 41.73934779835859], [-70.63713338439365, 41.73880164220506], [-70.63670591140061, 41.73879896963681], [-70.63728637795074, 41.73960134499246], [-70.63704144852953, 41.73974017617428], [-70.63664515364314, 41.73973660518379], [-70.63600374892172, 41.7394396790457], [-70.63579001822384, 41.73893833713613], [-70.63594330139445, 41.73857596513789], [-70.6370743933434, 41.737523757608464], [-70.63707430650146, 41.736973956794394], [-70.63533421490837, 41.7351436395397], [-70.63524282955292, 41.734568384347476], [-70.63560986233382, 41.73445524499746], [-70.63686227577115, 41.73445517398812], [-70.63878544974885, 41.73530091843211], [-70.64095369178655, 41.735414088859635], [-70.64092302962668, 41.735711546537836], [-70.64012866509657, 41.73642586794283], [-70.63960921765411, 41.73655925479794], [-70.63957877153534, 41.736839273109595], [-70.64067757432413, 41.73717453110137], [-70.64302989203635, 41.73706901164369], [-70.64425167244279, 41.736835092780616], [-70.64440385836127, 41.737589192316285], [-70.64773162754402, 41.739973182537405], [-70.64834247117761, 41.74019891649422], [-70.64928960258841, 41.74036524859418], [-70.65200807436818, 41.74036188826373], [-70.6535959885856, 41.73974455047403], [-70.6539018075421, 41.73985712139685], [-70.65384037530407, 41.7401549207037], [-70.65298453969584, 41.74134777621761], [-70.65295343159632, 41.74205097824357], [-70.65435689955041, 41.74484025100316], [-70.65435685146555, 41.745327021917916], [-70.65392901267882, 41.74580162071104], [-70.65243213978557, 41.7466250396865], [-70.65059909698749, 41.74715556431659], [-70.65014026980104, 41.747613026626134], [-70.65020072824345, 41.74942271307656], [-70.64995572949898, 41.75010180841333], [-70.64949713678888, 41.750567715726554], [-70.65114705018696, 41.75107467375475], [-70.65197138174283, 41.750936751075116], [-70.65267373511028, 41.7504765913157], [-70.6533467916485, 41.74964703879614], [-70.65487517335018, 41.748661203034146], [-70.65551664808555, 41.747885994544966], [-70.65628048834076, 41.74802840744374], [-70.65710501986317, 41.74841267803074], [-70.65741099690132, 41.74868731124168], [-70.65829560624391, 41.75053008842649], [-70.65979248240346, 41.750850092484555], [-70.65930328335212, 41.751190883359975], [-70.65661515493902, 41.75150865834078], [-70.65652277733453, 41.751987434114696], [-70.65673727059084, 41.752191610954355], [-70.6567661121636, 41.75276750938196], [-70.65713233183907, 41.75317652271241], [-70.65713337866346, 41.753410632878634], [-70.65450497905091, 41.754232463259434], [-70.6544443324731, 41.75441377564819], [-70.65514647729273, 41.7547099300429], [-70.65587956406779, 41.754455934522824], [-70.65804884932899, 41.75437069543063], [-70.6583545203234, 41.753843414848205], [-70.65902588329052, 41.75416688785314], [-70.6593935070232, 41.754071683646735], [-70.6596379713722, 41.75379774194708], [-70.65963809273096, 41.7531314515371], [-70.65927204263613, 41.752308266515854], [-70.65933348591368, 41.75203690916046], [-70.66107466579341, 41.75169634238273], [-70.66134935215179, 41.75261113915688], [-70.66159293383818, 41.752832970513936], [-70.66189855930631, 41.75276543922956], [-70.66177766751593, 41.75101103332026], [-70.66211396002637, 41.75075351907757], [-70.66193140452106, 41.750233882463014], [-70.65976240445073, 41.74950884214802], [-70.65939577282997, 41.74887473568498], [-70.65988458066377, 41.748390445870285], [-70.65988432357265, 41.74820979796383], [-70.65884594326461, 41.74800011250476], [-70.65783851345022, 41.747267283341934], [-70.65640270258245, 41.747594305284686], [-70.65585326838995, 41.74720588306804], [-70.6554864747463, 41.746075978247546], [-70.65560930122315, 41.74562388255264], [-70.65637345062821, 41.74480230820587], [-70.65539587735726, 41.74457334055264], [-70.6548776507607, 41.74415756570025], [-70.65438842003876, 41.74345275198582], [-70.65423646385248, 41.74210384095844], [-70.65558040529126, 41.74130064960263], [-70.65622212478165, 41.741183285540934], [-70.65771898813448, 41.74111670727213], [-70.65848258966142, 41.7408443556562], [-70.65903227329044, 41.74129580400064], [-70.66016277183655, 41.74123436604194], [-70.66184298896655, 41.740822433973534], [-70.66275872372547, 41.740061584310794], [-70.66395155512724, 41.73827856424712], [-70.66407357850208, 41.737709393765826], [-70.66434847518931, 41.737687776023414], [-70.664989150485, 41.73819163587185], [-70.66645552093568, 41.73990862424385], [-70.66651609903444, 41.740592241112346], [-70.66633307113017, 41.74114464333923], [-70.66532433830167, 41.74269943716756], [-70.6653542472764, 41.74296920714939], [-70.66569025426111, 41.74290133045395], [-70.66712644080661, 41.741439132476195], [-70.66773745161012, 41.74145710531657], [-70.66776739084943, 41.7417538956279], [-70.66694303777507, 41.74328809920784], [-70.6660572318232, 41.74434633135046], [-70.66569011836289, 41.74452259575372], [-70.66517064130234, 41.744340961349515], [-70.66477373982441, 41.74441008273929], [-70.66529293263866, 41.74498788995591], [-70.66538384045418, 41.745391482215446], [-70.6660561975158, 41.74592201201177], [-70.66642316385641, 41.74587180035966], [-70.6664538716853, 41.74487203038183], [-70.66660677963857, 41.744527056251144], [-70.66740055448174, 41.74395717765803], [-70.67011945934586, 41.74274629330254], [-70.67057726836498, 41.74301918805501], [-70.67109716221846, 41.742966131424865], [-70.67146359785583, 41.74356418262094], [-70.67274618063652, 41.74388808548857], [-70.67338778872625, 41.74418480452573], [-70.6738160979947, 41.74462010084565], [-70.67534206863954, 41.74530026904802], [-70.67628858858168, 41.74546637108578], [-70.67708367211799, 41.74525659189349], [-70.67763355814391, 41.7458520043393], [-70.67790813283307, 41.745856804844806], [-70.6781526362118, 41.745717883215065], [-70.67861055428898, 41.74496373192639], [-70.67864141425481, 41.744521636919316], [-70.67711428977294, 41.74384207193303], [-70.67674814200362, 41.74333408062411], [-70.67622840429283, 41.74328755376738], [-70.6752205146668, 41.74397749580513], [-70.67460924499045, 41.743977569276204], [-70.67347937175491, 41.7432912713505], [-70.67262387486068, 41.74317813780304], [-70.67237945245594, 41.74299233956511], [-70.67225746233495, 41.74194024447413], [-70.67241112633513, 41.74034428960014], [-70.67201379566013, 41.73937685562294], [-70.67109844151271, 41.738669582873], [-70.67012084011873, 41.73821564278834], [-70.66572270613635, 41.737568420608724], [-70.6657537692791, 41.737117325907676], [-70.66599752639328, 41.736861941001116], [-70.66654811557136, 41.73672753661041], [-70.66706660446481, 41.73597274878768], [-70.6670669609297, 41.73551298347596], [-70.66615133227846, 41.73480566805555], [-70.66398274063994, 41.734143734775984], [-70.66334219826197, 41.7342071179816], [-70.66205876926816, 41.73473960992523], [-70.66126484293056, 41.735354469568506], [-70.66083627869898, 41.73652294996653], [-70.66068361061495, 41.73750663085858], [-70.66046967890672, 41.73766319009868], [-70.6599802102267, 41.737661264265014], [-70.65933905518942, 41.73745394420606], [-70.65866745277721, 41.73690537121618], [-70.65763038742173, 41.735470579229045], [-70.656286289543, 41.734390851469996], [-70.65552371437538, 41.73331203619427], [-70.65460752710321, 41.73263163442917], [-70.65304987711518, 41.731943070160945], [-70.64550796444536, 41.72961097192924], [-70.6443484328326, 41.7291053625722], [-70.64413383782649, 41.72869406949572], [-70.64425721531187, 41.72825998848298], [-70.64703606799954, 41.727409148703316], [-70.64728063970205, 41.72718025422858], [-70.64731127945402, 41.72665768688736], [-70.64673088668818, 41.72624253313385], [-70.64544940782665, 41.72590090108437], [-70.64456352987304, 41.72532812452085], [-70.64322034405528, 41.724969121066465], [-70.6424883786378, 41.72409697894634], [-70.64251912608151, 41.7237089145858], [-70.64538941154741, 41.72373049626566], [-70.6463056896735, 41.72405082537625], [-70.64789293366094, 41.72528893797514], [-70.64813583751585, 41.72633915845108], [-70.64911215449912, 41.727117981017635], [-70.6505788144138, 41.72754705798686], [-70.65179976875753, 41.72752970658853], [-70.65216630830307, 41.727136829916304], [-70.65210591063119, 41.72648021708163], [-70.65140401800608, 41.725652809831146], [-70.65152607062096, 41.72517313342428], [-70.65549606318761, 41.725287061884906], [-70.65540485680283, 41.72576584565922], [-70.65738842660419, 41.72650255140708], [-70.65793884259004, 41.72640420362878], [-70.65796971061441, 41.72597167521686], [-70.65754232606409, 41.72528421362193], [-70.65604624201097, 41.72466649248815], [-70.65467220120146, 41.72450660819389], [-70.65433646914963, 41.7242767651984], [-70.65339075666206, 41.722858367213306], [-70.65201661112492, 41.722058610748256], [-70.6511316174034, 41.72130581274185], [-70.65149871208233, 41.72064338210746], [-70.65149834194419, 41.720048551047825], [-70.65049178390687, 41.71906355702001], [-70.64927103586741, 41.71828853741607], [-70.64924077525457, 41.717486958983564], [-70.65076745377912, 41.71691535185331], [-70.65128694286597, 41.71552080351956], [-70.65272334198178, 41.71385169865052], [-70.65263199764287, 41.713349048187034], [-70.65284572735362, 41.71297641657853], [-70.65776294001866, 41.70746477825028], [-70.65987124105182, 41.70564130250494], [-70.66142855335971, 41.70373607120899], [-70.66289362595693, 41.702273585231104], [-70.66454299247204, 41.7009525622651], [-70.66634466091011, 41.69877331309291], [-70.66887910951841, 41.69609742035164], [-70.67040493272653, 41.69493128820542], [-70.67116793246781, 41.69454179997239], [-70.67428251670579, 41.691505353837364], [-70.67477126954032, 41.69139015537475], [-70.67519822337925, 41.691438270520436], [-70.6754112511042, 41.69220965100842], [-70.6748920730101, 41.69319913906864], [-70.67098487550756, 41.69635476065099], [-70.66203837844732, 41.705276861312335], [-70.65751773283371, 41.71014333198853], [-70.65360830136274, 41.71392018426251], [-70.65308866759257, 41.715017620190146], [-70.65311925585337, 41.71565656130629], [-70.65354637831065, 41.71592985668601], [-70.65464557897303, 41.71615693776493], [-70.65531688816453, 41.71611127367429], [-70.65666084181414, 41.7150379456039], [-70.65831005725934, 41.71476146706261], [-70.66050852369278, 41.715153048706895], [-70.66298107555353, 41.71583754778063], [-70.66633968672075, 41.71746376932811], [-70.66838482466635, 41.71888446755002], [-70.66890343236707, 41.719984484163966], [-70.67067340449225, 41.72172389627831], [-70.67088767390221, 41.72298207306184], [-70.67116230949416, 41.72341006689776], [-70.67348262526941, 41.72471844117737], [-70.67436771035578, 41.72563313449337], [-70.67525303416848, 41.72626870064721], [-70.67739131828792, 41.727435546969645], [-70.67897904932165, 41.727898328785265], [-70.67955906340401, 41.72821427059155], [-70.67995630440092, 41.728929000528254], [-70.68004741749861, 41.729819361382155], [-70.67977287334264, 41.730021655995955], [-70.67827618007507, 41.72998047624148], [-70.67827599157256, 41.729791392456015], [-70.67876477444848, 41.7293154598862], [-70.67861213538221, 41.728741484137856], [-70.67827610945429, 41.728467258055794], [-70.67800142800468, 41.72853448853], [-70.67739089521804, 41.729218879574404], [-70.67708563066856, 41.729268446305696], [-70.67696334133613, 41.7285855149713], [-70.67598594383468, 41.72759983575209], [-70.67403211183093, 41.72730430590736], [-70.67378688949404, 41.72741620132477], [-70.67387868271759, 41.72818951263681], [-70.67534425709398, 41.72796097453032], [-70.67574165306358, 41.72851364994778], [-70.67571111228547, 41.728901165001325], [-70.67516146920913, 41.72940478101729], [-70.67470304046628, 41.730203934272566], [-70.6748866891381, 41.73064251400695], [-70.67604678162567, 41.7305715721071], [-70.67623039087147, 41.73121723962402], [-70.67696336427592, 41.731440885265314], [-70.67772672938408, 41.732105379706226], [-70.67885611604399, 41.732466933857445], [-70.67952815735734, 41.732376111574716], [-70.6797423714166, 41.7321925072372], [-70.67995553634262, 41.731622293518434], [-70.68108568950444, 41.7301369015923], [-70.68145204178869, 41.730185680949845], [-70.68157485758807, 41.73039140300823], [-70.6818796001951, 41.73146787785773], [-70.68227690379935, 41.7317408494015], [-70.68255191085181, 41.73173719657508], [-70.6823988119134, 41.730433338120996], [-70.68081144003239, 41.728762956128534], [-70.68044492235141, 41.72796684782554], [-70.68035296146057, 41.727346607868576], [-70.68078059582413, 41.72686290644525], [-70.68539166737712, 41.72764163198919], [-70.68682756464656, 41.72906156739181], [-70.68801842975215, 41.72952138734619], [-70.6882932184179, 41.729976918827475], [-70.69006417228306, 41.7311397797561], [-70.69238570060148, 41.731483228453484], [-70.69266079198339, 41.73165062611325], [-70.6936072934308, 41.731627503191795], [-70.69366811638758, 41.73139214855661], [-70.69226361638874, 41.730206058148894], [-70.69052264779145, 41.72961069117999], [-70.6884759379056, 41.72830799504143], [-70.68835399286685, 41.7281202945811], [-70.68847651273059, 41.727848241219725], [-70.68963637115453, 41.7278491819717], [-70.68966703105816, 41.72762374408678], [-70.68939182117929, 41.72734829117617], [-70.68786494146796, 41.72640718876359], [-70.686979230456, 41.72608685593542], [-70.68646037554628, 41.726157999279], [-70.686002301096, 41.72679512893127], [-70.6856361928127, 41.72684540894236], [-70.68542187556572, 41.726686307256], [-70.68575783652724, 41.72602410413397], [-70.68569755734347, 41.725655637854295], [-70.68423148490987, 41.724695229305695], [-70.68423207136294, 41.7244431237344], [-70.68530074200055, 41.724580774461415], [-70.687529236332, 41.72409698172202], [-70.68872096866868, 41.724214652404626], [-70.68981913838316, 41.7240992267664], [-70.6899419410925, 41.724782147118084], [-70.69043001221544, 41.72515309541063], [-70.69152985842169, 41.725677510167536], [-70.69375878122183, 41.72739167825542], [-70.69556117797644, 41.72805833579762], [-70.69794283648984, 41.728302486417434], [-70.69940977270666, 41.72876694036466], [-70.7009355953553, 41.728969558872436], [-70.70582174421355, 41.72883322871871], [-70.70658603753843, 41.72926343298979], [-70.70771613493402, 41.730363582758095], [-70.70771607803432, 41.73082278102722], [-70.70695260756627, 41.73096040297781], [-70.7061589623278, 41.73153056375102], [-70.70615879791815, 41.731755660020134], [-70.70695300996428, 41.73207745611365], [-70.7075028888058, 41.73205089638697], [-70.70875453199868, 41.73150079212433], [-70.70967139394826, 41.73150490868874], [-70.7123891797589, 41.73170719439536], [-70.7147408434945, 41.732329515303014], [-70.71412948627508, 41.73243784617502], [-70.71022063546694, 41.731893077761676], [-70.70902916985479, 41.73207332200504], [-70.70851089571254, 41.733035955526276], [-70.70848099450606, 41.73429685104502], [-70.7074735494923, 41.734870594979135], [-70.70707621929888, 41.73525499640486], [-70.70695441007133, 41.73562612604895], [-70.70747468566832, 41.73747385372593], [-70.70726072298476, 41.73836881910357], [-70.70680348951817, 41.73873592037172], [-70.7050622125765, 41.73946434894372], [-70.702343912751, 41.74168449366854], [-70.7007254528538, 41.74093426829442], [-70.69977859833844, 41.74079536964023], [-70.69925989973954, 41.739947049751684], [-70.69877060365157, 41.73981023346791], [-70.69788447191601, 41.73992273890654], [-70.6973961789959, 41.740155083772535], [-70.69721315148006, 41.74031080374984], [-70.697182195783, 41.740770910056106], [-70.69684648900717, 41.74102796342685], [-70.6949827260555, 41.74171317387312], [-70.69498232516601, 41.741893807371916], [-70.69593014721445, 41.74189712688808], [-70.69675481484828, 41.741416735661986], [-70.69751839889139, 41.74125217019462], [-70.69941151425557, 41.741367913771725], [-70.70026684200724, 41.741706509481034], [-70.70109241938403, 41.742352139028], [-70.70090954354075, 41.74342626360147], [-70.70142777165384, 41.74362573336275], [-70.70234456377273, 41.743468395316356], [-70.70353534516535, 41.74230679004975], [-70.70417731691442, 41.74189147131785], [-70.70451351012346, 41.74189550387263], [-70.70494138585047, 41.74301497471896], [-70.70487988939247, 41.743880611958886], [-70.70561308186637, 41.74477036097915], [-70.70552207459721, 41.745231175677525], [-70.7049118986228, 41.74598774654936], [-70.70228492431448, 41.74779266590121], [-70.69895596328297, 41.74779743844107], [-70.69895618110611, 41.74813958811731], [-70.69947487908694, 41.74884328808557], [-70.7017971256099, 41.751168518239176], [-70.7035388947828, 41.752628654042105], [-70.70589162712551, 41.7550344882974], [-70.70665475567469, 41.75464476029833], [-70.70760206285202, 41.75443244270247], [-70.70876282984645, 41.754550251114296], [-70.7104432357263, 41.755461732664074], [-70.71187965541588, 41.75653920754948], [-70.71188015170225, 41.75701641676746], [-70.7116353504796, 41.75733491887163], [-70.71050592988863, 41.75768556835343], [-70.71038342951057, 41.757867606159664], [-70.71117799179095, 41.758341880273356], [-70.71096405025096, 41.759263854816105], [-70.71010924767613, 41.75937554852493], [-70.70992563928375, 41.75957629536986], [-70.71007922192574, 41.76013279201162], [-70.71108699395698, 41.76065805711236], [-70.71114830394647, 41.760836875599225], [-70.71072143535585, 41.761410725550064], [-70.71017118835235, 41.76184247469675], [-70.70965171913944, 41.76200319278878], [-70.70788002137762, 41.761984701744076], [-70.70720691443651, 41.762138712916], [-70.70677956758486, 41.76241541681983], [-70.70635240074724, 41.7634940334765], [-70.70595544266844, 41.76365277906303], [-70.7052522678177, 41.76356458979944], [-70.70396925293593, 41.76262878976877], [-70.70314399046045, 41.7623258918604], [-70.70198237683151, 41.76214500298595], [-70.69975245688362, 41.76129537486084], [-70.69886528246671, 41.761317834654456], [-70.6967889726093, 41.761826007249915], [-70.69639111021246, 41.76244447017509], [-70.69593267613894, 41.762649450509244], [-70.69400850529645, 41.76196618830548], [-70.69293862322326, 41.76217133090385], [-70.69186930496299, 41.763429923825605], [-70.68893662424634, 41.76377092237036], [-70.68872271348299, 41.76416106903118], [-70.69006629180923, 41.76415937416983], [-70.69193111524561, 41.764455681356125], [-70.69238879956698, 41.76413421919446], [-70.69333613220292, 41.762624899530984], [-70.6937019163694, 41.76255602508592], [-70.69449721575822, 41.76308500275371], [-70.69471113730557, 41.76340615347265], [-70.69706338105613, 41.76370412832512], [-70.69755245342942, 41.76354381146271], [-70.69810233998999, 41.76249085137072], [-70.69846866454365, 41.762467543176335], [-70.70308356941432, 41.76379479584835], [-70.70396904927864, 41.763790289908066], [-70.70427459007495, 41.76427244869875], [-70.70464170725371, 41.76451924274633], [-70.70598576823437, 41.764750897241264], [-70.70733031051347, 41.763884632517545], [-70.70775789371294, 41.76301367179183], [-70.70824645715817, 41.76261920471653], [-70.71227890350107, 41.76225211367438], [-70.71331828805448, 41.76134484391799], [-70.713714767752, 41.76042918547144], [-70.71414223013718, 41.760017389433145], [-70.7144780642957, 41.760057413950406], [-70.71524207021896, 41.760973755071966], [-70.71600663916647, 41.7608360829078], [-70.71603725375955, 41.76170911142612], [-70.71674002904385, 41.7623205817143], [-70.71780963463478, 41.76289855132069], [-70.71808573302921, 41.763768195069126], [-70.71875827423911, 41.764703584482206], [-70.71909408475075, 41.76493266735532], [-70.72111176235741, 41.765496841337395], [-70.72101939575883, 41.76490364707213], [-70.71958261189499, 41.763214024319886], [-70.71496690683801, 41.75932977686107], [-70.71264342832586, 41.75768066220954], [-70.712521629936, 41.75750199361368], [-70.71264389443779, 41.75669868407141], [-70.71242951245222, 41.756287525404474], [-70.70949546740508, 41.753404524237844], [-70.7084875310829, 41.7517802013409], [-70.70885419102274, 41.751027547629846], [-70.70827222454075, 41.7492345482177], [-70.7091280094343, 41.74845603001959], [-70.71089942320766, 41.748132354605275], [-70.71068528784362, 41.74785625225574], [-70.70885226909668, 41.74745130687954], [-70.70824121880298, 41.74703738368985], [-70.70811928571148, 41.74650755744235], [-70.7082407741357, 41.746163436038714], [-70.70927967013453, 41.74564336781322], [-70.71062348848164, 41.745803504865776], [-70.71160149371401, 41.74625709708245], [-70.71383126857573, 41.74779079050275], [-70.71505392087624, 41.74806089425905], [-70.71707021518696, 41.74881421607233], [-70.71725453924611, 41.74907266080795], [-70.71722364723728, 41.749478181350185], [-70.7165212660815, 41.750101372655706], [-70.71587995202032, 41.75027985526148], [-70.7142207960985, 41.74978333679032], [-70.71395484939036, 41.750113519913306], [-70.71429151504096, 41.75038764304068], [-70.71566662164771, 41.750456771319016], [-70.71594122771533, 41.75061454617076], [-70.71612459305075, 41.75159385479938], [-70.71725546556073, 41.752369212611065], [-70.71786574805594, 41.752486511582646], [-70.71792753938598, 41.752872418908744], [-70.71838588782559, 41.75315411801167], [-70.71890525664104, 41.75305582889274], [-70.71957735127606, 41.75349599831168], [-70.72040236144491, 41.75433956656772], [-70.72159482724717, 41.75509616882783], [-70.72266439068498, 41.75634995094843], [-70.72300032333065, 41.75644396534384], [-70.72352009325155, 41.75628263069688], [-70.72351964924347, 41.75610255023694], [-70.72189919142095, 41.75447923201976], [-70.72144054681866, 41.753603289499175], [-70.72144075726541, 41.753216124327025], [-70.72162448339057, 41.75303280055501], [-70.7242211974249, 41.752237349164304], [-70.72431237195072, 41.75193859135172], [-70.72357918646374, 41.751391112543935], [-70.7230591673859, 41.751390384795414], [-70.72180679618054, 41.751823583362125], [-70.72030951960924, 41.75138678527563], [-70.7189654654281, 41.75138883169614], [-70.7183849616824, 41.751019067066494], [-70.71746864500012, 41.7509790108218], [-70.7174373553041, 41.750772273865046], [-70.71768208807354, 41.75051677726324], [-70.71902617682018, 41.74986534163939], [-70.71899527370533, 41.74959613887529], [-70.71661141521433, 41.74792924823254], [-70.71661081466449, 41.747488053917564], [-70.71774188274972, 41.74683122461902], [-70.71767938524857, 41.74570643573609], [-70.71841245337512, 41.7447497463746], [-70.71841198165646, 41.74454265388368], [-70.71660971306535, 41.744452612656055], [-70.71615119157158, 41.74394579856017], [-70.71370813904696, 41.74442417138248], [-70.71312729341552, 41.74378426027454], [-70.71266895822049, 41.743692179236675], [-70.71184525558084, 41.74449739888404], [-70.71047057991133, 41.744769807038004], [-70.70964582682616, 41.74474607872428], [-70.70940104917717, 41.74342587720894], [-70.70857554455553, 41.74264524173914], [-70.71037783941516, 41.742303224045834], [-70.71309624035246, 41.74118136428965], [-70.71450041689418, 41.74076393184464], [-70.71553921670544, 41.7399652445252], [-70.7155389823014, 41.73973958754635], [-70.71523306739718, 41.739627182253464], [-70.7150497336171, 41.73926069411185], [-70.71529350353805, 41.73859045916114], [-70.71593520290169, 41.73815763248203], [-70.71666785787416, 41.73790324565487], [-70.7172166684911, 41.73735440608789], [-70.72134036473888, 41.73623862666406], [-70.7217054349168, 41.73593611595403], [-70.72158367642098, 41.7350461505081], [-70.72201108393756, 41.73502149253431], [-70.72256074673835, 41.735229526604314], [-70.7240880606787, 41.73607110976892], [-70.72564770895225, 41.73747057410188], [-70.72711333944089, 41.73733140870689], [-70.728335253892, 41.73740272250711], [-70.72897620779881, 41.73689777797206], [-70.72998375556072, 41.73680161811074], [-70.73059433765053, 41.737008332297975], [-70.73169397842608, 41.73693809838876], [-70.73270236092588, 41.73721051152882], [-70.73270162633737, 41.73695839823813], [-70.73123506619612, 41.73645835431262], [-70.72649928923694, 41.733440374319], [-70.72662048032277, 41.7320242124376], [-70.72640540331957, 41.73073969895515], [-70.72594736293907, 41.730008397487154], [-70.72273936521447, 41.72882279232941], [-70.72206784270796, 41.72813898040804], [-70.72194552874292, 41.727726775270206], [-70.7222498281679, 41.72648801127019], [-70.72169957302357, 41.72553264876928], [-70.72148597993319, 41.72475179429925], [-70.72078320816536, 41.72392481497436], [-70.72099638386929, 41.723444565957365], [-70.72197329204327, 41.72319520262527], [-70.72273668759664, 41.72323811617329], [-70.72518083630126, 41.72507468552297], [-70.72698387537885, 41.72685789635698], [-70.72915262806241, 41.728410570086005], [-70.73019148105875, 41.72838552671366], [-70.73058740264862, 41.72822669136259], [-70.73083239314818, 41.72824973083359], [-70.7309239010065, 41.728635831808354], [-70.73122968144816, 41.728820225238685], [-70.73251248070899, 41.728593653112625], [-70.73287869596193, 41.72875031233588], [-70.73330623342429, 41.72927484929287], [-70.73400921237311, 41.72957052273342], [-70.73416279947078, 41.73051414400823], [-70.73462095792716, 41.73080422295311], [-70.73553735920463, 41.73103379216251], [-70.7365768578961, 41.732089716918914], [-70.73786006590777, 41.73293510527629], [-70.73862386813322, 41.733869305780985], [-70.73847266897977, 41.735429897973816], [-70.73813757762743, 41.736092258803275], [-70.73746531050044, 41.7361113942249], [-70.73771042337107, 41.736567163241666], [-70.73746704243364, 41.738011779538546], [-70.73755991809843, 41.73970400238527], [-70.73771376188246, 41.7398457176516], [-70.73807924804635, 41.739723234927474], [-70.73807760449964, 41.73793990068146], [-70.73819987522423, 41.737577745931425], [-70.73969465977177, 41.73574419486679], [-70.74021236569278, 41.73409713417791], [-70.74021191981092, 41.733250200812215], [-70.74045579932994, 41.732958076796464], [-70.74069960725076, 41.73213472386469], [-70.74103493212982, 41.73185953239765], [-70.7421652791021, 41.731788277212324], [-70.7437836000649, 41.73228580311961], [-70.74393690708528, 41.73247252577756], [-70.74384547882077, 41.732834324042365], [-70.74290026920528, 41.733731805877504], [-70.7417401220594, 41.734506296836244], [-70.74137404863754, 41.735060972540666], [-70.74134445361055, 41.73590826385025], [-70.74201704204994, 41.736843516928644], [-70.74299557986342, 41.73763955656045], [-70.74400345016024, 41.73830859382974], [-70.74595835740064, 41.738918060496324], [-70.74657043514013, 41.73944940447676], [-70.74617386166545, 41.73978835933576], [-70.74547129439814, 41.73995252887001], [-70.74544073196894, 41.74025002087489], [-70.74647984182403, 41.74079263049393], [-70.74605283204939, 41.74179879436342], [-70.74544285611869, 41.74264618611176], [-70.7451682914783, 41.74276760240814], [-70.74467958617156, 41.74260341830632], [-70.74440428088228, 41.742310659458965], [-70.74431210495811, 41.7415283960354], [-70.74406769342137, 41.74132475440766], [-70.74360910873376, 41.74144044337039], [-70.74345711772476, 41.74171236771583], [-70.74351754398458, 41.74209880951206], [-70.7440993170179, 41.742810600718485], [-70.74416030338045, 41.74340413454366], [-70.74382597272071, 41.74473391871717], [-70.74266595365414, 41.74541782410012], [-70.74251379744527, 41.74598743166642], [-70.74352347716916, 41.74765647941756], [-70.74355525263385, 41.74903428034187], [-70.74432151012537, 41.7515626969384], [-70.74417001563761, 41.7536004972963], [-70.74270455328538, 41.75496497687807], [-70.74258350986862, 41.755381167564785], [-70.74273610955073, 41.755630913608734], [-70.7427058066652, 41.75606402260524], [-70.7414224544291, 41.75670488640122], [-70.74017117903712, 41.756985228399074], [-70.73971330744489, 41.75769460340494], [-70.73977468130201, 41.75812607260221], [-70.74075350338126, 41.759587848734206], [-70.74072334457169, 41.76022804683482], [-70.740510567289, 41.760897415554986], [-70.74011301935538, 41.76146200722624], [-70.74014471230767, 41.76176779141869], [-70.74182512121823, 41.762858882501355], [-70.74265157453966, 41.76377376867221], [-70.74317083828234, 41.76391059352134], [-70.74317030825038, 41.76322573013677], [-70.74112170071157, 41.76149180794408], [-70.7410298666599, 41.761186748864766], [-70.74176228291883, 41.760365522665346], [-70.74185362598324, 41.75957154059598], [-70.74163918955242, 41.75861064462604], [-70.74282912362644, 41.757484632963006], [-70.74359265307018, 41.757139680807754], [-70.7448439876437, 41.75593190500874], [-70.74527048629854, 41.75421442878808], [-70.74609339241273, 41.75233694788173], [-70.74630628740286, 41.75075762258287], [-70.74615358073682, 41.75057991139919], [-70.7461827674418, 41.74896672225051], [-70.74651768447059, 41.74834936527651], [-70.74645580885529, 41.74722459978831], [-70.74654693834131, 41.74695283612778], [-70.74788949785578, 41.74576137928954], [-70.74795006442406, 41.74479668331865], [-70.7485294982676, 41.74402223306923], [-70.74874126757746, 41.742307270847434], [-70.74843559166969, 41.7417537680092], [-70.7488929411445, 41.74107080878556], [-70.74895367960033, 41.74031376023948], [-70.74928848837682, 41.739443719558565], [-70.74931778045786, 41.73838933635292], [-70.74950071608204, 41.738071463565134], [-70.74983014173469, 41.73804212065298], [-70.75150938388842, 41.739097058811566], [-70.7526678596813, 41.741384892104016], [-70.75306410195073, 41.741747645610026], [-70.75465248632896, 41.74240801304478], [-70.75572095661616, 41.74261646192803], [-70.75669893796606, 41.742547441944005], [-70.75689107782242, 41.74240350882756], [-70.7595439181599, 41.7421028441889], [-70.76008803553943, 41.74167081976206], [-70.76043994195949, 41.74103101458524], [-70.76047201557962, 41.740726784954596], [-70.75973605972062, 41.739495229804014], [-70.76005609288654, 41.7392069357511], [-70.76082391974695, 41.73895081076026], [-70.76168800649349, 41.739223154975704], [-70.76312806034798, 41.7388869597457], [-70.76372004275078, 41.73855089376149], [-70.76378399980543, 41.73807072729601], [-70.76466409312154, 41.7377190693005], [-70.76475996676642, 41.73725486513488], [-70.76512801319647, 41.736839129546695], [-70.76557596622725, 41.73677504888631], [-70.7654960037789, 41.736198854694656], [-70.76572001375759, 41.735926807759576], [-70.76620006562312, 41.735847174944816], [-70.7662000126564, 41.73560688916214], [-70.76647194041536, 41.73546288700539], [-70.76728799385936, 41.73531901923813], [-70.76827996111048, 41.73427925989669], [-70.76959202810906, 41.73410310487716], [-70.76962409044856, 41.73392717749166], [-70.76939999751504, 41.733846956347776], [-70.77048794673836, 41.7335748126256], [-70.77279198103938, 41.733783132650615], [-70.77327196979866, 41.73408725814719], [-70.77269594453789, 41.734663202226216], [-70.77266391157389, 41.734902724680886], [-70.77301607919215, 41.73490272258239], [-70.77391191864065, 41.73471092123196], [-70.77418391616398, 41.73432717421399], [-70.77523997625609, 41.734183086496806], [-70.77528809088727, 41.734726999009936], [-70.77436000693744, 41.7394948116969], [-70.77464802012241, 41.74016686461282], [-70.77522398837567, 41.740774913726916], [-70.77826406710642, 41.74311102236913], [-70.77901606143172, 41.74405499246107], [-70.78111197351393, 41.74847111046546], [-70.78188103655309, 41.7510150392528], [-70.781753074137, 41.75248692411745], [-70.78103297488241, 41.75407098797514], [-70.78084098415466, 41.75488687257961], [-70.78085700901781, 41.7557991776567], [-70.78040892869254, 41.75819924203244], [-70.77829700682575, 41.76279076780804], [-70.77420105678746, 41.769687000507176], [-70.77432904261502, 41.77069511800916], [-70.77530497663852, 41.772663036423246], [-70.77530500595549, 41.77699893241024], [-70.77568900602199, 41.777542728345374], [-70.77626498821311, 41.78010291299686], [-70.77693693694447, 41.78727083588839], [-70.77733698215367, 41.78821482957138], [-70.7780409399752, 41.789015002692736], [-70.7784410308175, 41.79127073912024], [-70.77836104127339, 41.79277499377445], [-70.77767294524946, 41.79482294450876], [-70.77778504063683, 41.79667899688237], [-70.77586504851003, 41.79827906375455], [-70.7744890157958, 41.8002472073757], [-70.7728889340231, 41.80213513152191], [-70.7717370154821, 41.80567077588865], [-70.77173699628392, 41.80895096985987], [-70.76300102714204, 41.80979915440451], [-70.77013699937962, 41.82575083416244], [-70.77146501425733, 41.829414866652165], [-70.77202503499353, 41.83011905498825], [-70.77180103447742, 41.83075914509292], [-70.77228095845523, 41.83146281154864], [-70.77354491548026, 41.8316548892982], [-70.77500094722771, 41.831414857850596], [-70.77645696542723, 41.832054937021944], [-70.77725707829673, 41.83181521542863], [-70.77852098114893, 41.831846853113035], [-70.77885696384942, 41.83147926469052], [-70.77914493800168, 41.831446753846976], [-70.779193036415, 41.831735178978036], [-70.77970501097757, 41.832023158367946], [-70.7795770854522, 41.83239094726337], [-70.77988094739707, 41.833334887197026], [-70.780168957544, 41.83336709314271], [-70.78004090964721, 41.83309504590709], [-70.78029706567273, 41.83298298991239], [-70.7808249725665, 41.833527105261474], [-70.78236096988944, 41.83363919871049], [-70.78389695790293, 41.83443893503286], [-70.78432900791198, 41.834325723331254], [-70.78444106396687, 41.833894812283944], [-70.78464891476858, 41.83384602815258], [-70.78508096432381, 41.83445424137052], [-70.78588095952824, 41.835014111069306], [-70.78629701752965, 41.83525419001757], [-70.78680908334339, 41.835254016810005], [-70.78674492009146, 41.8358940091362], [-70.78780191770268, 41.83613415431409], [-70.78837793860774, 41.83645400734725], [-70.78887402511846, 41.83647003994519], [-70.78932197787051, 41.83714192943445], [-70.78913006227948, 41.83800622110559], [-70.78865007445219, 41.838501812444065], [-70.78848993772849, 41.83904610007651], [-70.78783399306177, 41.839461807250295], [-70.78783407020289, 41.839605868096285], [-70.78842605863744, 41.839830155236115], [-70.788169971341, 41.84039016761183], [-70.78815396329728, 41.84096575087019], [-70.78877797060878, 41.84154194119515], [-70.78898600657554, 41.84270979366056], [-70.7892580744372, 41.84274187696578], [-70.7896740802768, 41.84309392263127], [-70.79023406596299, 41.84291790033644], [-70.79068196084019, 41.84339788616385], [-70.79004201966576, 41.84387785746977], [-70.78980192510767, 41.844453729503456], [-70.78975403698907, 41.845493924756965], [-70.79031406130449, 41.84624584842789], [-70.79151407401392, 41.84624599682637], [-70.79442607336532, 41.84923809640584], [-70.79477796855068, 41.85090203337438], [-70.79365808988243, 41.852918132847044], [-70.7939620770096, 41.85742977176918], [-70.7970659738314, 41.861286228755596], [-70.79888996124188, 41.861301953190214], [-70.80149802845492, 41.862325801777146], [-70.8091460035157, 41.86866204313226], [-70.81164204004442, 41.87365394020692], [-70.80244197666704, 41.87531779007546], [-70.80372204338667, 41.87875828096098], [-70.81327491725666, 41.90797412437299], [-70.81541907983672, 41.91386191398668], [-70.82357904082878, 41.92163795564416], [-70.82474704187516, 41.923013994474324], [-70.82770701698709, 41.92565377807426], [-70.82962697111918, 41.92773421583107], [-70.80549901302966, 41.93579804527244], [-70.78223505767136, 41.94318021058153], [-70.77156201123574, 41.94624594843139], [-70.77050603920412, 41.94650201122831], [-70.77004207105671, 41.946421949100504], [-70.75841004547867, 41.947829844246264], [-70.7508580117387, 41.92720591588304], [-70.75049006773571, 41.9258782587548], [-70.74263085087438, 41.917240206635405], [-70.74051716946781, 41.91524196491438], [-70.73632307993796, 41.90941275724642], [-70.73421301080477, 41.90690120336054], [-70.73108415958554, 41.90383689816069]]]]}}