{"type": "Feature", "properties": {"district_name": "1st Essex District", "chamber": "house", "vintage": "2022-present"}, "geometry": {"type": "Polygon", "coordinates": [[[-71.054005, 42.83328199999999], [-71.04492, 42.848667000000006], [-71.031201, 42.859086999999995], [-71.023519, 42.860530999999995], [-71.016339, 42.86168200000001], [-70.967018, 42.86880000000001], [-70.948984, 42.87619099999999], [-70.929594, 42.885032000000045], [-70.914631, 42.88664799999999], [-70.903533, 42.88677800000001], [-70.885602, 42.882834], [-70.847718, 42.86086699999999], [-70.836725, 42.864680000000014], [-70.829693, 42.868725000000005], [-70.820238, 42.87178700000001], [-70.813832, 42.872298000000015], [-70.814131, 42.862679000000014], [-70.814116, 42.857254], [-70.813978, 42.85381699999999], [-70.813593, 42.849951000000004], [-70.812224, 42.844588], [-70.811748, 42.842074999999966], [-70.811194, 42.833530999999994], [-70.810315, 42.827234999999995], [-70.809845, 42.825084999999994], [-70.807341, 42.818661], [-70.805871, 42.812579], [-70.808151, 42.81170500000001], [-70.841045, 42.795908], [-70.862965, 42.801550000000006], [-70.874866, 42.79805499999999], [-70.890802, 42.7943], [-70.891342, 42.79453900000002], [-70.89326, 42.79486899999999], [-70.894354, 42.795369], [-70.895789, 42.796286], [-70.896047, 42.79667], [-70.897537, 42.79741899999999], [-70.897906, 42.797774999999994], [-70.897963, 42.79836000000002], [-70.905122, 42.797441], [-70.917388, 42.78746999999999], [-70.930809, 42.802690999999996], [-70.931557, 42.805448000000005], [-70.931569, 42.80640399999999], [-70.931085, 42.807092], [-70.929905, 42.808139000000004], [-70.929622, 42.80881100000001], [-70.92988700000001, 42.810178], [-70.930132, 42.81062800000001], [-70.931246, 42.811465999999996], [-70.931591, 42.812116], [-70.931503, 42.813567000000006], [-70.93072, 42.814283999999994], [-70.930663, 42.814595000000004], [-70.931085, 42.81493900000001], [-70.931834, 42.815120999999984], [-70.932787, 42.81506700000001], [-70.933719, 42.815667000000005], [-70.934604, 42.816527], [-70.934558, 42.816962000000004], [-70.934089, 42.81760099999999], [-70.934201, 42.817849], [-70.934685, 42.81791499999999], [-70.93554, 42.817626999999995], [-70.93585, 42.81773100000001], [-70.936183, 42.818456000000005], [-70.93783, 42.819615999999996], [-70.940294, 42.822548000000005], [-70.938944, 42.823326000000016], [-70.936991, 42.825631], [-70.933888, 42.828017], [-70.933131, 42.829249000000004], [-70.932354, 42.831072000000006], [-70.931461, 42.83218899999999], [-70.928788, 42.83457200000001], [-70.925323, 42.838365000000024], [-70.923302, 42.839904], [-70.922146, 42.84055699999999], [-70.920842, 42.84103900000001], [-70.91931500000001, 42.841273000000015], [-70.917638, 42.84128299999999], [-70.915689, 42.840669], [-70.914778, 42.839281], [-70.91401, 42.836796], [-70.913559, 42.83591499999999], [-70.912901, 42.835152], [-70.911473, 42.834371000000004], [-70.908311, 42.833645000000004], [-70.904946, 42.83372799999999], [-70.904198, 42.83389], [-70.899832, 42.847386000000014], [-70.904846, 42.860615], [-70.905974, 42.85907600000001], [-70.909056, 42.857492], [-70.910232, 42.856703], [-70.912968, 42.85532899999998], [-70.916727, 42.854309], [-70.918081, 42.853381999999996], [-70.92087, 42.854222], [-70.92195400000001, 42.853678000000016], [-70.923755, 42.856466], [-70.925454, 42.857603], [-70.926284, 42.85650199999999], [-70.92663000000002, 42.856244], [-70.92695, 42.856342], [-70.927483, 42.85571000000002], [-70.929192, 42.85663600000001], [-70.929712, 42.857204], [-70.930642, 42.85764600000003], [-70.930867, 42.857248000000006], [-70.939605, 42.854608000000006], [-70.9431, 42.853978], [-70.9443, 42.853979000000024], [-70.943735, 42.853644], [-70.944126, 42.853129], [-70.943805, 42.852716999999984], [-70.94357500000001, 42.85204200000001], [-70.943055, 42.851676], [-70.942418, 42.85156200000001], [-70.941656, 42.84942600000001], [-70.942441, 42.84777699999998], [-70.94331700000001, 42.84658799999999], [-70.941885, 42.845376], [-70.938171, 42.845844], [-70.936958, 42.84564900000001], [-70.937288, 42.844832], [-70.937371, 42.842629], [-70.936605, 42.839890000000004], [-70.958965, 42.835504], [-70.963673, 42.834957999999986], [-70.974762, 42.83432500000001], [-70.96918, 42.822495999999994], [-70.970809, 42.82334], [-70.97242300000002, 42.823943], [-70.977141, 42.824473999999995], [-70.979931, 42.824562], [-70.986112, 42.82372999999999], [-70.99101000000002, 42.822168], [-70.99271, 42.82190699999999], [-70.99506, 42.82186], [-70.996536, 42.82142099999999], [-70.998229, 42.820433], [-70.999766, 42.819170000000014], [-71.000741, 42.818189999999994], [-71.001158, 42.817263], [-71.001362, 42.815312], [-71.001194, 42.813685], [-71.00084, 42.812509], [-70.999611, 42.81054499999998], [-71.054005, 42.83328199999999]]]}}