{"type": "Feature", "properties": {"district_name": "21st Middlesex", "chamber": "house", "vintage": "2001-2010"}, "geometry": {"type": "Polygon", "coordinates": [[[-71.13626404503394, 42.55206914303026], [-71.13558501174705, 42.54888126459226], [-71.13099806569096, 42.5316567896607], [-71.13520002446585, 42.529695238461315], [-71.14719907784286, 42.52499388806963], [-71.14890000654859, 42.52409489633693], [-71.16980001717923, 42.515294808418304], [-71.16956693364988, 42.51089584741717], [-71.16975699277204, 42.51058074580021], [-71.16923700813051, 42.51036206941287], [-71.16952290233147, 42.50971920931315], [-71.16909292378426, 42.50955986470684], [-71.16893208917182, 42.5075282091062], [-71.16936199216717, 42.50708381796989], [-71.1691999022346, 42.506995020191965], [-71.16949004995199, 42.506698769084586], [-71.1689530645983, 42.506537991611616], [-71.16870000421594, 42.49549509189753], [-71.16880004954757, 42.49019512288296], [-71.16929897804829, 42.49019373780349], [-71.17075599917361, 42.489720773480826], [-71.16890008503273, 42.486994997067946], [-71.17269991126891, 42.48569485184928], [-71.17479993893522, 42.48529511408602], [-71.18159908207383, 42.48349389682588], [-71.18129905685197, 42.4829939826246], [-71.18339900396309, 42.48159424369126], [-71.1852990507462, 42.48139408151718], [-71.1863230464134, 42.480726181302835], [-71.18528101613403, 42.47978819683902], [-71.18751602837357, 42.47924174594795], [-71.18828101961108, 42.47952402333955], [-71.20420001433952, 42.465795955314306], [-71.21020093836265, 42.470494810139144], [-71.2099930105939, 42.46926880844031], [-71.21039999097897, 42.46728082462597], [-71.21074097149358, 42.46658791362633], [-71.21196791873611, 42.46605083144896], [-71.22336204233052, 42.475286154553174], [-71.24074498475272, 42.48974924158332], [-71.25210203381914, 42.484494796881314], [-71.2534019328499, 42.48279497849976], [-71.25550193460273, 42.47939480369605], [-71.25650194338859, 42.47819507933779], [-71.26119694265856, 42.47618326254085], [-71.26515201660655, 42.47051527063441], [-71.27242001295117, 42.459556268611806], [-71.27697096641813, 42.46046486243519], [-71.28003992435559, 42.45971792117989], [-71.28170409068686, 42.45960292776594], [-71.28206598657336, 42.46020622885754], [-71.2894040689309, 42.466068184049945], [-71.29876601673635, 42.47286610388104], [-71.30089698989777, 42.47358776032575], [-71.30190700110796, 42.47325583932157], [-71.30421896869379, 42.474694015746195], [-71.306444952253, 42.47433879961163], [-71.3093849008198, 42.476340017326294], [-71.31375800998987, 42.474095963119616], [-71.31649708615181, 42.4760488527207], [-71.32018100087659, 42.48032017487831], [-71.32116490821804, 42.48034815552972], [-71.32093298951337, 42.482119044771544], [-71.31814705458774, 42.48283881893213], [-71.31716091084094, 42.48356590562753], [-71.31706708977144, 42.48387577696925], [-71.31708891129642, 42.48414813821867], [-71.31765494910475, 42.484972208711085], [-71.3197039204494, 42.48660994954802], [-71.31923698994338, 42.48826005594518], [-71.3191520264429, 42.48985674467527], [-71.3185560452468, 42.49175590600867], [-71.31853603059713, 42.49415672718175], [-71.31825691124328, 42.496894174245774], [-71.31836891995744, 42.497535779001424], [-71.31746395753916, 42.502193140517626], [-71.31803196510324, 42.503974280379325], [-71.31742993546717, 42.50561009692382], [-71.31655998763144, 42.50704911260428], [-71.31444292667155, 42.50897618834943], [-71.3104950730079, 42.51126821454227], [-71.30837897034273, 42.51326889103079], [-71.30671708695105, 42.513869282044666], [-71.30607105337116, 42.51435376305281], [-71.30599107266895, 42.514700790442106], [-71.30666392525195, 42.517137085737815], [-71.30665594698036, 42.518064883321095], [-71.30627196184926, 42.51976289333309], [-71.30632794468283, 42.520479807329714], [-71.30377200031815, 42.51989595330727], [-71.28044608820183, 42.5263311585826], [-71.2786639179034, 42.5266220144573], [-71.27731195706866, 42.52657777534412], [-71.26392498206786, 42.5239781394915], [-71.25657696242239, 42.52389590180343], [-71.25436897794495, 42.52242888784725], [-71.25003495924422, 42.5255197943488], [-71.24258803221245, 42.51976096728146], [-71.24179195887528, 42.520528898211715], [-71.24062202720806, 42.520000186282296], [-71.23995199557943, 42.51938313335056], [-71.23738696037081, 42.51204986939908], [-71.2327640197365, 42.508088835043736], [-71.23163502243638, 42.506543975966835], [-71.22197708072953, 42.5249812391383], [-71.21803795253797, 42.52391501043198], [-71.20961903128017, 42.536961743194176], [-71.20504090044297, 42.544467153356635], [-71.1928869677985, 42.5343420116627], [-71.19188699808988, 42.53444287269754], [-71.18993893508814, 42.53484388742422], [-71.18663499992161, 42.53748674533786], [-71.18471101757497, 42.539323059357145], [-71.18399606342302, 42.539731839056614], [-71.18348293699196, 42.54047595095642], [-71.18164402954122, 42.541776243267], [-71.18095500862987, 42.541409740883296], [-71.1799210341274, 42.54143725948197], [-71.1781779579157, 42.54280190468576], [-71.17707909405432, 42.543126855241155], [-71.17606492994075, 42.54369791664562], [-71.1748870804888, 42.54472819894595], [-71.17404391252742, 42.54617801907118], [-71.17361995143492, 42.54634899169737], [-71.17297401458983, 42.545486872342615], [-71.1709320287522, 42.54385893513559], [-71.16819097788301, 42.542466958359554], [-71.16550303534329, 42.5418059598033], [-71.15724590564999, 42.540565263440584], [-71.1568479349034, 42.54088704292473], [-71.15680406613619, 42.54206285678969], [-71.15618897806061, 42.542570788384396], [-71.15610896861703, 42.54311575576152], [-71.15582591599596, 42.54328990098859], [-71.15592795327773, 42.54362385384849], [-71.1557630573218, 42.54393282072969], [-71.15598097974052, 42.5441917328367], [-71.15569897382744, 42.54445196215055], [-71.1560180006592, 42.54497111224298], [-71.15590304349145, 42.545366876569034], [-71.15535498247044, 42.545715210069154], [-71.15560905794915, 42.54653125632124], [-71.15528209117059, 42.54770678045875], [-71.15573403887731, 42.548064851386236], [-71.15643397028184, 42.54812489573967], [-71.15640191418005, 42.54842188039007], [-71.15677191177477, 42.54891586472587], [-71.15649094374508, 42.54943604380677], [-71.15682808526344, 42.5501651182732], [-71.15649604470987, 42.55052478511423], [-71.15618003379988, 42.550563229316424], [-71.15621399884787, 42.55082327547613], [-71.15683306156663, 42.55124204777839], [-71.15708501324532, 42.551650156471155], [-71.15703594325227, 42.551822740015886], [-71.15641999714441, 42.551948066401195], [-71.15652201116951, 42.55222013518227], [-71.1564100205759, 42.55318474375146], [-71.15619395175474, 42.553383845637384], [-71.15626198109766, 42.55364286777937], [-71.15564604376179, 42.55369392013158], [-71.15539707765517, 42.55399193986418], [-71.15504791591287, 42.554103993721206], [-71.15473000274353, 42.553894861889816], [-71.15476005042841, 42.55337506233476], [-71.15459203600582, 42.55310279448031], [-71.15474092755461, 42.55276902543672], [-71.15385609349127, 42.552486173705375], [-71.15325603506503, 42.55248774762566], [-71.15283800105169, 42.552254119972034], [-71.15252102667958, 42.552290858810956], [-71.15233702866222, 42.55202023186251], [-71.15183491854954, 42.55178577996714], [-71.14991802576922, 42.551741160468254], [-71.14932091393356, 42.55227386571958], [-71.1481549407867, 42.55249987731251], [-71.1478259500932, 42.55329221174351], [-71.14724201019676, 42.553231911976106], [-71.14609306515757, 42.55346976598591], [-71.14562500602156, 42.55327309371112], [-71.14509389899513, 42.55359610633821], [-71.14394400327976, 42.55369778344855], [-71.14324296584134, 42.553451985220335], [-71.14274292059822, 42.55356409337512], [-71.14175792270785, 42.55317112605002], [-71.14133706080509, 42.55240517057867], [-71.14113707686832, 42.55244225081986], [-71.14095598830357, 42.55283891931787], [-71.14080496371206, 42.55276473735434], [-71.14070294205024, 42.552306988487395], [-71.1395720771441, 42.55284191394733], [-71.13878905243332, 42.55293118164717], [-71.13815392985254, 42.552511136728114], [-71.13753704564897, 42.552524954449744], [-71.1367680441392, 42.55213093023296], [-71.13626404503394, 42.55206914303026]]]}}