{"type": "Feature", "properties": {"district_name": "11th Hampden", "chamber": "house", "vintage": "2001-2010"}, "geometry": {"type": "Polygon", "coordinates": [[[-72.51783098369408, 42.10389421262812], [-72.51913113103981, 42.103694128646744], [-72.52163099945001, 42.10369380881105], [-72.5221310086683, 42.10459423503222], [-72.52493096934428, 42.103994092242814], [-72.52949901623428, 42.10369426220408], [-72.53258701113947, 42.10562986506308], [-72.53393109869906, 42.10769425641229], [-72.54253103706257, 42.107893740803306], [-72.54383095239105, 42.105794127634496], [-72.54643100142845, 42.10569386977768], [-72.5464308935815, 42.105194155231636], [-72.54553094160995, 42.10469421269692], [-72.54213096438629, 42.104894021368665], [-72.53893111374371, 42.104694059595005], [-72.5377309846339, 42.1039941916487], [-72.53743096672571, 42.10259399782352], [-72.53763097040809, 42.10169404934305], [-72.53843100518064, 42.09969412278602], [-72.54043096543195, 42.09939404179], [-72.54173097378263, 42.09899393171982], [-72.54113097976804, 42.095194119785724], [-72.54193103468559, 42.09489421692967], [-72.54383107725293, 42.09379419549313], [-72.5457309952192, 42.09209425809643], [-72.54263099565009, 42.091793883101936], [-72.54233103147975, 42.08909375187123], [-72.54443100425154, 42.088694202243865], [-72.55058802046236, 42.09294118739297], [-72.55293198237192, 42.09339404810245], [-72.55663200470184, 42.09449390236433], [-72.56163195603665, 42.09629402049567], [-72.56323200768368, 42.0962938078044], [-72.56273201556542, 42.092094185666596], [-72.5629319644962, 42.0912937899651], [-72.56373197235506, 42.089494021803716], [-72.5653320808016, 42.089794283768555], [-72.56673202306287, 42.09039407628959], [-72.56723189916879, 42.090794037123345], [-72.56893200829398, 42.09309387339006], [-72.57013195869409, 42.093494037761765], [-72.57113204607954, 42.093494249857734], [-72.57103198193475, 42.094393895104005], [-72.5718320381268, 42.09439372087828], [-72.57283210233793, 42.09389420921362], [-72.57653198745444, 42.09769403842669], [-72.58033198291726, 42.1002941572092], [-72.57753195318666, 42.10249385903939], [-72.57683197283903, 42.10329391348154], [-72.57713196692237, 42.10379418694215], [-72.57803199577255, 42.10339404825024], [-72.57873211922454, 42.10389392722863], [-72.58173201528912, 42.10129388500888], [-72.58316496157946, 42.10196576651223], [-72.58418904186482, 42.10215809810009], [-72.58163196230991, 42.103993759027404], [-72.58233299743989, 42.10479411389542], [-72.57703212695132, 42.10779399323212], [-72.57873210407544, 42.10999408584576], [-72.57843194501923, 42.11099409622301], [-72.57863210353136, 42.11229383593777], [-72.58003200593483, 42.11379387086111], [-72.58183300930943, 42.115093132055485], [-72.58293303186115, 42.11769274877091], [-72.58373296602645, 42.11859289590923], [-72.57883203764654, 42.12019288563367], [-72.57393201188364, 42.12259288490146], [-72.56903201970725, 42.125492943891985], [-72.56723202297944, 42.12599311618186], [-72.56163203898703, 42.128392901922254], [-72.54583203503859, 42.13359274274714], [-72.54553203068146, 42.1329927901044], [-72.54283100271344, 42.133192978224805], [-72.542475007093, 42.13239318288621], [-72.54013103318437, 42.132292931922166], [-72.53580502161775, 42.130944969955586], [-72.53553102979909, 42.13149273666955], [-72.53573095056717, 42.13209306116394], [-72.53553103654536, 42.13269306465007], [-72.53483101035195, 42.13249285881052], [-72.5338309876975, 42.132092778583704], [-72.53463095743884, 42.130493005175424], [-72.5310309566854, 42.12919288801343], [-72.52803097678573, 42.12949276748848], [-72.5264309967513, 42.130893142181726], [-72.52583109276847, 42.130693110288746], [-72.52113096225119, 42.13119316192395], [-72.51943089933171, 42.13139287779703], [-72.51953097655095, 42.13169305691806], [-72.51863102645159, 42.131792782594495], [-72.51833095260277, 42.13029406395439], [-72.51503100235156, 42.13089396049572], [-72.51493095959307, 42.130394009781774], [-72.51563104379281, 42.12999388984824], [-72.5127311145709, 42.12879391407614], [-72.51393100387733, 42.12799378522259], [-72.51523103883946, 42.12599411421831], [-72.51103003703582, 42.12639423223972], [-72.51072992577366, 42.12569401561944], [-72.51013002429815, 42.12309382808995], [-72.51222997580841, 42.12269375740794], [-72.51473097602462, 42.12269414302223], [-72.51683107880739, 42.12229398627242], [-72.51803089987712, 42.12159398031302], [-72.51963102353751, 42.12169398214054], [-72.52003098241582, 42.12049403811342], [-72.52253095632184, 42.11849372694235], [-72.52443095086174, 42.118094089407776], [-72.52343095371877, 42.11289373824826], [-72.5219309895167, 42.11189419720944], [-72.5195310197688, 42.11239391199609], [-72.51853101484834, 42.11279391670986], [-72.51773103917525, 42.10709427554393], [-72.51803097320227, 42.10639381211232], [-72.51783098369408, 42.10389421262812]]]}}