{"type": "Feature", "properties": {"district_name": "1st Hampden District", "chamber": "house", "vintage": "2012-2020"}, "geometry": {"type": "Polygon", "coordinates": [[[-72.39560999999999, 42.185769], [-72.390304, 42.186254], [-72.35821899999999, 42.18980199999999], [-72.360423, 42.19023699999999], [-72.36131900000001, 42.19298900000001], [-72.361495, 42.193965], [-72.361175, 42.194349], [-72.35925499999999, 42.19409299999999], [-72.358871, 42.19438100000001], [-72.359479, 42.195309], [-72.359943, 42.19639699999998], [-72.36071100000001, 42.196909000000005], [-72.361719, 42.197037], [-72.363079, 42.196909000000005], [-72.363495, 42.19719699999999], [-72.363559, 42.197532999999986], [-72.362775, 42.197917000000004], [-72.36231099999999, 42.19839699999997], [-72.36242299999999, 42.199453000000005], [-72.36312699999999, 42.201629], [-72.36445499999999, 42.20289300000001], [-72.36474299999999, 42.20606000000001], [-72.364583, 42.206748], [-72.36413499999999, 42.20716399999999], [-72.363575, 42.207404000000004], [-72.362871, 42.20746799999998], [-72.362071, 42.20725999999999], [-72.361783, 42.20693999999998], [-72.36282299999999, 42.206363999999986], [-72.36282299999999, 42.205980000000004], [-72.36170299999999, 42.20564499999999], [-72.360935, 42.20521299999999], [-72.360519, 42.20521299999999], [-72.359831, 42.205484999999996], [-72.359127, 42.206076], [-72.357079, 42.20866799999998], [-72.355943, 42.20902000000001], [-72.354775, 42.208732000000005], [-72.35386199999999, 42.207291999999995], [-72.35347800000001, 42.206956], [-72.352374, 42.20690799999998], [-72.35135, 42.20732400000001], [-72.34957399999999, 42.20900399999999], [-72.349238, 42.209915999999986], [-72.346902, 42.21009200000001], [-72.34607, 42.210956], [-72.345574, 42.211772], [-72.34541399999999, 42.212635999999996], [-72.34602199999999, 42.21541999999999], [-72.345974, 42.21583600000001], [-72.345558, 42.21641200000001], [-72.343558, 42.21798], [-72.34237399999999, 42.218604], [-72.340134, 42.219036], [-72.337094, 42.219036], [-72.336326, 42.219356000000005], [-72.335638, 42.220155999999996], [-72.335638, 42.220924999999994], [-72.335415, 42.22174599999999], [-72.33551, 42.222108], [-72.33655, 42.223131999999985], [-72.33655, 42.223932000000005], [-72.33534999999999, 42.226699999999994], [-72.33555799999999, 42.22761200000001], [-72.33401599999999, 42.22932099999999], [-72.33400999999999, 42.23051600000001], [-72.33447199999999, 42.232062], [-72.33419599999999, 42.23254], [-72.334305, 42.233028], [-72.334181, 42.23350200000001], [-72.333157, 42.23465], [-72.333319, 42.23604100000003], [-72.332948, 42.237092], [-72.333776, 42.240372], [-72.334786, 42.241309], [-72.334858, 42.24310399999998], [-72.335252, 42.244258], [-72.33487, 42.24505299999998], [-72.333685, 42.245343], [-72.333542, 42.245886000000006], [-72.334182, 42.24657399999999], [-72.334806, 42.247741], [-72.33447, 42.249181000000014], [-72.334707, 42.250857], [-72.336586, 42.256708], [-72.33646399999999, 42.25785099999999], [-72.33837199999999, 42.25865100000001], [-72.33831099999999, 42.25899399999999], [-72.338065, 42.259154], [-72.336434, 42.25938300000001], [-72.336434, 42.259612], [-72.337727, 42.26023000000001], [-72.33788200000001, 42.26054999999999], [-72.33782, 42.261007000000006], [-72.33729799999999, 42.26173900000001], [-72.336591, 42.26228800000001], [-72.335852, 42.262563], [-72.334836, 42.26251800000001], [-72.33412899999999, 42.262609000000005], [-72.333822, 42.26281499999999], [-72.333668, 42.26338700000002], [-72.333761, 42.26434800000001], [-72.334439, 42.26521700000001], [-72.334439, 42.26587999999999], [-72.33407, 42.266497], [-72.33296299999999, 42.26752699999999], [-72.332379, 42.26846400000001], [-72.331642, 42.270135], [-72.331643, 42.27134599999999], [-72.33207399999999, 42.272123999999984], [-72.332813, 42.272742000000015], [-72.333399, 42.272993], [-72.337559, 42.273827], [-72.338357, 42.274409999999996], [-72.338725, 42.275619], [-72.338754, 42.27703500000002], [-72.338537, 42.27817700000001], [-72.338597, 42.279638], [-72.338844, 42.28030100000001], [-72.339275, 42.28087199999998], [-72.34113599999999, 42.28148900000001], [-72.343423, 42.281662], [-72.345567, 42.28312200000001], [-72.34679, 42.283609999999996], [-72.348445, 42.283792], [-72.349862, 42.28421499999999], [-72.350565, 42.284628999999995], [-72.350872, 42.285278], [-72.35079499999999, 42.285865], [-72.350214, 42.287019], [-72.349797, 42.288663], [-72.348788, 42.290994999999995], [-72.348805, 42.29215299999999], [-72.348531, 42.29419299999998], [-72.348631, 42.29458599999999], [-72.35004099999999, 42.29464799999999], [-72.350596, 42.29501199999999], [-72.352199, 42.29543299999998], [-72.35263499999999, 42.29573399999999], [-72.352375, 42.297149000000005], [-72.35202699999999, 42.297750999999984], [-72.35168399999999, 42.29802499999999], [-72.350824, 42.298220000000015], [-72.350708, 42.298414], [-72.351886, 42.29850599999999], [-72.352812, 42.29884799999999], [-72.35452599999999, 42.29895399999998], [-72.35486, 42.29922500000001], [-72.354896, 42.29984600000001], [-72.354664, 42.301035999999996], [-72.353734, 42.30207], [-72.353646, 42.302353], [-72.354186, 42.302747], [-72.35601799999999, 42.30328300000001], [-72.354852, 42.305074999999995], [-72.354017, 42.30576500000001], [-72.35196599999999, 42.306354000000006], [-72.3516, 42.30591499999999], [-72.351745, 42.30448900000001], [-72.351495, 42.30389900000001], [-72.35074900000001, 42.303960999999994], [-72.34989399999999, 42.30451600000001], [-72.349555, 42.30528599999999], [-72.34979, 42.30616899999999], [-72.350197, 42.306877000000014], [-72.350855, 42.30739399999998], [-72.351238, 42.30743899999998], [-72.35195500000002, 42.30704199999999], [-72.352429, 42.307071], [-72.352774, 42.307391999999986], [-72.35260000000002, 42.30767600000001], [-72.35196499999999, 42.30787299999999], [-72.350146, 42.30802699999999], [-72.349668, 42.308283], [-72.34961799999999, 42.30858500000001], [-72.349864, 42.30874600000001], [-72.3508, 42.308795999999994], [-72.351463, 42.30974099999998], [-72.351458, 42.310067999999994], [-72.35095799999999, 42.310316], [-72.350326, 42.310278], [-72.34894299999999, 42.309208999999996], [-72.348402, 42.309112999999996], [-72.346316, 42.30975099999999], [-72.345201, 42.311035000000004], [-72.344475, 42.311280999999994], [-72.343597, 42.31188699999999], [-72.342399, 42.314169], [-72.341989, 42.31443499999998], [-72.34016, 42.31446200000002], [-72.339112, 42.31430299999999], [-72.337936, 42.314462000000006], [-72.336925, 42.314848], [-72.33500099999999, 42.31522800000002], [-72.33492799999999, 42.315563], [-72.335157, 42.31608499999999], [-72.334682, 42.316879], [-72.334805, 42.31765200000001], [-72.33377, 42.318164], [-72.333193, 42.31902399999999], [-72.330857, 42.319669], [-72.32950199999999, 42.31971699999999], [-72.328884, 42.319477], [-72.32884299999999, 42.318503], [-72.328127, 42.318791], [-72.327344, 42.319800000000015], [-72.327161, 42.32069699999999], [-72.327351, 42.321529999999996], [-72.327225, 42.32241], [-72.3274, 42.323477], [-72.328267, 42.325104], [-72.328336, 42.325768], [-72.328032, 42.326395000000005], [-72.32739400000001, 42.32679200000002], [-72.326909, 42.326738000000006], [-72.326499, 42.32623100000001], [-72.326448, 42.32518999999999], [-72.326336, 42.325131], [-72.325884, 42.325177000000004], [-72.324754, 42.32595699999999], [-72.32458, 42.326215999999995], [-72.324741, 42.326805], [-72.32612, 42.328141999999986], [-72.326079, 42.328628], [-72.325711, 42.329062], [-72.324985, 42.330676], [-72.324643, 42.330892], [-72.323084, 42.330972], [-72.32258399999999, 42.331168999999996], [-72.322386, 42.332283999999994], [-72.323075, 42.33297700000001], [-72.32316999999999, 42.33341500000001], [-72.323061, 42.333884000000005], [-72.321969, 42.33515099999999], [-72.320048, 42.336663000000016], [-72.31994000000002, 42.33707400000001], [-72.318134, 42.33919900000001], [-72.317494, 42.339688999999986], [-72.316859, 42.339844000000014], [-72.315647, 42.339389], [-72.314933, 42.33954299999998], [-72.314606, 42.340934], [-72.314841, 42.343216999999996], [-72.314599, 42.343526], [-72.314179, 42.34367399999999], [-72.313799, 42.343461], [-72.313579, 42.34307299999998], [-72.312811, 42.343067], [-72.31233, 42.34275199999999], [-72.311521, 42.343132000000004], [-72.310913, 42.343067999999995], [-72.310446, 42.343266], [-72.31021299999999, 42.34375099999999], [-72.309763, 42.343638], [-72.309411, 42.343728000000006], [-72.30933999999999, 42.34392799999998], [-72.309505, 42.34421500000001], [-72.309331, 42.344549], [-72.30863500000001, 42.34498899999999], [-72.30838299999999, 42.344491], [-72.308859, 42.34436100000001], [-72.308786, 42.34402499999999], [-72.30806, 42.34422899999999], [-72.306794, 42.344244], [-72.306417, 42.344525999999995], [-72.30653699999999, 42.344812000000005], [-72.30695399999999, 42.344848999999996], [-72.30703000000001, 42.34507600000001], [-72.306269, 42.34532999999999], [-72.306175, 42.345556], [-72.30642000000002, 42.34581], [-72.306382, 42.346053], [-72.305545, 42.346096999999986], [-72.304839, 42.34579700000001], [-72.30483, 42.34565400000002], [-72.305284, 42.34549000000001], [-72.305142, 42.345187], [-72.304496, 42.34533299999998], [-72.303927, 42.34558], [-72.3027, 42.346762], [-72.301638, 42.347474999999996], [-72.301126, 42.34841099999999], [-72.300311, 42.34858], [-72.299671, 42.34901999999999], [-72.299117, 42.34904100000001], [-72.298707, 42.349272], [-72.298157, 42.34906600000002], [-72.297693, 42.349088], [-72.296241, 42.349504], [-72.295765, 42.350297000000005], [-72.295366, 42.35056300000001], [-72.294608, 42.35060700000001], [-72.294094, 42.35097199999999], [-72.2937, 42.35092700000001], [-72.293412, 42.35122599999999], [-72.292677, 42.351287], [-72.292458, 42.35156299999999], [-72.29198099999999, 42.351752], [-72.291574, 42.351748], [-72.29123899999999, 42.351552999999996], [-72.29134599999999, 42.351176], [-72.29118, 42.350989999999996], [-72.290384, 42.351319000000025], [-72.29028799999999, 42.351645], [-72.29040499999999, 42.352133], [-72.289166, 42.351913], [-72.284239, 42.35205699999999], [-72.2814, 42.336222000000014], [-72.278471, 42.336508], [-72.277152, 42.329395999999996], [-72.280138, 42.32907699999999], [-72.274639, 42.301963000000015], [-72.261978, 42.305264000000015], [-72.26153699999999, 42.30329599999999], [-72.24456599999999, 42.30608699999999], [-72.244431, 42.30519], [-72.24364500000001, 42.303881999999994], [-72.243738, 42.303303], [-72.244564, 42.30210899999999], [-72.24445899999999, 42.298646], [-72.24489799999999, 42.297644000000005], [-72.24501599999999, 42.29659], [-72.245398, 42.29559999999999], [-72.24457799999999, 42.292909], [-72.24408799999999, 42.291956000000006], [-72.243894, 42.291000000000004], [-72.244648, 42.288365999999996], [-72.24463, 42.28676999999999], [-72.245063, 42.285573], [-72.24522499999999, 42.283885000000005], [-72.24495999999999, 42.28262], [-72.244951, 42.281664000000006], [-72.245575, 42.279765999999995], [-72.24665499999999, 42.277591999999984], [-72.246938, 42.275791], [-72.24728499999999, 42.274916999999995], [-72.247365, 42.272088], [-72.247856, 42.267563], [-72.24966599999999, 42.26792299999999], [-72.25125, 42.265914], [-72.252985, 42.259871000000004], [-72.25137699999999, 42.25947399999999], [-72.249192, 42.25938300000001], [-72.24667699999999, 42.260247], [-72.24444799999999, 42.260650999999996], [-72.242583, 42.26061299999999], [-72.241595, 42.260401999999985], [-72.241215, 42.262008], [-72.236978, 42.260321999999995], [-72.23653, 42.259888999999994], [-72.235776, 42.260372000000004], [-72.23473299999999, 42.260476999999995], [-72.233487, 42.25969099999999], [-72.232914, 42.258775], [-72.231994, 42.25842200000001], [-72.231478, 42.25901500000001], [-72.229691, 42.26002300000001], [-72.22666699999999, 42.260576999999984], [-72.224808, 42.26137000000001], [-72.223186, 42.262711], [-72.222577, 42.263056000000006], [-72.222161, 42.26308299999999], [-72.221267, 42.262881], [-72.220238, 42.26228], [-72.218749, 42.261728], [-72.216629, 42.259778999999995], [-72.216138, 42.256143999999985], [-72.211275, 42.255635], [-72.211316, 42.25197000000003], [-72.211187, 42.251262], [-72.182506, 42.25138700000002], [-72.182161, 42.247971], [-72.18112599999999, 42.24607400000001], [-72.179912, 42.246255999999995], [-72.17963999999999, 42.245657000000016], [-72.178839, 42.24277399999999], [-72.17822699999999, 42.239414000000004], [-72.177388, 42.237233999999994], [-72.17693100000001, 42.23698599999999], [-72.17506800000001, 42.236607000000014], [-72.173383, 42.235239000000014], [-72.171054, 42.234266], [-72.167371, 42.228249000000005], [-72.153807, 42.207052999999995], [-72.15011299999999, 42.192364000000005], [-72.141843, 42.160898], [-72.12813, 42.16260600000001], [-72.111505, 42.164391], [-72.10867999999999, 42.151588], [-72.086766, 42.15446300000001], [-72.089483, 42.16721599999999], [-72.02942, 42.174428], [-72.02390500000001, 42.141792], [-72.046819, 42.135003999999995], [-72.040506, 42.104225999999976], [-72.046785, 42.103525], [-72.05209599999999, 42.088418], [-72.053429, 42.082403], [-72.054266, 42.08290399999999], [-72.05537, 42.083129], [-72.057558, 42.083091], [-72.058729, 42.08275099999999], [-72.05917099999999, 42.082224000000004], [-72.05925900000001, 42.08104600000001], [-72.05981899999999, 42.080551000000014], [-72.060791, 42.07909199999999], [-72.060799, 42.07738799999999], [-72.060285, 42.07619899999999], [-72.059687, 42.075436999999994], [-72.059418, 42.07447099999999], [-72.05941, 42.073961], [-72.059731, 42.072947000000006], [-72.06036499999999, 42.07197599999999], [-72.060645, 42.071735000000004], [-72.061042, 42.07170699999999], [-72.062839, 42.072590999999996], [-72.063583, 42.07277700000001], [-72.066425, 42.072086], [-72.074501, 42.05837299999999], [-72.099811, 42.02872300000001], [-72.118567, 42.029622999999994], [-72.126127, 42.029810000000005], [-72.144798, 42.03062099999999], [-72.148664, 42.030530000000006], [-72.241292, 42.03137400000001], [-72.248813, 42.031450000000014], [-72.249523, 42.03162599999999], [-72.270675, 42.03168000000001], [-72.270095, 42.09252199999998], [-72.274228, 42.14089799999999], [-72.27434, 42.14385300000001], [-72.275354, 42.144031000000005], [-72.277642, 42.143442], [-72.27922000000001, 42.143685], [-72.279864, 42.143606], [-72.28067, 42.14325599999998], [-72.281641, 42.141469000000015], [-72.284644, 42.14115199999999], [-72.285887, 42.141282], [-72.286266, 42.141691], [-72.287001, 42.14189800000001], [-72.28832899999999, 42.14174100000001], [-72.28956099999999, 42.14203899999999], [-72.290954, 42.14213199999999], [-72.291684, 42.14246099999998], [-72.293115, 42.14382400000001], [-72.29382, 42.143895999999984], [-72.295102, 42.14332400000001], [-72.295909, 42.143260999999995], [-72.297039, 42.144428999999995], [-72.298385, 42.144735], [-72.302322, 42.14415700000001], [-72.303985, 42.144522], [-72.30578, 42.144471], [-72.30766799999999, 42.144918], [-72.308739, 42.14473800000001], [-72.31113599999999, 42.143314], [-72.31228999999999, 42.143379999999986], [-72.313913, 42.14412100000001], [-72.313799, 42.146148], [-72.315013, 42.147645], [-72.315557, 42.147981000000016], [-72.317221, 42.147580999999995], [-72.318213, 42.14620499999999], [-72.318693, 42.14618899999999], [-72.32029299999999, 42.14674899999999], [-72.320933, 42.148061000000006], [-72.32170099999999, 42.149037], [-72.322069, 42.149277], [-72.32272499999999, 42.149421], [-72.32362100000002, 42.14905299999999], [-72.324437, 42.149404999999994], [-72.32506099999999, 42.150541000000004], [-72.325509, 42.150989], [-72.32905099999999, 42.15150999999998], [-72.329635, 42.15173799999999], [-72.33035199999999, 42.15252399999999], [-72.33156799999999, 42.155242999999984], [-72.332308, 42.156355999999995], [-72.33342, 42.15722900000001], [-72.333511, 42.157869999999996], [-72.335144, 42.158865], [-72.33849, 42.159397000000006], [-72.339755, 42.15926999999999], [-72.340811, 42.158950999999995], [-72.341259, 42.159159], [-72.341612, 42.16033], [-72.342061, 42.161003000000015], [-72.342621, 42.161259], [-72.34311699999999, 42.16122799999999], [-72.343645, 42.16102000000001], [-72.343886, 42.16063700000001], [-72.34454199999999, 42.16019099999999], [-72.344976, 42.161232], [-72.34590399999999, 42.16174499999998], [-72.346513, 42.161649], [-72.347793, 42.16086799999999], [-72.348274, 42.16107600000001], [-72.348908, 42.160447999999995], [-72.350396, 42.160992], [-72.351818, 42.16075], [-72.354204, 42.16074799999999], [-72.35545499999999, 42.160451999999985], [-72.361198, 42.158176000000005], [-72.36601499999999, 42.154870999999986], [-72.369317, 42.15380200000001], [-72.375325, 42.15332399999999], [-72.38067099999999, 42.15203700000001], [-72.38315899999999, 42.15241100000001], [-72.386457, 42.152214], [-72.38893999999999, 42.152381000000005], [-72.39508, 42.184060999999986], [-72.39560999999999, 42.185769]]]}}