{"type": "Feature", "properties": {"district_name": "3rd Hampshire", "chamber": "house", "vintage": "2001-2010"}, "geometry": {"type": "Polygon", "coordinates": [[[-72.46522604594861, 42.312635026270435], [-72.44714501501824, 42.22733994333262], [-72.46442991514144, 42.225391888497235], [-72.4784300009694, 42.22359194962562], [-72.48063000999551, 42.223492137825446], [-72.50513100024166, 42.22079176099045], [-72.50963088508522, 42.22049227532107], [-72.5278310214619, 42.218392081868025], [-72.54633203149722, 42.21649221590061], [-72.55197997858643, 42.234586988642405], [-72.55538806811916, 42.24628301005997], [-72.55562802887577, 42.25004321641234], [-72.55633196143783, 42.25629091724155], [-72.55853198829081, 42.28029126430361], [-72.5537719543491, 42.282346785365434], [-72.54730802989788, 42.28481099433074], [-72.54143598374912, 42.286267252158794], [-72.54069997265886, 42.28714727125863], [-72.54045997995593, 42.288667117494114], [-72.53999597022084, 42.2894349316157], [-72.53991596149993, 42.289754725036886], [-72.54015597956291, 42.29156283077224], [-72.53978800819702, 42.29276308010993], [-72.53853999173518, 42.293723121288366], [-72.53812401271502, 42.294233890407966], [-72.53652395364944, 42.29466700419217], [-72.53505198663089, 42.29541913543598], [-72.53324405011456, 42.297370050922325], [-72.53255601252947, 42.29773806287053], [-72.53125998425767, 42.29796185440506], [-72.52791504391892, 42.29988200937711], [-72.52772301481953, 42.301530251550425], [-72.53122801459732, 42.3035617852837], [-72.53373997587735, 42.304010215740675], [-72.5368639896587, 42.30404621738649], [-72.5375520539168, 42.312703103863306], [-72.53793201786722, 42.32020186743995], [-72.54081186418118, 42.31965812048579], [-72.53591600068705, 42.359960884683865], [-72.53692396945394, 42.3599771184889], [-72.53660402559306, 42.36503318481849], [-72.53562798187004, 42.365528730433525], [-72.53402506525731, 42.37682274691647], [-72.53147604234783, 42.40139504233092], [-72.5467950496141, 42.399966982666484], [-72.54406203993686, 42.427099758023225], [-72.4899309610052, 42.43371476401898], [-72.48378595790604, 42.407470052030604], [-72.47745702500302, 42.37644118185588], [-72.4750819877229, 42.36637814704812], [-72.46514602158295, 42.31343475461246], [-72.46522604594861, 42.312635026270435]]]}}