{"type": "Feature", "properties": {"district_name": "3rd Suffolk District", "chamber": "house", "vintage": "2022-present"}, "geometry": {"type": "Polygon", "coordinates": [[[-71.075936, 42.34391500000001], [-71.074488, 42.344297000000005], [-71.075253, 42.345884], [-71.071815, 42.34867700000001], [-71.073067, 42.351243], [-71.067533, 42.352513], [-71.064562, 42.35238300000001], [-71.063419, 42.35505999999999], [-71.061956, 42.356534], [-71.063169, 42.357748], [-71.062642, 42.357977000000005], [-71.062846, 42.358889], [-71.062911, 42.361229], [-71.063721, 42.36124100000001], [-71.063718, 42.363281], [-71.063388, 42.364193000000014], [-71.064806, 42.36559599999998], [-71.067492, 42.36630899999999], [-71.070644, 42.367949], [-71.069478, 42.36904599999999], [-71.063921, 42.369016000000016], [-71.062994, 42.36839100000001], [-71.059795, 42.368767], [-71.057141, 42.369982], [-71.054995, 42.370697], [-71.050895, 42.370697], [-71.049095, 42.371197], [-71.042596, 42.363798], [-71.049396, 42.354498], [-71.049595, 42.354496999999995], [-71.05218800000002, 42.351121], [-71.052186, 42.350922], [-71.054771, 42.347253], [-71.054788, 42.34687100000001], [-71.054469, 42.34677800000001], [-71.058757, 42.345554], [-71.05964, 42.344860000000004], [-71.060485, 42.345423999999994], [-71.060434, 42.34555], [-71.060555, 42.345476000000005], [-71.061254, 42.345938000000004], [-71.062529, 42.343009], [-71.06593, 42.34393599999999], [-71.069855, 42.345266], [-71.070684, 42.344464], [-71.074586, 42.34240799999999], [-71.075723, 42.343475], [-71.075936, 42.34391500000001]]]}}