{"type": "Feature", "properties": {"district_name": "9th Middlesex District", "chamber": "house", "vintage": "2022-present"}, "geometry": {"type": "Polygon", "coordinates": [[[-71.286031, 42.40409700000001], [-71.281416, 42.412180000000006], [-71.274421, 42.40987700000001], [-71.270859, 42.41649700000001], [-71.271765, 42.41677500000001], [-71.26723, 42.42443800000002], [-71.211261, 42.406074], [-71.202628, 42.40370200000002], [-71.202543, 42.40322599999999], [-71.201702, 42.402425000000015], [-71.201849, 42.40207100000002], [-71.20157400000001, 42.401695000000004], [-71.201799, 42.401374000000004], [-71.201613, 42.400566000000005], [-71.200621, 42.399457999999996], [-71.200236, 42.39930400000001], [-71.20008, 42.398627000000005], [-71.199552, 42.39821400000001], [-71.199591, 42.39775699999999], [-71.199429, 42.39732], [-71.19818800000002, 42.396066999999995], [-71.197454, 42.395813000000004], [-71.196627, 42.39522899999998], [-71.196284, 42.394361], [-71.19633, 42.394031000000005], [-71.197654, 42.39316699999999], [-71.197964, 42.39267799999999], [-71.197028, 42.39197299999999], [-71.196973, 42.39083799999999], [-71.196724, 42.390655], [-71.196817, 42.389736], [-71.194876, 42.38817], [-71.195406, 42.387721000000006], [-71.195531, 42.38739999999999], [-71.194177, 42.386030999999996], [-71.208515, 42.37385], [-71.209374, 42.374074], [-71.21293, 42.37572], [-71.220789, 42.37772600000001], [-71.222049, 42.37786200000001], [-71.225562, 42.377711], [-71.224881, 42.37816600000001], [-71.219825, 42.38056900000001], [-71.218651, 42.38129699999999], [-71.217122, 42.38116599999999], [-71.212079, 42.382461000000006], [-71.205392, 42.386381], [-71.203817, 42.38698600000001], [-71.203399, 42.38771499999999], [-71.202105, 42.38859800000001], [-71.200739, 42.38887999999999], [-71.199286, 42.389739999999996], [-71.198701, 42.38958000000001], [-71.197713, 42.391021], [-71.2006, 42.391773], [-71.205154, 42.394459], [-71.208942, 42.39643400000001], [-71.21407, 42.40058900000001], [-71.214728, 42.401453999999994], [-71.215908, 42.39921400000001], [-71.216472, 42.39923999999999], [-71.216888, 42.399078], [-71.217791, 42.39791900000001], [-71.21820200000002, 42.397841], [-71.218611, 42.398118999999994], [-71.218337, 42.398890000000016], [-71.21899, 42.398610000000005], [-71.219363, 42.397463], [-71.217224, 42.396705000000004], [-71.218645, 42.394940999999996], [-71.221932, 42.39137900000001], [-71.22309, 42.389860000000006], [-71.224062, 42.387983000000006], [-71.225531, 42.386385999999995], [-71.225972, 42.385613], [-71.227232, 42.38557800000001], [-71.22816400000002, 42.385326000000006], [-71.230465, 42.383845], [-71.233134, 42.385659], [-71.236575, 42.386324], [-71.236298, 42.385614000000004], [-71.235692, 42.384924], [-71.235372, 42.38383100000001], [-71.234942, 42.38312], [-71.237029, 42.38347800000001], [-71.236064, 42.380054000000015], [-71.234069, 42.380199], [-71.234239, 42.37944699999999], [-71.23466, 42.37941299999999], [-71.234609, 42.37884699999999], [-71.233903, 42.37870800000001], [-71.234421, 42.377924], [-71.230516, 42.378100999999994], [-71.230406, 42.377118], [-71.231894, 42.376946], [-71.231711, 42.375390999999986], [-71.228749, 42.37575600000002], [-71.228319, 42.374081999999994], [-71.228795, 42.37246600000001], [-71.230032, 42.373201999999985], [-71.231122, 42.373476000000004], [-71.233657, 42.372681], [-71.235466, 42.372477000000025], [-71.236609, 42.373007999999984], [-71.236483, 42.373662], [-71.23661300000002, 42.37452300000001], [-71.242012, 42.37336], [-71.243215, 42.372862000000005], [-71.243685, 42.374007000000006], [-71.246517, 42.37310299999999], [-71.24652, 42.374379000000005], [-71.250995, 42.374367], [-71.251071, 42.373264999999996], [-71.25248, 42.37330499999999], [-71.252761, 42.37285], [-71.252181, 42.37266600000002], [-71.249868, 42.37244200000001], [-71.250296, 42.37101899999999], [-71.250344, 42.36965200000001], [-71.250681, 42.36883299999997], [-71.253584, 42.366985], [-71.253012, 42.36647], [-71.253023, 42.36452900000001], [-71.247762, 42.36729399999997], [-71.246837, 42.367960999999994], [-71.245369, 42.369483], [-71.242436, 42.368458], [-71.239714, 42.37094900000001], [-71.237036, 42.37057999999998], [-71.237525, 42.367634000000024], [-71.238772, 42.36371300000002], [-71.239165, 42.36107799999999], [-71.237621, 42.360498000000014], [-71.253146, 42.355897000000006], [-71.254034, 42.35477], [-71.255217, 42.353928], [-71.255731, 42.353754], [-71.256356, 42.354012000000004], [-71.256465, 42.354905], [-71.260385, 42.35363299999999], [-71.261209, 42.35368199999998], [-71.262889, 42.35422999999998], [-71.264922, 42.355241], [-71.265999, 42.35633], [-71.268917, 42.35988100000001], [-71.269181, 42.36057400000001], [-71.269308, 42.36263699999999], [-71.269517, 42.362844], [-71.27127500000002, 42.36337300000003], [-71.273423, 42.365236000000024], [-71.273567, 42.365899], [-71.273142, 42.366558], [-71.272711, 42.36686200000002], [-71.270772, 42.367484], [-71.270232, 42.36835799999999], [-71.270683, 42.369423000000005], [-71.27159, 42.37061399999999], [-71.271877, 42.370786], [-71.2717, 42.37103700000001], [-71.271755, 42.371227], [-71.272376, 42.37150799999999], [-71.272173, 42.37158800000002], [-71.272148, 42.37177700000001], [-71.272378, 42.37217], [-71.273038, 42.37249400000002], [-71.273012, 42.37281800000001], [-71.273262, 42.37327399999998], [-71.273608, 42.37344300000001], [-71.273623, 42.373736], [-71.274694, 42.374207999999996], [-71.27525, 42.37464299999999], [-71.275724, 42.374558000000015], [-71.276517, 42.37496500000001], [-71.267761, 42.390141], [-71.27617200000002, 42.39291599999999], [-71.279583, 42.39875200000002], [-71.282825, 42.399727999999996], [-71.281205, 42.402691], [-71.286031, 42.40409700000001]]]}}