{"type": "Feature", "properties": {"district_name": "31st Middlesex District", "chamber": "house", "vintage": "2012-2020"}, "geometry": {"type": "Polygon", "coordinates": [[[-71.189599, 42.44979499999999], [-71.163003, 42.46019600000001], [-71.156159, 42.45687899999998], [-71.154552, 42.46007499999997], [-71.152282, 42.463783000000014], [-71.14407, 42.466431], [-71.123862, 42.473392000000004], [-71.112116, 42.473818000000016], [-71.116795, 42.49463900000001], [-71.121765, 42.49872000000001], [-71.11976, 42.500291999999995], [-71.10072199999999, 42.50225799999998], [-71.090115, 42.501260999999985], [-71.08550199999999, 42.492258000000014], [-71.07524000000001, 42.488008], [-71.07652, 42.47819700000001], [-71.07668699999999, 42.47748599999999], [-71.077707, 42.47739099999998], [-71.077985, 42.473974999999996], [-71.078152, 42.474019999999996], [-71.079189, 42.46164799999998], [-71.082104, 42.44401699999998], [-71.104722, 42.44884699999998], [-71.119402, 42.453444999999995], [-71.121346, 42.448670000000014], [-71.124153, 42.444115999999994], [-71.121976, 42.43978599999999], [-71.12709699999999, 42.43896599999997], [-71.128377, 42.436917], [-71.128963, 42.435603], [-71.155688, 42.435795999999996], [-71.182277, 42.43627900000001], [-71.177885, 42.440200999999995], [-71.182399, 42.443495000000006], [-71.18256199999999, 42.443637], [-71.182543, 42.443893], [-71.183529, 42.444001000000014], [-71.183486, 42.444117], [-71.183979, 42.44421499999999], [-71.183815, 42.444609], [-71.185813, 42.444981999999996], [-71.186454, 42.44562600000001], [-71.18712599999999, 42.44672299999998], [-71.189599, 42.44979499999999]]]}}