{"type": "Feature", "properties": {"district_name": "26th Middlesex District", "chamber": "house", "vintage": "2022-present"}, "geometry": {"type": "Polygon", "coordinates": [[[-71.117165, 42.356997], [-71.116597, 42.35918499999999], [-71.116704, 42.36125500000001], [-71.112329, 42.36267699999998], [-71.110928, 42.361735], [-71.110326, 42.362213999999994], [-71.108719, 42.36124100000001], [-71.102865, 42.366693999999995], [-71.10175, 42.36830199999999], [-71.10692, 42.370049], [-71.106493, 42.37067700000001], [-71.107275, 42.37094299999999], [-71.106831, 42.37161399999999], [-71.105738, 42.371190000000006], [-71.103937, 42.373417999999994], [-71.104995, 42.37387700000001], [-71.104716, 42.374233999999994], [-71.10305, 42.374018], [-71.103204, 42.374327], [-71.097463, 42.374431], [-71.094749, 42.37429199999999], [-71.095589, 42.376972], [-71.094129, 42.379074], [-71.093092, 42.378704], [-71.093295, 42.37689700000001], [-71.091489, 42.37684200000001], [-71.091862, 42.37826], [-71.089263, 42.377264], [-71.089925, 42.38006399999999], [-71.089741, 42.380109000000004], [-71.09014, 42.38142500000001], [-71.091801, 42.383815999999996], [-71.091321, 42.38387700000001], [-71.090477, 42.386520000000026], [-71.089502, 42.388232], [-71.088199, 42.389604000000006], [-71.090346, 42.39061299999999], [-71.090003, 42.391052], [-71.086509, 42.393587000000004], [-71.085748, 42.39288299999997], [-71.08532900000002, 42.39481899999999], [-71.083423, 42.40001299999999], [-71.077152, 42.39677799999999], [-71.075996, 42.39639600000001], [-71.075586, 42.39524700000001], [-71.073496, 42.391795999999985], [-71.079713, 42.38292100000003], [-71.080971, 42.38232300000001], [-71.080701, 42.381039], [-71.075657, 42.380196000000005], [-71.072689, 42.37322199999999], [-71.074001, 42.37254900000001], [-71.074353, 42.37255], [-71.074946, 42.372917999999984], [-71.075372, 42.372567], [-71.07606, 42.370713000000016], [-71.075569, 42.37036099999999], [-71.078618, 42.370862999999986], [-71.079725, 42.36612], [-71.084285, 42.36668900000003], [-71.084472, 42.365959], [-71.087914, 42.366357999999984], [-71.088562, 42.36626400000001], [-71.089053, 42.365925999999995], [-71.089432, 42.36478999999999], [-71.084389, 42.362713], [-71.084675, 42.362298999999986], [-71.090021, 42.362691000000005], [-71.090227, 42.362452], [-71.094852, 42.36016600000001], [-71.097684, 42.361816000000005], [-71.09886, 42.361184], [-71.098178, 42.36078199999997], [-71.102642, 42.35864400000001], [-71.106402, 42.355134], [-71.106725, 42.355002999999996], [-71.108195, 42.35521200000001], [-71.109577, 42.3559], [-71.110233, 42.35525100000001], [-71.110379, 42.354877999999985], [-71.110431, 42.35446099999998], [-71.110283, 42.35408000000002], [-71.110589, 42.352616], [-71.112834, 42.353002], [-71.114916, 42.35386100000001], [-71.116852, 42.35538499999999], [-71.117066, 42.355866], [-71.117165, 42.356997]]]}}