{"type": "Feature", "properties": {"district_name": "8th Hampden District", "chamber": "house", "vintage": "2012-2020"}, "geometry": {"type": "Polygon", "coordinates": [[[-72.62861, 42.166227], [-72.628498, 42.171974000000006], [-72.628258, 42.173590000000004], [-72.62765499999999, 42.17662800000001], [-72.627062, 42.17860599999999], [-72.625895, 42.181737999999996], [-72.625141, 42.18298499999999], [-72.623745, 42.184552], [-72.623113, 42.185084], [-72.62124899999999, 42.18596999999999], [-72.61934099999999, 42.186471000000004], [-72.609696, 42.18984800000001], [-72.606928, 42.190968], [-72.604745, 42.19233100000001], [-72.60176899999999, 42.19470099999999], [-72.593899, 42.19936500000001], [-72.591335, 42.20155599999998], [-72.590396, 42.20339499999999], [-72.59023499999999, 42.204129], [-72.590216, 42.20507799999999], [-72.590533, 42.20709199999998], [-72.591781, 42.209829], [-72.59343299999999, 42.211691], [-72.592418, 42.211691], [-72.52429, 42.218734000000005], [-72.517952, 42.19177899999998], [-72.52324899999999, 42.18796899999999], [-72.52648599999999, 42.190354000000006], [-72.531731, 42.189792000000004], [-72.534331, 42.18669199999999], [-72.534431, 42.186192], [-72.536231, 42.185092], [-72.539031, 42.18219199999999], [-72.54063200000002, 42.180292], [-72.54503199999999, 42.175893], [-72.548532, 42.17339299999998], [-72.548932, 42.171693], [-72.55013199999999, 42.17219299999999], [-72.55143199999999, 42.17199300000001], [-72.55403199999999, 42.170993], [-72.554932, 42.17029300000001], [-72.555432, 42.169593000000006], [-72.55573199999999, 42.169692999999995], [-72.557732, 42.168793000000015], [-72.559086, 42.16500500000001], [-72.559401, 42.16361799999999], [-72.560434, 42.163816999999995], [-72.560324, 42.162406], [-72.564577, 42.164048000000015], [-72.56808099999999, 42.16616300000001], [-72.571564, 42.16751699999998], [-72.572334, 42.167143], [-72.573179, 42.166483], [-72.575237, 42.16587699999999], [-72.576109, 42.164621999999994], [-72.57897, 42.162574999999975], [-72.579633, 42.160092999999996], [-72.58182599999999, 42.160289000000006], [-72.581848, 42.158729], [-72.581609, 42.157979999999995], [-72.580749, 42.15723799999999], [-72.577933, 42.156003999999996], [-72.578479, 42.155241000000004], [-72.57894399999999, 42.155366], [-72.580708, 42.15529300000001], [-72.580563, 42.154289999999996], [-72.577012, 42.154029999999985], [-72.574519, 42.153406999999994], [-72.574345, 42.153957999999996], [-72.572651, 42.152894999999994], [-72.570791, 42.151996000000004], [-72.5684, 42.151195], [-72.56337900000001, 42.14808000000001], [-72.591604, 42.136237000000015], [-72.59312899999999, 42.141563000000005], [-72.593446, 42.14442100000001], [-72.598452, 42.14484899999999], [-72.598317, 42.146321000000015], [-72.59995599999999, 42.146387999999995], [-72.59992199999999, 42.148109000000005], [-72.600175, 42.148110999999986], [-72.60025, 42.14894699999999], [-72.603488, 42.148861000000004], [-72.603591, 42.14723999999999], [-72.605482, 42.146912], [-72.606426, 42.147845], [-72.60695, 42.147990000000014], [-72.606999, 42.14729599999999], [-72.607331, 42.14678800000001], [-72.608055, 42.14705599999998], [-72.60881599999999, 42.14707799999999], [-72.608851, 42.145737000000004], [-72.609256, 42.145649000000006], [-72.611663, 42.143862], [-72.613143, 42.145496], [-72.613773, 42.14525400000001], [-72.615819, 42.145111999999976], [-72.616096, 42.144577999999996], [-72.616107, 42.14377300000001], [-72.615534, 42.142796000000004], [-72.618363, 42.143705999999995], [-72.620144, 42.145307], [-72.62243, 42.146952000000006], [-72.621234, 42.148793000000005], [-72.619034, 42.14999299999999], [-72.614363, 42.148891], [-72.613445, 42.149114], [-72.61076, 42.15388900000001], [-72.61021099999999, 42.15547399999997], [-72.61009899999999, 42.157427000000006], [-72.610444, 42.158887], [-72.611258, 42.160896], [-72.611425, 42.162344999999995], [-72.61036899999999, 42.168687], [-72.61009299999999, 42.171527], [-72.610863, 42.171253], [-72.614561, 42.17150499999999], [-72.614462, 42.17014099999999], [-72.61946999999999, 42.169562], [-72.623841, 42.169377000000004], [-72.623482, 42.167401], [-72.622878, 42.166465999999986], [-72.619438, 42.16367399999999], [-72.617183, 42.16225199999998], [-72.618132, 42.161429], [-72.625586, 42.160914000000005], [-72.625601, 42.162362999999985], [-72.626402, 42.162353999999986], [-72.627505, 42.162586], [-72.628407, 42.16516199999998], [-72.62861, 42.166227]]]}}