{"type": "Feature", "properties": {"district_name": "3rd Plymouth", "chamber": "house", "vintage": "2001-2010"}, "geometry": {"type": "MultiPolygon", "coordinates": [[[[-70.89126774613793, 42.25781681181902], [-70.88938992495648, 42.257406765494274], [-70.88929740167735, 42.2570838416143], [-70.88985202168085, 42.2569309267351], [-70.89234595809567, 42.257132094444444], [-70.89228444451084, 42.25738554216886], [-70.89126774613793, 42.25781681181902]]], [[[-70.90341868455819, 42.28054045251157], [-70.90366501039868, 42.28081576963453], [-70.90360263550694, 42.281204264948656], [-70.90286261774989, 42.28179294467058], [-70.90187632757757, 42.28216087666643], [-70.90073779385635, 42.282278735770205], [-70.89781128254795, 42.28166134446489], [-70.89590240324996, 42.280377941239486], [-70.89540980240758, 42.279809275674644], [-70.89849058548603, 42.2796498891511], [-70.9015393751099, 42.27996854608221], [-70.90341868455819, 42.28054045251157]]], [[[-70.93985946414307, 42.28616802274831], [-70.94053746622771, 42.28797645151984], [-70.9405681029641, 42.28884033239043], [-70.94164697739814, 42.29044363333738], [-70.94161639312317, 42.29062411405098], [-70.94112286455861, 42.29053393384146], [-70.94103091833766, 42.29101290202663], [-70.9414924522799, 42.29101345417899], [-70.94253984882427, 42.290581890751895], [-70.94272493299479, 42.290326200156315], [-70.94247842069888, 42.29000596090926], [-70.94201654399035, 42.290302504611105], [-70.94152360380662, 42.28982406986498], [-70.94595923131641, 42.28845119146588], [-70.9463606552595, 42.28817403042192], [-70.94663695999022, 42.28760198067135], [-70.94740735771886, 42.286922010974216], [-70.9479309562924, 42.28673321242308], [-70.94873173156688, 42.28678264084007], [-70.94953273742001, 42.28778638532503], [-70.95033503618058, 42.28973659049358], [-70.95033450599405, 42.290169295124834], [-70.94919517098066, 42.290765362418675], [-70.94787048329437, 42.291039783222494], [-70.9447901083715, 42.290651308400726], [-70.94291023943126, 42.290971388301195], [-70.94183142667467, 42.291377476714345], [-70.93721002058564, 42.29394276522483], [-70.93554651675822, 42.29584438781481], [-70.9351759143093, 42.29703040874425], [-70.93539220327852, 42.29895475892428], [-70.93600853532816, 42.30000721388292], [-70.93600857117835, 42.30061998267873], [-70.93557703257208, 42.30128465973548], [-70.93483714661699, 42.30197313556371], [-70.93286499521595, 42.30279958045667], [-70.93036915499168, 42.3029768575256], [-70.92864326484226, 42.30281692840667], [-70.92802718771249, 42.30256571095431], [-70.92728764156293, 42.301885111301935], [-70.92707173587692, 42.30147382676705], [-70.9270111038419, 42.30078141115676], [-70.92728810799824, 42.29982227841642], [-70.9272580592154, 42.29916490217143], [-70.9277505385986, 42.29897659833521], [-70.92978412168446, 42.29725755489101], [-70.93073997803025, 42.2968267697184], [-70.9334206008544, 42.29625875296717], [-70.93431424947165, 42.29589234568253], [-70.93492991919467, 42.295251086295785], [-70.93551560407806, 42.294061054001695], [-70.93554698517721, 42.29360149154789], [-70.93613141262198, 42.29199673944351], [-70.93690228815102, 42.290812677129395], [-70.93905855768264, 42.28934389787332], [-70.93933630298358, 42.28902395967474], [-70.93973654316545, 42.28779191859425], [-70.93952102052356, 42.28729119434273], [-70.93776530305969, 42.28539308505492], [-70.93785735890373, 42.28479707881755], [-70.93865793126302, 42.28490959848801], [-70.93985946414307, 42.28616802274831]]], [[[-70.89742959663658, 42.30011634623252], [-70.8977374850351, 42.30077799739383], [-70.89773640385368, 42.30176890216406], [-70.89733608720155, 42.30183826091663], [-70.89665824804162, 42.30139917762242], [-70.89474899383396, 42.30071052578525], [-70.89268410267888, 42.30066361746342], [-70.89271499174446, 42.300465153775946], [-70.89394812273551, 42.300002935097545], [-70.89582832097709, 42.29950360255141], [-70.89659802355554, 42.29952677903626], [-70.89742959663658, 42.30011634623252]]], [[[-70.89824002534598, 42.33054879919003], [-70.89876738243473, 42.330496973027586], [-70.89950783245365, 42.33010583394047], [-70.89984643383882, 42.330244898969816], [-70.89981484613898, 42.33049738702938], [-70.89799506828547, 42.331824826266185], [-70.89759449793445, 42.332299890134955], [-70.89728579654358, 42.33383666999059], [-70.89682289068101, 42.33438511226761], [-70.89552773353759, 42.33500121311194], [-70.89460282433738, 42.33502503891728], [-70.89429456417524, 42.334823097110885], [-70.89429425656158, 42.33449898534382], [-70.89528164200918, 42.33378900739719], [-70.89562137394704, 42.332143791845816], [-70.89623809917612, 42.331430730854784], [-70.89648685954883, 42.3301564107782], [-70.89707224381033, 42.33008352375303], [-70.89824002534598, 42.33054879919003]]], [[[-70.89712887725818, 42.33896477006698], [-70.89836153130528, 42.33994412353301], [-70.8983612736343, 42.34015119224441], [-70.89771262643674, 42.34058556916996], [-70.8973426949187, 42.34104221877986], [-70.89749522609607, 42.34268776615908], [-70.89638549791559, 42.3433284719366], [-70.8960773837203, 42.34330603892605], [-70.89564616108838, 42.34269156621133], [-70.89515260967836, 42.34252859964739], [-70.89521479408354, 42.34104174076505], [-70.89499992053275, 42.34035130996027], [-70.89552465401059, 42.33982964245958], [-70.89558687994764, 42.33887339559596], [-70.89672800998737, 42.338529962722], [-70.89694427099083, 42.33859862018356], [-70.89712887725818, 42.33896477006698]]], [[[-70.84842079186295, 42.258300232179714], [-70.84723031748229, 42.259558424904675], [-70.84648133303247, 42.259466941109714], [-70.84564984312001, 42.25999339649909], [-70.84555544085214, 42.26036874353175], [-70.84717701173086, 42.25989855213698], [-70.84826659834992, 42.25905956322294], [-70.84876263196607, 42.25896165849008], [-70.85377898632827, 42.259943217329166], [-70.85451856180119, 42.261498741230604], [-70.85374917393254, 42.26123219466198], [-70.85193211644521, 42.2615044299309], [-70.85138311946214, 42.26189184511016], [-70.85282590875849, 42.26166140038902], [-70.85451914978597, 42.26216555035993], [-70.85473543793952, 42.26236933851575], [-70.85525880048239, 42.26209936361229], [-70.85562764159289, 42.26056188261783], [-70.85602657870007, 42.259600775457514], [-70.85630361653261, 42.25941607910909], [-70.85695101504018, 42.259423641032136], [-70.85728975927574, 42.259895398001625], [-70.85762810717482, 42.2598269491712], [-70.85833563844156, 42.25907688509512], [-70.85858236352937, 42.25911765273455], [-70.85833681040214, 42.26038292650505], [-70.85919912422226, 42.26045019744361], [-70.85984590422225, 42.26033170341371], [-70.85996846868312, 42.25989685573229], [-70.86086086051105, 42.25964804366692], [-70.8624005157053, 42.25955081569947], [-70.86366309832596, 42.25911610371669], [-70.8640018646233, 42.25913767069346], [-70.86387878795956, 42.259436913226], [-70.8650803509753, 42.259666951565436], [-70.86562296258245, 42.259945674285035], [-70.8651427137544, 42.260398249758246], [-70.86370045150574, 42.26082748082701], [-70.8663127998007, 42.2607845318929], [-70.86692849379077, 42.26099106766886], [-70.86692854120479, 42.261270167626584], [-70.86652851449941, 42.26165509972625], [-70.86680679418299, 42.261911533619994], [-70.86766897012498, 42.26199675543861], [-70.86792689795575, 42.26266216248041], [-70.86782405585075, 42.26298514478088], [-70.86686978272644, 42.263739533202546], [-70.86406756920682, 42.26470427344747], [-70.86415956531505, 42.26497262842854], [-70.86471438909503, 42.265360028273115], [-70.86493053178175, 42.265959937268974], [-70.86406868605604, 42.266253399068496], [-70.86403815561135, 42.26657790371744], [-70.86480839619873, 42.266826945972014], [-70.86477742271826, 42.267007396994465], [-70.86403847509366, 42.26705564273076], [-70.86336089399742, 42.266877451126156], [-70.86354546776549, 42.266207735151994], [-70.86317596123575, 42.26575440069355], [-70.86172780893595, 42.26577787190375], [-70.85991160725311, 42.266050796690884], [-70.85914078758228, 42.26522552143915], [-70.8588938941706, 42.264562965149345], [-70.85766226175306, 42.26506926568429], [-70.85680054233649, 42.26575881532942], [-70.8564009645264, 42.266350788781224], [-70.85609347150195, 42.26731072536649], [-70.8560936308105, 42.268022538296684], [-70.85677285600363, 42.26911967670327], [-70.85726524250205, 42.26948086931278], [-70.85760388996452, 42.26955648241424], [-70.85902029363227, 42.2692543442938], [-70.85972898559842, 42.26927855488496], [-70.85969802623823, 42.26954960388906], [-70.85945212271594, 42.2697603751397], [-70.85837415054192, 42.270309738324556], [-70.8584361919201, 42.2705610493129], [-70.86019241241735, 42.27172157342883], [-70.86120959690403, 42.27188534995863], [-70.86213300638511, 42.271789196420784], [-70.8636108905058, 42.27142263711399], [-70.8641041565143, 42.2711535897931], [-70.86407292955627, 42.270811853445046], [-70.86302515890006, 42.27005372115224], [-70.86302522999898, 42.26959455815071], [-70.8638871607723, 42.26916605650319], [-70.8656732972327, 42.269047073396045], [-70.86681239468642, 42.26925368088691], [-70.86819928613727, 42.27000577594536], [-70.86832313666427, 42.27078748472676], [-70.86733856440965, 42.27160529043116], [-70.86653869038231, 42.273915269802], [-70.8646610224531, 42.27504492743979], [-70.86469191326537, 42.27526961094522], [-70.8653088188016, 42.27574625652698], [-70.86620305680123, 42.27686702308834], [-70.86721920103263, 42.276823108423166], [-70.86835892467612, 42.27652552442052], [-70.87446780759822, 42.27563388082836], [-70.88115035753268, 42.2765957261908], [-70.88247472799057, 42.27652857825744], [-70.88432358431092, 42.2758401906443], [-70.88527819153934, 42.27588806901922], [-70.88940523854404, 42.276648344051736], [-70.88937407815325, 42.276873824869945], [-70.88857376690055, 42.27738274796137], [-70.8876182153432, 42.2776055454243], [-70.88466122987337, 42.27731233566148], [-70.88342918401908, 42.27733273786305], [-70.88170356060755, 42.2776942751206], [-70.87862369295333, 42.27788022564503], [-70.87791461440548, 42.27840589118766], [-70.87754455034593, 42.27959173832264], [-70.87745041985643, 42.280323303297976], [-70.87785102458628, 42.28083020978884], [-70.88142198139879, 42.28346435839798], [-70.8812661332696, 42.284989555311924], [-70.88138790059641, 42.28691519494533], [-70.88172636758635, 42.28735086135298], [-70.88246454456142, 42.28773521539182], [-70.88338892057182, 42.28851275965147], [-70.88372600799298, 42.29041705170562], [-70.88430997090146, 42.291857310590856], [-70.88511043384962, 42.292447927676044], [-70.88698959624075, 42.29313714035436], [-70.88742035005188, 42.29359859828208], [-70.8874813338394, 42.29432705251004], [-70.88704854486161, 42.296892889629], [-70.88704709862735, 42.29833395073714], [-70.88670668250477, 42.30057391400378], [-70.88550191999619, 42.303593653421316], [-70.88550146114315, 42.30407081658377], [-70.88571690530156, 42.304346563840696], [-70.88608670066928, 42.30457474364975], [-70.88833610396868, 42.30501494613643], [-70.8894446901203, 42.3054918221524], [-70.89076920733203, 42.306632119625476], [-70.89357382373568, 42.306477579486895], [-70.89517711060323, 42.30558571823856], [-70.8964713472156, 42.305222270220554], [-70.89807385696596, 42.30522224006775], [-70.89878294949322, 42.304949106681256], [-70.89936820739977, 42.30444404972789], [-70.89939999328524, 42.304010941030164], [-70.90007709206259, 42.30389181078059], [-70.90171138181442, 42.30307148729421], [-70.90540948880488, 42.30199173663591], [-70.9067662417662, 42.30064490637872], [-70.91111152855619, 42.29979733374567], [-70.9124361034912, 42.30036962751702], [-70.91305261276338, 42.30080998761581], [-70.91428331566644, 42.302131288889306], [-70.91440701517212, 42.303345087844406], [-70.9154543418051, 42.304030154941096], [-70.91579324354844, 42.30410558690998], [-70.91644040234465, 42.30394175985334], [-70.91696404628776, 42.30432930063636], [-70.91791939672594, 42.30444836650916], [-70.91970728688403, 42.303553165323066], [-70.91976898544104, 42.303210233699716], [-70.92235707024133, 42.30295936589315], [-70.92260360433856, 42.30345915160313], [-70.92254151967035, 42.30494716855354], [-70.91930527802771, 42.30616371635001], [-70.91838173099444, 42.3062513271837], [-70.91406688990911, 42.30581920703676], [-70.91277273694858, 42.30618341135001], [-70.91024462911653, 42.307667229382446], [-70.9095358303812, 42.30784984556844], [-70.9081495908162, 42.30790066706609], [-70.90651660259336, 42.30782866486634], [-70.90189348301902, 42.30718573127549], [-70.89813475074139, 42.30611329992116], [-70.89603936222375, 42.3058867980822], [-70.89530016925058, 42.30611529883117], [-70.89449780297588, 42.30670527907914], [-70.89397434128969, 42.307281536736006], [-70.89372666702825, 42.30815015589636], [-70.89236999095735, 42.30924474573741], [-70.89107547572655, 42.3097257449603], [-70.88256861897439, 42.310659441633696], [-70.88232238117622, 42.3104110999052], [-70.88229184632209, 42.309520185500276], [-70.88300181412656, 42.30887802603059], [-70.88334144648434, 42.30821474378354], [-70.88325101891307, 42.305883017452], [-70.88263632960262, 42.303658753587186], [-70.88128339471307, 42.30061854662737], [-70.87872835827162, 42.2970485195176], [-70.87771390078667, 42.29505615228797], [-70.87565197976282, 42.29217183479895], [-70.87549881537946, 42.29150757784275], [-70.87261969704944, 42.287941836389074], [-70.87082992442922, 42.28515119424319], [-70.86750018973103, 42.281349881455164], [-70.86435547534965, 42.27810375446592], [-70.86065781742104, 42.27564168220148], [-70.86044087630499, 42.27515880337136], [-70.8584381558684, 42.27369586766814], [-70.8551720150058, 42.270496626261796], [-70.85276848236143, 42.26891429579472], [-70.85036477244608, 42.267953134879924], [-70.85005741120382, 42.26793113849076], [-70.8488565207175, 42.26843696080117], [-70.84716321601744, 42.26864454980062], [-70.84620887560527, 42.268344265154155], [-70.84556101531402, 42.268372644437015], [-70.84312825150916, 42.267961487676565], [-70.84235814309626, 42.26754180636184], [-70.84140330579484, 42.26747612971163], [-70.84004871258227, 42.26773169740178], [-70.83992473447772, 42.26788741590276], [-70.83998760159929, 42.26859790662097], [-70.83974040980081, 42.268871642216496], [-70.83927933230854, 42.26889712543837], [-70.83817072429552, 42.26846478116181], [-70.83749274206772, 42.268601547277704], [-70.83703048218312, 42.267888749988835], [-70.83625985285401, 42.26743244440685], [-70.83450429911944, 42.266910792535484], [-70.83265660067154, 42.26663447449064], [-70.8322255575197, 42.2667039946272], [-70.83040896681642, 42.26782332262383], [-70.82939209826192, 42.26773129105152], [-70.82886909439283, 42.26752341209979], [-70.82782161864255, 42.266657476495524], [-70.82692812687786, 42.26629323888118], [-70.82646607382229, 42.26578691550567], [-70.8258196216247, 42.264617202186315], [-70.82529546571762, 42.26409418630108], [-70.82455635906491, 42.26398010962971], [-70.82384808716955, 42.264099177742764], [-70.82366392522516, 42.263822926989455], [-70.82095319785157, 42.26391103365613], [-70.81710454168787, 42.263566902090794], [-70.81661193103156, 42.26334058274476], [-70.81340951202723, 42.26276946269284], [-70.81260814751772, 42.26286370412967], [-70.81162256344734, 42.26244646805253], [-70.81088425991217, 42.26078262157893], [-70.80986736573448, 42.2606189570917], [-70.80909748187413, 42.2609193128038], [-70.80875896204397, 42.26054589076498], [-70.80725047679238, 42.259930204668045], [-70.80644957193478, 42.25901491431364], [-70.80586467805338, 42.258835257935324], [-70.80426338441136, 42.25895048671769], [-70.80349329633121, 42.25926881029485], [-70.80260089587047, 42.259292086953835], [-70.80213827630085, 42.259082768109835], [-70.80183029324081, 42.2585384485928], [-70.80198447245674, 42.257779167478624], [-70.80186134378552, 42.25743854521973], [-70.8002296591735, 42.25636510008666], [-70.79930641581831, 42.256046605483455], [-70.79644297974185, 42.25627162528853], [-70.7957037393552, 42.25597729537254], [-70.79564184258086, 42.25577040734294], [-70.79582713996157, 42.255353449416674], [-70.7953953439188, 42.25530635111426], [-70.79407187598169, 42.253453105620494], [-70.79450361597266, 42.252653908406074], [-70.79493486780802, 42.252493372976275], [-70.79447375214998, 42.25210452413025], [-70.79373367860808, 42.25277409526675], [-70.7935490147381, 42.25338911734199], [-70.79210195377644, 42.25430360868849], [-70.79077749711716, 42.25407260338288], [-70.79034683432614, 42.25377283361838], [-70.7891762748266, 42.253682870111675], [-70.78926950014653, 42.2529519296091], [-70.78963918611218, 42.252017874856314], [-70.79056306160041, 42.25110244228925], [-70.79044096699619, 42.25005055273482], [-70.7901623838056, 42.24973427332107], [-70.78945380588144, 42.24963704793133], [-70.78788414771253, 42.25057717046211], [-70.78702266824247, 42.25057238184058], [-70.78603706291, 42.25089431898606], [-70.78582206135223, 42.25034771475332], [-70.78612896417894, 42.24966199629052], [-70.78591312692781, 42.24959312919516], [-70.78557456955829, 42.24890508809559], [-70.7847127368802, 42.249134365741746], [-70.78440486932531, 42.248932123582975], [-70.78437496211573, 42.24842775200252], [-70.78489817629423, 42.247969592844285], [-70.78542143495561, 42.247825989131506], [-70.78616074447768, 42.247328087054456], [-70.78785336173517, 42.24666222613945], [-70.78730066747381, 42.24423859861433], [-70.78807095843962, 42.24298291475736], [-70.78844061007935, 42.242824272505025], [-70.79102598386585, 42.242847021904744], [-70.79118035790975, 42.242637522864804], [-70.78985689884878, 42.24188319351502], [-70.78982581985349, 42.2415144235969], [-70.79004145484258, 42.24131262471949], [-70.79044238185547, 42.24108101756957], [-70.79232021942443, 42.24101608183696], [-70.79348996124948, 42.240853349958606], [-70.79392041072856, 42.24062191244247], [-70.79413667257536, 42.24014043991226], [-70.79364339896027, 42.23970693012307], [-70.7925053319942, 42.239850726660435], [-70.7922897765223, 42.24009755620579], [-70.7910887393963, 42.24021562416884], [-70.79084240311738, 42.23966096585879], [-70.79099651661069, 42.23911777545815], [-70.79090416143079, 42.23892982792616], [-70.79020978023453, 42.23863911362523], [-70.79020128836716, 42.237419678564244], [-70.79075143663297, 42.237013428255466], [-70.79075090663767, 42.23680634860574], [-70.79136676608178, 42.23648096406093], [-70.79167470189965, 42.236097972834244], [-70.7928444302575, 42.236097874825695], [-70.79290569209337, 42.23593449985641], [-70.79158178680912, 42.235450852851145], [-70.79053589878335, 42.235313844579885], [-70.79010498089086, 42.234879578816034], [-70.78828899586046, 42.23513280525504], [-70.78782681726439, 42.2347703725915], [-70.78794998411104, 42.23371437118756], [-70.78819687703296, 42.2333056839632], [-70.78958466137193, 42.232863557718645], [-70.78979610679367, 42.232661166012505], [-70.78967479664384, 42.23046247723062], [-70.7893985592553, 42.228998283676525], [-70.78859846996025, 42.228524595249795], [-70.786720918348, 42.228679503132874], [-70.78690583467224, 42.227469703203006], [-70.7867529778472, 42.22668827172573], [-70.78623022278605, 42.22566033318441], [-70.78392118655631, 42.22549795146817], [-70.78355280181314, 42.22513439295198], [-70.78355294948186, 42.224837283430595], [-70.78422956938894, 42.22453820990479], [-70.78413781590137, 42.22433281143224], [-70.78370709139057, 42.224177066826854], [-70.7833067393655, 42.22414755715588], [-70.78272176189927, 42.224426940566396], [-70.7830601781793, 42.224610814888926], [-70.78161376773888, 42.22511045864085], [-70.78096723846619, 42.22472432543014], [-70.78090572032124, 42.2244909782882], [-70.78121403256304, 42.2241254651039], [-70.78118377387366, 42.22373868970488], [-70.78087527949062, 42.22355443906021], [-70.78038262344859, 42.22410280601958], [-70.78010604509731, 42.224124705114654], [-70.77979811989097, 42.2239224484464], [-70.77998382429178, 42.22236997716905], [-70.77961454521189, 42.221889356319046], [-70.77810704539131, 42.22140833192812], [-70.77779871167864, 42.22137656369142], [-70.77801409306099, 42.22184215912101], [-70.77936818136729, 42.22231659424339], [-70.77915251388306, 42.222941531035694], [-70.77908990289149, 42.22451897529618], [-70.77813567861041, 42.224993530776416], [-70.77785892530301, 42.225412138056456], [-70.78043987488287, 42.224812178861725], [-70.78079134634277, 42.22501302302822], [-70.7798589317883, 42.22520074767871], [-70.77945875118719, 42.22552235633696], [-70.77945845813683, 42.225747438230485], [-70.7818902725827, 42.22554772616481], [-70.78238327387382, 42.225954268037185], [-70.78281362246554, 42.225641841166436], [-70.78509096489124, 42.226281783133935], [-70.78536788686402, 42.22651591118951], [-70.78561376673508, 42.22774189648202], [-70.78499744524851, 42.22762551655142], [-70.78478205602005, 42.22780930112452], [-70.78462815809779, 42.22742401627661], [-70.78413645269556, 42.22715253354044], [-70.78373627771067, 42.22735655531483], [-70.78419743523112, 42.227601955615576], [-70.7846281849732, 42.228360922118355], [-70.78515174792527, 42.22847897707321], [-70.78555125628137, 42.22902223237681], [-70.78564294157394, 42.230057061491195], [-70.78619672493184, 42.23003067905589], [-70.78638279320347, 42.229829261103255], [-70.78805705219446, 42.22984472822136], [-70.78826652618021, 42.2307615494793], [-70.78822840315951, 42.232133762973774], [-70.78713824858255, 42.23336270420119], [-70.78673932197755, 42.23407654867105], [-70.78665740341692, 42.235131121579116], [-70.78736530736676, 42.23579613808711], [-70.78751887429502, 42.236432951265115], [-70.78945786025321, 42.23620469025675], [-70.7896729445293, 42.238516498748226], [-70.78958064453329, 42.23904937414295], [-70.78628702585803, 42.2389569155447], [-70.78514758429807, 42.239388736919565], [-70.78423578589758, 42.23942638782558], [-70.78576363930472, 42.23886587761224], [-70.78539452581866, 42.23847531195132], [-70.78502465714672, 42.238336833400915], [-70.78440891528939, 42.23844553787958], [-70.7842246229844, 42.23828627242459], [-70.7841627427309, 42.23739511556983], [-70.78287060704066, 42.23655030759333], [-70.782116305711, 42.23645836807849], [-70.78345467592223, 42.23766754977514], [-70.78345472218305, 42.23819931346998], [-70.78253126644613, 42.24055579203705], [-70.78296115435369, 42.24071153468123], [-70.78320745999476, 42.24101355883578], [-70.7848396995975, 42.240853234895084], [-70.7852705099242, 42.240558250426965], [-70.78742523923246, 42.23991215373857], [-70.78819511076289, 42.23993606246515], [-70.78813358513055, 42.24018945743332], [-70.78486977315008, 42.242113886797874], [-70.77874345054367, 42.24222692972203], [-70.77680363677231, 42.24270765692549], [-70.77551027311227, 42.24183574028095], [-70.77541904123753, 42.241188617553334], [-70.77440331980533, 42.24070895953285], [-70.7743419428342, 42.24054763703287], [-70.77437325884237, 42.24025917025712], [-70.77489593262464, 42.240097595203316], [-70.77548103941724, 42.24048505671214], [-70.77658904992691, 42.24087300274974], [-70.7760658059837, 42.240007635350395], [-70.77686588221971, 42.239724572004455], [-70.77695882159115, 42.23954339828209], [-70.77474271391061, 42.239523232140904], [-70.77403458503485, 42.238885704458575], [-70.77388111544346, 42.237690108429426], [-70.7736966826531, 42.237512809307425], [-70.77311139966949, 42.239404873270615], [-70.77277170462428, 42.23970714227533], [-70.77166330611966, 42.239471655029305], [-70.77151001041176, 42.23996080567482], [-70.77200183370282, 42.23998024002425], [-70.77246355049898, 42.24057682906566], [-70.77175551822631, 42.241101284961225], [-70.7719089780433, 42.241603068675786], [-70.77224827221177, 42.241237767387595], [-70.77258634861376, 42.24125904235465], [-70.77277124893587, 42.24144590758461], [-70.77270945995791, 42.24171674139232], [-70.77218574963261, 42.242148399846265], [-70.77221556830926, 42.24458061241074], [-70.77286070391578, 42.24597571401078], [-70.7727375687452, 42.24641046964212], [-70.77196723152696, 42.24650293074868], [-70.77175162566064, 42.246794738346594], [-70.7701508494859, 42.246639393733076], [-70.77015100895494, 42.24629726847837], [-70.7698431120415, 42.246382525738014], [-70.76999608330452, 42.24697490885014], [-70.7706436667802, 42.24713601591923], [-70.77073544239832, 42.24738700833044], [-70.7703656172565, 42.24803233028613], [-70.77039635433225, 42.24825705042541], [-70.77125864149271, 42.248189933587966], [-70.7712578441598, 42.24784724419051], [-70.77150490156507, 42.24773570352278], [-70.77168913710382, 42.247849981191415], [-70.77119657989446, 42.25017871452594], [-70.77125785075943, 42.25102484785284], [-70.77147317793342, 42.2518950341781], [-70.77248830513038, 42.25313154859584], [-70.77208787606959, 42.254065921849495], [-70.77162585748192, 42.254163153502844], [-70.77110225524211, 42.253522279192175], [-70.76999338814002, 42.25370149447069], [-70.76940912729575, 42.254251481664205], [-70.767037243373, 42.25463926220138], [-70.76657511463365, 42.25438477650636], [-70.76663799623114, 42.254023920253346], [-70.76790192179168, 42.251733890778375], [-70.76787133729884, 42.25118506065326], [-70.76389888237523, 42.251318342792736], [-70.76365327875936, 42.25104272472603], [-70.7635927149377, 42.25006209959868], [-70.7638372418674, 42.24974574251472], [-70.76386771387635, 42.249078566551084], [-70.76417723393537, 42.248415988444734], [-70.76507032713396, 42.247456102683586], [-70.76525569596664, 42.24642640835573], [-70.76522536581501, 42.24541784146436], [-70.7655342064401, 42.24498990888073], [-70.7655346477183, 42.24475526692416], [-70.76525759548316, 42.244597619327244], [-70.76544230615433, 42.24400007992387], [-70.76495082321182, 42.243295799380085], [-70.76331901991225, 42.24228484318193], [-70.76221113615091, 42.2423289388148], [-70.76171806305575, 42.242562106237244], [-70.76107225746264, 42.24240095067632], [-70.76104160674907, 42.24205862651118], [-70.76168777893264, 42.24155353760089], [-70.76153420908999, 42.24106917846108], [-70.76098057305667, 42.240960393370415], [-70.76079817701884, 42.23830548360681], [-70.76033766221724, 42.236934566467184], [-70.75827733530441, 42.233317678929296], [-70.75680185064536, 42.23109668408241], [-70.75412649649446, 42.22759727655131], [-70.75071391582883, 42.22466752377827], [-70.75019077091982, 42.22381947289464], [-70.74736709471883, 42.22080117789291], [-70.74650458818107, 42.22039092335366], [-70.74546902761261, 42.22016185208309], [-70.74623594534947, 42.21948994554365], [-70.74626007199916, 42.218957220375444], [-70.75027793693752, 42.220161860310036], [-70.75244190408813, 42.2226192707888], [-70.75442509850116, 42.22195579433015], [-70.75486592085699, 42.21628483413243], [-70.75730500096098, 42.212096065339054], [-70.75913498740297, 42.21204093831782], [-70.76112609358286, 42.21129692617424], [-70.76207599977165, 42.21152812427458], [-70.76445399651595, 42.21142297373111], [-70.76883906570299, 42.21042518379098], [-70.76906894042273, 42.20996915956731], [-70.76986199253335, 42.21153123612457], [-70.77103497581393, 42.21267312045352], [-70.77103992495563, 42.2133129499058], [-70.77079895188126, 42.213614724436404], [-70.77152608300005, 42.214201744682924], [-70.77525597598816, 42.21596189013413], [-70.77682299184099, 42.21607306505842], [-70.77890309204096, 42.21598318481608], [-70.78260101769112, 42.216965781080816], [-70.78319002562085, 42.217245190052765], [-70.78569693006064, 42.21876495105766], [-70.78747705221423, 42.22024806664045], [-70.78780105795722, 42.22065297798339], [-70.7887119409737, 42.22296686095178], [-70.82116895050115, 42.20421706159635], [-70.83717005162508, 42.194467157096874], [-70.85118800821067, 42.19076927840926], [-70.85195205260571, 42.190456230026065], [-70.86972507364224, 42.18261207988248], [-70.8849190138514, 42.17452911827869], [-70.8930362529343, 42.169768523270314], [-70.8983659463443, 42.1677838081337], [-70.91367197107986, 42.161644048402245], [-70.92463792221345, 42.1575018025264], [-70.92381306053302, 42.162931172330985], [-70.92258897210117, 42.172900130325495], [-70.92208892936343, 42.174999885479174], [-70.92198900861332, 42.176999809963164], [-70.9214899316209, 42.17880076437737], [-70.92089004488523, 42.18240075187037], [-70.91919001512753, 42.193700853391135], [-70.91768906634653, 42.20520000234889], [-70.91738997635262, 42.20610106169981], [-70.91718994614148, 42.20880102601642], [-70.91669005369776, 42.2104010666515], [-70.91612900760953, 42.21642082588611], [-70.91484694558335, 42.22443000413982], [-70.91488592343173, 42.22510882219826], [-70.91589096495822, 42.22560124245678], [-70.91809103982732, 42.22550100426335], [-70.91879008508432, 42.226300207786764], [-70.92059078791092, 42.22576855198834], [-70.92026165229905, 42.226057244110585], [-70.92366723268434, 42.22556065500314], [-70.92397536883385, 42.22624925677804], [-70.92372524645508, 42.22761255783131], [-70.92380175796228, 42.22791905181972], [-70.92356896946211, 42.22814633977948], [-70.92280547561043, 42.2283045605787], [-70.92185089809344, 42.22969863247723], [-70.9219738400526, 42.23043526558664], [-70.9224972917128, 42.231093443603314], [-70.92228209859523, 42.23196173899623], [-70.92246623465579, 42.234003579176225], [-70.92240354570959, 42.235211387758746], [-70.92172616244551, 42.235736348868535], [-70.9192336051111, 42.236129476022256], [-70.91917145618073, 42.2363829352826], [-70.91957195807115, 42.23670064111369], [-70.92037226250078, 42.23702035614015], [-70.9203411748785, 42.23747993040395], [-70.91877113237844, 42.238668851423725], [-70.9199713921794, 42.23845941289883], [-70.92111011546922, 42.23887255688908], [-70.92166483930873, 42.23882696089593], [-70.92228045571775, 42.23839340515397], [-70.92271164884654, 42.23781880171186], [-70.92308128361424, 42.23764116307882], [-70.92495911678007, 42.23779913906723], [-70.92628216938336, 42.23838871760608], [-70.92662063537531, 42.23885125614889], [-70.92637444696999, 42.24168435282625], [-70.92640419560077, 42.24287292440112], [-70.92665102492431, 42.24319320398385], [-70.92726735043013, 42.24310174703618], [-70.92797483686594, 42.24255833019045], [-70.92950441162266, 42.24253443091327], [-70.93064050253544, 42.24392994037502], [-70.93099186439912, 42.24403859550663], [-70.93116240870978, 42.24617319812851], [-70.93055983513209, 42.246396983186315], [-70.93062189667522, 42.24667526462241], [-70.931136159821, 42.24719943207512], [-70.93028297257416, 42.24777084725817], [-70.9300984583554, 42.24847668195721], [-70.93136146915151, 42.25009001399], [-70.93157664215092, 42.25054629867522], [-70.93154609399389, 42.251122918511314], [-70.93111497155695, 42.25137399764164], [-70.92969838899229, 42.25144292946231], [-70.92868187698319, 42.25182951410579], [-70.92791304048426, 42.25116676933647], [-70.92757431997758, 42.25007344433043], [-70.92751210088959, 42.249646040746036], [-70.92803591971136, 42.24900661609824], [-70.92806627353575, 42.248411989458035], [-70.92785148499739, 42.248001273927485], [-70.92726601145611, 42.248110336270464], [-70.92637346731921, 42.24925997230377], [-70.9258192390688, 42.25059867723253], [-70.92554185783824, 42.250639496587475], [-70.92546854758058, 42.25016308602762], [-70.92495468771492, 42.25016051332329], [-70.92495655965307, 42.25062193624712], [-70.92526518080776, 42.25116648205806], [-70.92517224933492, 42.25153739835976], [-70.92455594758906, 42.252034555163625], [-70.92190808172694, 42.25288105765368], [-70.91919846875722, 42.25341320070655], [-70.91633479467015, 42.25347913992967], [-70.91476406806458, 42.25428030603979], [-70.91411706210327, 42.25544404490557], [-70.9139316806447, 42.256609579013464], [-70.9136543778325, 42.2568844440675], [-70.91362352256782, 42.257271990769915], [-70.9139930298923, 42.25757266600928], [-70.915794699891, 42.25738659504951], [-70.91491698808659, 42.25812432145827], [-70.91491696467212, 42.258926171948204], [-70.91439260713571, 42.259313444735035], [-70.91463807467174, 42.26086774525609], [-70.91451511292874, 42.26113946455456], [-70.91408343858144, 42.261435493019526], [-70.9113124507823, 42.26155411715792], [-70.90943480757417, 42.26132446478085], [-70.90740021550002, 42.26230433282601], [-70.9047213016246, 42.262556070262754], [-70.90170427993512, 42.2616878962839], [-70.89939459424268, 42.26152785315312], [-70.89637548077803, 42.2627403902769], [-70.8954212621284, 42.262810213750534], [-70.89412819666667, 42.262507418453396], [-70.89317282508203, 42.262559768968615], [-70.89314241852654, 42.26235309302176], [-70.89366638306447, 42.26198392101005], [-70.89425232745297, 42.26107318931234], [-70.89579302135122, 42.259831546205895], [-70.89650183820845, 42.25891919862421], [-70.89687181573699, 42.25802982604548], [-70.89588734235981, 42.25710970035559], [-70.89585681461341, 42.25667738607204], [-70.89653401444222, 42.256495256324875], [-70.89813482248917, 42.257342081794924], [-70.89847302132988, 42.257363553093455], [-70.89847347276911, 42.256976417910664], [-70.89810490776577, 42.25670326503163], [-70.89807431315538, 42.25631596703485], [-70.89721161398026, 42.25633057290001], [-70.89696561307333, 42.25617285050373], [-70.89678064942527, 42.25567107577264], [-70.89576521206118, 42.25500400086781], [-70.89428787818746, 42.25434348412046], [-70.89240990118445, 42.252852533267124], [-70.89222633460153, 42.25217069379422], [-70.89118046260334, 42.251251326227205], [-70.89148840552808, 42.250732455977065], [-70.88951888041932, 42.24909298469501], [-70.88819546143982, 42.24847540420048], [-70.88773454748524, 42.24783428538687], [-70.8874272433611, 42.2467584443689], [-70.88696555989497, 42.24641442450795], [-70.8863496018514, 42.246145538396775], [-70.88514958685741, 42.24616555994364], [-70.88521116483784, 42.24561500921658], [-70.88487228893796, 42.245611501277736], [-70.88478006454683, 42.24584734181927], [-70.88453315688153, 42.24588765826325], [-70.88431848805551, 42.24572895064607], [-70.88357912884094, 42.24600239943156], [-70.88336314460575, 42.24660051238954], [-70.88302426302486, 42.24671404996676], [-70.8826551864942, 42.24648641788286], [-70.88142367476661, 42.24680390492334], [-70.88170064686508, 42.24707831188904], [-70.88166942223036, 42.247348798768954], [-70.88142263085444, 42.247416118865246], [-70.8809919950344, 42.247036229247904], [-70.88053029876862, 42.246890245339465], [-70.87973004381936, 42.24719203411567], [-70.87969912233613, 42.24737249884347], [-70.88025310038977, 42.24785884717583], [-70.88022179897943, 42.248039868164526], [-70.87988271019887, 42.24815339539054], [-70.87917512436448, 42.24790366588612], [-70.87868240246382, 42.248200357650546], [-70.87877363748922, 42.249342577755186], [-70.87837300041238, 42.2505175809863], [-70.87747871744861, 42.251018599568894], [-70.87643212053345, 42.25092795635028], [-70.87562996168928, 42.25216604181277], [-70.87701465806111, 42.25328771272347], [-70.87701399035552, 42.25397195390807], [-70.8764584409761, 42.25529634580641], [-70.87571784984912, 42.25650663043563], [-70.87403823930126, 42.257190175350885], [-70.87403908443333, 42.257622334371284], [-70.87448525685662, 42.258022591013], [-70.8779027488175, 42.25882162843113], [-70.87882564193359, 42.25937412815359], [-70.87962607071897, 42.26015385692514], [-70.87968686662639, 42.261062383888614], [-70.8791303677712, 42.26225174274843], [-70.87909926810788, 42.26273887301569], [-70.88002234447782, 42.26411065465257], [-70.88051381327266, 42.26515655279294], [-70.88060566554186, 42.265776585322804], [-70.88017442321258, 42.26627899570637], [-70.87924955369675, 42.266826012976864], [-70.87912569649833, 42.26740492414175], [-70.87977199568711, 42.2679975586307], [-70.88165044419362, 42.268407772429306], [-70.88355947953399, 42.26927727317807], [-70.8843907750238, 42.270038000157264], [-70.88472919580907, 42.270627271658164], [-70.88454315272736, 42.27119797704399], [-70.88377262652708, 42.27172390766031], [-70.8827232673821, 42.27353410637177], [-70.88152198010329, 42.274058264068316], [-70.8807210303783, 42.27400837394125], [-70.87847323011113, 42.27325290157539], [-70.87736531307739, 42.27225317363897], [-70.87736645295081, 42.271424328223596], [-70.87826057805339, 42.270950310638604], [-70.87727631516479, 42.26884048154161], [-70.87727765942351, 42.26831774532706], [-70.87847865149106, 42.26773960206016], [-70.87847933596562, 42.267379477932806], [-70.87789483204087, 42.266803484574986], [-70.87349122190092, 42.26490125109284], [-70.87290735039463, 42.26618102060602], [-70.8719218775701, 42.26607097263361], [-70.87152158932747, 42.26634788189899], [-70.87146052796372, 42.266871426070765], [-70.87038368430723, 42.26764598767703], [-70.86998297802415, 42.267715815649424], [-70.86955147214971, 42.267416341836196], [-70.86865728465112, 42.26607051898851], [-70.8686867973269, 42.26497116459038], [-70.86942563228102, 42.26358085217634], [-70.86930215557163, 42.26312326113018], [-70.86856278389772, 42.26280183454469], [-70.86862179407949, 42.260035354264], [-70.86899061572159, 42.25943473338489], [-70.86822031646984, 42.25948339149894], [-70.86880525819495, 42.25870783013516], [-70.86877300999423, 42.257402185968445], [-70.86806441373912, 42.257152950401796], [-70.86747917420266, 42.256441282247565], [-70.8667707741884, 42.256534162172585], [-70.86661660096738, 42.256347620281446], [-70.86661647051893, 42.25607696461836], [-70.86686247888723, 42.25586617847133], [-70.86815581656747, 42.2557725840785], [-70.86815627672982, 42.25557451567163], [-70.86750943460527, 42.25511684949345], [-70.86738574289306, 42.2543621477938], [-70.86692314937159, 42.25436072339356], [-70.8667385445767, 42.254813810124595], [-70.86596927123543, 42.255087539224355], [-70.86584699392353, 42.25655832417312], [-70.86643328664908, 42.25731445544952], [-70.86646385680713, 42.25781824639513], [-70.86637198239632, 42.25818011910523], [-70.86563368147168, 42.258912614011265], [-70.86504824388558, 42.25895833759944], [-70.86446285548338, 42.258112172257], [-70.86424785782438, 42.25845816431259], [-70.86276992048127, 42.25863510485639], [-70.86203091374502, 42.25832319891083], [-70.86178345659201, 42.257038863998524], [-70.8615052139839, 42.256556769760905], [-70.86162582666263, 42.25214079696397], [-70.86085518267532, 42.25181970345504], [-70.86110260414124, 42.252464253783366], [-70.86082719111035, 42.25459479466182], [-70.86110452796517, 42.25497785021748], [-70.86107399439508, 42.255320928487066], [-70.86021151722217, 42.25630760645177], [-70.85922707848381, 42.25667462531426], [-70.85922729195427, 42.25697230028434], [-70.86089006052687, 42.25703558717039], [-70.86082898416754, 42.25727045650886], [-70.85993610772856, 42.25811403675324], [-70.85959761322324, 42.258254508336066], [-70.85808872810148, 42.25825170970874], [-70.85624081735106, 42.25747102954698], [-70.8555017589191, 42.25772628454512], [-70.85470136070147, 42.257775250173204], [-70.85288609255474, 42.25892194907679], [-70.85039113747447, 42.2589168640243], [-70.84989801321372, 42.25851061116501], [-70.84897506510029, 42.258597664966494], [-70.84842079186295, 42.258300232179714]]], [[[-70.88572452444498, 42.258322980575606], [-70.88495495068744, 42.25829972904805], [-70.88446196386853, 42.258091706089026], [-70.88446206362595, 42.25774958471833], [-70.88470907629947, 42.25754721108265], [-70.88698820623915, 42.25738327212238], [-70.8873262899065, 42.257611849408185], [-70.88729493217703, 42.25783788763554], [-70.88698762099995, 42.25805007347881], [-70.88572452444498, 42.258322980575606]]], [[[-70.79382480308387, 42.257069223858544], [-70.79382395329993, 42.2585558856304], [-70.7929001885601, 42.259200687571955], [-70.7926237754051, 42.25871899307082], [-70.7931469030428, 42.25844030396961], [-70.79314702114237, 42.2582602390564], [-70.79268477669702, 42.25825851786191], [-70.79262332406392, 42.258097205603164], [-70.79323917332324, 42.25736666329687], [-70.79382480308387, 42.257069223858544]]], [[[-70.8879706152449, 42.26070000822511], [-70.88793967127943, 42.261178138294156], [-70.887693303202, 42.26125447740008], [-70.88618395158282, 42.26099995624301], [-70.88609198407, 42.26065959371332], [-70.8864004159429, 42.26004170496328], [-70.88732490824653, 42.25981030753121], [-70.8881250808896, 42.26015726318754], [-70.88818598529119, 42.26049858395936], [-70.8879706152449, 42.26070000822511]]], [[[-70.89182563267589, 42.3382514811594], [-70.89197943404251, 42.338663059000055], [-70.89154785894068, 42.33882339791743], [-70.88729178112051, 42.33978606190492], [-70.8859670992159, 42.33955561083189], [-70.88547319351443, 42.339140514847195], [-70.88692327322755, 42.338503979843125], [-70.88843419468435, 42.33831676876429], [-70.89111646610556, 42.33815488798933], [-70.89182563267589, 42.3382514811594]]], [[[-70.88084627345125, 42.341153757608296], [-70.88186389327385, 42.34133536001416], [-70.8815244953493, 42.341682961391705], [-70.87961212041645, 42.34248012437798], [-70.87822411211965, 42.34247656084341], [-70.87754534720834, 42.3430457075995], [-70.87705286799867, 42.343144324752245], [-70.87637378455533, 42.342840166407136], [-70.87603449702867, 42.34298069096088], [-70.87489358074968, 42.34295479493675], [-70.8748629453313, 42.34263952132405], [-70.87532654250799, 42.34218175964871], [-70.87625153980763, 42.34168035950535], [-70.87668365849298, 42.34124042769409], [-70.87736237730843, 42.34103985290115], [-70.88050739566044, 42.34080813240639], [-70.88078483836532, 42.34090246652355], [-70.88084627345125, 42.341153757608296]]]]}}