{"type": "Feature", "properties": {"district_name": "1st Berkshire District", "chamber": "house", "vintage": "2022-present"}, "geometry": {"type": "Polygon", "coordinates": [[[-73.383661, 42.42549700000001], [-73.309828, 42.625080999999994], [-73.264827, 42.745851], [-73.1416, 42.74357400000001], [-73.023015, 42.74113500000001], [-73.023709, 42.70269], [-72.99787800000001, 42.701264], [-72.949639, 42.705111000000024], [-72.94883800000001, 42.704263000000005], [-72.948703, 42.70363499999999], [-72.94933, 42.70227900000001], [-72.950039, 42.70137700000001], [-72.951691, 42.700509999999994], [-72.953497, 42.69890500000001], [-72.953869, 42.69838599999999], [-72.953764, 42.69799200000001], [-72.952266, 42.69662600000002], [-72.951736, 42.69565300000001], [-72.951575, 42.694716], [-72.951647, 42.693951000000006], [-72.952247, 42.69219000000002], [-72.953836, 42.690481999999996], [-72.954353, 42.690276], [-72.956975, 42.690165], [-72.958321, 42.689861], [-72.959335, 42.68951799999999], [-72.961713, 42.68807], [-72.963802, 42.68749199999998], [-72.964777, 42.687544], [-72.967477, 42.688296], [-72.971584, 42.68905500000001], [-72.972514, 42.689072000000024], [-72.97352, 42.688808], [-72.974194, 42.68847899999999], [-72.975176, 42.68755], [-72.977495, 42.685913000000006], [-72.977659, 42.685660000000006], [-72.976987, 42.68279299999999], [-72.97602, 42.681358], [-72.97561, 42.680423999999995], [-72.975667, 42.67968100000002], [-72.975826, 42.679422], [-72.97630400000001, 42.67916299999999], [-72.977257, 42.67905100000001], [-72.983884, 42.679384999999996], [-72.986685, 42.679081999999994], [-72.989269, 42.67857299999998], [-72.989628, 42.678448999999986], [-72.989772, 42.678219000000006], [-72.98865500000001, 42.675831], [-72.988533, 42.67533199999999], [-72.988728, 42.67453599999999], [-72.989251, 42.67423300000001], [-72.99009, 42.674120000000016], [-72.992223, 42.674351], [-72.994665, 42.674322000000004], [-72.995294, 42.67412000000001], [-72.995686, 42.673649000000005], [-72.995539, 42.673156000000006], [-72.993268, 42.67104600000002], [-72.988966, 42.66762000000001], [-72.98552900000001, 42.66593799999998], [-72.982406, 42.66520100000001], [-72.981026, 42.66467200000001], [-72.979644, 42.663832000000006], [-72.976768, 42.661393], [-72.97579, 42.66084099999999], [-72.975209, 42.66082399999999], [-72.974626, 42.661041000000004], [-72.972542, 42.662951], [-72.97022, 42.66392700000001], [-72.968286, 42.664277], [-72.966229, 42.66398300000001], [-72.964711, 42.66407900000001], [-72.963948, 42.664294], [-72.963398, 42.66478700000002], [-72.962742, 42.66626200000001], [-72.96228, 42.66686300000001], [-72.961519, 42.667278], [-72.960443, 42.66738700000002], [-72.959818, 42.66719], [-72.957432, 42.666971999999994], [-72.954854, 42.665789999999994], [-72.954457, 42.66423199999999], [-72.954358, 42.662461000000015], [-72.955533, 42.65937400000001], [-72.955656, 42.657913], [-72.955589, 42.65459899999999], [-72.955428, 42.65403000000001], [-72.953956, 42.651222], [-72.953644, 42.651033], [-72.95265, 42.650865], [-72.951039, 42.64100599999998], [-72.975409, 42.55603700000002], [-72.979036, 42.541617], [-72.968583, 42.54001199999999], [-72.979314, 42.49773900000001], [-72.986473, 42.46670600000001], [-72.988126, 42.46694699999999], [-72.994495, 42.44206899999999], [-73.009085, 42.38773400000001], [-73.011683, 42.379683], [-73.065772, 42.389111], [-73.068508, 42.38072], [-73.09157, 42.384822], [-73.140788, 42.39310800000001], [-73.135639, 42.411959], [-73.16918600000001, 42.412755999999995], [-73.157329, 42.453509000000004], [-73.124392, 42.452629000000016], [-73.115162, 42.48781399999999], [-73.113708, 42.492416], [-73.120264, 42.49349], [-73.107866, 42.53646500000001], [-73.146637, 42.541067000000005], [-73.162765, 42.51562800000001], [-73.182199, 42.485415], [-73.311743, 42.504608], [-73.315114, 42.49294600000002], [-73.319544, 42.493435999999996], [-73.33891, 42.418564999999994], [-73.383661, 42.42549700000001]]]}}