{"type": "Feature", "properties": {"district_name": "9th Plymouth District", "chamber": "house", "vintage": "2022-present"}, "geometry": {"type": "Polygon", "coordinates": [[[-71.16868100000002, 42.061161], [-71.127235, 42.077203], [-71.057766, 42.10457], [-71.057487, 42.102478999999995], [-71.057638, 42.09980500000001], [-71.059154, 42.093976999999995], [-71.048576, 42.08959200000001], [-71.047367, 42.08877999999999], [-71.046781, 42.08872900000001], [-71.043401, 42.08947299999999], [-71.040088, 42.08941200000002], [-71.040299, 42.08866299999999], [-71.040186, 42.087902], [-71.03964, 42.08793399999999], [-71.039206, 42.087582], [-71.038089, 42.082146], [-71.038185, 42.082003], [-71.038767, 42.08191699999999], [-71.038393, 42.08040700000001], [-71.037927, 42.080387000000016], [-71.038769, 42.080287], [-71.038605, 42.07947600000001], [-71.038137, 42.079056], [-71.037105, 42.073986000000005], [-71.037654, 42.071061000000014], [-71.037077, 42.07090200000001], [-71.036937, 42.069918], [-71.029614, 42.07125500000001], [-71.027759, 42.06765299999999], [-71.028301, 42.067448000000006], [-71.026274, 42.063853], [-71.02467300000002, 42.064286], [-71.023827, 42.06247199999999], [-71.024341, 42.062291], [-71.023318, 42.06122300000001], [-71.022874, 42.061373], [-71.022377, 42.06069299999999], [-71.026967, 42.05886700000001], [-71.027398, 42.058354999999985], [-71.028287, 42.058833], [-71.02926, 42.05760399999999], [-71.028347, 42.05737900000001], [-71.025232, 42.055113], [-71.025709, 42.05478900000001], [-71.022924, 42.04217799999999], [-70.987159, 42.046568], [-70.98334300000002, 42.02865200000001], [-70.981376, 42.029035], [-70.978942, 42.02896699999999], [-70.969932, 42.031349000000006], [-70.961332, 42.032084], [-70.959717, 42.032862999999985], [-70.958591, 42.03362099999999], [-70.958542, 42.031882], [-70.95592, 42.02986799999999], [-70.953858, 42.029223000000016], [-70.949491, 42.02938], [-70.946887, 42.029993], [-70.941467, 42.031751], [-70.935798, 42.03289099999999], [-70.93514, 42.033256], [-70.932265, 42.035816], [-70.931523, 42.033359000000004], [-70.931599, 42.03104799999999], [-70.931882, 42.029164], [-70.931872, 42.026965000000004], [-70.932197, 42.024868], [-70.931517, 42.01973900000001], [-70.933008, 42.016225000000006], [-70.933288, 42.015262], [-70.933403, 42.01408799999999], [-70.932885, 42.01114600000002], [-70.931869, 42.007824999999976], [-70.935763, 42.00779599999999], [-70.939789, 42.007208], [-70.942994, 42.006541000000006], [-70.95366400000002, 42.00585], [-70.979585, 42.010999], [-70.978786, 42.007394999999995], [-70.990607, 42.003908], [-71.002717, 41.998052999999985], [-71.054184, 41.98271600000002], [-71.054718, 41.985057000000005], [-71.078553, 41.98930399999999], [-71.094011, 42.03844499999999], [-71.095341, 42.037575999999994], [-71.096117, 42.036591999999985], [-71.096857, 42.03616500000001], [-71.100812, 42.03512800000001], [-71.106661, 42.03421], [-71.108995, 42.03332800000002], [-71.11361800000002, 42.038315], [-71.113993, 42.040783000000005], [-71.11607, 42.04565300000001], [-71.116522, 42.047276999999994], [-71.119071, 42.047280999999984], [-71.121777, 42.046927], [-71.123091, 42.04588], [-71.123641, 42.045652], [-71.124254, 42.04549100000002], [-71.126557, 42.045384999999996], [-71.127987, 42.048950999999995], [-71.129357, 42.05063299999998], [-71.130245, 42.050646], [-71.137892, 42.051963], [-71.142268, 42.051463], [-71.147798, 42.05132600000001], [-71.156991, 42.04954899999999], [-71.156368, 42.04764000000001], [-71.15806, 42.04416599999999], [-71.164092, 42.038849000000006], [-71.16868100000002, 42.061161]]]}}