{"type": "Feature", "properties": {"district_name": "1st Franklin District", "chamber": "house", "vintage": "2022-present"}, "geometry": {"type": "Polygon", "coordinates": [[[-73.023709, 42.70269], [-73.023015, 42.74113500000001], [-72.923563, 42.73916400000001], [-72.809113, 42.736581000000015], [-72.721319, 42.734099], [-72.598638, 42.73092399999999], [-72.516736, 42.728528000000004], [-72.489502, 42.66238899999999], [-72.540215, 42.656369000000005], [-72.540527, 42.656327000000005], [-72.540785, 42.655661], [-72.543829, 42.65529299999998], [-72.544161, 42.655254000000006], [-72.543789, 42.655521], [-72.543664, 42.65594300000001], [-72.63304, 42.645351], [-72.642501, 42.607004], [-72.63850500000001, 42.60279899999999], [-72.637095, 42.60111400000001], [-72.635279, 42.597615000000005], [-72.632599, 42.59381599999999], [-72.632013, 42.592597999999995], [-72.630865, 42.58933699999999], [-72.627355, 42.589133999999994], [-72.626539, 42.59261300000001], [-72.620064, 42.59308699999999], [-72.62009200000001, 42.59401], [-72.61914, 42.593656], [-72.615464, 42.590994], [-72.61522, 42.590769000000016], [-72.615257, 42.59019500000001], [-72.611194, 42.590346], [-72.611051, 42.59276800000001], [-72.6112, 42.59388400000001], [-72.609807, 42.593564000000015], [-72.607915, 42.593633000000004], [-72.608875, 42.59666899999999], [-72.604515, 42.59700300000001], [-72.604358, 42.595382], [-72.600954, 42.59491000000001], [-72.6004, 42.59775300000001], [-72.595071, 42.59717300000001], [-72.590597, 42.596208], [-72.589464, 42.59719500000001], [-72.587083, 42.596737000000005], [-72.587464, 42.595648], [-72.588331, 42.59141499999999], [-72.587356, 42.588686], [-72.587175, 42.587780000000016], [-72.58721100000001, 42.585505999999995], [-72.586955, 42.584399999999995], [-72.58634300000001, 42.583298], [-72.586136, 42.581387000000014], [-72.585542, 42.584925], [-72.584622, 42.586684000000005], [-72.582842, 42.58718], [-72.583099, 42.587796999999995], [-72.581862, 42.588161], [-72.581602, 42.58742000000001], [-72.580656, 42.587535], [-72.582249, 42.58906300000001], [-72.58317, 42.590297], [-72.583289, 42.59093800000001], [-72.583176, 42.592404], [-72.582787, 42.593578], [-72.582198, 42.59441100000001], [-72.580911, 42.595234000000005], [-72.579183, 42.59552300000002], [-72.576461, 42.59688099999999], [-72.575067, 42.59827600000001], [-72.57264, 42.601121000000006], [-72.570062, 42.603568], [-72.566751, 42.60618000000001], [-72.564253, 42.60777900000001], [-72.558014, 42.61134500000001], [-72.554792, 42.61221499999999], [-72.552686, 42.612195000000014], [-72.552682, 42.61085800000001], [-72.551928, 42.60980200000001], [-72.549739, 42.60771300000001], [-72.547496, 42.60645899999999], [-72.54613900000001, 42.605366000000004], [-72.545781, 42.604763], [-72.54543, 42.60353500000001], [-72.545456, 42.59993200000001], [-72.545279, 42.598548], [-72.545065, 42.59803200000001], [-72.54423, 42.597155000000015], [-72.543059, 42.596636], [-72.542205, 42.59646600000001], [-72.541098, 42.59639899999999], [-72.539172, 42.596751], [-72.531909, 42.59934600000002], [-72.528887, 42.600833999999985], [-72.523766, 42.603914999999986], [-72.522071, 42.604395000000004], [-72.520154, 42.60450599999999], [-72.514366, 42.604415], [-72.507632, 42.60389500000001], [-72.506039, 42.60352900000001], [-72.50562800000002, 42.60302699999999], [-72.505506, 42.601952999999995], [-72.504456, 42.59989000000001], [-72.502996, 42.59849], [-72.500092, 42.59676700000001], [-72.498621, 42.596857000000014], [-72.497071, 42.59756900000001], [-72.496378, 42.59689600000001], [-72.496156, 42.596298], [-72.496152, 42.59514200000002], [-72.496423, 42.593875000000004], [-72.496116, 42.593474000000015], [-72.495059, 42.59275000000001], [-72.496424, 42.59114799999999], [-72.49743700000002, 42.590298000000004], [-72.497856, 42.58968800000001], [-72.498225, 42.588809000000005], [-72.498228, 42.58851999999999], [-72.497849, 42.588048], [-72.497611, 42.587188], [-72.497664, 42.586416], [-72.497928, 42.585944000000005], [-72.501513, 42.582666999999994], [-72.50371800000002, 42.580954], [-72.50351, 42.58036800000002], [-72.502248, 42.579613999999985], [-72.500941, 42.579480000000025], [-72.500057, 42.57956900000001], [-72.496327, 42.58031200000001], [-72.495253, 42.58078499999999], [-72.494281, 42.580866], [-72.493209, 42.58073499999999], [-72.492342, 42.580381999999986], [-72.490045, 42.578800000000015], [-72.487833, 42.578354000000004], [-72.484335, 42.57846], [-72.482962, 42.579138000000015], [-72.481383, 42.579217], [-72.480054, 42.57883199999999], [-72.479123, 42.57825800000002], [-72.47724700000002, 42.57667600000001], [-72.476371, 42.575305], [-72.475512, 42.57463400000001], [-72.474748, 42.574207], [-72.473554, 42.573955999999995], [-72.472932, 42.573945], [-72.470344, 42.57452299999999], [-72.466104, 42.57671800000001], [-72.465851, 42.57619], [-72.463838, 42.574008000000006], [-72.46381, 42.57381900000001], [-72.464203, 42.573289999999986], [-72.463837, 42.57181400000002], [-72.464226, 42.57101599999999], [-72.464259, 42.570382000000016], [-72.463826, 42.56978500000001], [-72.463601, 42.568679999999986], [-72.462678, 42.567828000000006], [-72.462323, 42.56716800000001], [-72.462377, 42.566632000000006], [-72.461157, 42.565372], [-72.460805, 42.564569], [-72.459939, 42.563969], [-72.459953, 42.56352900000001], [-72.459702, 42.56320199999999], [-72.456872, 42.561575000000005], [-72.455373, 42.560421999999996], [-72.453933, 42.558297], [-72.45387, 42.557211], [-72.452754, 42.554629], [-72.459641, 42.51642699999998], [-72.439538, 42.518579], [-72.452979, 42.438615999999996], [-72.499513, 42.43252400000001], [-72.530968, 42.42885299999999], [-72.581103, 42.422579000000006], [-72.585585, 42.42314399999999], [-72.622315, 42.41510799999999], [-72.629147, 42.414871999999995], [-72.629085, 42.414311000000005], [-72.704392, 42.40554999999998], [-72.700877, 42.45291999999999], [-72.757758, 42.445883], [-72.75711, 42.45241300000001], [-72.765937, 42.45168099999998], [-72.765114, 42.455884], [-72.759111, 42.45649399999999], [-72.758287, 42.46092599999997], [-72.7643, 42.460156000000005], [-72.763792, 42.46366499999999], [-72.773601, 42.465540000000004], [-72.773329, 42.46678199999999], [-72.831494, 42.476998], [-72.831566, 42.47637600000001], [-72.855788, 42.48095000000001], [-72.871136, 42.484041], [-72.875155, 42.507249], [-72.87032, 42.52515], [-72.875461, 42.52589700000001], [-72.876658, 42.531732999999996], [-72.876849, 42.541197000000004], [-72.975409, 42.55603700000002], [-72.951039, 42.64100599999998], [-72.95265, 42.650865], [-72.953644, 42.651033], [-72.953956, 42.651222], [-72.955428, 42.65403000000001], [-72.955589, 42.65459899999999], [-72.955656, 42.657913], [-72.955533, 42.65937400000001], [-72.954358, 42.662461000000015], [-72.954348, 42.66342799999999], [-72.95463, 42.665305999999994], [-72.954721, 42.665624], [-72.955045, 42.66591199999998], [-72.957432, 42.666971999999994], [-72.959818, 42.66719], [-72.960443, 42.66738700000002], [-72.961519, 42.667278], [-72.96228, 42.66686300000001], [-72.962742, 42.66626200000001], [-72.963398, 42.66478700000002], [-72.963948, 42.664294], [-72.964711, 42.66407900000001], [-72.966229, 42.66398300000001], [-72.968286, 42.664277], [-72.97022, 42.66392700000001], [-72.972542, 42.662951], [-72.974626, 42.661041000000004], [-72.975209, 42.66082399999999], [-72.97579, 42.66084099999999], [-72.976768, 42.661393], [-72.979644, 42.663832000000006], [-72.981026, 42.66467200000001], [-72.982406, 42.66520100000001], [-72.98552900000001, 42.66593799999998], [-72.988966, 42.66762000000001], [-72.993268, 42.67104600000002], [-72.995539, 42.673156000000006], [-72.995686, 42.673649000000005], [-72.995294, 42.67412000000001], [-72.994665, 42.674322000000004], [-72.992223, 42.674351], [-72.99009, 42.674120000000016], [-72.989251, 42.67423300000001], [-72.988728, 42.67453599999999], [-72.988533, 42.67533199999999], [-72.98865500000001, 42.675831], [-72.989772, 42.678219000000006], [-72.989628, 42.678448999999986], [-72.989269, 42.67857299999998], [-72.986685, 42.679081999999994], [-72.983884, 42.679384999999996], [-72.977257, 42.67905100000001], [-72.97630400000001, 42.67916299999999], [-72.975826, 42.679422], [-72.975667, 42.67968100000002], [-72.97561, 42.680423999999995], [-72.97602, 42.681358], [-72.976987, 42.68279299999999], [-72.977659, 42.685660000000006], [-72.977495, 42.685913000000006], [-72.975176, 42.68755], [-72.974194, 42.68847899999999], [-72.97352, 42.688808], [-72.972514, 42.689072000000024], [-72.971584, 42.68905500000001], [-72.967477, 42.688296], [-72.964777, 42.687544], [-72.963802, 42.68749199999998], [-72.961713, 42.68807], [-72.959335, 42.68951799999999], [-72.958321, 42.689861], [-72.956975, 42.690165], [-72.954353, 42.690276], [-72.953836, 42.690481999999996], [-72.952247, 42.69219000000002], [-72.951647, 42.693951000000006], [-72.951575, 42.694716], [-72.951736, 42.69565300000001], [-72.952266, 42.69662600000002], [-72.953764, 42.69799200000001], [-72.953869, 42.69838599999999], [-72.953497, 42.69890500000001], [-72.951691, 42.700509999999994], [-72.950229, 42.701164999999996], [-72.949077, 42.702746], [-72.948703, 42.70363499999999], [-72.948738, 42.70406100000001], [-72.949639, 42.705111000000024], [-72.99787800000001, 42.701264], [-73.023709, 42.70269]]]}}