{"type": "Feature", "properties": {"district_name": "7th Suffolk District", "chamber": "house", "vintage": "2012-2020"}, "geometry": {"type": "Polygon", "coordinates": [[[-71.111642, 42.33673300000001], [-71.111378, 42.33688300000001], [-71.111584, 42.33764800000001], [-71.110637, 42.34041000000001], [-71.108412, 42.341888], [-71.105697, 42.343994999999985], [-71.107185, 42.34701099999997], [-71.10685, 42.34859], [-71.10600099999999, 42.348404], [-71.105103, 42.346686], [-71.103352, 42.347156000000005], [-71.10282, 42.346187999999984], [-71.099802, 42.34765099999998], [-71.09811499999999, 42.347637000000006], [-71.098955, 42.346814999999985], [-71.096493, 42.34184299999999], [-71.097348, 42.341585], [-71.09863399999999, 42.340700000000005], [-71.09906200000002, 42.34061], [-71.099795, 42.34080399999999], [-71.099829, 42.340653999999994], [-71.097387, 42.339528000000016], [-71.096885, 42.339026], [-71.09631499999999, 42.33973900000001], [-71.095675, 42.34013800000001], [-71.093205, 42.340943], [-71.09321299999999, 42.34061200000002], [-71.092461, 42.33958699999998], [-71.09195199999999, 42.339825999999995], [-71.09048899999999, 42.34207900000001], [-71.090204, 42.343188999999995], [-71.086598, 42.34261199999999], [-71.085796, 42.343332000000004], [-71.083151, 42.34162199999999], [-71.084681, 42.34029299999998], [-71.084784, 42.339979], [-71.084459, 42.340067], [-71.081969, 42.33841599999999], [-71.083983, 42.337340000000005], [-71.08358299999999, 42.336769000000004], [-71.084862, 42.335421999999994], [-71.082323, 42.334047999999996], [-71.082026, 42.33435499999998], [-71.080625, 42.333367], [-71.081738, 42.331942], [-71.08298599999999, 42.330831], [-71.083469, 42.328708000000006], [-71.080891, 42.328497000000006], [-71.08031799999999, 42.32599], [-71.078654, 42.32486699999999], [-71.0796, 42.324161000000004], [-71.076664, 42.322888999999996], [-71.077146, 42.322196], [-71.077709, 42.32063000000001], [-71.077761, 42.318606], [-71.078215, 42.315870999999994], [-71.07896199999999, 42.316249], [-71.080863, 42.31775600000001], [-71.081789, 42.318269999999984], [-71.08236699999999, 42.31723299999999], [-71.08469, 42.317839000000006], [-71.085014, 42.317136999999995], [-71.086361, 42.317538], [-71.086508, 42.317052999999994], [-71.085492, 42.316741], [-71.084424, 42.316772999999976], [-71.08285, 42.316362], [-71.08367299999999, 42.314392999999995], [-71.083641, 42.31354499999999], [-71.081632, 42.313681], [-71.080766, 42.313495999999994], [-71.08097, 42.31277600000001], [-71.08031199999999, 42.312418], [-71.082804, 42.309331], [-71.084739, 42.31014299999998], [-71.085298, 42.309415000000016], [-71.086956, 42.310235], [-71.085426, 42.312174999999996], [-71.08425799999999, 42.312598], [-71.08364399999999, 42.313092999999995], [-71.08372400000002, 42.313236], [-71.088331, 42.314609999999995], [-71.08993, 42.312628999999994], [-71.092028, 42.31366800000001], [-71.093104, 42.312326999999996], [-71.09348299999999, 42.31218299999997], [-71.09354499999999, 42.31186], [-71.093977, 42.31269400000001], [-71.095145, 42.313282000000015], [-71.093938, 42.31432000000001], [-71.09309, 42.31667499999998], [-71.091619, 42.316997], [-71.090802, 42.318749], [-71.090238, 42.319213], [-71.09137299999999, 42.320423000000005], [-71.09055599999999, 42.320871], [-71.090593, 42.32102599999998], [-71.09194099999999, 42.321692000000006], [-71.0896, 42.323394], [-71.090676, 42.32381399999998], [-71.090054, 42.324687999999995], [-71.09115299999999, 42.325148], [-71.091798, 42.32598099999999], [-71.09062899999999, 42.32689099999999], [-71.092559, 42.327662999999994], [-71.092506, 42.32781400000003], [-71.09486199999999, 42.328499], [-71.094982, 42.32868700000001], [-71.09485099999999, 42.328818999999996], [-71.09389399999999, 42.32944999999999], [-71.094561, 42.330304], [-71.095608, 42.330447000000014], [-71.096458, 42.32928499999999], [-71.096965, 42.32946899999998], [-71.09627499999999, 42.33053199999999], [-71.095351, 42.33155399999999], [-71.097185, 42.331782], [-71.095089, 42.33475700000001], [-71.099276, 42.335998999999994], [-71.099152, 42.33622399999999], [-71.09813299999999, 42.33678299999999], [-71.10491, 42.33419000000001], [-71.10933299999999, 42.33700000000001], [-71.110894, 42.33550499999999], [-71.11145599999999, 42.335898], [-71.111642, 42.33673300000001]]]}}