{"type": "Feature", "properties": {"district_name": "7th Middlesex District", "chamber": "house", "vintage": "2012-2020"}, "geometry": {"type": "Polygon", "coordinates": [[[-71.522757, 42.255207], [-71.522184, 42.266444000000014], [-71.52097499999999, 42.26651], [-71.520152, 42.266839], [-71.519205, 42.267544], [-71.51748800000001, 42.26778499999999], [-71.516426, 42.267556], [-71.515002, 42.267704], [-71.51328699999999, 42.267268999999985], [-71.51171699999999, 42.266367], [-71.511464, 42.266056999999996], [-71.510256, 42.26610600000001], [-71.510102, 42.265834999999996], [-71.510295, 42.26549800000001], [-71.510226, 42.26523399999999], [-71.50879499999999, 42.264517000000005], [-71.507926, 42.26430200000001], [-71.50761000000001, 42.264026], [-71.50608799999999, 42.264423000000015], [-71.505928, 42.266578], [-71.505882, 42.272937999999996], [-71.497046, 42.289829000000005], [-71.474735, 42.283208], [-71.472436, 42.282316999999985], [-71.472171, 42.28252700000001], [-71.460756, 42.279063], [-71.429273, 42.26253499999999], [-71.429209, 42.26305399999999], [-71.42952799999999, 42.26376299999999], [-71.429327, 42.264019999999995], [-71.42919499999999, 42.265035000000005], [-71.429762, 42.26518999999998], [-71.429917, 42.265718], [-71.430379, 42.26607299999999], [-71.430026, 42.267188], [-71.42942099999999, 42.26754799999999], [-71.428748, 42.267472], [-71.428392, 42.267218], [-71.428429, 42.266529], [-71.42773199999999, 42.266391000000006], [-71.426534, 42.269683], [-71.42575699999999, 42.26910300000001], [-71.424325, 42.268951000000015], [-71.420609, 42.269896], [-71.421581, 42.272682], [-71.418847, 42.272191], [-71.418775, 42.27200199999999], [-71.418193, 42.27393800000001], [-71.416733, 42.27610200000001], [-71.416786, 42.27672400000001], [-71.42070600000001, 42.275625999999995], [-71.42181099999999, 42.275566], [-71.420517, 42.276494], [-71.42007, 42.277165], [-71.42008, 42.27768199999999], [-71.42406, 42.283604], [-71.425457, 42.28551399999999], [-71.426565, 42.28672600000001], [-71.431221, 42.28894699999999], [-71.428956, 42.29024700000001], [-71.42754699999999, 42.288402], [-71.427125, 42.28808699999999], [-71.424573, 42.288974], [-71.42437, 42.28871600000001], [-71.423898, 42.28961], [-71.41884499999999, 42.29067199999999], [-71.41918799999999, 42.29164699999999], [-71.42128199999999, 42.292853000000015], [-71.420773, 42.293563], [-71.420542, 42.297853999999994], [-71.426676, 42.298835999999994], [-71.426465, 42.29968299999998], [-71.425236, 42.30060499999999], [-71.425217, 42.300943], [-71.42780599999999, 42.301680999999995], [-71.428298, 42.301995000000005], [-71.428732, 42.30261199999999], [-71.428917, 42.30360299999998], [-71.42920699999999, 42.30419499999999], [-71.430007, 42.305150999999974], [-71.431152, 42.306038], [-71.428652, 42.307334999999995], [-71.42533499999999, 42.309781], [-71.41660399999999, 42.308946999999996], [-71.414063, 42.30930699999999], [-71.413437, 42.309702999999985], [-71.411811, 42.309152], [-71.411244, 42.309107000000004], [-71.407485, 42.309684], [-71.406961, 42.30801199999999], [-71.40714700000001, 42.306492], [-71.40673699999999, 42.30504500000001], [-71.40888799999999, 42.304600000000015], [-71.40866000000001, 42.303793], [-71.40878099999999, 42.30321300000001], [-71.408497, 42.302270000000014], [-71.409672, 42.302116000000005], [-71.408751, 42.29878100000002], [-71.4089, 42.29816999999998], [-71.407992, 42.298218], [-71.40834699999999, 42.298026], [-71.40858, 42.29757299999999], [-71.409131, 42.29312700000002], [-71.405141, 42.29314399999996], [-71.40358499999999, 42.29106699999999], [-71.402125, 42.29165600000001], [-71.399631, 42.28114300000001], [-71.399391, 42.280606999999996], [-71.397218, 42.279005999999995], [-71.395861, 42.272907999999994], [-71.390365, 42.27191600000001], [-71.397769, 42.261527999999984], [-71.419298, 42.25728099999999], [-71.418429, 42.246900999999994], [-71.41931699999999, 42.241543], [-71.420075, 42.23812300000001], [-71.47530499999999, 42.22949100000001], [-71.486297, 42.23124999999998], [-71.486001, 42.24696], [-71.522757, 42.255207]]]}}