{"type": "Feature", "properties": {"district_name": "3rd Hampshire District", "chamber": "house", "vintage": "2022-present"}, "geometry": {"type": "Polygon", "coordinates": [[[-72.558585, 42.280412000000005], [-72.546987, 42.285073000000004], [-72.543306, 42.28580500000001], [-72.541358, 42.286492], [-72.540712, 42.287616], [-72.540482, 42.28876400000001], [-72.53999, 42.28981000000002], [-72.540164, 42.292356000000005], [-72.53968400000001, 42.29306600000001], [-72.537637, 42.294643000000015], [-72.536336, 42.294930000000015], [-72.535081, 42.295542000000005], [-72.53364, 42.29728999999999], [-72.53124, 42.297936], [-72.52789, 42.299838], [-72.527961, 42.30145799999999], [-72.531212, 42.303624], [-72.535151, 42.30425199999999], [-72.537986, 42.32011099999998], [-72.540909, 42.319584000000006], [-72.535785, 42.35997200000003], [-72.53678, 42.35986599999999], [-72.536463, 42.36512200000001], [-72.53547, 42.36524099999999], [-72.531586, 42.401498999999994], [-72.546776, 42.40008700000001], [-72.544199, 42.42714999999998], [-72.530968, 42.42885299999999], [-72.499513, 42.43252400000001], [-72.489891, 42.43381599999999], [-72.483696, 42.407481000000004], [-72.476953, 42.375097999999994], [-72.472287, 42.35145800000001], [-72.464202, 42.308088000000005], [-72.455, 42.264564], [-72.457685, 42.265123], [-72.462825, 42.264352], [-72.46386, 42.264351], [-72.471614, 42.26538899999999], [-72.478339, 42.26440000000002], [-72.483929, 42.26456300000001], [-72.485816, 42.264418], [-72.494226, 42.26325799999999], [-72.500987, 42.262638], [-72.506192, 42.261940999999986], [-72.507183, 42.26164500000001], [-72.508792, 42.26075300000001], [-72.511508, 42.260389999999994], [-72.512856, 42.260053], [-72.515378, 42.25889], [-72.516034, 42.258268], [-72.516758, 42.25631700000001], [-72.517794, 42.255649], [-72.519934, 42.255083], [-72.523618, 42.255268999999984], [-72.531346, 42.253629], [-72.538316, 42.249603999999984], [-72.544336, 42.246724999999984], [-72.54629, 42.24777700000003], [-72.547629, 42.24829100000001], [-72.552716, 42.24902500000002], [-72.553841, 42.24936600000002], [-72.555629, 42.25019300000001], [-72.558585, 42.280412000000005]]]}}