{"type": "Feature", "properties": {"district_name": "1st Hampshire District", "chamber": "house", "vintage": "2022-present"}, "geometry": {"type": "Polygon", "coordinates": [[[-73.009085, 42.38773400000001], [-72.994495, 42.44206899999999], [-72.988126, 42.46694699999999], [-72.986473, 42.46670600000001], [-72.979314, 42.49773900000001], [-72.968583, 42.54001199999999], [-72.979036, 42.541617], [-72.975409, 42.55603700000002], [-72.876849, 42.541197000000004], [-72.876658, 42.531732999999996], [-72.875461, 42.52589700000001], [-72.87032, 42.52515], [-72.875155, 42.507249], [-72.871136, 42.484041], [-72.855788, 42.48095000000001], [-72.831566, 42.47637600000001], [-72.831494, 42.476998], [-72.773329, 42.46678199999999], [-72.773601, 42.465540000000004], [-72.763792, 42.46366499999999], [-72.7643, 42.460156000000005], [-72.758287, 42.46092599999997], [-72.759111, 42.45649399999999], [-72.765114, 42.455884], [-72.765937, 42.45168099999998], [-72.75711, 42.45241300000001], [-72.757758, 42.445883], [-72.700877, 42.45291999999999], [-72.704392, 42.40554999999998], [-72.629085, 42.414311000000005], [-72.629147, 42.414871999999995], [-72.622315, 42.41510799999999], [-72.585585, 42.42314399999999], [-72.58114300000001, 42.422581000000015], [-72.577916, 42.41392799999999], [-72.576458, 42.411525], [-72.5756, 42.409265999999995], [-72.575054, 42.40729600000001], [-72.574767, 42.40509200000002], [-72.575313, 42.400808], [-72.575644, 42.39990999999998], [-72.576673, 42.39853599999999], [-72.577979, 42.39772099999999], [-72.578967, 42.39738599999999], [-72.580693, 42.397305], [-72.581412, 42.397490000000005], [-72.583315, 42.398538], [-72.584712, 42.399], [-72.587656, 42.399029999999996], [-72.588887, 42.39867200000002], [-72.589947, 42.397403999999995], [-72.590331, 42.396567000000005], [-72.590197, 42.39576099999999], [-72.586991, 42.39158699999998], [-72.586176, 42.38984799999999], [-72.586389, 42.38889999999999], [-72.587656, 42.387147000000006], [-72.589579, 42.38259800000003], [-72.591402, 42.376923999999995], [-72.591766, 42.374848], [-72.591693, 42.372888], [-72.59121, 42.370654000000016], [-72.590335, 42.368522999999996], [-72.588285, 42.364434], [-72.587453, 42.361172], [-72.58753, 42.358608], [-72.588151, 42.35657299999998], [-72.58922, 42.354448], [-72.590851, 42.352782], [-72.592245, 42.351827000000014], [-72.594495, 42.350847000000016], [-72.599326, 42.34988699999999], [-72.603285, 42.349515000000004], [-72.605903, 42.34951300000001], [-72.61547, 42.350309], [-72.625972, 42.351687], [-72.628242, 42.35174600000001], [-72.63334, 42.351251], [-72.635128, 42.350775], [-72.637164, 42.34953800000001], [-72.638294, 42.348288000000004], [-72.63891, 42.34703100000001], [-72.639089, 42.34633999999999], [-72.639076, 42.345157], [-72.63887, 42.344723], [-72.638016, 42.344189000000014], [-72.633691, 42.344483000000004], [-72.624558, 42.34334200000001], [-72.622516, 42.342759], [-72.620793, 42.341854000000005], [-72.620137, 42.34130799999999], [-72.61903, 42.33892900000001], [-72.61871000000001, 42.337476], [-72.618318, 42.33692], [-72.61711, 42.336060999999994], [-72.612283, 42.333339999999986], [-72.608226, 42.331449], [-72.603414, 42.32967899999999], [-72.597972, 42.328806], [-72.592946, 42.32776500000001], [-72.58746, 42.32712099999999], [-72.58633, 42.326533000000026], [-72.585786, 42.32603199999999], [-72.58438, 42.323941999999995], [-72.584108, 42.321789], [-72.584238, 42.321365], [-72.585311, 42.319855], [-72.586607, 42.31873499999999], [-72.588321, 42.317947000000004], [-72.592722, 42.317030999999986], [-72.593391, 42.31677500000001], [-72.593694, 42.31648299999999], [-72.595111, 42.314488], [-72.597169, 42.31059200000001], [-72.599228, 42.307849000000004], [-72.61129, 42.295806000000006], [-72.613704, 42.292395000000006], [-72.614701, 42.29019900000001], [-72.619303, 42.290067], [-72.621085, 42.28962], [-72.622198, 42.289012], [-72.624521, 42.28814800000001], [-72.627382, 42.286492], [-72.627927, 42.28592299999999], [-72.629022, 42.28526699999998], [-72.630232, 42.28492899999999], [-72.633669, 42.285122], [-72.634849, 42.28538800000001], [-72.636196, 42.286113], [-72.637441, 42.287406], [-72.640677, 42.284137000000015], [-72.64208, 42.288174000000005], [-72.643832, 42.28851900000001], [-72.646138, 42.290468], [-72.648766, 42.291824000000005], [-72.660468, 42.288695999999995], [-72.660216, 42.28925399999998], [-72.672035, 42.290192999999995], [-72.672169, 42.290962000000015], [-72.672091, 42.29188700000002], [-72.736726, 42.284241], [-72.735758, 42.266518], [-72.81440500000001, 42.25681900000002], [-72.821122, 42.33862999999999], [-72.822012, 42.33936199999999], [-72.823175, 42.339102999999994], [-72.823956, 42.339428], [-72.824724, 42.340447000000005], [-72.826184, 42.341149000000016], [-72.825838, 42.34194000000001], [-72.826115, 42.34225000000001], [-72.826703, 42.342439999999996], [-72.827246, 42.342506], [-72.828722, 42.34223600000001], [-72.830911, 42.342278], [-72.833483, 42.341748], [-72.835737, 42.34325400000001], [-72.837686, 42.34275399999998], [-72.839222, 42.34294500000001], [-72.839842, 42.34336299999999], [-72.840032, 42.34464199999999], [-72.840376, 42.345076999999996], [-72.843723, 42.344653], [-72.844985, 42.34340799999999], [-72.846128, 42.34072199999999], [-72.846437, 42.340467000000004], [-72.846673, 42.340597], [-72.847088, 42.341845000000006], [-72.847496, 42.342311], [-72.84884600000001, 42.34251800000001], [-72.852001, 42.34217600000001], [-72.85364, 42.342535], [-72.854244, 42.343405000000004], [-72.885635, 42.340035999999984], [-72.885208, 42.332612000000005], [-72.894788, 42.33149099999999], [-72.895638, 42.340701999999986], [-72.953272, 42.343830000000004], [-72.953377, 42.34474199999999], [-72.953944, 42.34591199999999], [-72.95481, 42.346427999999996], [-72.956741, 42.34712700000001], [-72.957521, 42.347629], [-72.960131, 42.35039900000001], [-72.961821, 42.35274399999999], [-72.963076, 42.353498], [-72.963434, 42.35456299999999], [-72.963534, 42.356469000000004], [-72.963858, 42.35766399999999], [-72.965952, 42.361485], [-72.966828, 42.36254400000001], [-72.96686000000001, 42.362705], [-72.965974, 42.36367], [-72.965999, 42.36403799999999], [-72.96733, 42.36453300000001], [-72.968632, 42.36469900000001], [-72.968904, 42.364888], [-72.968968, 42.365344], [-72.968575, 42.36593699999999], [-72.96629, 42.367856], [-72.966049, 42.36830999999997], [-72.966012, 42.369034], [-72.965089, 42.369709000000014], [-72.96498, 42.370380000000004], [-72.965394, 42.370887], [-72.966937, 42.37189099999999], [-72.96724500000002, 42.372582], [-72.967521, 42.37279800000001], [-72.968504, 42.372898999999975], [-72.969615, 42.373588], [-72.969822, 42.373802], [-72.970074, 42.37476800000001], [-72.970894, 42.375516000000005], [-72.971644, 42.375913], [-72.973168, 42.37631599999999], [-72.973839, 42.376871], [-72.974069, 42.377384000000006], [-72.97435, 42.379234999999994], [-72.975094, 42.38049599999997], [-72.975762, 42.38356300000001], [-72.97777000000002, 42.38498600000001], [-72.977916, 42.385246], [-72.97733800000002, 42.38676500000001], [-72.977248, 42.38805299999999], [-72.976832, 42.38942699999999], [-72.976501, 42.391449000000016], [-73.009085, 42.38773400000001]]]}}