{"type": "Feature", "properties": {"district_name": "6th Worcester District", "chamber": "house", "vintage": "2022-present"}, "geometry": {"type": "Polygon", "coordinates": [[[-72.099752, 42.02877000000001], [-72.074435, 42.05845999999997], [-72.066425, 42.072086], [-72.065762, 42.072146], [-72.063965, 42.072779000000004], [-72.063383, 42.072770000000006], [-72.061, 42.07166399999999], [-72.060565, 42.071815], [-72.059963, 42.07259699999999], [-72.05941, 42.073961], [-72.059455, 42.07487499999998], [-72.059687, 42.075436999999994], [-72.060285, 42.07619899999999], [-72.060799, 42.07738799999999], [-72.060791, 42.07909199999999], [-72.059922, 42.080355000000004], [-72.059273, 42.08100100000001], [-72.059171, 42.082224000000004], [-72.059023, 42.08259500000001], [-72.058729, 42.082751000000016], [-72.057155, 42.083165000000015], [-72.05537, 42.083129], [-72.054252, 42.08292], [-72.053406, 42.082494999999994], [-72.052096, 42.088418], [-72.046762, 42.10344099999997], [-72.04049800000001, 42.104189000000005], [-72.046816, 42.13492500000003], [-72.024015, 42.14178600000001], [-72.02944, 42.17442600000002], [-72.0186, 42.175699], [-72.019886, 42.18376199999999], [-71.9748, 42.186834], [-71.974759, 42.18720299999999], [-71.973924, 42.188068], [-71.973359, 42.18894000000001], [-71.973144, 42.18982899999999], [-71.973932, 42.190767], [-71.974187, 42.19189600000001], [-71.974214, 42.19430900000001], [-71.974706, 42.19628700000001], [-71.97441, 42.197706000000004], [-71.975146, 42.201605], [-71.974785, 42.202817999999986], [-71.972838, 42.20308000000001], [-71.970894, 42.204468], [-71.972121, 42.205535], [-71.97251, 42.208228], [-71.973156, 42.210358], [-71.973841, 42.211078000000015], [-71.97426, 42.21197300000001], [-71.975618, 42.212492000000005], [-71.976558, 42.21382100000001], [-71.977952, 42.214934], [-71.979655, 42.217802000000006], [-71.982447, 42.21996400000001], [-71.983202, 42.22011100000001], [-71.984706, 42.219908999999994], [-71.985601, 42.22012], [-71.986852, 42.221079], [-71.987811, 42.22215299999999], [-71.988019, 42.22392999999999], [-71.987173, 42.231438], [-71.987183, 42.232741999999995], [-71.98785700000002, 42.234281], [-71.988249, 42.23613], [-71.990369, 42.23814500000002], [-71.990896, 42.238949000000005], [-71.991786, 42.241265], [-71.99153800000002, 42.242515], [-71.991615, 42.24302999999999], [-71.992422, 42.244068000000006], [-71.990901, 42.245181], [-71.983125, 42.24896399999999], [-71.981382, 42.24962000000001], [-71.979826, 42.247453], [-71.978925, 42.245298999999996], [-71.976086, 42.24405000000001], [-71.974588, 42.24367499999999], [-71.97295300000002, 42.243021999999996], [-71.968383, 42.240272], [-71.964445, 42.23874299999998], [-71.963842, 42.23830199999998], [-71.962634, 42.236566], [-71.961092, 42.235412000000004], [-71.960247, 42.235014000000014], [-71.959155, 42.23481100000001], [-71.956883, 42.235325], [-71.955205, 42.235019999999984], [-71.954659, 42.234564999999996], [-71.951312, 42.230398000000015], [-71.948928, 42.230951000000005], [-71.939356, 42.189237999999996], [-71.925799, 42.19022400000001], [-71.92592, 42.189201000000004], [-71.926313, 42.188069], [-71.926757, 42.187345], [-71.928199, 42.18687099999999], [-71.929133, 42.18621499999998], [-71.929651, 42.185367], [-71.930391, 42.18467600000001], [-71.932342, 42.182044000000005], [-71.933424, 42.178933], [-71.9329, 42.177895], [-71.933875, 42.177659], [-71.93435200000002, 42.17687499999999], [-71.934259, 42.176623], [-71.935093, 42.17588400000001], [-71.936214, 42.17382], [-71.93853, 42.17115499999999], [-71.938656, 42.17045700000002], [-71.937144, 42.16791200000001], [-71.944131, 42.16433500000003], [-71.954561, 42.160163999999995], [-71.954613, 42.159953], [-71.957701, 42.15860800000002], [-71.963139, 42.15575000000002], [-71.96661, 42.15442000000001], [-71.971228, 42.15342300000001], [-71.984023, 42.15269000000001], [-71.987368, 42.152238000000004], [-71.992009, 42.151309], [-71.990259, 42.15001999999999], [-71.989634, 42.14901900000001], [-71.98724900000002, 42.14605899999998], [-71.985513, 42.14512100000002], [-71.984626, 42.144186000000005], [-71.976768, 42.14063400000001], [-71.97602, 42.14018500000001], [-71.975061, 42.13925899999999], [-71.97379, 42.138507000000004], [-71.97088, 42.13707700000001], [-71.969973, 42.13678500000001], [-71.96983, 42.13575800000001], [-71.969563, 42.135447], [-71.969424, 42.134724000000006], [-71.969422, 42.13333299999999], [-71.969556, 42.13287200000001], [-71.969221, 42.13184300000002], [-71.967977, 42.131440000000005], [-71.965404, 42.132661000000006], [-71.962247, 42.133015], [-71.959351, 42.13206900000001], [-71.957611, 42.13109200000002], [-71.954564, 42.13205200000001], [-71.950784, 42.13258699999999], [-71.948234, 42.134084], [-71.945884, 42.13395], [-71.943885, 42.13452000000001], [-71.942597, 42.13463599999999], [-71.941263, 42.134353], [-71.936243, 42.132374], [-71.932084, 42.131015], [-71.930363, 42.131046000000005], [-71.928797, 42.131358], [-71.924284, 42.133708000000006], [-71.92211, 42.13458300000001], [-71.921957, 42.134992], [-71.922584, 42.137305000000005], [-71.920867, 42.137600000000006], [-71.919602, 42.13712900000001], [-71.916919, 42.13740499999999], [-71.91393, 42.138704000000004], [-71.912399, 42.138759], [-71.911723, 42.13835400000001], [-71.910967, 42.138788000000005], [-71.907837, 42.13958699999999], [-71.906909, 42.14104600000001], [-71.899489, 42.104113999999996], [-71.911895, 42.10131700000001], [-71.909235, 42.09126100000002], [-71.895113, 42.094247999999986], [-71.891139, 42.072732], [-71.881509, 42.075893000000015], [-71.878978, 42.06775800000002], [-71.879098, 42.06695], [-71.87884, 42.06601800000001], [-71.879609, 42.06389499999999], [-71.881771, 42.06289000000001], [-71.882043, 42.06262000000002], [-71.88214, 42.062114], [-71.88158, 42.06026900000001], [-71.881616, 42.060041], [-71.88224100000001, 42.059348], [-71.88232500000001, 42.058768000000015], [-71.882117, 42.058562000000016], [-71.880766, 42.058383000000006], [-71.879928, 42.05783399999999], [-71.879883, 42.057527000000015], [-71.880387, 42.055507], [-71.880054, 42.054484999999985], [-71.880079, 42.053912], [-71.880736, 42.052397000000006], [-71.880447, 42.051966], [-71.880495, 42.051623], [-71.880979, 42.051247999999994], [-71.88283900000002, 42.051142000000006], [-71.883969, 42.050678000000005], [-71.886431, 42.051069000000005], [-71.886848, 42.051002999999994], [-71.88748000000001, 42.050388], [-71.887404, 42.047191000000005], [-71.887233, 42.04675099999998], [-71.886396, 42.04627100000001], [-71.886332, 42.04595100000001], [-71.886938, 42.045248], [-71.886977, 42.04450099999999], [-71.887285, 42.04398499999999], [-71.887509, 42.04185400000001], [-71.887943, 42.0406], [-71.888694, 42.03917299999999], [-71.889345, 42.035768999999995], [-71.888736, 42.03388300000001], [-71.887475, 42.03222500000001], [-71.887837, 42.031482], [-71.887829, 42.031050000000015], [-71.887689, 42.030699000000006], [-71.886782, 42.029810000000005], [-71.886797, 42.029317999999996], [-71.887098, 42.02863], [-71.88704, 42.02829200000001], [-71.885448, 42.025453], [-71.884994, 42.025131], [-71.884032, 42.024859000000006], [-71.883947, 42.02439400000001], [-71.903251, 42.02458400000001], [-71.98768, 42.026884], [-72.071826, 42.027637], [-72.099752, 42.02877000000001]]]}}