{"type": "Feature", "properties": {"district_name": "2nd Hampden District", "chamber": "house", "vintage": "2022-present"}, "geometry": {"type": "Polygon", "coordinates": [[[-72.608113, 42.032972999999984], [-72.607984, 42.03904200000001], [-72.607337, 42.044856999999986], [-72.606221, 42.048201], [-72.60525, 42.050048], [-72.600451, 42.057759], [-72.591813, 42.069561], [-72.589383, 42.07219099999998], [-72.555529, 42.06673499999999], [-72.555253, 42.068971000000005], [-72.554903, 42.069711000000005], [-72.554115, 42.07040100000001], [-72.551429, 42.071850000000005], [-72.551006, 42.072370000000014], [-72.550863, 42.07296199999998], [-72.551046, 42.07360200000001], [-72.551779, 42.074418000000016], [-72.554803, 42.075601], [-72.555782, 42.075613000000004], [-72.556593, 42.076639], [-72.55736, 42.076867], [-72.558553, 42.076722], [-72.559021, 42.07724200000001], [-72.559143, 42.078306000000005], [-72.558276, 42.082702], [-72.55788000000001, 42.08299000000001], [-72.556053, 42.08341899999999], [-72.555272, 42.08377899999999], [-72.556394, 42.084898], [-72.55549, 42.085388], [-72.552602, 42.082522000000004], [-72.553568, 42.082334], [-72.551808, 42.080602], [-72.552533, 42.080188], [-72.548305, 42.075974], [-72.546036, 42.07714199999999], [-72.547337, 42.078435], [-72.546799, 42.07884], [-72.546942, 42.079683999999986], [-72.547537, 42.08027899999998], [-72.545827, 42.08047700000001], [-72.546171, 42.082244], [-72.545017, 42.08240999999999], [-72.54444, 42.083704999999995], [-72.543719, 42.08356499999999], [-72.54206100000002, 42.08241199999999], [-72.541913, 42.08035700000001], [-72.53985, 42.080522000000016], [-72.539973, 42.081404000000006], [-72.538156, 42.08058399999999], [-72.537215, 42.080333], [-72.533806, 42.07990500000001], [-72.53094, 42.079178000000006], [-72.524261, 42.07786200000001], [-72.522987, 42.07746699999999], [-72.522384, 42.077051], [-72.519972, 42.07381199999999], [-72.516519, 42.07041000000001], [-72.515409, 42.068931], [-72.512442, 42.069477000000006], [-72.511535, 42.069781000000006], [-72.510857, 42.069655000000004], [-72.510108, 42.071476000000004], [-72.509967, 42.074137], [-72.506555, 42.073891999999994], [-72.505367, 42.07532499999999], [-72.50379, 42.07598000000001], [-72.501761, 42.075697000000005], [-72.501077, 42.075191000000004], [-72.501032, 42.073858], [-72.501333, 42.073315000000015], [-72.501231, 42.07250200000001], [-72.499421, 42.072671], [-72.498663, 42.072895], [-72.495719, 42.075407999999996], [-72.491774, 42.076801], [-72.488968, 42.07839399999999], [-72.486797, 42.079861000000015], [-72.483158, 42.08094100000002], [-72.481964, 42.083269999999985], [-72.477751, 42.080351], [-72.476316, 42.07958299999999], [-72.474105, 42.078468], [-72.469615, 42.076914], [-72.470332, 42.081939999999996], [-72.469815, 42.08204400000002], [-72.469248, 42.08178399999999], [-72.469939, 42.084764], [-72.418173, 42.090491], [-72.414539, 42.099221999999976], [-72.379439, 42.103134], [-72.376613, 42.08709600000001], [-72.374288, 42.088035], [-72.37039, 42.090624999999996], [-72.369157, 42.09213700000001], [-72.368815, 42.09484400000001], [-72.368097, 42.095867], [-72.367087, 42.09640300000001], [-72.364474, 42.09716100000001], [-72.36317, 42.09788], [-72.362195, 42.098634000000004], [-72.360516, 42.100839999999984], [-72.359264, 42.10217699999999], [-72.358888, 42.102854999999984], [-72.358757, 42.10361699999999], [-72.35897300000002, 42.105655], [-72.358727, 42.10652800000001], [-72.357665, 42.10776200000001], [-72.355873, 42.10879699999999], [-72.354529, 42.109223], [-72.353469, 42.109274], [-72.352472, 42.109035000000006], [-72.350405, 42.10784399999999], [-72.349322, 42.107522000000024], [-72.34784200000001, 42.107496], [-72.34545300000002, 42.107932], [-72.340175, 42.10734200000002], [-72.33670900000001, 42.107665000000004], [-72.335275, 42.108095000000006], [-72.33263100000002, 42.109286999999995], [-72.329776, 42.10983999999999], [-72.32882300000001, 42.109838999999994], [-72.322462, 42.10643000000002], [-72.320365, 42.10441900000001], [-72.31942, 42.10306300000001], [-72.318577, 42.10217], [-72.318641, 42.103145], [-72.317987, 42.104661000000014], [-72.317206, 42.10727700000001], [-72.315725, 42.109615000000005], [-72.315236, 42.111585000000005], [-72.313245, 42.116105], [-72.312072, 42.118154999999994], [-72.30835, 42.12289500000001], [-72.306809, 42.12542299999998], [-72.307427, 42.121652000000005], [-72.30614, 42.120987000000014], [-72.305373, 42.12080000000001], [-72.30317100000002, 42.12066600000001], [-72.301382, 42.121058999999995], [-72.299464, 42.120731], [-72.297429, 42.120763], [-72.296, 42.120481999999996], [-72.294304, 42.120373], [-72.295346, 42.12491900000001], [-72.296013, 42.12626299999999], [-72.297033, 42.13254500000002], [-72.297815, 42.134492], [-72.299367, 42.13654400000001], [-72.300178, 42.13821300000002], [-72.300441, 42.139098], [-72.301312, 42.140455], [-72.302022, 42.141084], [-72.303048, 42.14245499999999], [-72.30856, 42.141418], [-72.311595, 42.141703], [-72.313215, 42.14302800000001], [-72.313757, 42.14396], [-72.31229, 42.143379999999986], [-72.311384, 42.143261], [-72.308739, 42.14473800000001], [-72.307668, 42.144918], [-72.30578, 42.14447100000001], [-72.303985, 42.144522], [-72.302322, 42.14415700000001], [-72.298385, 42.144735], [-72.297039, 42.14442900000001], [-72.295909, 42.143261], [-72.295102, 42.14332400000001], [-72.29382, 42.143895999999984], [-72.293115, 42.14382400000001], [-72.291684, 42.14246099999998], [-72.290954, 42.14213199999999], [-72.289561, 42.14203899999999], [-72.288329, 42.14174100000001], [-72.287017, 42.14189900000001], [-72.286267, 42.141691], [-72.285887, 42.141282], [-72.284928, 42.14115000000001], [-72.282201, 42.14136299999999], [-72.281477, 42.14154800000001], [-72.281309, 42.142435], [-72.280988, 42.14294999999999], [-72.280396, 42.14341500000002], [-72.279864, 42.143606], [-72.277309, 42.143441], [-72.274927, 42.143975], [-72.274455, 42.14374899999999], [-72.270095, 42.092522], [-72.270657, 42.031615], [-72.338809, 42.03215999999999], [-72.353705, 42.03255800000001], [-72.391818, 42.03295200000002], [-72.460119, 42.034357], [-72.492236, 42.034214000000006], [-72.531549, 42.034577999999996], [-72.572778, 42.030218999999995], [-72.582163, 42.02474100000001], [-72.607169, 42.02514800000001], [-72.608113, 42.032972999999984]]]}}