{"type": "Feature", "properties": {"district_name": "7th Suffolk", "chamber": "house", "vintage": "2001-2010"}, "geometry": {"type": "Polygon", "coordinates": [[[-71.09949599196104, 42.347496928963025], [-71.09849604008681, 42.34749681778479], [-71.1008379768459, 42.345161964577095], [-71.09879598758172, 42.34089704556196], [-71.10009592612464, 42.34039684370899], [-71.09789606563254, 42.339196850894524], [-71.09729609809881, 42.338696772193096], [-71.09629608372325, 42.339797248699206], [-71.0935960360067, 42.34079718901397], [-71.09259594537328, 42.33909716538474], [-71.09129591615834, 42.34089707067759], [-71.09039607070153, 42.342496955828075], [-71.09024994547588, 42.34319021822276], [-71.08679596653445, 42.34269676809049], [-71.08599505914307, 42.34329708278755], [-71.08349506862733, 42.341597187468295], [-71.08499503116579, 42.34019702945164], [-71.08409499194899, 42.33969693246427], [-71.0821740214568, 42.33823317586411], [-71.08409502564149, 42.33729708397734], [-71.08369492374338, 42.33669694066665], [-71.08499605946517, 42.33529775396995], [-71.08249492049723, 42.3339967759427], [-71.08233899649159, 42.33418076986715], [-71.08083792621312, 42.33341399069533], [-71.07975805643764, 42.334547795174544], [-71.07789508367125, 42.335997195788906], [-71.07419601870609, 42.33300189630816], [-71.07350008488048, 42.33349785471742], [-71.07179495992689, 42.332196774861394], [-71.07299493090053, 42.32749719453206], [-71.0714949488758, 42.326496785484245], [-71.07219506909752, 42.326296826664226], [-71.07329495070967, 42.32559700032763], [-71.07459504854623, 42.32629673085553], [-71.07529499997466, 42.32699704855509], [-71.07699504346088, 42.32819677624646], [-71.07849501477124, 42.326997015464514], [-71.07759493299243, 42.326397265404566], [-71.07839494187489, 42.325797004232314], [-71.07799505390588, 42.325496746553696], [-71.07969493668925, 42.3240968294268], [-71.0767949322291, 42.32279707193332], [-71.07749493829716, 42.321696783751634], [-71.07789503681765, 42.320597082669536], [-71.07809592678926, 42.31704727272305], [-71.07839491401498, 42.315898239541646], [-71.0818859544944, 42.3182118114334], [-71.08239107053352, 42.31720925822884], [-71.08489509456899, 42.31779677055675], [-71.08509501327752, 42.317197102245714], [-71.08639495417735, 42.31759679316698], [-71.08669493871497, 42.31699692398864], [-71.08559498642144, 42.316596832287146], [-71.0851950591992, 42.31679683107945], [-71.08289492354709, 42.31619712790394], [-71.08389500340716, 42.314198148922216], [-71.08385408685474, 42.31347495346883], [-71.0815950683371, 42.313698010721204], [-71.08099500245902, 42.31349775887614], [-71.08049500220585, 42.31229797985914], [-71.08279491300377, 42.30919807151994], [-71.08369498145738, 42.30979778369435], [-71.08469502682735, 42.31009793356757], [-71.08519493185521, 42.309498231588385], [-71.08689503537076, 42.3102977438991], [-71.0871950086807, 42.309898189027265], [-71.09059508208206, 42.31179816081601], [-71.09109494830838, 42.31119786621004], [-71.09209497558044, 42.311598118482635], [-71.09309497784831, 42.310498231375966], [-71.0935469106997, 42.311840149319686], [-71.09509501136951, 42.31319718611555], [-71.0941950358976, 42.31409712711361], [-71.09779599617674, 42.31639709850447], [-71.09533799591001, 42.318653841690704], [-71.09595208656518, 42.319075765381996], [-71.09849602479298, 42.31949713315762], [-71.09859698439396, 42.32249827993548], [-71.09639591794982, 42.32179678615372], [-71.09549601080141, 42.321897156635025], [-71.0955960597062, 42.323296901328966], [-71.09486509487768, 42.323122145662644], [-71.09430402577566, 42.32314492480228], [-71.09397292266897, 42.32334294607298], [-71.09300297857011, 42.32684278997286], [-71.09259595878666, 42.32769719550333], [-71.0952959868199, 42.32839714226347], [-71.09456198230127, 42.329100728775906], [-71.09384096256571, 42.32946111017364], [-71.09471903755134, 42.330271098126836], [-71.0957959472173, 42.330497154472575], [-71.09649596696497, 42.329297153748065], [-71.09726006607218, 42.329550790389916], [-71.09566707665246, 42.331498278434275], [-71.09731504302738, 42.331695933628964], [-71.09530708109703, 42.334606959235856], [-71.09951095254877, 42.335964243059315], [-71.09939603231938, 42.33629695104073], [-71.10499601217414, 42.334097106463], [-71.10951703047122, 42.336934968822646], [-71.11099605258195, 42.335497264377466], [-71.11129605339907, 42.335797068153795], [-71.11159594306079, 42.33719691078484], [-71.11059608834704, 42.340197127225586], [-71.10569592601851, 42.34399709468831], [-71.10719596342427, 42.347096978274415], [-71.10689598684252, 42.34849702981836], [-71.10623906059377, 42.34834792679329], [-71.10535597389358, 42.346606213553194], [-71.1034960127222, 42.347097225357565], [-71.10302600058593, 42.346145229803945], [-71.10159599056426, 42.34689709527681], [-71.09949599196104, 42.347496928963025]]]}}