{"type": "Feature", "properties": {"district_name": "7th Essex District", "chamber": "house", "vintage": "2012-2020"}, "geometry": {"type": "MultiPolygon", "coordinates": [[[[-70.798847, 42.544533], [-70.79854499999999, 42.544997], [-70.797919, 42.54531799999999], [-70.79713, 42.54538399999999], [-70.796295, 42.54569], [-70.79614, 42.54553899999999], [-70.796202, 42.545069999999996], [-70.796705, 42.54460300000001], [-70.79748599999999, 42.544468999999985], [-70.798445, 42.544052999999984], [-70.798847, 42.544533]]], [[[-70.803485, 42.54836], [-70.803184, 42.548652000000004], [-70.80222499999999, 42.550473000000004], [-70.80245699999999, 42.551068], [-70.803082, 42.551874], [-70.80234, 42.55208299999999], [-70.800872, 42.55140799999998], [-70.799379, 42.551337], [-70.798846, 42.55097699999999], [-70.798328, 42.549832], [-70.797477, 42.549629], [-70.79719899999999, 42.549777999999996], [-70.79707499999999, 42.550473000000004], [-70.796379, 42.55114100000002], [-70.795868, 42.55119899999999], [-70.794879, 42.55058399999998], [-70.795119, 42.550373], [-70.795227, 42.549763999999996], [-70.79566799999999, 42.54941399999999], [-70.79544400000002, 42.548941], [-70.794477, 42.548915000000015], [-70.793627, 42.54866299999999], [-70.79324, 42.54826800000001], [-70.793171, 42.54785099999998], [-70.793333, 42.547325999999984], [-70.794724, 42.547489], [-70.7959, 42.546938999999995], [-70.796442, 42.546386], [-70.79683600000001, 42.54633399999999], [-70.798653, 42.547147999999986], [-70.79938, 42.54711400000001], [-70.799975, 42.547505000000015], [-70.80131999999999, 42.547394], [-70.801962, 42.54709999999999], [-70.802279, 42.54717199999999], [-70.803338, 42.548068999999984], [-70.803485, 42.54836]]], [[[-70.812499, 42.50923699999999], [-70.812028, 42.509271999999996], [-70.81147899999999, 42.50896099999999], [-70.811371, 42.508827000000004], [-70.81154099999999, 42.50829800000001], [-70.81184999999999, 42.50821200000001], [-70.81209799999999, 42.508402], [-70.812476, 42.50892700000001], [-70.812499, 42.50923699999999]]], [[[-70.817553, 42.514115], [-70.816456, 42.51472600000001], [-70.81607, 42.514669], [-70.815738, 42.514161], [-70.81495699999999, 42.514075000000005], [-70.81537399999999, 42.51372599999999], [-70.81533499999999, 42.51351900000001], [-70.814795, 42.51338800000003], [-70.814323, 42.512829], [-70.814238, 42.51247400000002], [-70.813844, 42.512128999999995], [-70.81294799999999, 42.512291999999995], [-70.812005, 42.51213599999999], [-70.811897, 42.51197500000001], [-70.812322, 42.511793000000004], [-70.812298, 42.51149200000001], [-70.812569, 42.51119], [-70.811873, 42.51098500000001], [-70.812067, 42.510329], [-70.812422, 42.510022000000006], [-70.812685, 42.510036], [-70.812878, 42.51033899999998], [-70.812669, 42.510621000000015], [-70.813071, 42.51068699999999], [-70.81342699999999, 42.51099200000001], [-70.813736, 42.51071300000002], [-70.81447, 42.510962], [-70.815591, 42.512736], [-70.816054, 42.512711], [-70.816433, 42.51307], [-70.816935, 42.51321000000001], [-70.817553, 42.513889000000006], [-70.817553, 42.514115]]], [[[-70.949917, 42.494775999999966], [-70.91978499999999, 42.520586], [-70.918857, 42.52287899999999], [-70.91772999999999, 42.52263100000001], [-70.91710200000001, 42.524271000000006], [-70.917476, 42.524375], [-70.917986, 42.524235999999995], [-70.918126, 42.52484499999999], [-70.918314, 42.524972999999996], [-70.916482, 42.52685499999999], [-70.91700399999999, 42.527090000000015], [-70.91554, 42.528822000000005], [-70.912707, 42.528057], [-70.913142, 42.53151700000003], [-70.912826, 42.532393000000006], [-70.913165, 42.532532], [-70.913457, 42.53729899999999], [-70.91349, 42.54149400000001], [-70.909618, 42.540763], [-70.909408, 42.54047399999998], [-70.907922, 42.54033499999999], [-70.909589, 42.54254699999999], [-70.90953999999999, 42.542947999999996], [-70.909835, 42.543108000000004], [-70.90992899999999, 42.54359799999998], [-70.909584, 42.544473999999994], [-70.908399, 42.545558], [-70.90920799999999, 42.54624799999999], [-70.907888, 42.54683599999999], [-70.90701899999999, 42.54662599999999], [-70.90704099999999, 42.54619999999999], [-70.90275799999999, 42.544827999999995], [-70.898429, 42.54290700000001], [-70.89439399999999, 42.540696000000004], [-70.890294, 42.539296], [-70.88810000000001, 42.539000000000016], [-70.888266, 42.53678799999999], [-70.88813999999999, 42.53648799999998], [-70.887774, 42.536302], [-70.88752699999999, 42.536382], [-70.887554, 42.537001999999994], [-70.887192, 42.537943], [-70.88644699999999, 42.53804799999998], [-70.878793, 42.53719499999999], [-70.870992, 42.540195], [-70.867792, 42.541795], [-70.862766, 42.539719999999996], [-70.856343, 42.539343999999986], [-70.84249299999999, 42.538196000000006], [-70.799807, 42.53979500000001], [-70.796666, 42.53977799999999], [-70.789403, 42.531856999999995], [-70.78872900000002, 42.534223], [-70.788783, 42.535486999999996], [-70.788404, 42.53667699999999], [-70.788048, 42.536979999999986], [-70.78734399999999, 42.53718], [-70.786502, 42.537219999999984], [-70.785729, 42.537052], [-70.783402, 42.53580499999998], [-70.782823, 42.53530999999999], [-70.78263799999999, 42.53456099999999], [-70.782213, 42.533982], [-70.782252, 42.533716], [-70.783148, 42.533207000000004], [-70.783442, 42.532805999999994], [-70.78505799999999, 42.532353], [-70.785383, 42.531839], [-70.78545299999999, 42.53139199999999], [-70.78586299999999, 42.53102999999998], [-70.786952, 42.530810999999986], [-70.787223, 42.53089599999999], [-70.787672, 42.530583000000014], [-70.78846, 42.530625], [-70.77789, 42.522795], [-70.743567, 42.49597399999999], [-70.749489, 42.492722000000015], [-70.767571, 42.484590999999995], [-70.799042, 42.509222], [-70.813707, 42.52237900000001], [-70.84329199999999, 42.528794999999995], [-70.858092, 42.52739499999999], [-70.875092, 42.518494999999994], [-70.877392, 42.514195], [-70.87969199999999, 42.509294999999995], [-70.879359, 42.508429], [-70.878708, 42.505365], [-70.879544, 42.50374999999998], [-70.882245, 42.50270700000001], [-70.88676099999999, 42.49844699999999], [-70.886001, 42.497809], [-70.885801, 42.4978], [-70.885497, 42.49736799999999], [-70.885673, 42.49669299999999], [-70.886488, 42.495998000000014], [-70.88636199999999, 42.495695000000005], [-70.886639, 42.495104], [-70.888021, 42.49493700000001], [-70.888401, 42.49471299999999], [-70.888598, 42.494385000000015], [-70.890801, 42.493644999999994], [-70.89052, 42.49337899999999], [-70.890958, 42.49321399999998], [-70.889906, 42.49021400000001], [-70.890624, 42.48874300000001], [-70.89446199999999, 42.485882], [-70.89903300000002, 42.484671999999996], [-70.90177899999999, 42.485358000000005], [-70.905075, 42.484840000000005], [-70.906539, 42.484263000000006], [-70.93940599999999, 42.49207], [-70.93943999999999, 42.49218900000001], [-70.949917, 42.494775999999966]]]]}}