{"type": "Feature", "properties": {"district_name": "8th Middlesex", "chamber": "house", "vintage": "2001-2010"}, "geometry": {"type": "Polygon", "coordinates": [[[-71.58534997382822, 42.311181866076254], [-71.5780059574343, 42.31555010510128], [-71.56914104163415, 42.32054224340726], [-71.56574894068656, 42.32175792763496], [-71.55124694357947, 42.32669212045524], [-71.53697800333659, 42.32811611197258], [-71.53381300137373, 42.325918140891865], [-71.53217992335267, 42.324541731586216], [-71.53097592386476, 42.32321526674665], [-71.53016992489516, 42.32165180195522], [-71.53004200948594, 42.32093610817787], [-71.530111036493, 42.318995973477264], [-71.52816402129152, 42.31563783073419], [-71.52507506205542, 42.30833496276841], [-71.52366101152779, 42.30609692028071], [-71.52526504410676, 42.3057032696434], [-71.52923396605306, 42.30579685878143], [-71.52764808323849, 42.302152205642656], [-71.52643199999879, 42.29154875383925], [-71.53122497782508, 42.29126621001864], [-71.53200405591433, 42.29164581058633], [-71.53626005953718, 42.29135813639451], [-71.53630794090937, 42.2869742669199], [-71.53653193889227, 42.285758233971805], [-71.5375239189364, 42.28262208634899], [-71.53682003981176, 42.27851022378948], [-71.53605194395169, 42.27689387260137], [-71.53621197819525, 42.275533819791114], [-71.53201993514438, 42.276573779465004], [-71.5250029890263, 42.277954096515906], [-71.52001601109563, 42.27919185238452], [-71.49932708761413, 42.284922267474414], [-71.5055980094325, 42.272813750328304], [-71.50594308654289, 42.26447587139351], [-71.50774103082723, 42.26382810912986], [-71.51002607483166, 42.2647501778375], [-71.5102789601994, 42.265045002469634], [-71.51044198159528, 42.265985229941386], [-71.51154891891552, 42.26575273955401], [-71.51347509044953, 42.26703600951996], [-71.5147420517263, 42.26750795094755], [-71.51876890883707, 42.26741113980667], [-71.51933195150067, 42.267295133328226], [-71.52064702264467, 42.266503211283265], [-71.52216000930024, 42.266342001397156], [-71.52261996387821, 42.25496721836511], [-71.4857419548833, 42.24685124418343], [-71.48604703536792, 42.23109208680725], [-71.47492796603414, 42.22935486416666], [-71.47239895446188, 42.22988489493163], [-71.46691793195224, 42.230622260849145], [-71.46675202721829, 42.23041682699664], [-71.46456791808244, 42.230708213488164], [-71.4608009448472, 42.231682123824264], [-71.41943692713946, 42.23799810854382], [-71.41716092956223, 42.237684192062126], [-71.41623308032942, 42.2365890943802], [-71.41327096880056, 42.23473227311804], [-71.41302904866328, 42.23404110841017], [-71.41296794962551, 42.23098228557071], [-71.41224702407554, 42.228064756056206], [-71.41172294564169, 42.2273632432165], [-71.4098989955188, 42.22623925579381], [-71.40884300062292, 42.22430389497559], [-71.40894393019204, 42.22321292414139], [-71.40854298386863, 42.22182894634263], [-71.40852900192145, 42.2208999384823], [-71.40872298382766, 42.2205022665526], [-71.4098190680793, 42.219489165522646], [-71.40990195801803, 42.218162974180224], [-71.40875007272352, 42.21851205734515], [-71.40782894713188, 42.21829187193221], [-71.4076510741552, 42.21750114443993], [-71.4070789180427, 42.21806394012444], [-71.40173094403761, 42.21517118972261], [-71.4037610315553, 42.214337877353756], [-71.40268907880926, 42.21367694143816], [-71.40218396496282, 42.2130980657252], [-71.40081696936437, 42.212601724185575], [-71.39955801914141, 42.211533766825646], [-71.39852193766049, 42.2112171809371], [-71.39806595242366, 42.21071373085026], [-71.39805909062429, 42.20921921680304], [-71.39730797392416, 42.208928198236144], [-71.3970699695877, 42.208558859417465], [-71.3967360452811, 42.20841282678158], [-71.39674098193588, 42.20770889972261], [-71.39569103463337, 42.2073579558246], [-71.39377808344899, 42.20712774789208], [-71.39154998200425, 42.209622888049246], [-71.38825603907512, 42.20800311918895], [-71.38811895682004, 42.20429597261211], [-71.3795490827989, 42.20170903976502], [-71.38142604956643, 42.19870790156139], [-71.38462999213078, 42.191931845673444], [-71.40437797448894, 42.18820979200977], [-71.4021850806234, 42.17863989726615], [-71.41115900640972, 42.17853803791244], [-71.42332593471656, 42.17798187339935], [-71.42357608873577, 42.17912881101835], [-71.43001306478095, 42.17919424927807], [-71.4437250400337, 42.17470024443349], [-71.44384198293304, 42.1724861034392], [-71.44296991989728, 42.15025581960321], [-71.43810398657028, 42.14729406839083], [-71.43787902309485, 42.14748808162515], [-71.43575409392855, 42.14747228014812], [-71.43438594268245, 42.147019096766286], [-71.4316919145662, 42.14692804957197], [-71.42852893183834, 42.14732113420428], [-71.42649507044014, 42.14735023357714], [-71.4445079624166, 42.13580425769703], [-71.45756992721856, 42.13452126007065], [-71.47796308033017, 42.13186374192879], [-71.47785496551072, 42.13569794518219], [-71.47799405497666, 42.143383861414485], [-71.477742949558, 42.16573410363588], [-71.49242897929818, 42.16608601033945], [-71.49711406509196, 42.16654706673423], [-71.50241792792922, 42.19128872676873], [-71.5066740951758, 42.18877613919943], [-71.52303801641882, 42.18923992937536], [-71.53099591857377, 42.189087253160444], [-71.53926792179476, 42.18945497134842], [-71.55581205119594, 42.18206275948489], [-71.55584406971963, 42.18255903971201], [-71.55528392810557, 42.18396717042016], [-71.55528403928227, 42.18430310288166], [-71.55570007545113, 42.18420724368764], [-71.55587607612428, 42.18431912957494], [-71.55579599404126, 42.18467085647612], [-71.55608405872438, 42.18508710910191], [-71.55710793512276, 42.1853111140056], [-71.55665992563753, 42.186046780919604], [-71.5563400547653, 42.18731074753961], [-71.55680407593925, 42.18732683226163], [-71.55675599155009, 42.18750298353394], [-71.55624408896044, 42.18766304056671], [-71.55640402697951, 42.18798312991904], [-71.55600399756213, 42.188670936905126], [-71.55635599374465, 42.19076680025967], [-71.55653192971606, 42.191422813515125], [-71.55683594268629, 42.1918711249127], [-71.57278892751826, 42.19223911473805], [-71.5720530395801, 42.1942230756228], [-71.58347707685223, 42.19503911261205], [-71.60283791421335, 42.217567065821115], [-71.58738201266742, 42.259389861017375], [-71.57853296853537, 42.26230196354541], [-71.57891708475594, 42.26265394138545], [-71.57848501423508, 42.263950097726614], [-71.57858100051136, 42.26468602457669], [-71.57883798038709, 42.26482989588615], [-71.5789980590985, 42.265326074320214], [-71.57888604384988, 42.26570990267366], [-71.57906204546971, 42.26636587258735], [-71.57963798718797, 42.266366041809924], [-71.5800380695811, 42.26659027054043], [-71.58062999822094, 42.26635015257661], [-71.58106204429376, 42.266685775959566], [-71.58170197169905, 42.266814172858695], [-71.58243802079852, 42.26671799035834], [-71.58253396895722, 42.26695819249732], [-71.58466192384704, 42.26690993605443], [-71.58728600402341, 42.265981791658916], [-71.58821403575256, 42.26614201050601], [-71.58808594993245, 42.26636605755282], [-71.58872602231827, 42.266590080705136], [-71.58882196127196, 42.26679820006411], [-71.58950995983774, 42.266622108083354], [-71.59040605311587, 42.26721390912675], [-71.59091803449432, 42.26711784845307], [-71.5916699426266, 42.267517882529575], [-71.59221404881878, 42.267373966700085], [-71.5921180749415, 42.2671500950321], [-71.59290195710219, 42.266749957070616], [-71.5930460828728, 42.26662210633591], [-71.59299808069626, 42.266430274051515], [-71.59320591104486, 42.26635020424955], [-71.59352596127869, 42.26646191390495], [-71.59445402199759, 42.26636606501196], [-71.5948379876541, 42.266541864543655], [-71.59578190265503, 42.26628618920497], [-71.59754198644299, 42.26707021631229], [-71.59818202803466, 42.26663808679857], [-71.59886994171916, 42.26654184009759], [-71.59939803358638, 42.266589775153896], [-71.59975004846423, 42.26691020053166], [-71.6005179745848, 42.26698999942448], [-71.60162204952793, 42.26764624406109], [-71.60154198801823, 42.26791808731742], [-71.60186190708288, 42.26793412636867], [-71.60218195390681, 42.268269760572956], [-71.60219807471917, 42.26875027930203], [-71.60152603697668, 42.26931018431228], [-71.6015739223618, 42.269646069408], [-71.6021979862607, 42.27057394587472], [-71.60247006667934, 42.270637849508596], [-71.6025500629438, 42.27091011757234], [-71.6040060275756, 42.272302015746305], [-71.6046460756956, 42.27335815609184], [-71.60557408143124, 42.27442978349956], [-71.60594200136296, 42.276285735948555], [-71.60783006547452, 42.276125869101136], [-71.60933401998629, 42.276541959028656], [-71.60805391373894, 42.27854182454375], [-71.60750992686853, 42.27913427857477], [-71.6069499833506, 42.27935818234489], [-71.60706203997081, 42.281437757339646], [-71.6084379645801, 42.28511810931375], [-71.60328603537349, 42.285054209819606], [-71.60192602063827, 42.28518202384923], [-71.5973659578562, 42.286365930540306], [-71.59706198587274, 42.28692605290013], [-71.59538206699274, 42.287773735189], [-71.5926299849088, 42.29006217177617], [-71.59136598089037, 42.29091001675648], [-71.59222997752141, 42.2914540030132], [-71.59269407190747, 42.292558179532925], [-71.59301394245323, 42.29284601434858], [-71.59439008966932, 42.293502104840854], [-71.59653390705637, 42.29383793283373], [-71.59814994777167, 42.29483026030084], [-71.59920604521128, 42.2949261345454], [-71.60043804028842, 42.29398200880273], [-71.60133404116986, 42.293854055813185], [-71.6019580102503, 42.29411008686014], [-71.60234195601852, 42.29462178628215], [-71.6025499841636, 42.29555002627497], [-71.60355797590857, 42.29599814240286], [-71.60275802075616, 42.29718217629019], [-71.60274200839012, 42.297821964363365], [-71.60440593935743, 42.30142218485816], [-71.60494998481128, 42.30199787494406], [-71.60699807295426, 42.30334079425358], [-71.58029401198026, 42.306093810553], [-71.58534997382822, 42.311181866076254]]]}}