{"type": "Feature", "properties": {"district_name": "2nd Essex", "chamber": "house", "vintage": "2001-2010"}, "geometry": {"type": "MultiPolygon", "coordinates": [[[[-70.81987913526385, 42.75294552005382], [-70.8202518838358, 42.7532639073908], [-70.82077967766327, 42.75338178229016], [-70.82127624579417, 42.75411217000015], [-70.82199007378678, 42.75434365582625], [-70.82226922217578, 42.755006383906434], [-70.82214486722721, 42.755918239120085], [-70.82183497753459, 42.756175232907395], [-70.82112107493259, 42.75628582404095], [-70.82056205875111, 42.75603329498246], [-70.81820314115969, 42.75454871216447], [-70.81786211045018, 42.75415793065526], [-70.81779960608448, 42.75335750372423], [-70.81866893667042, 42.751848026613786], [-70.81947505753544, 42.75188933577897], [-70.81987913526385, 42.75294552005382]]], [[[-70.86578292326492, 42.75681315624673], [-70.8653807876737, 42.758188827472885], [-70.86503877088893, 42.758185259403035], [-70.86476064710041, 42.75784785023757], [-70.86482191035176, 42.7572253550249], [-70.86565861099498, 42.75617558227935], [-70.8659373997188, 42.756125915369005], [-70.86606272006888, 42.75647486288586], [-70.86578292326492, 42.75681315624673]]], [[[-70.86361358889442, 42.75994745298828], [-70.86289962654286, 42.760085307173284], [-70.86286812280649, 42.75965360445153], [-70.86317830716149, 42.75912587613874], [-70.86330229540411, 42.75851161275473], [-70.86376641512135, 42.75812538583253], [-70.86451277921633, 42.758896907498084], [-70.86454385892077, 42.759220592381], [-70.86361358889442, 42.75994745298828]]], [[[-71.04478163410207, 42.84869191032131], [-71.03116277001381, 42.859306762546], [-71.01617670082422, 42.861736937873935], [-71.00444835790789, 42.86342414986291], [-70.98780007519272, 42.850788936524424], [-70.98051404443834, 42.844584197538666], [-70.98015507829068, 42.84393784481291], [-70.97994805077676, 42.844149022105825], [-70.97890007016396, 42.841889958284895], [-70.97890008285987, 42.84129022257138], [-70.97500002923462, 42.833689833596175], [-70.96969899107059, 42.82268980137617], [-70.9633300878992, 42.82037403630827], [-70.96183191339169, 42.819977761930254], [-70.95825793188897, 42.81939399637351], [-70.9569270275012, 42.8193230613086], [-70.95275692871219, 42.8194750408549], [-70.94894300709633, 42.81990198423488], [-70.94472398408904, 42.82108414315825], [-70.94079890951849, 42.82298994921596], [-70.9389989133574, 42.82068974367538], [-70.93694092439965, 42.818815829040844], [-70.93607207899917, 42.81774208536388], [-70.93562599009866, 42.81760994570771], [-70.93465499934986, 42.81795403045055], [-70.93430705036202, 42.81793602091034], [-70.93478000957445, 42.81678103430415], [-70.9341999824609, 42.81586677336249], [-70.93340799295825, 42.81528285527714], [-70.93176305331718, 42.81524104241878], [-70.93137902202332, 42.815095129731276], [-70.93095209109468, 42.814539982011766], [-70.93198905351254, 42.81323587793591], [-70.93167296241238, 42.81233920781506], [-70.93032100197726, 42.81018676469291], [-70.93012408681628, 42.809529231902935], [-70.93043003436631, 42.80863393197386], [-70.93172706674537, 42.80695077092377], [-70.9319020816534, 42.80625005533188], [-70.93166091030153, 42.80442487984525], [-70.93099808608659, 42.80299089469792], [-70.91803705455989, 42.78701909578771], [-70.90551999241744, 42.79738193703154], [-70.89798907407014, 42.79829217683381], [-70.89828998757994, 42.7972461487588], [-70.89728701623403, 42.79699281546832], [-70.89374503173313, 42.794794193280644], [-70.89254206190712, 42.79476819391601], [-70.89155491393727, 42.79450420819908], [-70.86389593654508, 42.80089097046777], [-70.85839601369285, 42.80009097461355], [-70.85679605657957, 42.799691085937155], [-70.84059592381038, 42.796790829381315], [-70.8369351508226, 42.79852474413375], [-70.8350725955129, 42.798299704041646], [-70.8329604344153, 42.79873934711846], [-70.83178062068951, 42.79857782166363], [-70.82448191821705, 42.79958758271207], [-70.8231775373375, 42.798968404789484], [-70.82240090892596, 42.79778348716834], [-70.82159303111794, 42.797372546222945], [-70.82106502939477, 42.79688559885412], [-70.82059928961785, 42.79606425046389], [-70.81951279663515, 42.79581144412999], [-70.8172139048687, 42.79469574446474], [-70.815660672729, 42.79384657920071], [-70.81454356351405, 42.793026422371916], [-70.81277275241838, 42.79075756408383], [-70.81215223574478, 42.79025427174762], [-70.8118097138407, 42.78956583764843], [-70.81143759773579, 42.789139408439816], [-70.81112649456458, 42.78901884942428], [-70.8108171322478, 42.7893658347055], [-70.81084799728723, 42.79032922783118], [-70.81115812286342, 42.79080142504518], [-70.81267965509099, 42.79181305750987], [-70.81292862339234, 42.792133536884386], [-70.81308385574008, 42.79288781265956], [-70.81354994363583, 42.7934391276841], [-70.81795976825113, 42.79613369713407], [-70.81948136078648, 42.79668557184231], [-70.82000956314721, 42.79702849690196], [-70.8202889644659, 42.798672988027924], [-70.82118999045288, 42.799585782598655], [-70.82196698385603, 42.80075383112771], [-70.82196614903279, 42.802123241925884], [-70.8207551916624, 42.803106356975945], [-70.82075595140782, 42.80363747386161], [-70.82112869712819, 42.80446051555851], [-70.82094262610981, 42.80580520892537], [-70.82130097929391, 42.80619439063684], [-70.81644471460528, 42.808498452422484], [-70.81637638263348, 42.80754497364425], [-70.81591122703352, 42.80661559930978], [-70.81569368300366, 42.80571805815101], [-70.81485509064171, 42.80496594312601], [-70.8146987222791, 42.80427524704018], [-70.81339454519559, 42.80334089430466], [-70.81314631453172, 42.80265133440036], [-70.81280447322463, 42.802818659883215], [-70.81159269491256, 42.80276588776733], [-70.8104440748156, 42.80313601088621], [-70.81000941064704, 42.80396216572852], [-70.81007173643914, 42.80533082736746], [-70.81069315474058, 42.80633879753287], [-70.81221421969308, 42.80754846730668], [-70.81243162477735, 42.808419008151205], [-70.81264945011121, 42.80869429151335], [-70.81394458462798, 42.809800766855396], [-70.81069495377726, 42.81129097653946], [-70.80924674191509, 42.81144213407523], [-70.80926369368983, 42.81010882999616], [-70.80895350002872, 42.80892435599482], [-70.80870439521858, 42.80361399541217], [-70.80858012530008, 42.80334544671541], [-70.80805230217432, 42.80302104347771], [-70.80814565519054, 42.80110081630728], [-70.80755600146351, 42.798606009150326], [-70.80727583283137, 42.79574565172682], [-70.80665464304654, 42.79329622294285], [-70.80637645120272, 42.7906434815605], [-70.80575458868438, 42.78923038123272], [-70.8049171207358, 42.78574834676098], [-70.80479357155983, 42.78364226724441], [-70.8045440060364, 42.782502584750304], [-70.80308570509742, 42.77812953311366], [-70.80230975946569, 42.77630420460387], [-70.80023180709063, 42.769122121922926], [-70.79970454705094, 42.76680653560768], [-70.79598130452445, 42.75777626908659], [-70.79390302488083, 42.751116129037094], [-70.78872433315163, 42.74046979948453], [-70.78692648049605, 42.73749928188486], [-70.7839862350871, 42.73134615713317], [-70.7972114800224, 42.728723792472564], [-70.797012538153, 42.729197447685536], [-70.7971673491588, 42.72958266334871], [-70.7975699313365, 42.72951309104338], [-70.79775676450109, 42.7288255601857], [-70.79819093818735, 42.72889965388501], [-70.79843871497741, 42.73008494017285], [-70.79918329133069, 42.73031619001793], [-70.79918358954228, 42.73063126715635], [-70.79794255293454, 42.73161510500962], [-70.79775639319308, 42.73212259668062], [-70.79837652781316, 42.7325809674039], [-70.79839612408948, 42.7335431905022], [-70.79887237044741, 42.73417622739112], [-70.79890293014726, 42.73482400854314], [-70.7992753303651, 42.73539452443253], [-70.79933720057114, 42.736348558369635], [-70.8000513116199, 42.7371118772548], [-70.79989632765864, 42.737492404916225], [-70.79868523670729, 42.73827781642104], [-70.79713411107299, 42.738275156362974], [-70.79713488350232, 42.73875227392698], [-70.79735070776532, 42.738956132592065], [-70.79834435188387, 42.73885020266443], [-70.79865484621105, 42.73905238235403], [-70.79912020746943, 42.740306497312645], [-70.79961566311839, 42.7406763336599], [-70.80011317592722, 42.7405876302561], [-70.80095042608177, 42.73994398037295], [-70.80057800329044, 42.73916642201233], [-70.79980171209905, 42.738637911413726], [-70.79983356117677, 42.7381598661034], [-70.80033029977, 42.737882121430864], [-70.8011369547083, 42.73818462460185], [-70.80191213268984, 42.738865588559754], [-70.80318443947789, 42.740611233787845], [-70.80411502890018, 42.74108269340886], [-70.80458092935733, 42.74166106246113], [-70.80408382287584, 42.74209242593131], [-70.80343254382626, 42.74221060303392], [-70.80247112413363, 42.74154146392906], [-70.8020051945914, 42.741431754288755], [-70.80141648912368, 42.74088244836842], [-70.80122946527061, 42.74138093669693], [-70.80150826005611, 42.74184510362995], [-70.8011060584605, 42.74231978728156], [-70.80119836637945, 42.74248013227625], [-70.8018500399507, 42.74232597064323], [-70.80188097265327, 42.74213598759962], [-70.80302910247609, 42.74271229210934], [-70.80383629821492, 42.74264513410442], [-70.80495300405008, 42.74230357313487], [-70.80532488389117, 42.74298208969226], [-70.80526365742828, 42.74372158736651], [-70.80501479346358, 42.74387875516397], [-70.80377320179042, 42.743673245533515], [-70.80333922867439, 42.743743208750594], [-70.8036184523709, 42.74415336001121], [-70.80464249327868, 42.744308052610336], [-70.80544887106562, 42.74417843076349], [-70.80588342045542, 42.74367579489492], [-70.80641120651501, 42.74357768575941], [-70.80681428100762, 42.74433683585943], [-70.80656558946256, 42.74584489028464], [-70.80641139962668, 42.745982373535384], [-70.80681412237594, 42.74646245582064], [-70.80669074428721, 42.74685162453905], [-70.8072798020504, 42.74703125101136], [-70.80737346044054, 42.747399214061694], [-70.80833535090689, 42.747744228779766], [-70.80842840487735, 42.74820220813442], [-70.80811746309352, 42.74843215342487], [-70.80817961526466, 42.748611441507435], [-70.80895500121231, 42.748563186792865], [-70.80904920936314, 42.74879555305865], [-70.80855208346107, 42.74892986582607], [-70.80867655404496, 42.74913483978074], [-70.80923464866572, 42.74925239069798], [-70.80935886631697, 42.74963740407461], [-70.80895461265278, 42.750976301360495], [-70.8090484233446, 42.751506300809005], [-70.80842779429022, 42.752074784095036], [-70.80811782780863, 42.75335854506718], [-70.80821041322343, 42.75450123647383], [-70.80721766533827, 42.754661269726896], [-70.80724769058067, 42.75498496586071], [-70.80814769669409, 42.755673381107634], [-70.80799264960427, 42.756008906469454], [-70.80690626073317, 42.75631466080364], [-70.80681352257666, 42.7566764385936], [-70.80852054522651, 42.75660394720631], [-70.80873803179512, 42.756717772095335], [-70.80876947909886, 42.75706847323074], [-70.80786885535181, 42.758254181001774], [-70.80730985905373, 42.75850627051262], [-70.80634763745678, 42.75857533329769], [-70.80634702809566, 42.758872964736646], [-70.8065339362941, 42.759059184997945], [-70.80870654237911, 42.759285421542174], [-70.80892360793288, 42.759993937109186], [-70.80917131679355, 42.7602424140694], [-70.81019657636817, 42.760172011012514], [-70.81069344409325, 42.76065938927655], [-70.8106927017689, 42.76140655488293], [-70.80976147181902, 42.76266466797913], [-70.8096377774095, 42.76308140011935], [-70.80976219130635, 42.76374604262891], [-70.81056848868158, 42.76449858391277], [-70.81063060969082, 42.765326574095376], [-70.81028994834645, 42.76596200599906], [-70.8103513730916, 42.766348892231086], [-70.81091025350625, 42.76708757821895], [-70.81112708998415, 42.767264408295766], [-70.81376574564008, 42.76763621793034], [-70.81587692125983, 42.767449543449644], [-70.81690093624584, 42.76776672729083], [-70.81699439453749, 42.76816111716012], [-70.81677758700417, 42.76845296162664], [-70.81615607160661, 42.768796436884635], [-70.81488365645555, 42.76932115815718], [-70.8142009476678, 42.76989942949664], [-70.8137662234832, 42.77058213201945], [-70.81376622331825, 42.772365655887405], [-70.81438628101799, 42.77408533711381], [-70.81435629795608, 42.77499548711649], [-70.81407667839308, 42.775756750441616], [-70.81109644536234, 42.779551401623856], [-70.81035127354022, 42.78025699762464], [-70.81025753382862, 42.7806907851807], [-70.8105993286541, 42.78161327368239], [-70.81125121733187, 42.782206782883144], [-70.81168582173581, 42.782955973334396], [-70.81212136938352, 42.784562038452975], [-70.81277321128896, 42.78460529240525], [-70.81302083396415, 42.7843130723442], [-70.81286589615823, 42.78302767918879], [-70.81150021645843, 42.781247869146476], [-70.81134453321894, 42.78083566065296], [-70.81137595466312, 42.78030360507077], [-70.81267991545282, 42.779553502301624], [-70.81367373130318, 42.77845665360163], [-70.814574284737, 42.77776658429174], [-70.81581526667323, 42.77458496669413], [-70.81569145051299, 42.77356025706249], [-70.81531837225658, 42.7727551803955], [-70.81534870685812, 42.77184503159787], [-70.81621846576641, 42.770975293333635], [-70.81808089782035, 42.76982839443621], [-70.81904286813418, 42.768317775090146], [-70.81916644612991, 42.76776600298135], [-70.81901200712608, 42.76720134302321], [-70.81839045083254, 42.766653062632756], [-70.81460415962941, 42.76454223619462], [-70.81447969295108, 42.763877599073595], [-70.81466562313484, 42.763352647953845], [-70.81615512649122, 42.76074298823878], [-70.81627967470729, 42.76015577337221], [-70.81615581106462, 42.75866239393493], [-70.81509964883979, 42.756877676354655], [-70.81510057705398, 42.7553732125651], [-70.81550379407025, 42.75527657517966], [-70.8182965111294, 42.75637612206617], [-70.81907330306404, 42.757615659308705], [-70.82037738448174, 42.75853197257842], [-70.82115255907979, 42.75869011436237], [-70.82453562021229, 42.76056376826557], [-70.82562206622099, 42.76099713262614], [-70.82844726356852, 42.76145578253035], [-70.8324515348913, 42.761454188542196], [-70.83595925425163, 42.76225360641565], [-70.83918723779195, 42.7627778753825], [-70.84421617703146, 42.762660191640954], [-70.84617170004863, 42.7630971657572], [-70.84691696084235, 42.763004034013974], [-70.84728904252133, 42.76279965347463], [-70.84790909496662, 42.76288810003876], [-70.8480966497782, 42.76320985307893], [-70.84949284688541, 42.7630427354195], [-70.85147925264793, 42.76343364879714], [-70.85619729936187, 42.76329344776289], [-70.85743920473169, 42.76311130602907], [-70.86150377657641, 42.761261380040885], [-70.86445113809478, 42.76051918110814], [-70.86544428322246, 42.75974652333208], [-70.86612651713595, 42.758419647371326], [-70.86674487635531, 42.756400954643944], [-70.86717913523994, 42.755943668691536], [-70.8684512146573, 42.75574244500587], [-70.87065533733299, 42.75599412930367], [-70.87335528995958, 42.75537356928836], [-70.87416193257084, 42.75475679464244], [-70.8738192012483, 42.754500633948325], [-70.87288905303402, 42.7545254216552], [-70.8718646275911, 42.75489345035524], [-70.87040606131946, 42.75507962704512], [-70.86845093950564, 42.75489568658411], [-70.86680570005359, 42.754985719881205], [-70.86609220659756, 42.75534864674159], [-70.86513042373969, 42.755517789380065], [-70.86429271937398, 42.75606288183013], [-70.86252559101983, 42.75811855876246], [-70.8619372090985, 42.75942567689678], [-70.8608824965772, 42.76029867943984], [-70.85812155907915, 42.76160500530635], [-70.8563215990292, 42.76224709774256], [-70.85461319013582, 42.762445756738174], [-70.85182026922756, 42.76213083460966], [-70.8486846861579, 42.76148871957741], [-70.84828191737623, 42.76185553525492], [-70.84781598022171, 42.76185403628445], [-70.84505338295925, 42.76101587896623], [-70.84424626350854, 42.760966299290224], [-70.84266367699966, 42.7612892725504], [-70.84067678890518, 42.7614473185724], [-70.83940468006571, 42.761359614737664], [-70.83359937507973, 42.759525932825504], [-70.82770145057975, 42.75845884292362], [-70.82531184198045, 42.75749803163691], [-70.82450407204641, 42.757087102902844], [-70.82341712961454, 42.7560145784037], [-70.8232314167705, 42.754206887991664], [-70.82108895115921, 42.751413269549495], [-70.82127570158167, 42.751139801756025], [-70.82170948429176, 42.75123179841144], [-70.82233115977881, 42.75200568413101], [-70.82323080964935, 42.75266697379589], [-70.8242861512691, 42.752856557038626], [-70.82524801208494, 42.75250827058939], [-70.8267377910236, 42.75134049378209], [-70.82850677747048, 42.751365399241344], [-70.82987186015441, 42.75074935132595], [-70.8303680560579, 42.75109261836627], [-70.8304935618869, 42.752946076402594], [-70.83067897453002, 42.75358291899317], [-70.83130020815693, 42.75451878950975], [-70.83170472134972, 42.754728173055135], [-70.83238671293456, 42.75479849898806], [-70.83297611608899, 42.75463591744155], [-70.83393844060265, 42.7533772383337], [-70.8345278379199, 42.752962033255024], [-70.8352418773389, 42.752599302939906], [-70.83632852736326, 42.75239286565551], [-70.837289497601, 42.751561181077705], [-70.83745425378629, 42.75124930291637], [-70.8380031622252, 42.75117648457617], [-70.83915229333924, 42.7521400871553], [-70.83989642298494, 42.75241552046416], [-70.84098278479469, 42.752272052284816], [-70.8413548041802, 42.752068248087646], [-70.84145432934122, 42.75136777964868], [-70.84234750094846, 42.75033142882967], [-70.84194309459373, 42.75014853085454], [-70.84138543339436, 42.75031077145304], [-70.84020653035076, 42.75147375664379], [-70.8396164943874, 42.75159191915861], [-70.83912793245833, 42.75149798462354], [-70.83893438677664, 42.75104621839526], [-70.83843702063997, 42.75062871467896], [-70.83784773378346, 42.750422240243154], [-70.83716473712585, 42.75054154176001], [-70.8360475127126, 42.75149610750456], [-70.83381370061001, 42.752144922283975], [-70.83244906845793, 42.753653347604306], [-70.83192018810743, 42.75367110873215], [-70.83167193224911, 42.75355771692713], [-70.83167166918135, 42.75300802292596], [-70.83223028328723, 42.75116132431012], [-70.8322916777393, 42.750376815729055], [-70.83198148149657, 42.75021974008133], [-70.83086510249032, 42.74999442369453], [-70.82872287401572, 42.750038281048674], [-70.8282581423003, 42.75028876771837], [-70.82760615997299, 42.750380070479984], [-70.82527837852271, 42.750408715747646], [-70.82406938418559, 42.75102280384071], [-70.82341739872321, 42.75109607890707], [-70.82292122387518, 42.75084280266964], [-70.822908087905, 42.75004266675686], [-70.82279584021744, 42.749567150646065], [-70.82245536843598, 42.74915838113162], [-70.82242419594594, 42.74847404081883], [-70.82146181498744, 42.74774204249173], [-70.82087116452757, 42.74493217777476], [-70.82031351116842, 42.74417554579736], [-70.81966085514394, 42.742393796703155], [-70.81724054151063, 42.74021621916525], [-70.81692939971457, 42.73964499954003], [-70.81438612606968, 42.73703734911078], [-70.8143227270096, 42.73653397996744], [-70.81534711080168, 42.73582381911273], [-70.81562687975973, 42.7361889348651], [-70.81565745952811, 42.73667466308404], [-70.8154413410378, 42.73694851643919], [-70.81540993907541, 42.73730897351282], [-70.81590670298448, 42.73802195344759], [-70.81786037442917, 42.739350613196926], [-70.81854340579658, 42.73948404302978], [-70.8195676550038, 42.73935053781949], [-70.82164655407824, 42.73870502283419], [-70.82316651073883, 42.73859071166625], [-70.82310397741665, 42.73826682812386], [-70.82167713411023, 42.73797490599335], [-70.81879168343569, 42.73877771407812], [-70.81798502168787, 42.73850233188705], [-70.816960763067, 42.73765403447606], [-70.81658818795434, 42.73678593892812], [-70.81633999192309, 42.73539421223529], [-70.81547147044324, 42.733831142311175], [-70.81447827167828, 42.73100084267369], [-70.81450927290562, 42.72978461226356], [-70.81426172514446, 42.72905903993834], [-70.81441650027168, 42.72838985557886], [-70.81506815582591, 42.72774893669394], [-70.81615306627423, 42.728686518489226], [-70.81578132045978, 42.72878277698958], [-70.8152229608267, 42.7285302310928], [-70.81503706997113, 42.72864109033851], [-70.81512990601084, 42.72926110442568], [-70.81497485026374, 42.72962364792364], [-70.81537831746265, 42.729698611398796], [-70.81677396004545, 42.729171801445716], [-70.817301399415, 42.72914565806083], [-70.81751840995766, 42.72934891944016], [-70.81773539803692, 42.730012423594104], [-70.81761169874218, 42.73017598307746], [-70.81736408584041, 42.73022571751638], [-70.81692908318779, 42.72992607950221], [-70.81633955756695, 42.72985452323147], [-70.81621582241543, 42.7301086605614], [-70.81705344495546, 42.730860785417306], [-70.81714643954031, 42.73134576621038], [-70.81773580901422, 42.731345300255406], [-70.81785940535137, 42.73085710510316], [-70.81863577529991, 42.73090781585382], [-70.81919349312983, 42.73120479362928], [-70.81922464093604, 42.73142946309194], [-70.81882118238651, 42.73200379198003], [-70.81826431195638, 42.732120348436226], [-70.81776714160182, 42.731939625788854], [-70.8170849124716, 42.732004242194265], [-70.81671175344522, 42.73229855125082], [-70.81665014891264, 42.73287600719704], [-70.81677441864842, 42.73308098140795], [-70.81724061774537, 42.73312761879326], [-70.81739509665086, 42.73239598196491], [-70.81786018558057, 42.732280004856335], [-70.81817039977089, 42.73259972561615], [-70.81860431935355, 42.73273674672155], [-70.81959773083328, 42.73260362710463], [-70.81978366323295, 42.732348159706454], [-70.81981486431489, 42.73191567377892], [-70.82024956655995, 42.73152157666415], [-70.82161363773487, 42.73241797588213], [-70.82527537916549, 42.73349432864495], [-70.82716766481093, 42.733788347780795], [-70.83405534308976, 42.73284921598021], [-70.83433396918974, 42.73298866873537], [-70.83449006858693, 42.73358033044931], [-70.83495552321507, 42.73378893009035], [-70.83548251585346, 42.733627669437006], [-70.83523460733416, 42.73305516929334], [-70.83523383728257, 42.73255048830806], [-70.83594735158934, 42.73243136471309], [-70.83703349205284, 42.73262101151781], [-70.83861624894347, 42.73241458635004], [-70.83991948663981, 42.73284400276578], [-70.84029110968801, 42.73259518845834], [-70.84106721914934, 42.73252871950806], [-70.84268035344985, 42.73275450408396], [-70.8434557052994, 42.73268801481481], [-70.8432385540158, 42.73217816320314], [-70.84370335411622, 42.73172000964655], [-70.84516220403262, 42.731426137879865], [-70.84618575138857, 42.73165304532271], [-70.84652646645135, 42.731584636725046], [-70.8464958900411, 42.731314400731065], [-70.84612342998157, 42.73105967910949], [-70.84513031857713, 42.73078737459684], [-70.84339260007525, 42.731148862886805], [-70.84147009934482, 42.73195431101343], [-70.84081742980241, 42.731766618162105], [-70.84072511071659, 42.731309234853065], [-70.8423060978537, 42.72955381811288], [-70.84463286541195, 42.72936334886623], [-70.84627776374147, 42.72884096289121], [-70.84754809515275, 42.728081828596395], [-70.84897421968668, 42.72666246835503], [-70.84965684488684, 42.72657066017502], [-70.85120814694356, 42.727211769280345], [-70.85182926683112, 42.727237756149115], [-70.853224334865, 42.726935548862386], [-70.85439301458977, 42.72625398167706], [-70.85550994249007, 42.725294164896624], [-70.85746192787005, 42.72421689151824], [-70.85761893271659, 42.72393701423635], [-70.85701297131881, 42.72267503358565], [-70.85726397779719, 42.722324220201855], [-70.85929897154568, 42.722018751057625], [-70.85969195417039, 42.72164396281635], [-70.85964406319415, 42.72136406458082], [-70.8586279156844, 42.72016115153009], [-70.85766397475156, 42.720124862607044], [-70.8572879603707, 42.71967885172039], [-70.85729601636018, 42.719376766756305], [-70.85797295956334, 42.7184859384343], [-70.8579249004685, 42.717232123468925], [-70.8580929172259, 42.71697424434983], [-70.85996493195363, 42.715628102613515], [-70.8599749258364, 42.715395794495336], [-70.8593250255238, 42.71479918004131], [-70.85889192055741, 42.714640926055836], [-70.85721995175477, 42.71446285637775], [-70.85695891342783, 42.71421103756954], [-70.85705603938962, 42.71362924615692], [-70.85745596094208, 42.71311271929778], [-70.85798901016516, 42.712838862998915], [-70.86024291436935, 42.71279002906131], [-70.86244307158361, 42.71311275190493], [-70.86265207863853, 42.71131009704604], [-70.86444599810405, 42.70936087370515], [-70.87489500914674, 42.71269178509055], [-70.88019498246942, 42.70639179676368], [-70.90921706437764, 42.69524093043901], [-70.9401969901653, 42.68369224990219], [-70.94959695878812, 42.68119201831944], [-70.95489695593514, 42.684191781888096], [-70.97609802916803, 42.69479192255295], [-70.95969799303738, 42.706392201339995], [-70.94899691421999, 42.71619225440496], [-70.95558704298261, 42.71932804809727], [-70.95595295433843, 42.71932414333464], [-70.95816693904482, 42.71832180259128], [-70.960498041997, 42.71809189302187], [-70.96429800655548, 42.717292058106636], [-70.96636706288281, 42.717205974871526], [-70.97008090577795, 42.71837081108017], [-70.97139809234353, 42.718392024243], [-70.97235094234706, 42.7176598981984], [-70.97393796996336, 42.717003224742356], [-70.97582006666629, 42.717306019263454], [-70.97672502281353, 42.71789975131958], [-70.97763900494996, 42.71887722936335], [-70.97909803242776, 42.719391866483036], [-70.9811979783326, 42.719590904808044], [-70.98386495017076, 42.719477931834575], [-70.9850390300545, 42.719901759570256], [-70.9879990572527, 42.72229087899237], [-70.99141105180966, 42.7247280340059], [-70.98919891559592, 42.72669085629977], [-70.98995804155666, 42.72948820645278], [-70.99001800573164, 42.73268024958724], [-70.9905719139484, 42.7340909356485], [-70.99019904286622, 42.73659072257188], [-70.99039899717795, 42.743891083425055], [-71.00139901344419, 42.73919102947462], [-71.01096898189732, 42.73474213404357], [-71.01180999622744, 42.73455214290604], [-71.0195489040447, 42.733840180819975], [-71.02563793340028, 42.73197208032428], [-71.02671005881432, 42.73178798746686], [-71.03450005443877, 42.73279124684827], [-71.03140007938966, 42.71859101605489], [-71.03197698361235, 42.718198955133616], [-71.03477905900586, 42.71955380957039], [-71.04650008810673, 42.72639123689581], [-71.04781498047711, 42.72667600346266], [-71.05867598108323, 42.732559098909604], [-71.07216994168243, 42.73272287394411], [-71.07417908860701, 42.734658953676814], [-71.08191700915958, 42.7368847708028], [-71.08408703021962, 42.73672211250571], [-71.08440098895674, 42.73899004431698], [-71.0849010506719, 42.74798981180908], [-71.08430091863764, 42.75199012560163], [-71.0839009194877, 42.75259013142439], [-71.08560106386963, 42.75349022645235], [-71.08640103967528, 42.753390133370004], [-71.08748797595366, 42.753595987675126], [-71.08701306056653, 42.755493132675774], [-71.08699404353112, 42.75652828052577], [-71.08850090573495, 42.756390175616836], [-71.08900104020651, 42.75749018095927], [-71.09080099090102, 42.75868987274186], [-71.09180105643772, 42.76008981778174], [-71.08970092689357, 42.76088974258682], [-71.08860094500018, 42.76149008819564], [-71.08720096194511, 42.76288996088377], [-71.08470107690403, 42.76419022179388], [-71.08210097882368, 42.76578994535422], [-71.07970091244171, 42.76668988493322], [-71.07760109065175, 42.766989988425806], [-71.07640103880752, 42.76779014351961], [-71.074801034364, 42.767090010588866], [-71.07300097578381, 42.76838977812581], [-71.07220105945255, 42.769289826891736], [-71.07150102877812, 42.76908975558144], [-71.07070108205419, 42.76998979376359], [-71.07020095962338, 42.76959016479013], [-71.06860104847487, 42.76899009239712], [-71.06670090910148, 42.77098984905083], [-71.05389893216638, 42.762795103476], [-71.0529010319987, 42.763590169640175], [-71.0561010425583, 42.76608981699081], [-71.05400102669124, 42.768690033735304], [-71.04900095775437, 42.76779016440627], [-71.04780097594616, 42.76918977320646], [-71.04750094392081, 42.77069022706119], [-71.0465009380362, 42.77069024803658], [-71.04740095866077, 42.773889992494546], [-71.04590103648091, 42.77658972966684], [-71.04210098086662, 42.77998983303584], [-71.04170100789186, 42.78178974028349], [-71.03850107915373, 42.785589866932234], [-71.0379009874725, 42.78659005018978], [-71.03500098925662, 42.789590103004336], [-71.0330010081174, 42.7972898355304], [-71.02730001100012, 42.7987902593635], [-71.02260001419866, 42.79658974356887], [-71.02410002922849, 42.79598997965481], [-71.02499991822931, 42.78299000926119], [-71.02789992066074, 42.7801899228824], [-71.02780000644236, 42.779790059135046], [-71.02599994667317, 42.779190266585445], [-71.02529998468955, 42.779289794966616], [-71.02499998285587, 42.77889023335852], [-71.02429998022119, 42.778490153469114], [-71.02590004204978, 42.77659001795086], [-71.02800006232434, 42.773289851278236], [-71.03220005668722, 42.768889802561155], [-71.03470007026526, 42.76428979430639], [-71.03410002313517, 42.763989751742635], [-71.0265000014897, 42.77328991944379], [-71.02270007408809, 42.77759013657087], [-71.0209000326445, 42.78448992636212], [-71.01699994303752, 42.79258998359141], [-71.01550006336555, 42.79408982745798], [-71.01100003004254, 42.79708989137181], [-71.00269996895837, 42.80139003685018], [-70.99829993040983, 42.807990182188746], [-70.99939992662719, 42.81068984154216], [-71.00240005081871, 42.811690141448395], [-71.00835805890843, 42.81458094926159], [-71.02290092324372, 42.820289759216244], [-71.03720105945357, 42.82638901725223], [-71.05394898938346, 42.8332301343895], [-71.04478163410207, 42.84869191032131]]], [[[-70.83138735593107, 42.80056834976342], [-70.83297203691214, 42.800453152098775], [-70.8296393349488, 42.802118951453345], [-70.83003019654276, 42.80121821393295], [-70.83138735593107, 42.80056834976342]]], [[[-70.82740183485298, 42.80135094574103], [-70.82739220679483, 42.80248175411732], [-70.82619071998552, 42.80358650605898], [-70.82588015387839, 42.80370847520231], [-70.82457565082161, 42.803269909985346], [-70.8244204796892, 42.803524434060634], [-70.82367471987347, 42.803455943596205], [-70.82308551795077, 42.80296977477793], [-70.822899237162, 42.80249552784673], [-70.8229919201044, 42.80077332919276], [-70.8233637548914, 42.80031696251594], [-70.82404722212584, 42.800206745870696], [-70.82594182674646, 42.80029373613331], [-70.8275256775318, 42.79997099705645], [-70.82792980384748, 42.80006336174939], [-70.8279304514417, 42.80036042853054], [-70.82740183485298, 42.80135094574103]]], [[[-70.81177952307033, 42.73385425147609], [-70.81150029920447, 42.73393080078143], [-70.81134511951578, 42.73374420830063], [-70.81115884243673, 42.732234116657494], [-70.81128373012339, 42.73175437105483], [-70.81174793269906, 42.731458937544936], [-70.81212080153313, 42.73314623779559], [-70.81177952307033, 42.73385425147609]]], [[[-70.81423015350803, 42.734175441831816], [-70.81441618354144, 42.73491134288669], [-70.81404422922562, 42.73582678793814], [-70.81379566772424, 42.73610100411462], [-70.8131758205699, 42.736056816869485], [-70.81274117342772, 42.735478100053804], [-70.81274159312757, 42.73479394092991], [-70.81255512012689, 42.73457172290149], [-70.8125232082835, 42.73305860819694], [-70.81267893023595, 42.732741082897405], [-70.81298917143322, 42.73261914613534], [-70.81317595110201, 42.73276035525925], [-70.81326872206493, 42.73326333295271], [-70.81423015350803, 42.734175441831816]]], [[[-70.80904922114426, 42.74705758252689], [-70.80842736766434, 42.74723841099394], [-70.80799357459044, 42.74708278230034], [-70.80743460254175, 42.74637164874194], [-70.80715598330445, 42.744655648168454], [-70.80743516092885, 42.74458811113436], [-70.80867617809976, 42.74582038420657], [-70.80904922114426, 42.74705758252689]]], [[[-70.81134426140225, 42.7583874361134], [-70.81081712220552, 42.75921586352288], [-70.80979283318287, 42.75907923052352], [-70.80935831688026, 42.75880713516804], [-70.80942060142962, 42.75770700516406], [-70.81028919533101, 42.75731496827324], [-70.8108476156802, 42.7575489722147], [-70.81134446400921, 42.7580723653349], [-70.81134426140225, 42.7583874361134]]], [[[-70.81429381156562, 42.76056599728999], [-70.81395130039337, 42.760904362178536], [-70.81345536505809, 42.760957684593066], [-70.81286569095793, 42.76075051436371], [-70.81286481516939, 42.76021938831074], [-70.81351712736485, 42.75921783778506], [-70.81357958749823, 42.75853236880699], [-70.81385894906249, 42.75834779066232], [-70.81432415152136, 42.75879952477608], [-70.8145097453448, 42.75996751482967], [-70.81429381156562, 42.76056599728999]]], [[[-70.81637292145852, 42.76662203672121], [-70.81627989703186, 42.76678577431875], [-70.81531785331065, 42.76680991208401], [-70.81302058057112, 42.76626123959816], [-70.8123694635215, 42.76552370822054], [-70.81233769859466, 42.76488494223906], [-70.8126178692409, 42.76468180991552], [-70.81432467177682, 42.7659432147176], [-70.81637292145852, 42.76662203672121]]]]}}