{"type": "Feature", "properties": {"district_name": "3rd Worcester District", "chamber": "house", "vintage": "2012-2020"}, "geometry": {"type": "Polygon", "coordinates": [[[-71.86295299999999, 42.544703000000005], [-71.86250799999999, 42.55247399999999], [-71.85559099999999, 42.552055], [-71.85513499999999, 42.558258999999985], [-71.85641799999999, 42.558089], [-71.86026199999999, 42.558518000000014], [-71.862242, 42.558076], [-71.862285, 42.559714000000014], [-71.85840999999999, 42.63384], [-71.844843, 42.63798500000001], [-71.775317, 42.63658799999999], [-71.77449000000001, 42.625555000000006], [-71.774138, 42.623991000000004], [-71.773996, 42.62037599999998], [-71.773451, 42.61456799999999], [-71.770887, 42.603662], [-71.77197, 42.58597100000002], [-71.770606, 42.586689], [-71.768992, 42.587236999999995], [-71.76592699999999, 42.589592999999994], [-71.759419, 42.59181], [-71.756158, 42.593962000000005], [-71.754779, 42.594608], [-71.751926, 42.595262999999996], [-71.74813, 42.595152999999996], [-71.74496599999999, 42.595668], [-71.74427399999999, 42.59587200000001], [-71.742024, 42.597014999999985], [-71.739986, 42.59728200000001], [-71.73592, 42.59838899999999], [-71.73488499999999, 42.598229999999994], [-71.730071, 42.595528000000016], [-71.726107, 42.59469500000001], [-71.72514199999999, 42.59474], [-71.72460099999999, 42.59506799999998], [-71.723905, 42.594183], [-71.72387599999999, 42.59322199999999], [-71.726276, 42.589496], [-71.729038, 42.587703000000005], [-71.72970699999999, 42.586975], [-71.72995200000001, 42.586042], [-71.73011799999999, 42.58419100000002], [-71.73077599999999, 42.582953999999994], [-71.731607, 42.582233999999985], [-71.731966, 42.58156800000001], [-71.732412, 42.581454999999984], [-71.732841, 42.58218300000001], [-71.73329, 42.582212], [-71.735237, 42.581748000000005], [-71.737871, 42.580824], [-71.73797499999999, 42.580592], [-71.73777799999999, 42.579719], [-71.737901, 42.57936800000001], [-71.738415, 42.578587000000006], [-71.73912, 42.578144], [-71.739729, 42.577045000000005], [-71.74044599999999, 42.57657100000001], [-71.741187, 42.57658300000001], [-71.742751, 42.577358999999994], [-71.744395, 42.577868], [-71.74528699999999, 42.577883], [-71.74622, 42.577671], [-71.748339, 42.576219], [-71.747554, 42.57245500000001], [-71.76295, 42.56392400000001], [-71.75724699999999, 42.562068], [-71.755875, 42.56117000000001], [-71.75409599999999, 42.559456], [-71.75045, 42.553461999999996], [-71.74776899999999, 42.549935], [-71.74986899999999, 42.54975900000001], [-71.749149, 42.54905000000001], [-71.749679, 42.54520199999998], [-71.754166, 42.54605199999999], [-71.757766, 42.548567999999996], [-71.760362, 42.54762200000001], [-71.761951, 42.549808000000006], [-71.761588, 42.55190399999999], [-71.764287, 42.55505600000001], [-71.76917999999999, 42.558142000000004], [-71.77134199999999, 42.559248], [-71.786023, 42.551047000000004], [-71.78936999999999, 42.550931], [-71.797118, 42.552551000000015], [-71.798699, 42.552594000000006], [-71.80012599999999, 42.552110000000006], [-71.803752, 42.548897], [-71.80466299999999, 42.548261999999994], [-71.806546, 42.54747200000001], [-71.8079, 42.54716399999999], [-71.81421399999999, 42.54725300000001], [-71.81924699999999, 42.54659899999999], [-71.821281, 42.546539], [-71.824201, 42.54712700000001], [-71.830045, 42.54888500000001], [-71.831321, 42.54903900000001], [-71.832831, 42.54900200000001], [-71.83712299999999, 42.548551], [-71.837807, 42.543783], [-71.86295299999999, 42.544703000000005]]]}}