{"type": "Feature", "properties": {"district_name": "5th Essex", "chamber": "house", "vintage": "2001-2010"}, "geometry": {"type": "MultiPolygon", "coordinates": [[[[-70.74781700543988, 42.66753179794953], [-70.74857253617438, 42.66563495848227], [-70.74950067617117, 42.66480995171001], [-70.74995161502585, 42.663899136432526], [-70.7503536743902, 42.66358666134369], [-70.75103547591826, 42.6634228541284], [-70.75193472228887, 42.663580593653386], [-70.7533296634167, 42.66324358054293], [-70.75354748328424, 42.662393703432585], [-70.75416720755327, 42.6617084542985], [-70.7548500321482, 42.66145460733531], [-70.75937530628056, 42.66143868487857], [-70.76114021775604, 42.6621949296975], [-70.76296887430927, 42.66232869672388], [-70.76343294507993, 42.66249257300156], [-70.76457889698436, 42.6631502930532], [-70.76513662802209, 42.66370017721416], [-70.76634542140079, 42.6640234984338], [-70.76668584595393, 42.66431542745365], [-70.7669026631396, 42.66514107837363], [-70.76687033660822, 42.665871190757244], [-70.76575494637424, 42.667113188962176], [-70.7657232881104, 42.667474207856316], [-70.7666844332239, 42.66715284900438], [-70.76705532003285, 42.6673183695199], [-70.76733530068277, 42.66710690563958], [-70.7677079973911, 42.66493912933818], [-70.76925698859823, 42.66610405474402], [-70.76938063843437, 42.66635465218055], [-70.76993868850022, 42.6664718334648], [-70.76981432983024, 42.6656900924486], [-70.76953657487542, 42.66523484291031], [-70.76730659025135, 42.66345006799904], [-70.76734895808761, 42.663051423215755], [-70.76756019727978, 42.662898596435106], [-70.76786425734922, 42.66281105742839], [-70.76866994907763, 42.66314981384327], [-70.76898003651245, 42.6636587174839], [-70.76938326478401, 42.66379630294823], [-70.77015765292988, 42.66297354451717], [-70.771304505273, 42.66242431754217], [-70.77217342006993, 42.66118578147194], [-70.77294784503597, 42.66104774338218], [-70.77378442843309, 42.66148455049474], [-70.77415623498607, 42.66196570470531], [-70.77384552045012, 42.662879744403206], [-70.77421711012727, 42.66290120865314], [-70.77508626176632, 42.66228380753353], [-70.77626313106977, 42.66210325904667], [-70.77626380347589, 42.66187820391557], [-70.77601572892918, 42.66175624333391], [-70.77508657191876, 42.661644640867415], [-70.77493191748299, 42.66059321026089], [-70.77601736737553, 42.65967502094581], [-70.77611014539008, 42.659313814462294], [-70.77542853932384, 42.658576973912155], [-70.77536693576566, 42.65738883985728], [-70.7764842407376, 42.65647928060731], [-70.77651496195932, 42.656226847899546], [-70.77583366076584, 42.656111733922216], [-70.77536834483553, 42.65628943192552], [-70.77397322392771, 42.65739247021483], [-70.7737858306689, 42.65901678165729], [-70.77449864030743, 42.65959122676278], [-70.77449773490363, 42.65995131634131], [-70.77397189051555, 42.66018488457846], [-70.77279397674899, 42.65951862097262], [-70.77177130904478, 42.65947110319366], [-70.77171064984076, 42.65912975558131], [-70.77189586256532, 42.65890192897632], [-70.77167918891728, 42.658554529853], [-70.77127632223623, 42.658668462986235], [-70.77118387567687, 42.65894920458825], [-70.77084251333474, 42.659215997512874], [-70.7709657126771, 42.65981768402146], [-70.77087196577358, 42.66035891906078], [-70.769446517154, 42.66141726625005], [-70.76895078573031, 42.66153284582679], [-70.76851646351336, 42.66135061708892], [-70.76839290000322, 42.66074948397349], [-70.76795922941893, 42.66031462323124], [-70.76774272093859, 42.6597415999882], [-70.76653524187613, 42.658642969899745], [-70.76538823135878, 42.65821087920265], [-70.76511053027761, 42.65759357475473], [-70.76449134137161, 42.656909396235164], [-70.76226036841062, 42.65578225290187], [-70.76145593618514, 42.65511937162663], [-70.76099252139943, 42.65386564121034], [-70.76213892867096, 42.65313589494607], [-70.762573234856, 42.65267897728184], [-70.76294559061147, 42.65206075367266], [-70.76307022406769, 42.65070781036261], [-70.76328781989699, 42.650254008679234], [-70.76369095638573, 42.64994993797049], [-70.764806661482, 42.64965376893239], [-70.76545710373682, 42.65002194554811], [-70.76601372532579, 42.650706848604614], [-70.76607506349815, 42.65178696966779], [-70.76582664898585, 42.65256522539505], [-70.76632181878745, 42.65317884183501], [-70.76802501795963, 42.65411633309232], [-70.76845947829032, 42.654118517236185], [-70.76861514490274, 42.653891066643745], [-70.76886399188184, 42.65238305509108], [-70.76833768594265, 42.65064394194061], [-70.76781180681846, 42.65006614871612], [-70.76697449736758, 42.649953368966294], [-70.76626291438635, 42.64928886719758], [-70.7662629155841, 42.64892877044171], [-70.76663560657613, 42.64865261969506], [-70.76632561974166, 42.648306309153924], [-70.76489997141552, 42.648076130181245], [-70.76477652260445, 42.64890637630228], [-70.76443490363854, 42.648903076703284], [-70.76400115200302, 42.64864824673782], [-70.7635985928063, 42.64895176411877], [-70.76285434298441, 42.648900322757015], [-70.76257753402295, 42.64746379493651], [-70.76245458355582, 42.64522253031083], [-70.76183547058399, 42.64469136684496], [-70.76140373400051, 42.642545469025286], [-70.76171462140508, 42.64139682685528], [-70.76196155730489, 42.641167716980675], [-70.76292254188597, 42.6409909944531], [-70.76379082092801, 42.6411484471087], [-70.76471984546708, 42.64091804948486], [-70.76518455180828, 42.64114494194275], [-70.7652461559678, 42.64197243303636], [-70.765059938981, 42.64227283030435], [-70.76509032436668, 42.6425425296084], [-70.76713483039222, 42.642907179075145], [-70.7671044282239, 42.64265491800889], [-70.76605094797154, 42.64190608722864], [-70.76592849839076, 42.64069167214721], [-70.76611371271586, 42.64034681295217], [-70.76614498590425, 42.63970671274079], [-70.76664188526834, 42.63923048789675], [-70.76877963926155, 42.638611616913344], [-70.76915061880884, 42.63826343622367], [-70.7701133457979, 42.63696079200996], [-70.7702993330476, 42.636183255011105], [-70.77091933421131, 42.63515582176302], [-70.77098167881718, 42.63474041887424], [-70.77076590170677, 42.634076809246], [-70.77085931064038, 42.63392267365874], [-70.77284137475696, 42.63360320205332], [-70.77321280024447, 42.63332702156937], [-70.7736163848136, 42.63269038565999], [-70.77380212080968, 42.631930845693454], [-70.77432867366807, 42.63179630916818], [-70.77566070993844, 42.63225310014151], [-70.77643448044857, 42.63273677226286], [-70.77689949373075, 42.63323369382794], [-70.7784782526057, 42.63332627138409], [-70.77866496397662, 42.633124882293906], [-70.77860299803942, 42.63284654459266], [-70.77813846629903, 42.632439657450774], [-70.77696087762061, 42.632250559855706], [-70.77420510509046, 42.631312208697324], [-70.77243887638024, 42.63135736268696], [-70.77228384568674, 42.63158539074196], [-70.77243855669306, 42.63275386743188], [-70.77206692310274, 42.63304804908082], [-70.77079591431307, 42.63321163742653], [-70.77023914335307, 42.633436558760366], [-70.76971193229716, 42.63503904023821], [-70.76971187874958, 42.635453719966506], [-70.76902878699006, 42.63602273881302], [-70.76909102765067, 42.636913817212665], [-70.76893559120005, 42.63742034676601], [-70.76862519666676, 42.63778579000462], [-70.76760203517782, 42.63817091433364], [-70.76651896232035, 42.63826869620853], [-70.76592923613413, 42.639043662206745], [-70.76456603781678, 42.63956895427093], [-70.7640083550365, 42.64002790344542], [-70.76366687780319, 42.64011462662948], [-70.76335709225822, 42.639984366858634], [-70.76326501565076, 42.639679379938286], [-70.76298581307738, 42.63963878050142], [-70.76162194521488, 42.64029906141627], [-70.76149968410462, 42.63915721944035], [-70.76193284340134, 42.6387903289747], [-70.76224336571751, 42.63801078252038], [-70.76289438241061, 42.63716308100596], [-70.76292755820471, 42.63579323570828], [-70.76264782443842, 42.635473546642466], [-70.76224643944259, 42.635570010964976], [-70.76212075305172, 42.637093999611395], [-70.76125340712326, 42.63773832557412], [-70.76115908901535, 42.638649220874306], [-70.75991910149406, 42.63945206270454], [-70.75994947989231, 42.639703767800704], [-70.76059974603193, 42.64018899544731], [-70.76066117682583, 42.64094503608999], [-70.76001078146984, 42.64137804878945], [-70.7596069531473, 42.64197019005607], [-70.75960659333134, 42.64251933685623], [-70.76010199308622, 42.64329559533113], [-70.75988393988271, 42.643983443487166], [-70.75991547644585, 42.64439719953467], [-70.76031782819224, 42.644985492744894], [-70.76006881641543, 42.64542164168781], [-70.75951164530554, 42.645538479620406], [-70.75947953695375, 42.64601652816832], [-70.7588288721713, 42.64654912611245], [-70.75780645949354, 42.64693416874055], [-70.75706237769585, 42.64754887096262], [-70.7563486438654, 42.6485778664868], [-70.75606934674643, 42.64873530351783], [-70.75467546308394, 42.648576655056154], [-70.75374508470665, 42.649374674861505], [-70.75204041014177, 42.6495363910637], [-70.75114322856635, 42.64933365158877], [-70.75108177758779, 42.6490372983206], [-70.75024494489939, 42.6490324293242], [-70.74990325418621, 42.64951521771247], [-70.74809230773714, 42.64962385464851], [-70.74713135036032, 42.64951238572628], [-70.7466664406788, 42.649717536828476], [-70.74676048535285, 42.65068028507909], [-70.74632648393825, 42.65118271654427], [-70.7445300542063, 42.651156356135566], [-70.74304222805638, 42.65031389351937], [-70.74288664110395, 42.6497671013321], [-70.7432576671087, 42.64900432455269], [-70.74393789973979, 42.64822837408697], [-70.74396863565984, 42.64779533265202], [-70.74322458748725, 42.64742811324425], [-70.74180019373114, 42.647386708114844], [-70.74155227700223, 42.6472466683404], [-70.74161400013277, 42.64667822682326], [-70.74127204265983, 42.64646724194489], [-70.7400953165675, 42.64674646161188], [-70.73987805713233, 42.64656048224772], [-70.739814826335, 42.64532728841037], [-70.73928824021434, 42.644911960139886], [-70.73699447928801, 42.644415203162815], [-70.73696393981305, 42.64407347515263], [-70.73795540675543, 42.643544930763106], [-70.73826406989993, 42.64344963166305], [-70.7395357025244, 42.64363749089865], [-70.73990626959535, 42.6434970154264], [-70.73872818572343, 42.64269535869705], [-70.73795450000839, 42.64251751877281], [-70.73755095086248, 42.64198315266318], [-70.73668227949851, 42.641437826645735], [-70.73662108716876, 42.6411414661727], [-70.7371782074548, 42.64038500462396], [-70.73702229026534, 42.63979318781593], [-70.73680545530691, 42.63935456845109], [-70.73612269139386, 42.63894156857874], [-70.73556559807287, 42.63828352054462], [-70.73500765029777, 42.63835522291681], [-70.73500823848859, 42.63871532591567], [-70.73596853882732, 42.63924157394029], [-70.73596858283292, 42.6395836682528], [-70.73525740314291, 42.639910361719515], [-70.73507122940474, 42.64027317117373], [-70.73590787727528, 42.640503769576554], [-70.73587639764112, 42.640774760803566], [-70.73556669919232, 42.64104953794367], [-70.73556788391528, 42.64132862234304], [-70.73615680026155, 42.641626223126465], [-70.7364664792815, 42.642170668842375], [-70.73705547072898, 42.64249527277755], [-70.73714795987678, 42.64294431425542], [-70.73631187667853, 42.64269629120986], [-70.73560024833849, 42.64274278200644], [-70.73519687754171, 42.64319923816146], [-70.73522913002047, 42.6437756093332], [-70.73501218622336, 42.644004303024815], [-70.73352508471605, 42.64361240025608], [-70.73296741635419, 42.6436570874433], [-70.73278144309403, 42.64400244750254], [-70.73361791854047, 42.644187490335995], [-70.73352594877804, 42.644918888436706], [-70.7337120840941, 42.64512324565142], [-70.73519875377883, 42.64455074527108], [-70.73612806298081, 42.64393291470567], [-70.73584930480233, 42.64457699787233], [-70.73665533799948, 42.645420680098994], [-70.73665532364176, 42.64592481754804], [-70.73696523787474, 42.6462627642991], [-70.73675003387412, 42.64788797791815], [-70.73690570889454, 42.64809268660317], [-70.73764887951661, 42.64771217065094], [-70.73767802665469, 42.64722454719765], [-70.7379885609435, 42.64678772616969], [-70.73798831194352, 42.64589535637273], [-70.73835856910263, 42.64578189117148], [-70.73870013509045, 42.64599288222672], [-70.73867050671782, 42.647434771668266], [-70.73916688606481, 42.64773342973922], [-70.73925944634647, 42.647957416942646], [-70.73913611715173, 42.64816646990449], [-70.73857814976749, 42.64839123131982], [-70.73857869457214, 42.64859829117774], [-70.73879568156507, 42.64871225148716], [-70.74084035744356, 42.64848263792508], [-70.74149074979034, 42.64871591360154], [-70.74111995707125, 42.64963172793525], [-70.7406553121983, 42.650017463677145], [-70.73938525002906, 42.65022573576457], [-70.73901435723158, 42.65079944982681], [-70.7386115671321, 42.650796229203415], [-70.73662765734785, 42.65006069322366], [-70.73539566229455, 42.6492670837863], [-70.73325020679377, 42.64913020801569], [-70.73287756368393, 42.64881152346399], [-70.73235140875941, 42.64867524279999], [-70.73235023815457, 42.64839615900449], [-70.73337328144248, 42.648444029675304], [-70.73380730574172, 42.647914638672454], [-70.73380712288964, 42.64761698935721], [-70.73269010794587, 42.64693158367205], [-70.73210256723814, 42.64764337548949], [-70.73179272203477, 42.647801109375465], [-70.73021259951967, 42.6481225582006], [-70.73024403468996, 42.64835626430769], [-70.73064770377987, 42.648629593679374], [-70.73036881217907, 42.648967011766864], [-70.72866320540517, 42.648920753609715], [-70.72853974822, 42.64832801791735], [-70.72804367697366, 42.64775924225953], [-70.72776403473699, 42.64706924354286], [-70.72674247162394, 42.64677883359283], [-70.72658723869365, 42.64706924928627], [-70.72655703031562, 42.64834908885736], [-70.72618524267187, 42.64883216506213], [-70.72531759014944, 42.648854483617235], [-70.7251940417979, 42.64938761794694], [-70.72491521737902, 42.64949996205286], [-70.723490382857, 42.64952190386643], [-70.72314912784773, 42.64931987241823], [-70.72287047227516, 42.649386642303625], [-70.72274694954268, 42.64988432256896], [-70.72249815679083, 42.65009533176281], [-70.7220035528936, 42.650120693344725], [-70.72138378809754, 42.65000398790061], [-70.72057761453844, 42.64906117134066], [-70.7199264959894, 42.648954374215165], [-70.71977122880297, 42.64828996127685], [-70.71927547738866, 42.64785617759288], [-70.71911969849991, 42.64680408669885], [-70.71825301052914, 42.646934388210056], [-70.718314471345, 42.64714073554117], [-70.7186874055065, 42.647306427789744], [-70.71859334777423, 42.64757755822313], [-70.71667253105765, 42.647372681974865], [-70.71676532979326, 42.647785741237996], [-70.71822212889003, 42.64828624197248], [-70.71816077840481, 42.648746636065546], [-70.71967972747643, 42.64998461509576], [-70.71949391449924, 42.65055558341739], [-70.71949363974903, 42.651807481247964], [-70.7198656442305, 42.652081192417015], [-70.71983492089038, 42.65231561593778], [-70.71915414503755, 42.653091980270105], [-70.71878290980212, 42.65327795534744], [-70.71757410555057, 42.65320620120117], [-70.71698484962438, 42.65363826150634], [-70.71807024579755, 42.65407266968172], [-70.71754354199481, 42.654531038056604], [-70.71683176593508, 42.65457742207945], [-70.7168315183473, 42.65481204224698], [-70.71757436629392, 42.65533246468091], [-70.71754454325556, 42.65558489841149], [-70.71686236034694, 42.65570349364107], [-70.71748230092967, 42.656207329147755], [-70.71720399658496, 42.656734337813276], [-70.71646040303358, 42.656456974291174], [-70.7152511921605, 42.65531333508598], [-70.7154363543356, 42.65339144357817], [-70.71521939139856, 42.652727731584086], [-70.71475426442733, 42.65261822560835], [-70.71490980850972, 42.653714773399805], [-70.71425925225624, 42.6544451768112], [-70.71422825053192, 42.65531088482852], [-70.71407374375156, 42.65547525410524], [-70.71323685454621, 42.655406541959515], [-70.71317491047508, 42.654813083657395], [-70.71345378059654, 42.65415105124167], [-70.71202772241412, 42.652983394382474], [-70.71016790430006, 42.653191257028624], [-70.7124618016604, 42.65386859453007], [-70.7125546028118, 42.65437168102547], [-70.71205937242803, 42.65499172513912], [-70.71227673240124, 42.65559242831467], [-70.71255510609586, 42.65588577996521], [-70.71373258433466, 42.656363050440596], [-70.71481789974541, 42.65649984019853], [-70.71596393482308, 42.6573926788627], [-70.71754527112856, 42.657305495472606], [-70.718103295056, 42.65702682094754], [-70.71831935081791, 42.65666311657546], [-70.71819468526608, 42.65522357448773], [-70.71859732201673, 42.65444251780149], [-70.71986746948986, 42.65396440957209], [-70.72039410198444, 42.654217214630535], [-70.72079731716687, 42.654742643377695], [-70.72182191362161, 42.65840341309204], [-70.72182271986544, 42.659448258896376], [-70.72132750529298, 42.660410433826506], [-70.7200889141771, 42.6612854449127], [-70.72018203310073, 42.66281536036301], [-70.71981010407133, 42.6632989809653], [-70.71940730837672, 42.66341273440471], [-70.71863311278912, 42.663505404014565], [-70.71751653256129, 42.66329754549053], [-70.71398314964672, 42.661693074389476], [-70.71199927660396, 42.661011133349504], [-70.71113240932887, 42.660258016822404], [-70.7105740677635, 42.65997850435223], [-70.70576987106705, 42.65810458577597], [-70.70192643408872, 42.65689203266075], [-70.69436568815809, 42.65563493035406], [-70.69290946331976, 42.65526972910879], [-70.69232085131563, 42.65545804427958], [-70.69225904542733, 42.65602701855525], [-70.69194924980523, 42.656229658847984], [-70.69095777764029, 42.65620865965156], [-70.69021304451103, 42.655111326112376], [-70.68953212206875, 42.65495013427535], [-70.68978001929872, 42.65401899102511], [-70.6890979958642, 42.653146034653], [-70.68798322860087, 42.65293733372521], [-70.68689859571647, 42.6531693976056], [-70.68637194418717, 42.6527808342562], [-70.68600003309383, 42.65127311597249], [-70.685721180469, 42.650997700534006], [-70.68472881273867, 42.65111166932765], [-70.68345886915064, 42.65026546994462], [-70.68268444361271, 42.65006081434771], [-70.68054713700081, 42.64865985815732], [-70.67998861039631, 42.64809154661357], [-70.6799886816141, 42.647676873712506], [-70.68026807697368, 42.64696990889572], [-70.68088721888829, 42.64651067082022], [-70.68150762409789, 42.6463935337008], [-70.68379941933357, 42.64660273323376], [-70.68457439757839, 42.64687940578383], [-70.68510083327699, 42.64680884931], [-70.6848534777453, 42.64660511525315], [-70.68485292409721, 42.646353041221715], [-70.68609285512542, 42.64592009273812], [-70.68664994266959, 42.646101257137865], [-70.68634069086367, 42.64717768750728], [-70.68714562840844, 42.64720192546123], [-70.68730134236414, 42.646622917706964], [-70.68776600070574, 42.64779595197424], [-70.68832372400057, 42.647544425484554], [-70.68965564006173, 42.64742604719848], [-70.6884476249725, 42.64724539560675], [-70.68770339772433, 42.6460315799447], [-70.68717719970718, 42.64575949660467], [-70.68615483918256, 42.64557675070644], [-70.68603076856603, 42.645416640349964], [-70.68640228675592, 42.6448881092704], [-70.6868364405687, 42.64490917078558], [-70.68751757953238, 42.64534045650782], [-70.6888182145275, 42.64575358297822], [-70.68909744761565, 42.64614546849274], [-70.68962441453333, 42.646209932708736], [-70.69083267537515, 42.645984894266675], [-70.69210301727679, 42.64552452890146], [-70.69290867208107, 42.645638756855476], [-70.69327997080974, 42.645479863187305], [-70.69368310864479, 42.6458703519248], [-70.69408619135928, 42.645729124333954], [-70.69442734377627, 42.64515646896225], [-70.69420970773706, 42.644475262554806], [-70.69380715181553, 42.64403976699534], [-70.69377584821908, 42.64350840087194], [-70.69290888755981, 42.642827726901864], [-70.69287724316482, 42.642530981255206], [-70.69321802714848, 42.64246246680487], [-70.69343452931324, 42.64198178617925], [-70.69393061050428, 42.641658907562196], [-70.69408514189944, 42.64140453946362], [-70.6938371888901, 42.64133641599153], [-70.69386886189906, 42.64106543638443], [-70.69420863122737, 42.64101547514026], [-70.69771037645768, 42.64216122537496], [-70.69783423620159, 42.641592109887554], [-70.69665674269221, 42.64090705652742], [-70.696439776314, 42.64035132613024], [-70.69634602117657, 42.63996525848095], [-70.69681114166802, 42.63913913675145], [-70.69749287053783, 42.63925471343189], [-70.69749236032128, 42.63971383796611], [-70.69836045094715, 42.64000738712946], [-70.69879484496474, 42.63994681587715], [-70.69888701280654, 42.639621114096244], [-70.6999397666868, 42.63932626745627], [-70.70028083702111, 42.638933643914136], [-70.70018735618383, 42.6378628231734], [-70.70031209623802, 42.637491765898226], [-70.69966132777492, 42.63742986812685], [-70.69966106726056, 42.63724025534764], [-70.70086854056838, 42.637150145035996], [-70.70136420758121, 42.63694426437249], [-70.70161210877282, 42.63662526335686], [-70.70127147728873, 42.63623411699172], [-70.70077616322425, 42.63623294182072], [-70.69975361031179, 42.63664447976302], [-70.69913419686117, 42.63582433393466], [-70.699381622276, 42.63470410982514], [-70.6988861535876, 42.634387269907506], [-70.69888609001853, 42.63415264567517], [-70.6991955397487, 42.633607320779724], [-70.69860644146831, 42.63328308746382], [-70.69860718033664, 42.63289541672821], [-70.69888628541311, 42.6325490719151], [-70.69888592229024, 42.632098375747354], [-70.6996909761942, 42.6318884627479], [-70.69972085446912, 42.631635473583096], [-70.69894641264207, 42.6316559877649], [-70.69894676528341, 42.6313589066547], [-70.70086810110934, 42.6309699099322], [-70.70136344646626, 42.631205718172616], [-70.70204485709806, 42.63124981353205], [-70.70195231322616, 42.63190860942529], [-70.70306618675647, 42.6323422271764], [-70.70312877972619, 42.63275564983283], [-70.70337651529427, 42.63277930674601], [-70.70371735843698, 42.63227864079284], [-70.70371822395738, 42.63199900130868], [-70.7026021086196, 42.63177243245507], [-70.70260248625657, 42.63159238450408], [-70.70300502307477, 42.63115403873482], [-70.7037489701467, 42.63095379476908], [-70.70374812045995, 42.63071916499846], [-70.70337654019349, 42.63051798010951], [-70.70195137730325, 42.630719143741864], [-70.70139400121731, 42.63062864211237], [-70.70133183846681, 42.63006217806008], [-70.70058889757854, 42.63042445005888], [-70.70037184616932, 42.6302654033364], [-70.70034094380914, 42.630058698273764], [-70.70108382236289, 42.62946179434333], [-70.7010833969232, 42.62916470771525], [-70.7008362403258, 42.62909660423582], [-70.70027804111389, 42.62967227908304], [-70.6996903674918, 42.629717155553486], [-70.6993813206935, 42.63035251040421], [-70.69823521302715, 42.63045034049725], [-70.69795578281803, 42.63177908313974], [-70.69761542603769, 42.63173002324054], [-70.69736786367034, 42.63127423351122], [-70.69690289782308, 42.6312271143437], [-70.69594266626143, 42.631565906481185], [-70.69544798307626, 42.63124906569013], [-70.69510688256746, 42.63149706787146], [-70.69423908877312, 42.63172620893282], [-70.69358858422578, 42.63221343293071], [-70.69213308912701, 42.63219032595007], [-70.69083157569543, 42.63269604414449], [-70.69064596318852, 42.63246462091061], [-70.69117169927979, 42.63184431047117], [-70.69250481717242, 42.631635326006425], [-70.69269081174025, 42.63145207405576], [-70.6934027933882, 42.63145929860716], [-70.6936809470135, 42.630653829933365], [-70.69330976510707, 42.63054208245866], [-70.69179234647372, 42.63083474368526], [-70.69135806994979, 42.63044516211426], [-70.6913267037156, 42.63024744473914], [-70.69256602678834, 42.629625378505466], [-70.69272111043898, 42.62941546087788], [-70.69265885161352, 42.6290110365422], [-70.69207041459457, 42.62864119363144], [-70.69213230507255, 42.627974312685815], [-70.6916367520719, 42.627521843398696], [-70.69067660046994, 42.627589957828754], [-70.69039744718434, 42.62731510712156], [-70.69033590271343, 42.626441995203116], [-70.69008807142082, 42.625806135611725], [-70.69005737855167, 42.624460605064044], [-70.6904906491868, 42.62388691160774], [-70.69052120595454, 42.62302119629572], [-70.69067704078277, 42.62281185348263], [-70.6910788369202, 42.62267062735379], [-70.69145060359871, 42.623089032012864], [-70.69188365580874, 42.62315395552079], [-70.69253450260477, 42.622604291954275], [-70.6931227113658, 42.622541441832794], [-70.69380399713657, 42.62294568818874], [-70.69488797523796, 42.62301964360362], [-70.69513699137578, 42.62317836585558], [-70.69417575380503, 42.62363416959805], [-70.69420722224092, 42.62468768830987], [-70.69476550584497, 42.62464319322471], [-70.69516770334153, 42.62432190462582], [-70.69569374179909, 42.62429631080214], [-70.69649920818374, 42.62455454685432], [-70.6971191706649, 42.624572362039636], [-70.69755163960589, 42.62438575578797], [-70.69770788068983, 42.62393333758759], [-70.69845025919341, 42.62421025220528], [-70.69944212949501, 42.624339791337576], [-70.70033980915139, 42.62495705811229], [-70.70148612750232, 42.624804635699064], [-70.70207454818708, 42.625147423187336], [-70.70464544869105, 42.62510044551341], [-70.7044902287869, 42.624661069621375], [-70.70300380472725, 42.62438580502623], [-70.70297194246764, 42.62413408097144], [-70.70331298425168, 42.62379546244449], [-70.70331251203275, 42.62347136741187], [-70.70312615626024, 42.623356982736674], [-70.70204301298845, 42.62351717685356], [-70.70173304652833, 42.623386748516474], [-70.70173292896732, 42.62276501343026], [-70.70266243780988, 42.62246252966516], [-70.702847606268, 42.622189797161525], [-70.7029718950183, 42.62136804652304], [-70.70359033721739, 42.62114218054271], [-70.70318801387592, 42.61940078633174], [-70.70467464464294, 42.61928837398999], [-70.70572674236229, 42.618713824268646], [-70.7083282859319, 42.618783452190655], [-70.70879348679763, 42.61853344333154], [-70.70869989642289, 42.618372448528824], [-70.70767849248499, 42.61823434112976], [-70.7066861242847, 42.6176367353158], [-70.70585050278075, 42.61747794843924], [-70.70581959586643, 42.61727067692661], [-70.7062224889388, 42.61688690381998], [-70.7055408633118, 42.61617607329857], [-70.70538490108422, 42.61461980632448], [-70.70668541787335, 42.613519180946795], [-70.70693299311463, 42.612974542296286], [-70.7075828439555, 42.61251424562294], [-70.70761309553568, 42.61144145409022], [-70.70714884808231, 42.6115294185395], [-70.70631438879893, 42.61294778572016], [-70.70464123419995, 42.61399970290952], [-70.70439480330823, 42.61430127504673], [-70.70374406259553, 42.616545181991356], [-70.70272336916268, 42.618281261741274], [-70.70055470638178, 42.61970105330631], [-70.70024543314395, 42.62104817086704], [-70.69972005753655, 42.62189414800394], [-70.69925499159105, 42.62218913420226], [-70.69866671203589, 42.62228802523527], [-70.69745853376403, 42.62212546727771], [-70.69724147661262, 42.62202999005454], [-70.6970558842959, 42.62152793246528], [-70.6968082358704, 42.621441811427275], [-70.69631325732281, 42.62160210659677], [-70.69584839345104, 42.62205968486687], [-70.69550789385178, 42.62205563004797], [-70.69529065833024, 42.62182455130261], [-70.69532194159537, 42.62146354144297], [-70.69652940370356, 42.62102237808978], [-70.69736596472204, 42.61997376976894], [-70.6969322835387, 42.61915152133286], [-70.69609491017498, 42.61910068255681], [-70.69491854161727, 42.61979356290628], [-70.69494999082775, 42.62034293874626], [-70.69457883923901, 42.62059186463475], [-70.6943303877742, 42.62134297121238], [-70.69405263668772, 42.62134721803575], [-70.69361880330617, 42.62086705374622], [-70.69265890256085, 42.620566080541806], [-70.69176021563014, 42.62075053210401], [-70.69182193139936, 42.620245136636626], [-70.69117100368061, 42.61878609703854], [-70.69067623457151, 42.618189586078195], [-70.69064517066474, 42.61761320341396], [-70.68553476343112, 42.61821139856369], [-70.68547267036492, 42.61800502656415], [-70.68603112884512, 42.61750144350046], [-70.68606147407137, 42.61727546746875], [-70.68572085782597, 42.61683924970879], [-70.68565882953004, 42.61612817516038], [-70.68541155491909, 42.61601502415793], [-70.68500824394334, 42.616128645027715], [-70.68488414721287, 42.61677032883244], [-70.68333712820854, 42.61725229069884], [-70.68333617532473, 42.61697320376201], [-70.68281080563445, 42.61674667322518], [-70.68290305535264, 42.616565023555594], [-70.68463681521213, 42.61571978129544], [-70.68466810551712, 42.61553882510217], [-70.68373876335214, 42.61553507766651], [-70.68367747990078, 42.615121083422295], [-70.68333691100752, 42.61503596861922], [-70.68308922971616, 42.615219895234645], [-70.68299670402108, 42.61571719202327], [-70.68265527074459, 42.61587513909457], [-70.68206684394127, 42.61581133067491], [-70.68150898238197, 42.616180418466286], [-70.6814165499659, 42.6173439152121], [-70.68020871167923, 42.617136723199046], [-70.68017736794458, 42.61691143592944], [-70.68085966064042, 42.61628891402996], [-70.68095194002039, 42.61601724014603], [-70.68058049998571, 42.61578841495615], [-70.6799299440376, 42.615698830458335], [-70.67993021150129, 42.61523914185406], [-70.68033356383437, 42.61503550399857], [-70.68150920048501, 42.61499095240694], [-70.68206684989657, 42.61466743419014], [-70.68215982710375, 42.61445878237336], [-70.6819429005191, 42.61420967445722], [-70.68110715996231, 42.6141863129068], [-70.68085896849487, 42.6139105315484], [-70.68163420042544, 42.613637514724836], [-70.68200558008687, 42.612902491105224], [-70.68138632599826, 42.61272199393671], [-70.67977588215872, 42.613313173229045], [-70.6794346321812, 42.61293151422429], [-70.68002351158394, 42.61249006848367], [-70.68014723509143, 42.61228951372793], [-70.68005410957768, 42.61201202244083], [-70.67903314884036, 42.61153157337905], [-70.67825876371069, 42.61162396853795], [-70.6779795453459, 42.61139354001977], [-70.67739075026445, 42.61142028898252], [-70.67522467365617, 42.610434248193776], [-70.67392400021028, 42.609651283690354], [-70.67389305301457, 42.60942656402282], [-70.6760298256431, 42.60851231141682], [-70.6767728850017, 42.60798758237827], [-70.67742285925095, 42.60686069341098], [-70.67745366738941, 42.60645466960237], [-70.67717529537242, 42.60604475933365], [-70.67593627150654, 42.60564824291353], [-70.67562821658802, 42.605238116864335], [-70.67593725719868, 42.60499050005658], [-70.67711331978342, 42.604666916011745], [-70.67733015820622, 42.60439331393468], [-70.6772688733095, 42.60418694213902], [-70.67680394843062, 42.60397769312286], [-70.67652521528007, 42.603450176936356], [-70.67661905473395, 42.60320552449156], [-70.67742335244768, 42.60268010229709], [-70.67801112985855, 42.602608333277075], [-70.67881659847625, 42.602839688937884], [-70.6794672292046, 42.60276723420895], [-70.68132521041525, 42.60192010548864], [-70.68197405584743, 42.60116285695676], [-70.682501874442, 42.600046334965576], [-70.68262541305856, 42.599035538544854], [-70.68482399298416, 42.597075004672], [-70.6852255412941, 42.59641164400474], [-70.68519522768497, 42.594573765490786], [-70.68547443128358, 42.59318200899106], [-70.68497844604192, 42.59340582517748], [-70.68408038417786, 42.59448204966148], [-70.6838949514308, 42.59574617777441], [-70.68339889236069, 42.596267073899426], [-70.68281118023148, 42.5963388704824], [-70.6826567205837, 42.59615209748262], [-70.68259533402644, 42.59574711100295], [-70.68185175259347, 42.59503738648568], [-70.68148060813935, 42.59370967349151], [-70.68144884886588, 42.593223305064946], [-70.68228451977257, 42.592057757299834], [-70.6831524743124, 42.59130655398137], [-70.68398849942442, 42.591167866239324], [-70.6845761318063, 42.59139314195936], [-70.68522554961656, 42.59137466277502], [-70.68544303681696, 42.59119164324993], [-70.68544198850557, 42.59006517852568], [-70.68519530043862, 42.58959135609028], [-70.68445154511086, 42.58901612725453], [-70.68442145482969, 42.58869294416657], [-70.6846066580848, 42.58835665274777], [-70.6852880384583, 42.587896134385694], [-70.68575215245701, 42.587276541952455], [-70.68668111449986, 42.58677612427895], [-70.68717608790696, 42.58618318434219], [-70.68770254418303, 42.58613006562171], [-70.68921903004816, 42.58677484842876], [-70.68974476472614, 42.586748723297575], [-70.6905188726598, 42.58638617089951], [-70.69132358195209, 42.5855359914392], [-70.69420263355717, 42.58317773984856], [-70.69516145906243, 42.58146097709044], [-70.69608951150731, 42.58078043321103], [-70.69664694791548, 42.58011417375755], [-70.69698672676076, 42.57899232947238], [-70.69788401003724, 42.578122500774235], [-70.69791476649475, 42.57741037769102], [-70.6983485123467, 42.57709773047935], [-70.69952390115905, 42.57656685364932], [-70.70032942168176, 42.57647340854406], [-70.70094765389315, 42.576680818105366], [-70.70184496112508, 42.576433259895246], [-70.70240205499825, 42.57683942298502], [-70.70289807639566, 42.576868165505076], [-70.70391878959504, 42.57595187853324], [-70.70441391652787, 42.575718972653156], [-70.70527998440801, 42.575471739660706], [-70.70630115824004, 42.57542080806675], [-70.70732249315542, 42.57496363185717], [-70.70908672458401, 42.5745768008384], [-70.70945743800438, 42.57409376363443], [-70.70942649509608, 42.573040238467], [-70.70970437586361, 42.572675282655844], [-70.71038603919399, 42.572467260601044], [-70.71153116564331, 42.57242332495943], [-70.71276828274063, 42.57205309132792], [-70.71478022135882, 42.57251862512645], [-70.71524474067687, 42.57308838617952], [-70.71558469633104, 42.57446192118862], [-70.71549152188315, 42.57546451807088], [-70.71580391620545, 42.575810993204115], [-70.71553306819406, 42.5771111626406], [-70.71723004765512, 42.581405139736006], [-70.72231581742179, 42.583801020727066], [-70.7319070432976, 42.58725698449777], [-70.74051283601453, 42.589983769741316], [-70.74309295952904, 42.594846921774455], [-70.74572291646294, 42.599350796349945], [-70.76675095028301, 42.59854493943314], [-70.78625999724932, 42.59690100781311], [-70.80079705239018, 42.59532394040261], [-70.8012219737737, 42.602022142074325], [-70.80969091280961, 42.60764619552848], [-70.81152197679954, 42.611222113362764], [-70.81584607052922, 42.61847173782416], [-70.81849701451085, 42.62178174270365], [-70.81859595696325, 42.62490786726541], [-70.81173598154714, 42.6251018136153], [-70.81210698423254, 42.63405300945416], [-70.81255198915368, 42.63908013055567], [-70.81283402155314, 42.64036690170977], [-70.81667108890284, 42.64123026008856], [-70.81435497055251, 42.646611778724775], [-70.81484394652779, 42.6466422537275], [-70.8158380231356, 42.64702624444634], [-70.81290694873388, 42.6480188013797], [-70.81030593681902, 42.64941780381091], [-70.80994695350101, 42.65061579447586], [-70.80850302133642, 42.652066105164664], [-70.80822097155753, 42.65227709798453], [-70.80778601820465, 42.652303192728695], [-70.80783805629405, 42.6525617555335], [-70.8076229491116, 42.65287104865978], [-70.80791490252781, 42.65394407972839], [-70.8074179748841, 42.65456283295028], [-70.80579802999382, 42.6547657932724], [-70.8053279895617, 42.654361237782005], [-70.80431196294849, 42.65490707857791], [-70.80347701265592, 42.65489811476352], [-70.8033950762248, 42.655120987644494], [-70.80386402290216, 42.655365752320705], [-70.80375105465681, 42.65589677854973], [-70.80290006050738, 42.65614709018325], [-70.80295291293386, 42.656554198926834], [-70.80123398424696, 42.65684427149512], [-70.8006850068233, 42.657216241234295], [-70.80035003660812, 42.65705723038221], [-70.79992797907227, 42.656417198596124], [-70.79919392995129, 42.65665412074593], [-70.79849701012067, 42.657236171377505], [-70.79819603816597, 42.657224783412225], [-70.79802701073618, 42.656967189264], [-70.79844007446857, 42.656274264699654], [-70.7978360602776, 42.656078170398075], [-70.79644891881459, 42.656145128168056], [-70.79629308579034, 42.655219743527546], [-70.7958569392992, 42.65506123753008], [-70.79547594861751, 42.655457270429224], [-70.79541294555968, 42.65601278291658], [-70.79390998002928, 42.65622810127058], [-70.79434900338462, 42.65679399848703], [-70.79550302119712, 42.657073919567566], [-70.79600705393266, 42.65741795603268], [-70.79581105836765, 42.65807280945127], [-70.79407493961384, 42.65832610347337], [-70.79496508564091, 42.65889080970333], [-70.79525397812304, 42.65969208985594], [-70.79441899034008, 42.659732006611364], [-70.79339492044674, 42.65909390048896], [-70.79237504557751, 42.65894924856012], [-70.7907759637036, 42.65967088821283], [-70.7904630144299, 42.66039984232759], [-70.79085103980479, 42.660856285317315], [-70.79140291712892, 42.66101383597509], [-70.79310595207741, 42.66076094657532], [-70.79400703774755, 42.66300409903225], [-70.79364097347442, 42.66320273178445], [-70.79300608766574, 42.66320503426105], [-70.79318197659401, 42.662070129714], [-70.79282901422107, 42.66171293539501], [-70.79017299984666, 42.66188289322337], [-70.78904309794247, 42.66283694979536], [-70.78861501348428, 42.66371485426386], [-70.78901707169781, 42.663824798535224], [-70.79028493024906, 42.66363509764035], [-70.79043699358657, 42.66375700501837], [-70.79052403521946, 42.6643871370985], [-70.78927998492551, 42.66572421994881], [-70.7891750728736, 42.667453151075215], [-70.78897791781476, 42.66789812165184], [-70.78675501948533, 42.6678191583301], [-70.78512465582678, 42.6682158748443], [-70.78394553591419, 42.66992802400308], [-70.78295468833711, 42.670132311083265], [-70.7808462382201, 42.67095812212779], [-70.77762134825808, 42.6729899794883], [-70.77461566774733, 42.672325805046675], [-70.7745226607251, 42.67189479214324], [-70.77523586374751, 42.67150541369417], [-70.77570123338641, 42.670885485357864], [-70.77597925005233, 42.67072799364687], [-70.77749898973873, 42.67061428821168], [-70.77765400956407, 42.67047684601885], [-70.77765384762992, 42.67024221679652], [-70.77740601223148, 42.67012926358946], [-70.77591817148962, 42.67028762119234], [-70.77598119904295, 42.66974619151623], [-70.77554664438573, 42.66921288792206], [-70.7751745907544, 42.66944349122188], [-70.7751424499145, 42.67038065956885], [-70.77387198519763, 42.6716887206607], [-70.77040077340186, 42.67100406363075], [-70.76984260777479, 42.67067983012537], [-70.7686658731277, 42.6704732134247], [-70.76782876074151, 42.669828179140154], [-70.76770544432989, 42.669533137786054], [-70.76786072648586, 42.66908006045577], [-70.7671475569936, 42.66905528541255], [-70.7663409089965, 42.66980693346212], [-70.76627872302723, 42.67010474189255], [-70.76593858759145, 42.67030851117942], [-70.76525536773858, 42.67026478474415], [-70.76482254248808, 42.67006398058913], [-70.76457446760259, 42.670104038331715], [-70.76451256202378, 42.67031238216506], [-70.76519308955122, 42.67177903554803], [-70.7655028645433, 42.67207133039673], [-70.76640222918421, 42.671643236486126], [-70.76689808842173, 42.671572113113484], [-70.7679823262669, 42.67173596786032], [-70.76785792904964, 42.67200750115069], [-70.76689661473888, 42.6727795443665], [-70.76674148387865, 42.67316903732959], [-70.76615301612468, 42.67344831866035], [-70.76249546617308, 42.673486931037566], [-70.76206182233712, 42.67340370036219], [-70.76150314843996, 42.672962392830456], [-70.76125550592867, 42.67302889518287], [-70.76100617002368, 42.674149777917854], [-70.75998385254863, 42.67440880691571], [-70.75852750923642, 42.67401744124014], [-70.75694864034128, 42.671960949104594], [-70.75524419475845, 42.67069865052262], [-70.7540365072585, 42.670357216738694], [-70.7530139715718, 42.66985098122433], [-70.74910508625872, 42.66898843161247], [-70.74799799724882, 42.66790657460876], [-70.74820235078292, 42.667871894508764], [-70.74781700543988, 42.66753179794953]]], [[[-70.69699632359006, 42.63250556538341], [-70.69718253025668, 42.6328720203287], [-70.69708883794877, 42.63328773611341], [-70.69637596012332, 42.633766664762234], [-70.69628389994297, 42.63417338865342], [-70.6976158134702, 42.634270989795795], [-70.69761539432788, 42.63648673276236], [-70.69783325456562, 42.63676338077595], [-70.69749239153309, 42.63767814481016], [-70.69724504048807, 42.6378621031395], [-70.69653210551479, 42.63777387350786], [-70.6961908076104, 42.638183931534755], [-70.69554090694128, 42.63811301410829], [-70.6952935519069, 42.637909292853], [-70.6945190314882, 42.63792977731291], [-70.69399231285978, 42.63752324078719], [-70.69368242854273, 42.63759084779681], [-70.693960809746, 42.63801928487492], [-70.69454994048826, 42.6383435504956], [-70.69454991246661, 42.638613625812184], [-70.69380646548488, 42.63870634233652], [-70.6935893893641, 42.63902441659202], [-70.6929387513216, 42.63907051216166], [-70.69293914598514, 42.63927757280384], [-70.69324946708224, 42.63944403622599], [-70.69306302106288, 42.63969030323261], [-70.69318692025244, 42.64040011657829], [-70.69250574572605, 42.640923687869915], [-70.6914520055758, 42.641290489250046], [-70.68835387250893, 42.64127382417591], [-70.6881063041851, 42.64120569105708], [-70.68810709318248, 42.640908055406626], [-70.6887259101534, 42.64058324360159], [-70.68866381948818, 42.6404044496863], [-70.68736268406492, 42.64021637948278], [-70.68717664362613, 42.640813738180505], [-70.68692939564747, 42.6410156803027], [-70.68541084899617, 42.641020170202545], [-70.68516311756206, 42.64058236811118], [-70.68599973223704, 42.63920975478586], [-70.68686650980587, 42.63918772609153], [-70.6871146681919, 42.63891377025945], [-70.68751722701468, 42.6387815643283], [-70.68804399217863, 42.63882746272106], [-70.68795093842883, 42.638567986117906], [-70.68736305500981, 42.638504777633194], [-70.68655723580912, 42.63870559725759], [-70.6866190287992, 42.63843483129062], [-70.68695998738744, 42.638204291096585], [-70.68702180139687, 42.63784294161687], [-70.68816811033041, 42.637771663769676], [-70.68853994504026, 42.63736128539178], [-70.68931404953636, 42.63772794670249], [-70.68984116650321, 42.63765681562899], [-70.68953130866484, 42.63733730315961], [-70.68946960051409, 42.63683328691177], [-70.68912905334098, 42.636559695862914], [-70.68884912161587, 42.63649133693737], [-70.68816777031803, 42.636970436519405], [-70.68776569603718, 42.637066079839464], [-70.68788978839483, 42.63610030572863], [-70.68878776468287, 42.636077915071574], [-70.68878741377053, 42.63589786201256], [-70.68819948548803, 42.63545598377479], [-70.68813742220726, 42.63497953869921], [-70.6884158876733, 42.63436257125707], [-70.6895309413905, 42.63351740984], [-70.69024360975511, 42.63344363569899], [-70.69089346947113, 42.63363218322596], [-70.69126525929498, 42.63331125372308], [-70.69194710090075, 42.63317480268857], [-70.6920092013871, 42.63275999516539], [-70.69327926714386, 42.633488507599516], [-70.69355771061142, 42.63388093664748], [-70.69442514419775, 42.63344418175338], [-70.69420810940063, 42.632420880509486], [-70.69498209098347, 42.6318411123762], [-70.69699632359006, 42.63250556538341]]], [[[-70.75867091116827, 42.64955942518846], [-70.75867121156317, 42.64985707427148], [-70.75777214982263, 42.650636196750774], [-70.75597442122901, 42.6515113734516], [-70.75501385972983, 42.65167004565252], [-70.75380538358252, 42.65155365155224], [-70.75337165671144, 42.65129878189704], [-70.75331021256706, 42.650840386454774], [-70.75386876341375, 42.65012942698856], [-70.75445686434925, 42.649931235683574], [-70.75644054408842, 42.64992769678256], [-70.75699825861075, 42.64955880910131], [-70.75826964414132, 42.6478902755851], [-70.75876612592401, 42.6476217054008], [-70.75944801985997, 42.647529860015176], [-70.75988144785165, 42.647730132532786], [-70.7596632404165, 42.64917530753589], [-70.75867091116827, 42.64955942518846]]], [[[-70.76787327087092, 42.651056236524134], [-70.76808892542479, 42.65242203502145], [-70.76688035610634, 42.652539839986964], [-70.76663228011479, 42.65229182481345], [-70.76663335393953, 42.6519221746561], [-70.7669741756508, 42.65142132756066], [-70.76700525922433, 42.65114188281478], [-70.76675774033042, 42.65073126970545], [-70.76691230752614, 42.65054882627598], [-70.76712891551118, 42.650455107849886], [-70.76743943825181, 42.650576358966745], [-70.76787327087092, 42.651056236524134]]], [[[-70.76074518775908, 42.65168940905264], [-70.76207741595523, 42.65201075863929], [-70.761736040324, 42.65253859516942], [-70.76111668296288, 42.653061844681694], [-70.75993860106878, 42.6529991657043], [-70.75969077038289, 42.65265154335531], [-70.75863791199865, 42.65244280585275], [-70.75870081665583, 42.6521984517176], [-70.76071627505642, 42.65082499193296], [-70.76111837193727, 42.65093616008638], [-70.76074518775908, 42.65168940905264]]], [[[-70.74976427651394, 42.652799643648166], [-70.7491180970228, 42.6533738520924], [-70.74911779140824, 42.65367148819645], [-70.749304003205, 42.65387581973112], [-70.75017761465531, 42.65415887449808], [-70.75073418100676, 42.65514093950033], [-70.75187939682031, 42.65601484185819], [-70.75212716725072, 42.65683116391484], [-70.75200299558752, 42.65711224368898], [-70.75169261866434, 42.65731503905142], [-70.74995649820342, 42.65774715235381], [-70.7496779485981, 42.657724530507245], [-70.74946287522447, 42.6571255988093], [-70.74874928319109, 42.65703768959155], [-70.74828567613469, 42.657287867583996], [-70.74828515159601, 42.65760350674533], [-70.74887437347998, 42.657765447488046], [-70.74890647816136, 42.65826922396454], [-70.74850316118058, 42.65854624370735], [-70.74760399307755, 42.65865910765773], [-70.74633446683883, 42.65919210492817], [-70.74614856014121, 42.65985201119884], [-70.74664541181573, 42.660790934250535], [-70.74636728595038, 42.6610833914292], [-70.74379553504738, 42.66111385440025], [-70.74286500524593, 42.66015518991374], [-70.74199729384489, 42.65985298930315], [-70.74199580347484, 42.65943886858687], [-70.74227564719925, 42.65916387963176], [-70.7433594725481, 42.65868765952267], [-70.74357564763598, 42.65820688745378], [-70.74391694196943, 42.65800374888794], [-70.743915524788, 42.65772466475049], [-70.74298661819034, 42.65804492091546], [-70.74249080754076, 42.65788132084482], [-70.74230497412348, 42.6576139640823], [-70.74230411314252, 42.65683018989233], [-70.74171481731283, 42.6562805526959], [-70.74186789552446, 42.65502571906482], [-70.74220949330783, 42.65473256315323], [-70.74326254260797, 42.65433773093887], [-70.74354123815787, 42.65383823763642], [-70.744191255271, 42.65337774084867], [-70.74437618588058, 42.65267225969661], [-70.7457393425186, 42.65202961505904], [-70.74824877081747, 42.651999831023275], [-70.74911714047494, 42.652319995077825], [-70.74976427651394, 42.652799643648166]]], [[[-70.75742549466553, 42.65736159000347], [-70.7586657640511, 42.65695487555022], [-70.76006032192365, 42.657203502543126], [-70.76160826237715, 42.65790883925148], [-70.76201139177338, 42.658326091860495], [-70.76352934280726, 42.659059343232286], [-70.765293717053, 42.66038267237526], [-70.76541819513393, 42.660543256066894], [-70.76523107209083, 42.66161785163041], [-70.7649835466092, 42.661711927946385], [-70.76433300766665, 42.661505793100126], [-70.76275212406374, 42.661503595875054], [-70.76185435660325, 42.661138894901846], [-70.76011945460371, 42.66008521560966], [-70.75881891568623, 42.659744918451416], [-70.75686646934412, 42.65967611467685], [-70.75606018226992, 42.65928325668274], [-70.75410791048652, 42.658943777093675], [-70.75330247280598, 42.65902859962483], [-70.75423227030744, 42.659626511611826], [-70.75429330496634, 42.660040448712216], [-70.75410687937216, 42.66028568627253], [-70.7531151798151, 42.660517844808844], [-70.75193747710932, 42.66139133718982], [-70.75029398687951, 42.66195740779735], [-70.74841389139443, 42.66236718341577], [-70.74773207758285, 42.66213431141586], [-70.74770078586951, 42.661882598680215], [-70.74841311367065, 42.66153839047951], [-70.74878451692922, 42.660856622828106], [-70.75001636992168, 42.660016147360224], [-70.75029605930185, 42.65939904688321], [-70.75234243543319, 42.65839447466506], [-70.75497833207876, 42.65681412958517], [-70.75593857083946, 42.65667290201627], [-70.7566513807863, 42.65718387484936], [-70.75742549466553, 42.65736159000347]]], [[[-70.72343724168499, 42.664027849416556], [-70.72334318838931, 42.66309209119494], [-70.72346687244509, 42.662676002237944], [-70.72387015678808, 42.662336619311354], [-70.7246130446018, 42.66215368047252], [-70.72686124071457, 42.662183371555855], [-70.7241712171736, 42.66664122794802], [-70.72312804648224, 42.665699095267016], [-70.72303535690477, 42.665241041564734], [-70.72343724168499, 42.664027849416556]]], [[[-70.77204198100273, 42.672140830770154], [-70.77253838294394, 42.67278143022155], [-70.77222817308757, 42.67308387379852], [-70.76881867750205, 42.672398433208464], [-70.76872580512885, 42.672237486800384], [-70.7689745815656, 42.67143166649439], [-70.76947100670381, 42.67118104676756], [-70.76981166802403, 42.67139194590419], [-70.7698108749171, 42.67198609611181], [-70.7715784688221, 42.67198599602316], [-70.77204198100273, 42.672140830770154]]], [[[-70.6654105840664, 42.6022607932358], [-70.66500752541788, 42.60278960217199], [-70.66417232788386, 42.602765553602644], [-70.66352234719876, 42.60209915177425], [-70.66355279603509, 42.601756146409976], [-70.66460589837875, 42.60137158881679], [-70.66528653579765, 42.60150592481081], [-70.66603023220027, 42.60127892291144], [-70.66627854736787, 42.601392124092825], [-70.66624756370756, 42.60169011301205], [-70.6654105840664, 42.6022607932358]]], [[[-70.62377212941689, 42.620229953715395], [-70.62284360188022, 42.62087334590659], [-70.62213112246684, 42.62093770280254], [-70.6216355108917, 42.620665547696866], [-70.62163433457636, 42.62036788438195], [-70.62209923191072, 42.62002819353998], [-70.62246982014231, 42.61929336040437], [-70.62287315518132, 42.619134376860934], [-70.62358522129782, 42.61904300444333], [-70.62386438648294, 42.61915596322321], [-70.62401958747719, 42.619884103941786], [-70.62377212941689, 42.620229953715395]]], [[[-70.58939894698939, 42.626764434514115], [-70.59001922796831, 42.627287543233685], [-70.59184642534402, 42.627838707817276], [-70.59231099572067, 42.62803929271052], [-70.59231094107614, 42.62822834801558], [-70.59172300736344, 42.62852474793178], [-70.59166092265338, 42.62918370401872], [-70.59125914142757, 42.62925200672702], [-70.59014351709259, 42.6289163107205], [-70.58961696144391, 42.629077027315205], [-70.58918381127309, 42.6297859474927], [-70.58875029427499, 42.6301251871744], [-70.58791419454842, 42.63021818436328], [-70.58754198143367, 42.62969139816483], [-70.58775784474447, 42.62857114716295], [-70.58723168810653, 42.62804708682312], [-70.58726198248945, 42.62756005721738], [-70.58800496229517, 42.626081612169564], [-70.58850026007968, 42.625894215437164], [-70.58890317778886, 42.626167474422154], [-70.58865532523264, 42.62660384065967], [-70.58939894698939, 42.626764434514115]]], [[[-70.67509563757065, 42.6375687755987], [-70.67407249270077, 42.63873686351973], [-70.67394893746278, 42.63944155387337], [-70.67404158621518, 42.63987264549455], [-70.67357628384958, 42.64031213446773], [-70.67360784137753, 42.641275631111604], [-70.67314298470697, 42.641940175664544], [-70.67224425330835, 42.642187503138636], [-70.67345224267197, 42.64262039602425], [-70.6743821086638, 42.64223711846168], [-70.67475391087923, 42.64230335974278], [-70.67496974325387, 42.642670061707925], [-70.67531166928755, 42.642574600515616], [-70.67543623587153, 42.64225759246347], [-70.67565198812399, 42.64216403845813], [-70.67648841110174, 42.642368626330686], [-70.67679873669564, 42.64294024755182], [-70.67682853048377, 42.64436341623716], [-70.67580621788714, 42.645549528576375], [-70.67524879519922, 42.64589102233444], [-70.67431917377134, 42.64758923371887], [-70.67431845112039, 42.648021907260095], [-70.6741020397389, 42.64825049171028], [-70.67422572982804, 42.64896032340025], [-70.67369833657497, 42.64950851472302], [-70.67317153810558, 42.65056141533813], [-70.67280066410974, 42.65097231787335], [-70.67295514450034, 42.651339150404105], [-70.6736672179914, 42.650950385497644], [-70.6749066017427, 42.65147294308715], [-70.6752471517482, 42.65186417432551], [-70.67478239565659, 42.652691336549786], [-70.67484449577138, 42.654176624566176], [-70.67441013990985, 42.65466022378811], [-70.67397658266027, 42.65673895106176], [-70.67329453306826, 42.65840684336459], [-70.67177513202549, 42.660906530511944], [-70.67254973308422, 42.660670137740965], [-70.67267362503061, 42.66026253733917], [-70.67382084506197, 42.65913755769766], [-70.67416215974114, 42.657817199714444], [-70.67462643356198, 42.65737826969492], [-70.67524752991451, 42.65605371229779], [-70.67577443462291, 42.65534289929674], [-70.67608372098078, 42.654338509562116], [-70.67617729217368, 42.653013001452855], [-70.67682863583268, 42.65225524010185], [-70.67809825764817, 42.65175001038079], [-70.67905860259128, 42.65257381378617], [-70.67908956047722, 42.653005595218], [-70.67930763946923, 42.65314668294697], [-70.68119696948817, 42.652524285540125], [-70.68178615432221, 42.65296620519097], [-70.6825915458481, 42.654134351515964], [-70.68246656126225, 42.654748445036546], [-70.68181666496992, 42.654812489165984], [-70.68113507149502, 42.655408018737184], [-70.68132058152685, 42.656324210383175], [-70.68212613859757, 42.65680817138435], [-70.68181589638668, 42.65721783854241], [-70.68181573104819, 42.65799260848047], [-70.68147536359481, 42.6587542831197], [-70.67992590350009, 42.659372345667975], [-70.68011071816743, 42.66081067645835], [-70.68091710961897, 42.661087035889246], [-70.68163040956156, 42.66163504601069], [-70.68144404135096, 42.66216037028182], [-70.67955335951015, 42.66321544766828], [-70.67924367570927, 42.66349063262426], [-70.67899528979117, 42.664151674584005], [-70.67778680943889, 42.66526839084506], [-70.67651617510624, 42.665683585153666], [-70.67598887985952, 42.666069750364436], [-70.67344725054885, 42.666602434862], [-70.67245544359749, 42.66758110680047], [-70.6724873982081, 42.667905424042225], [-70.67285866562334, 42.66831431744499], [-70.67425335307473, 42.6691136971884], [-70.67425255212507, 42.670627228202704], [-70.67403570292736, 42.67073820937082], [-70.67350868104803, 42.67069223856317], [-70.67267145080446, 42.67017310921276], [-70.67257886522859, 42.66918330212259], [-70.67214468265782, 42.66918076021321], [-70.67168021647556, 42.669394616676435], [-70.67115280204722, 42.66932106668796], [-70.67090590517957, 42.66870318587691], [-70.66994510165358, 42.66767226004835], [-70.66944897611225, 42.66774240804459], [-70.66892273442065, 42.66824557173881], [-70.66827171187204, 42.66849858406641], [-70.66827149916475, 42.66897627998413], [-70.66867443695018, 42.66929482302092], [-70.67006824974203, 42.66986861847017], [-70.67019223228611, 42.670353390479285], [-70.67044036763131, 42.67053016131468], [-70.67034726875114, 42.67073880006926], [-70.66966511560085, 42.67060449133609], [-70.66706180504863, 42.66875094234134], [-70.66672207455082, 42.66904389123114], [-70.6674346166497, 42.66950195778885], [-70.6673406083461, 42.67098950342314], [-70.66693772163742, 42.67147329093194], [-70.66681287559454, 42.67217795814883], [-70.66622456028283, 42.672844398344395], [-70.66594494591946, 42.67346074119052], [-70.66526340578336, 42.67393913574218], [-70.66386798170275, 42.67362634280561], [-70.66355841656411, 42.673711876967864], [-70.66355863485154, 42.674125991172474], [-70.6642400397724, 42.674404936498725], [-70.66513864538452, 42.67506691625521], [-70.66513927212003, 42.675364568554876], [-70.6645802062432, 42.67655278568809], [-70.66355720884275, 42.67767576102812], [-70.66262745889851, 42.67814896766275], [-70.66160450477702, 42.67826308586876], [-70.66147972873993, 42.67881414726609], [-70.66061150769842, 42.67950271719585], [-70.65884476531205, 42.67897898669724], [-70.65884406070514, 42.67923161699652], [-70.65927833829865, 42.679432262669444], [-70.6593087450481, 42.6799810742559], [-70.66005339247943, 42.680096767050806], [-70.65859665023653, 42.68108206755846], [-70.65834809215164, 42.6815630136172], [-70.65800719185958, 42.68179290195043], [-70.65741785005625, 42.68181055593893], [-70.65676615258954, 42.6815863698743], [-70.65503012884898, 42.681584379814886], [-70.65456535278109, 42.68195177402442], [-70.65264267018838, 42.68270008632459], [-70.65285997215503, 42.6835529759522], [-70.65220847957445, 42.683823332459184], [-70.65152644804141, 42.683869534694296], [-70.65127775772919, 42.684440488934094], [-70.65047159065962, 42.6848126698782], [-70.64994460716721, 42.68540576541139], [-70.64960331355077, 42.68551916173753], [-70.64938555793468, 42.68512595407383], [-70.64895273394924, 42.685240367461255], [-70.64858051641353, 42.685948251671164], [-70.64848667778924, 42.68679603940612], [-70.6477730873764, 42.6875092921345], [-70.64665747169849, 42.68777788782882], [-70.64625342337972, 42.688243031012554], [-70.64631461574213, 42.68879206358142], [-70.64553982600339, 42.68903728268929], [-70.64526009330349, 42.68947408313195], [-70.64495044378995, 42.68958601627963], [-70.64414445011323, 42.689517035810695], [-70.6435240860874, 42.68892221594477], [-70.64275064400823, 42.68752785915539], [-70.64284410917895, 42.68704917266607], [-70.64324642587012, 42.68665604771837], [-70.64327818363066, 42.68634007258951], [-70.64290630217361, 42.686066685046825], [-70.64275206784617, 42.68549219438152], [-70.64241095700417, 42.685199903096084], [-70.64216325108332, 42.68510409790805], [-70.64163583747718, 42.68522003270684], [-70.64135624471373, 42.685701270392386], [-70.63977444966903, 42.687183916111714], [-70.63887481338313, 42.68743941478233], [-70.63871968299526, 42.687685268035494], [-70.6389370786988, 42.6879614615753], [-70.63800611185624, 42.68844346447977], [-70.63592811613398, 42.690752831033365], [-70.63459404835238, 42.691258242445656], [-70.63447003207578, 42.691458185323015], [-70.63356999004068, 42.69187624180006], [-70.6326400562041, 42.69194410667831], [-70.63223686484848, 42.69231018094419], [-70.63043777178764, 42.69290376138615], [-70.62761708772291, 42.692304107503844], [-70.62687330294358, 42.69187369533596], [-70.62653307591357, 42.691409750743205], [-70.6264705942705, 42.69063619434087], [-70.62606846340292, 42.690127893507], [-70.6260693823424, 42.689677778366615], [-70.62625597314346, 42.68942261899963], [-70.62607025043837, 42.68848889515082], [-70.62572985540079, 42.68823200251941], [-70.6244902762283, 42.687727487624656], [-70.62318787578107, 42.68751788025324], [-70.62309552882826, 42.688042130792006], [-70.62278560394566, 42.68822658053881], [-70.62036718549979, 42.68838712960007], [-70.61971566463228, 42.68788253464593], [-70.61959153896136, 42.687569321332646], [-70.61971488826602, 42.68673865864714], [-70.61962011199748, 42.685118052269445], [-70.6199611548968, 42.68472623294427], [-70.62002250310861, 42.68429288918865], [-70.62315158901404, 42.68136498125409], [-70.62299446076536, 42.680628404480444], [-70.62240575051987, 42.679835094976575], [-70.6224044996502, 42.67918634006022], [-70.62221846588038, 42.678828771570245], [-70.62165982407718, 42.67834120310979], [-70.62054238400633, 42.67686136817097], [-70.62066621765965, 42.67607571798694], [-70.62116221395078, 42.67607779758831], [-70.62150364838895, 42.67699189462459], [-70.62265192318208, 42.6779306889789], [-70.62296183513872, 42.67793529134459], [-70.62342507279877, 42.67733394640289], [-70.6234257103401, 42.67663119948111], [-70.6229288965316, 42.67633203244617], [-70.62240115051536, 42.675763120939926], [-70.62212241323407, 42.67516346423921], [-70.62162573586251, 42.67480071677817], [-70.62143910580582, 42.67454216927389], [-70.62143926540578, 42.67392943386366], [-70.6206635307106, 42.67310262457132], [-70.62053954771456, 42.67267181206338], [-70.6207560968694, 42.67237130868288], [-70.62140619105395, 42.672011092703386], [-70.62171501530494, 42.670835237572085], [-70.6214349048578, 42.6693527549821], [-70.62217861597166, 42.66960316590924], [-70.62282936683988, 42.669576597695794], [-70.62310729978559, 42.66930187966715], [-70.6230143192735, 42.66894275746039], [-70.62233179734535, 42.66815998505935], [-70.62044038022246, 42.66670014518651], [-70.62037829659606, 42.666286682297155], [-70.62081193819482, 42.66621739459293], [-70.62168030631773, 42.666628552109756], [-70.62233104550168, 42.66665487658379], [-70.62298209340331, 42.66701541797731], [-70.62335333089987, 42.666992352208446], [-70.62338420522374, 42.666171665325784], [-70.62372460995232, 42.66573424891203], [-70.62372479779921, 42.66539215478482], [-70.62332134409289, 42.66507344886957], [-70.6224211353472, 42.664978275070325], [-70.62177076152416, 42.66468132001551], [-70.62177105834212, 42.66411359635503], [-70.62239085754968, 42.66395119982346], [-70.6227618939314, 42.66361304631691], [-70.62263710875435, 42.66296616809162], [-70.62356622231984, 42.66273633457419], [-70.62365881701596, 42.662464710428885], [-70.6231311565064, 42.66104900388767], [-70.62272825124367, 42.66074829544803], [-70.62124005997306, 42.66045397609061], [-70.62123916514945, 42.659562151358266], [-70.62068123347399, 42.65917361612431], [-70.61987513115659, 42.65889683629376], [-70.61906994396188, 42.6588541327544], [-70.61838689829658, 42.658963139013196], [-70.61789207840883, 42.65924013415872], [-70.6177383300575, 42.65946739987392], [-70.61773798637063, 42.65992708483063], [-70.61634421513581, 42.66073060714339], [-70.61516613707396, 42.660639444837244], [-70.61485594823932, 42.66098591774004], [-70.61408239258184, 42.66137553472943], [-70.61321479255157, 42.66148648062907], [-70.61231566179637, 42.66123819260888], [-70.61197431578711, 42.66098181553712], [-70.61194317434568, 42.660757070873224], [-70.61355485063228, 42.66061696863989], [-70.61606413754772, 42.65885143575868], [-70.6159386870218, 42.65858320862264], [-70.61479334303378, 42.65901388193371], [-70.61448235786516, 42.658766180023065], [-70.61448171756372, 42.658486529082666], [-70.6149156720033, 42.65782253994406], [-70.61457497738344, 42.65773722359873], [-70.6141422785955, 42.657851498652164], [-70.61346051917484, 42.658762279440225], [-70.6126857244365, 42.65907929918795], [-70.61184927150191, 42.6599292406568], [-70.61132378925049, 42.659837993236636], [-70.61067274723085, 42.66016213590466], [-70.6099598070134, 42.66025342454109], [-70.60971137584582, 42.66000450807579], [-70.60968075921497, 42.65960871832573], [-70.60924590886792, 42.65920025264532], [-70.60791249154528, 42.658696519040966], [-70.60624026438373, 42.658539557000466], [-70.6052486231705, 42.658878481545365], [-70.60450535814616, 42.658771445516216], [-70.60360585585047, 42.658955208763174], [-70.6025526328858, 42.65888008216869], [-70.60208812264797, 42.65908465795195], [-70.60165447752578, 42.66011770691898], [-70.60100366796519, 42.66020829804968], [-70.6006626739827, 42.66043801879723], [-70.60041498543949, 42.66045972267179], [-70.60013602653747, 42.65984200106392], [-70.59982587128337, 42.65959370766731], [-70.5992063015855, 42.65981900321871], [-70.59824543432832, 42.65984133483809], [-70.59765687585801, 42.660002720878076], [-70.5973781961292, 42.66051088157407], [-70.59669605468076, 42.660898846361015], [-70.59657282953198, 42.6611983434563], [-70.59601452911437, 42.66126881584559], [-70.59558136685796, 42.6610139132243], [-70.5955182767096, 42.660257771610034], [-70.59592163538878, 42.659270078956524], [-70.59629252092205, 42.6590040283753], [-70.59734647399763, 42.65868254685385], [-70.59747040818048, 42.65801394916314], [-70.59719054644171, 42.65762184393519], [-70.59694327901448, 42.65753494563956], [-70.59579620483666, 42.65781237450894], [-70.59502115311243, 42.65737305876649], [-70.59486523383877, 42.65551899119574], [-70.59703337309355, 42.65383109131523], [-70.59718883465388, 42.65362131265497], [-70.59718775807852, 42.65281950757493], [-70.59752864471513, 42.652436184887705], [-70.59743556589832, 42.652176633667686], [-70.59690821699655, 42.65176908951263], [-70.59684664094902, 42.651518219373735], [-70.59610272565534, 42.65133009991527], [-70.59538997594055, 42.65149332047936], [-70.5951418776353, 42.651307392003226], [-70.59517327622638, 42.65076635733545], [-70.59489438732095, 42.6502572102447], [-70.59418123472828, 42.650077763583454], [-70.5934377414485, 42.65025929441909], [-70.59322062360295, 42.65017206608057], [-70.59315770875551, 42.649803591350945], [-70.59219779274498, 42.6496908401293], [-70.59173318526213, 42.64916559647041], [-70.59173226847489, 42.648066714173204], [-70.59204135337644, 42.647404634592874], [-70.59275340613851, 42.64691733566482], [-70.59275436431335, 42.64669171998464], [-70.59340402042108, 42.64577292742981], [-70.59346659199967, 42.64513254098249], [-70.5952311384127, 42.64353097232283], [-70.59541656252736, 42.64282571950214], [-70.5955083573915, 42.6411305711496], [-70.59479528372488, 42.64058201132113], [-70.59429960790244, 42.64044477961254], [-70.59346327149818, 42.64049279373154], [-70.59324649162373, 42.64064863826962], [-70.59272070344078, 42.64172820028273], [-70.59213219293066, 42.64184455417862], [-70.59185318596431, 42.64074009873408], [-70.59120173057912, 42.640650018101766], [-70.5909849322306, 42.64046375869635], [-70.59101655474767, 42.64012134071892], [-70.59197544271439, 42.63899961954441], [-70.59185143758657, 42.637902007897786], [-70.592098224363, 42.63682645007937], [-70.59265636404231, 42.63662039886469], [-70.59321342524036, 42.63611724969474], [-70.59327518154404, 42.635665910380084], [-70.59398712051575, 42.63504356280879], [-70.59553544934532, 42.63431017031072], [-70.59612464154812, 42.63422081264206], [-70.59615447776042, 42.63474319876879], [-70.59860306450436, 42.635636711937984], [-70.60101887023785, 42.63552162359658], [-70.60420952334617, 42.63469341167568], [-70.6048596380289, 42.63490045215028], [-70.60569665409957, 42.63487936021245], [-70.6103416084296, 42.633318388103504], [-70.61080578174018, 42.632933166021395], [-70.61083628340552, 42.63187896875374], [-70.61133130759168, 42.63179050137494], [-70.61157939040675, 42.63148969652687], [-70.61198257148502, 42.63140277059904], [-70.61222949792344, 42.631561647404716], [-70.61213803691955, 42.63242801389673], [-70.6127569164737, 42.63247328097891], [-70.61340779946954, 42.63224758648712], [-70.61696763066197, 42.6298193905935], [-70.61904107673516, 42.62812247441958], [-70.61956643201388, 42.627142376221244], [-70.61967445203013, 42.626609793916664], [-70.61835698038472, 42.6261529892969], [-70.61810371318926, 42.62511350237127], [-70.61813978625507, 42.62490446656642], [-70.61860438229307, 42.624807858688946], [-70.61891344775499, 42.62401067486108], [-70.61984193060131, 42.62332173353165], [-70.6211719854502, 42.622653855440696], [-70.62207057451113, 42.62279460386416], [-70.62244264366569, 42.62315866230502], [-70.62299954812198, 42.62302447700315], [-70.62365050568772, 42.62256465724021], [-70.62423841626784, 42.622583746050346], [-70.62594768832062, 42.622200578699804], [-70.62808557737219, 42.6211516102022], [-70.62963462592069, 42.620670400525], [-70.63325993892558, 42.61806889639013], [-70.63465365169763, 42.6174902426852], [-70.63487139591346, 42.61730675287793], [-70.63385019579073, 42.616528814328724], [-70.63288925175978, 42.61657842758879], [-70.63233195921907, 42.61682969167035], [-70.6317122155071, 42.61680252698551], [-70.6318691022682, 42.61614257943118], [-70.63168290268787, 42.61564040743239], [-70.63171409375641, 42.61509035524814], [-70.63261266313818, 42.61459070927099], [-70.6336971037601, 42.61447674685051], [-70.6344719476713, 42.61358229244133], [-70.63441037113573, 42.612547093426805], [-70.63472050621131, 42.611929918362605], [-70.63376213491158, 42.61113275008718], [-70.63354614917026, 42.60969464764779], [-70.63274184695803, 42.60849856570274], [-70.6326181865161, 42.60813077828703], [-70.63262050887593, 42.60591445610794], [-70.63268269676351, 42.60540908119895], [-70.6330234273279, 42.604863602551404], [-70.63299380736981, 42.6043592304311], [-70.63420135251918, 42.6034230111027], [-70.63429460189312, 42.602872296439955], [-70.63547174141331, 42.60156672596662], [-70.63534991314336, 42.60070380702342], [-70.63565969277457, 42.59996903205562], [-70.6382311594303, 42.59813989640876], [-70.63934544007114, 42.597799354703994], [-70.6396860749814, 42.597226847129164], [-70.6393159024108, 42.596700239612176], [-70.63931584370015, 42.59628611551705], [-70.64163828353836, 42.59454957522604], [-70.64235109898335, 42.59426959593741], [-70.64309504791697, 42.593519461752614], [-70.64349685731814, 42.593315939955275], [-70.64470423396891, 42.59303737292751], [-70.64597384480004, 42.59235187296808], [-70.64677867584705, 42.59233138359553], [-70.64795478711096, 42.59317957131226], [-70.64888285526816, 42.59331020458071], [-70.64981198490085, 42.5931077388034], [-70.65185630498655, 42.59203288482505], [-70.65213449903906, 42.591533595831216], [-70.65185773339603, 42.589266818678624], [-70.65161006082165, 42.588828935069124], [-70.65021682661131, 42.58784864587535], [-70.64928871885772, 42.58750195742915], [-70.64925884227104, 42.58697958050469], [-70.64972326765681, 42.586081039718266], [-70.6513957924732, 42.58455220220908], [-70.65316039934123, 42.5836170604436], [-70.65415109384539, 42.582304870003846], [-70.65452281089476, 42.582038070436404], [-70.65535803839663, 42.58175554090991], [-70.65888736989145, 42.581191070799036], [-70.65990885757355, 42.58086991174044], [-70.66120896880115, 42.57995040536787], [-70.66229244414214, 42.58020472378568], [-70.66414901927628, 42.57986201038339], [-70.67250504999724, 42.58249756192719], [-70.67244266673852, 42.582696857341496], [-70.67210260334369, 42.58279176465698], [-70.66504705591082, 42.58055159087491], [-70.66464445643852, 42.580711293445574], [-70.66455131450479, 42.581190013182315], [-70.66427338103833, 42.58153628852739], [-70.66349911603848, 42.581646589286265], [-70.66325114956908, 42.58185748067527], [-70.66331261338104, 42.582216908969286], [-70.66359144141802, 42.58249238693336], [-70.66517045173767, 42.58270357071848], [-70.665292774645, 42.583269374638775], [-70.66563420109017, 42.58370565617298], [-70.66560270616039, 42.58398563734741], [-70.66501444889403, 42.584507482646586], [-70.66309546498631, 42.58492346302192], [-70.66266135698231, 42.585533055906104], [-70.66266162043664, 42.58665951955453], [-70.66284724534877, 42.587044605611226], [-70.6636205027305, 42.58761850582885], [-70.66374465153378, 42.58810329967649], [-70.66228831070976, 42.58922370188909], [-70.66207180570306, 42.58992940820576], [-70.66002808032636, 42.591806242990714], [-70.65792360109451, 42.592152143008626], [-70.6567160306234, 42.59279152077335], [-70.6557858207759, 42.59358876904244], [-70.65532117340409, 42.594136225977515], [-70.6548573582637, 42.59553049676767], [-70.6547322513187, 42.59656826421392], [-70.65553595850209, 42.59780019257137], [-70.65621712942787, 42.59823167448126], [-70.65714662976717, 42.598488855385874], [-70.65748598237488, 42.5988261144477], [-70.65726941624614, 42.5995863840755], [-70.65804287469611, 42.59995325909269], [-70.6580118359232, 42.60022423782915], [-70.65686645751217, 42.60121404862373], [-70.6565255198159, 42.60187662956376], [-70.65658686203467, 42.60244311962038], [-70.65609180603494, 42.6025852370904], [-70.6557816988108, 42.6028783650708], [-70.65581194631324, 42.60329215011999], [-70.65630821302985, 42.60377179281411], [-70.65667923855513, 42.603793066902476], [-70.65869231411679, 42.60310667185048], [-70.6590633537368, 42.60315495535894], [-70.65897097353816, 42.60391331378091], [-70.65924871576881, 42.60416178406368], [-70.66002278535441, 42.60423100381506], [-70.66011560042372, 42.60441003943074], [-70.65893841310003, 42.604869049616156], [-70.65897012286331, 42.60548989588899], [-70.65909441639853, 42.60565059810459], [-70.66014587561095, 42.605653191621485], [-70.66076595457487, 42.60624793145705], [-70.66067170147849, 42.606519576181505], [-70.65952593677798, 42.60693268221341], [-70.65841171139607, 42.60777812446342], [-70.65723510787473, 42.60807394881044], [-70.65714186173032, 42.60855321680906], [-70.65577940951627, 42.60876214458298], [-70.65463264919167, 42.60873349857529], [-70.6546023007625, 42.608553781754864], [-70.65512879059435, 42.60823073143934], [-70.65553151291316, 42.60722481451866], [-70.65584168250072, 42.607184320034946], [-70.65708074317206, 42.60617551543017], [-70.65711175589946, 42.60585052131733], [-70.65689491531154, 42.605718399792565], [-70.65652472379347, 42.60489476271184], [-70.65531706183113, 42.60427262848029], [-70.65506902500546, 42.604366466766386], [-70.65444927880525, 42.604915592784515], [-70.6545419569933, 42.605671368611475], [-70.65330310731636, 42.606860767981935], [-70.65345713231537, 42.60764231859249], [-70.65311681437899, 42.607800178101996], [-70.6525593067823, 42.60768242931697], [-70.65228004493603, 42.60802867366596], [-70.65175411053434, 42.608027061849], [-70.65172323084651, 42.60839706871532], [-70.65240407298273, 42.60917122721187], [-70.65209424224766, 42.60958139042476], [-70.6520935189812, 42.60983345901346], [-70.65240334489782, 42.610018037123744], [-70.65342544985327, 42.610084610611246], [-70.65292928025967, 42.61058737014898], [-70.6517209310609, 42.61100106535026], [-70.65113315571644, 42.61145981451146], [-70.65110211615692, 42.61201043954753], [-70.65042047745136, 42.61202905839771], [-70.65001769998618, 42.611845474432585], [-70.64977000324764, 42.61193930390343], [-70.64977025586516, 42.612146366377864], [-70.65029677466693, 42.61241807030247], [-70.65029664357172, 42.61262569707559], [-70.64964515518488, 42.613400754412744], [-70.64874776278423, 42.61365690242116], [-70.64849953513405, 42.61418341874801], [-70.64856128048642, 42.61443425518771], [-70.64979980909652, 42.61464200545536], [-70.65069769601487, 42.61454789121172], [-70.65057416162347, 42.61416212022959], [-70.65094604810525, 42.61406695156671], [-70.65119363095586, 42.61418017920091], [-70.65147189103071, 42.61402299471471], [-70.651503092541, 42.61377058321493], [-70.65348521813934, 42.612922003505716], [-70.65413493264752, 42.61338083910376], [-70.6536078133545, 42.61397395892293], [-70.65199805958001, 42.61491642735165], [-70.65113187311913, 42.61514525697073], [-70.65100675228392, 42.61530019961356], [-70.65113120165552, 42.615505357038266], [-70.65075927219242, 42.61597020075903], [-70.65054137926776, 42.61664942154024], [-70.65082044702746, 42.616744309000325], [-70.65199701443376, 42.61649357122013], [-70.65218323201445, 42.61635539787716], [-70.6522137494776, 42.61601239697108], [-70.65283382213988, 42.61576037277372], [-70.65326675424096, 42.61597004109503], [-70.65373177150153, 42.61591830873646], [-70.65373181129956, 42.61560321728701], [-70.65422777767242, 42.615487566071096], [-70.65422753245255, 42.614938404324405], [-70.65559089753913, 42.613819677796826], [-70.65636491097338, 42.61347479991526], [-70.65689115059875, 42.61365644510053], [-70.65751045510808, 42.613287356202534], [-70.6571395769453, 42.61299487325822], [-70.65717052185227, 42.612759905534794], [-70.6576663060623, 42.612284700457785], [-70.65896647578239, 42.61223903627429], [-70.65896740219875, 42.6119413892096], [-70.65816137511389, 42.61169188670321], [-70.65831697626449, 42.61139199112115], [-70.6588427548471, 42.61132155068123], [-70.65872043540026, 42.610755744622985], [-70.65974223577851, 42.61038957547973], [-70.65998962537529, 42.61008866200989], [-70.66045433565817, 42.61019894794294], [-70.66029882493463, 42.61075092066502], [-70.66079501027865, 42.61084286162731], [-70.6611655673004, 42.610702079254146], [-70.661351102791, 42.61087053368065], [-70.66138210964175, 42.61123030575019], [-70.66187853254826, 42.610962138721995], [-70.6622187003377, 42.61141643098092], [-70.6630228131217, 42.61132379154507], [-70.66308599104592, 42.61109750037705], [-70.66351828162848, 42.611298690437174], [-70.66460286792228, 42.6111658761511], [-70.66485079389366, 42.610936977345865], [-70.6648815062551, 42.61045893510791], [-70.66355028856506, 42.610063870213565], [-70.66321000606229, 42.60978964243518], [-70.66234258274504, 42.60960385865449], [-70.66209563466512, 42.609472095967455], [-70.66200268533365, 42.6089869628962], [-70.66379834846437, 42.6079607441875], [-70.6651000424797, 42.60773496998701], [-70.66553296678255, 42.60780055079082], [-70.66565648748498, 42.60807827427827], [-70.66537742040563, 42.60855959058891], [-70.66540888610281, 42.608829329705465], [-70.66568765657368, 42.60903221992848], [-70.66773192983835, 42.60979587401093], [-70.67240562470305, 42.609700053437045], [-70.67695826396881, 42.61219255680027], [-70.6777631525428, 42.612856606362996], [-70.67797987391005, 42.61317774174773], [-70.6779489484156, 42.61359276664408], [-70.6776700936306, 42.6140921180804], [-70.67797885594574, 42.615123988701136], [-70.6787231596804, 42.61608581032428], [-70.67862947369917, 42.616844170679805], [-70.67875316396582, 42.61828433951256], [-70.67915562041644, 42.6187649050907], [-70.67903191275775, 42.61910893283361], [-70.67785522006308, 42.61919846512666], [-70.6778547426364, 42.619468539324515], [-70.67835023238199, 42.6198845010494], [-70.678938928127, 42.61993032482834], [-70.67924849231335, 42.62011482756701], [-70.6792484567423, 42.620322444877], [-70.6790317636221, 42.62040642922146], [-70.67770002911813, 42.62029061621406], [-70.67773139100929, 42.62054291185627], [-70.67807110404601, 42.62063648122227], [-70.67838099515298, 42.62100159836115], [-70.67940357357958, 42.62107638800859], [-70.6796816151134, 42.621459847554114], [-70.68020822358926, 42.62174041606309], [-70.68150976261023, 42.6213974216124], [-70.68234490972148, 42.62079960649709], [-70.68253127475498, 42.62049933942101], [-70.68212878147227, 42.620018785858974], [-70.68225271507895, 42.619656184275826], [-70.68293377174805, 42.61983542970206], [-70.68349095647525, 42.620430731773546], [-70.68429617395319, 42.620229920745295], [-70.68476085673493, 42.620322102341504], [-70.68482293756456, 42.62052847449297], [-70.6858136416004, 42.62038804592222], [-70.68575246649219, 42.62084787127712], [-70.68702250060647, 42.62084725778503], [-70.68788856413909, 42.62130347967332], [-70.68795139779448, 42.62201399920079], [-70.68748678848473, 42.62294868207731], [-70.68730000751594, 42.62384369036842], [-70.68674300960579, 42.62432028151676], [-70.68795061017474, 42.62473501902811], [-70.68838428148383, 42.62566926510041], [-70.68838496485839, 42.626444057010936], [-70.68813690536538, 42.62665499903851], [-70.68751741892932, 42.626628136569316], [-70.68665111570093, 42.626244490074406], [-70.68624788437369, 42.62628666261706], [-70.68671121237854, 42.6269009746578], [-70.68779669493466, 42.627128617312735], [-70.68798194528435, 42.62738705080356], [-70.68779529671924, 42.627975405716114], [-70.68829207769195, 42.628094247653394], [-70.68866301115067, 42.62854810668719], [-70.68860188866333, 42.62882788169941], [-70.68785754830174, 42.629352675573486], [-70.68785748439107, 42.62962330974092], [-70.68912808063386, 42.629622108645215], [-70.6894994547901, 42.630013517111486], [-70.6894386180296, 42.63074397979765], [-70.68906550332763, 42.63184811548465], [-70.68878799336244, 42.63209598741685], [-70.68730065221187, 42.632415250599145], [-70.68581396841323, 42.63232881777578], [-70.68510119403815, 42.63285325811084], [-70.68525584087777, 42.63356273192902], [-70.684822815521, 42.63390234056867], [-70.68463647651073, 42.63502239959111], [-70.68460556127056, 42.63564448165855], [-70.68491577310256, 42.63608104317463], [-70.68482193678089, 42.6377672303094], [-70.68414109970291, 42.63861541352878], [-70.68383073425838, 42.639277724707], [-70.68308783298484, 42.639648887394166], [-70.68249933268204, 42.639603654907226], [-70.68178609659877, 42.638776557727425], [-70.68067084268692, 42.638801854696766], [-70.68048518230913, 42.639804877914884], [-70.68132184796825, 42.64104472311236], [-70.68138397447873, 42.6419808584647], [-70.68113615705204, 42.64225480440557], [-70.6809808449827, 42.64312188839085], [-70.68005109203973, 42.64428899666297], [-70.6792764871013, 42.644426411591915], [-70.67890472836285, 42.64429660956901], [-70.67856393357181, 42.64401341653335], [-70.67809949665096, 42.64298439338873], [-70.67723163893224, 42.642005943579775], [-70.67732512320022, 42.64001367481373], [-70.67788251170859, 42.639582145317235], [-70.67788295897262, 42.63928449781121], [-70.67816238705554, 42.638983217709104], [-70.67918422719485, 42.63855329263089], [-70.67927707250044, 42.63830019789436], [-70.67816285234004, 42.63772174095444], [-70.67707836833415, 42.637638624424724], [-70.67667536720826, 42.63710403600898], [-70.67670618225041, 42.636671008415355], [-70.67729458977206, 42.63628415710297], [-70.67720265465081, 42.63509629205625], [-70.67757398538566, 42.634496324049366], [-70.67757392065647, 42.632604105069966], [-70.67813191276902, 42.63171288086534], [-70.67803830961792, 42.63088567238206], [-70.67772932037508, 42.630565565952594], [-70.67726514800594, 42.63054594806665], [-70.67720239876708, 42.63004191605814], [-70.67667666960901, 42.62919362178383], [-70.675902358306, 42.62894390539892], [-70.67593323375226, 42.62870949189623], [-70.67680085307738, 42.627912767078485], [-70.67689424516902, 42.627704123032885], [-70.67673824533479, 42.6274273076682], [-70.67624420367098, 42.62747948411654], [-70.67531374920007, 42.62818686492092], [-70.67509590362366, 42.628938148737205], [-70.67385809584647, 42.630361834760116], [-70.6738261729246, 42.630704261871685], [-70.674353172989, 42.630813810110595], [-70.67509673302276, 42.63027109188134], [-70.67562227252233, 42.63020057274809], [-70.67698624087382, 42.63168503500625], [-70.67692348727608, 42.63266754954281], [-70.67704784471178, 42.63303528950533], [-70.67642778999225, 42.63363010706131], [-70.67639756885762, 42.63413515960325], [-70.67611823300527, 42.63463449247592], [-70.6761796412629, 42.6358232663231], [-70.67509563757065, 42.6375687755987]]], [[[-70.5801415900995, 42.635983515084966], [-70.57942908031565, 42.637156060406795], [-70.57884103921769, 42.63763244709594], [-70.57660945473815, 42.638843491767126], [-70.57583603324836, 42.63951194708963], [-70.57345064124547, 42.64047300257518], [-70.57289309523958, 42.64039931723058], [-70.57295490725741, 42.640083595446], [-70.57410077174323, 42.63932868561933], [-70.57410152501704, 42.639148080613175], [-70.57345091194308, 42.63921150938928], [-70.57351225163137, 42.63882319510177], [-70.57425556364021, 42.637767967112694], [-70.57391455215713, 42.637403444404065], [-70.57391510585477, 42.63713280218598], [-70.57487513269851, 42.63623685344537], [-70.57564926423714, 42.63582949571457], [-70.57568031558863, 42.63509040132981], [-70.57589675632663, 42.63490701145238], [-70.57642357310088, 42.634863960773835], [-70.57732235940593, 42.63525713203391], [-70.57772480335802, 42.63525134318645], [-70.57905669289056, 42.63484559672096], [-70.58010943366071, 42.63552468219796], [-70.5801415900995, 42.635983515084966]]], [[[-70.69173083797024, 42.64388121971419], [-70.6919482819077, 42.64463501695328], [-70.69179330317317, 42.64495239643839], [-70.69145213550128, 42.64513793657626], [-70.69095641189621, 42.64516315727675], [-70.69030588899814, 42.64483957841416], [-70.68990355948583, 42.644980798156325], [-70.68968663099973, 42.64534387829961], [-70.68860270149621, 42.645207418197735], [-70.68745554780739, 42.64456637189613], [-70.68792084139675, 42.64406381045025], [-70.6879199122618, 42.64372170859181], [-70.68754883571134, 42.64374498190954], [-70.68751733691354, 42.643970948440504], [-70.68692912343214, 42.644312848789305], [-70.68640272762778, 42.644176356059084], [-70.68637138477895, 42.64335746503308], [-70.68609256045616, 42.64264092662268], [-70.68559689928468, 42.6423684835197], [-70.6855961975617, 42.64209840310539], [-70.68764135280215, 42.64218538920193], [-70.68841630944378, 42.642579069128914], [-70.6918859479401, 42.64206829955822], [-70.69216481251844, 42.64216309272094], [-70.69176210547178, 42.643196122706804], [-70.69173083797024, 42.64388121971419]]], [[[-70.68572122003393, 42.643628028219666], [-70.68572051023057, 42.644979524983455], [-70.68510120691121, 42.64548435837418], [-70.683334841574, 42.64587081447648], [-70.68153754294464, 42.64564541207829], [-70.68147678620011, 42.6452770040329], [-70.68190981829882, 42.64415306456242], [-70.68271544180854, 42.64335754259329], [-70.68404777818485, 42.642670957557044], [-70.68438849671142, 42.64254901167944], [-70.68482250523452, 42.642668549382726], [-70.68572122003393, 42.643628028219666]]], [[[-70.67791325090897, 42.64577947522623], [-70.67878098379998, 42.64598313433878], [-70.67871879221265, 42.64616443498178], [-70.67785100490165, 42.64713221783358], [-70.67698338739288, 42.64767631922048], [-70.6770140397497, 42.648567785833784], [-70.67667316237228, 42.64896034227805], [-70.6760226082338, 42.64907780574762], [-70.67555843885444, 42.64968834850947], [-70.6751243729481, 42.64991988278211], [-70.67472178415109, 42.64987199545185], [-70.67468964416065, 42.64962025388386], [-70.67565009189767, 42.64847985779321], [-70.67630119798515, 42.64840741291214], [-70.67571288565647, 42.64685703612854], [-70.67571316900379, 42.64651494264966], [-70.6763334248944, 42.64611819609795], [-70.67655088649589, 42.64569155958591], [-70.6773551861546, 42.645004095513116], [-70.6776345970804, 42.64502746564329], [-70.67791276630705, 42.645437376248296], [-70.67791325090897, 42.64577947522623]]], [[[-70.59198590382576, 42.65904566593803], [-70.59214085312671, 42.659322586975726], [-70.59331863562446, 42.65929751597601], [-70.59369025576657, 42.65961664617467], [-70.5935363184549, 42.66016852931508], [-70.59393887037432, 42.66035173744857], [-70.59393856147109, 42.6605587939502], [-70.59288589385888, 42.66147499086308], [-70.59127361229322, 42.66133516300468], [-70.58919807707716, 42.662706343684086], [-70.58767862422846, 42.66268253830637], [-70.58743189867889, 42.662505607499426], [-70.5876483082503, 42.6615659810147], [-70.58916582621322, 42.660193248708296], [-70.58950648663668, 42.65962089414511], [-70.58962956485634, 42.65872723336593], [-70.59015735211719, 42.65865711881176], [-70.59052905837945, 42.659021272923134], [-70.59114876178339, 42.65884159571325], [-70.59198590382576, 42.65904566593803]]]]}}