{"type": "Feature", "properties": {"district_name": "6th Essex District", "chamber": "house", "vintage": "2012-2020"}, "geometry": {"type": "Polygon", "coordinates": [[[-70.922263, 42.59151200000001], [-70.901128, 42.590973000000005], [-70.835411, 42.590681000000004], [-70.827692, 42.58313100000001], [-70.820311, 42.57782200000002], [-70.819019, 42.57928600000002], [-70.813296, 42.580138999999996], [-70.810093, 42.584094999999984], [-70.806935, 42.580354], [-70.794511, 42.569305], [-70.793854, 42.569295000000004], [-70.794039, 42.568847], [-70.793753, 42.56865300000002], [-70.79382, 42.56820600000001], [-70.79315799999999, 42.56692600000001], [-70.793469, 42.5664], [-70.793598, 42.565436000000005], [-70.793407, 42.56509], [-70.793326, 42.56454699999999], [-70.79343999999999, 42.56438200000001], [-70.793312, 42.564263999999994], [-70.79390099999999, 42.56293700000001], [-70.793824, 42.562218], [-70.794805, 42.55739], [-70.79541499999999, 42.551479], [-70.794675, 42.551169], [-70.78836799999999, 42.54954900000001], [-70.777085, 42.53946200000001], [-70.773429, 42.53570800000001], [-70.74542799999999, 42.513194999999996], [-70.733558, 42.50395700000001], [-70.736119, 42.50010699999999], [-70.743567, 42.49597399999999], [-70.77789, 42.522795], [-70.78846, 42.530625], [-70.787672, 42.530583000000014], [-70.787223, 42.53089599999999], [-70.786952, 42.530810999999986], [-70.78586299999999, 42.53102999999998], [-70.78545299999999, 42.53139199999999], [-70.785383, 42.531839], [-70.78505799999999, 42.532353], [-70.783442, 42.532805999999994], [-70.783148, 42.533207000000004], [-70.782252, 42.533716], [-70.782213, 42.533982], [-70.78263799999999, 42.53456099999999], [-70.782823, 42.53530999999999], [-70.783209, 42.535669], [-70.786007, 42.537134], [-70.786919, 42.537218], [-70.788048, 42.536979999999986], [-70.78849699999999, 42.53650500000002], [-70.788783, 42.535486999999996], [-70.78872900000002, 42.534223], [-70.789403, 42.531856999999995], [-70.796666, 42.53977799999999], [-70.799807, 42.53979500000001], [-70.84249299999999, 42.538196000000006], [-70.856343, 42.539343999999986], [-70.862766, 42.539719999999996], [-70.867792, 42.541795], [-70.870992, 42.540195], [-70.878793, 42.53719499999999], [-70.88644699999999, 42.53804799999998], [-70.887192, 42.537943], [-70.887554, 42.537001999999994], [-70.88752699999999, 42.536382], [-70.887774, 42.536302], [-70.88813999999999, 42.53648799999998], [-70.888266, 42.53678799999999], [-70.88810000000001, 42.539000000000016], [-70.890294, 42.539296], [-70.89439399999999, 42.540696000000004], [-70.898429, 42.54290700000001], [-70.90275799999999, 42.544827999999995], [-70.90704099999999, 42.54619999999999], [-70.90701899999999, 42.54662599999999], [-70.907888, 42.54683599999999], [-70.90920799999999, 42.54624799999999], [-70.908399, 42.545558], [-70.91239399999999, 42.54669499999999], [-70.911669, 42.54964799999998], [-70.908591, 42.557477], [-70.908332, 42.572972], [-70.922263, 42.59151200000001]], [[-70.798847, 42.54441600000001], [-70.798553, 42.544083], [-70.798251, 42.544065], [-70.79748599999999, 42.544468999999985], [-70.796705, 42.54460300000001], [-70.796202, 42.545069999999996], [-70.79614, 42.54553899999999], [-70.796295, 42.54569], [-70.79713, 42.54538399999999], [-70.797919, 42.54531799999999], [-70.79854499999999, 42.544997], [-70.798847, 42.54441600000001]], [[-70.803524, 42.548263999999996], [-70.802581, 42.547352], [-70.802047, 42.54710300000001], [-70.80092599999999, 42.54747200000001], [-70.799975, 42.547505000000015], [-70.79938, 42.54711400000001], [-70.798653, 42.547147999999986], [-70.79683600000001, 42.54633399999999], [-70.796442, 42.546386], [-70.7959, 42.546938999999995], [-70.794724, 42.547489], [-70.793333, 42.547325999999984], [-70.793171, 42.54785099999998], [-70.79324, 42.54826800000001], [-70.793627, 42.54866299999999], [-70.794477, 42.548915000000015], [-70.79544400000002, 42.548941], [-70.79566799999999, 42.54941399999999], [-70.795227, 42.549763999999996], [-70.795119, 42.550373], [-70.794879, 42.55058399999998], [-70.795868, 42.55119899999999], [-70.796379, 42.55114100000002], [-70.79707499999999, 42.550473000000004], [-70.79719899999999, 42.549777999999996], [-70.797477, 42.549629], [-70.798328, 42.549832], [-70.798846, 42.55097699999999], [-70.799379, 42.551337], [-70.800872, 42.55140799999998], [-70.80234, 42.55208299999999], [-70.803082, 42.551874], [-70.80245699999999, 42.551068], [-70.80222499999999, 42.550473000000004], [-70.803524, 42.548263999999996]]]}}