{"type": "Feature", "properties": {"district_name": "10th Suffolk", "chamber": "house", "vintage": "2001-2010"}, "geometry": {"type": "Polygon", "coordinates": [[[-71.15329698610047, 42.32649690952495], [-71.14759692595335, 42.326497023325615], [-71.14419705641737, 42.32519688032034], [-71.1426329391983, 42.32623692599084], [-71.1421969559906, 42.32629690664522], [-71.1407179364745, 42.325960868443104], [-71.13820603721418, 42.324716211913604], [-71.1371969552724, 42.323197162188215], [-71.13709690696916, 42.32229711982841], [-71.1318970115334, 42.32149676124693], [-71.13109699107179, 42.323496792313], [-71.12839607934293, 42.321496749402414], [-71.12639607165515, 42.32229715460513], [-71.12689590248141, 42.32249684292696], [-71.12669606923718, 42.325396833146236], [-71.12689601727664, 42.326496965846594], [-71.12479605560385, 42.32599721968509], [-71.12249593340768, 42.324196978378716], [-71.12139596825372, 42.32389682161926], [-71.11939603639946, 42.322796926184104], [-71.12153808377573, 42.32333685646938], [-71.12409603440366, 42.32199705974366], [-71.12459600398762, 42.321596937395064], [-71.12709595021641, 42.318496808045296], [-71.1307959476327, 42.31449681296942], [-71.13269597471076, 42.311897112331536], [-71.13509701473403, 42.30819722460838], [-71.1400970474659, 42.30209716847612], [-71.13669691666728, 42.301196856907566], [-71.13399596309154, 42.301797111433196], [-71.13109595589178, 42.30129717483089], [-71.12789594117359, 42.300196937090654], [-71.12979591624769, 42.29829781795277], [-71.13429609758678, 42.29589773698806], [-71.13579593948864, 42.29439787670504], [-71.13783705261163, 42.29282712205906], [-71.13859603303962, 42.29329822592288], [-71.14059704835728, 42.29179819464522], [-71.13980806798958, 42.29127017388801], [-71.1405139322417, 42.29071813346208], [-71.13649603167917, 42.28799783825016], [-71.13969799288826, 42.28763992797849], [-71.13919600332083, 42.285998122311675], [-71.14032896050794, 42.28505691792785], [-71.1393889251925, 42.28425777182911], [-71.13925703912457, 42.28346509299265], [-71.13739594033405, 42.283498054097166], [-71.13592095630086, 42.28257283062993], [-71.13529599627346, 42.28309809144443], [-71.1328600438574, 42.2818090855504], [-71.1389959077471, 42.276398030859234], [-71.14017209075782, 42.27568823225714], [-71.14074497487695, 42.27510595453275], [-71.1438960507239, 42.272798047307575], [-71.14239607880651, 42.27229822013193], [-71.14419601029738, 42.27179795745053], [-71.1451960863379, 42.269397800780915], [-71.14479603744468, 42.26649815432287], [-71.14159598977177, 42.26379798604282], [-71.14159608961968, 42.260197893335715], [-71.14019698670526, 42.25829894265468], [-71.14189691781881, 42.25729872394898], [-71.14312895608163, 42.25514126838482], [-71.14492406880166, 42.25646183819284], [-71.14552991689807, 42.25780123070413], [-71.14774396250431, 42.25879500380508], [-71.1487130609112, 42.258948206614214], [-71.14964307069081, 42.258841886150364], [-71.15024197978732, 42.259231968451466], [-71.15579796266829, 42.256299134533805], [-71.15669697032885, 42.25599797314303], [-71.15839696397016, 42.254998078070805], [-71.16139704693144, 42.257498000010386], [-71.16209795327114, 42.25769925720062], [-71.16309801951192, 42.258798874618606], [-71.16339801952303, 42.25889878792312], [-71.16699694717964, 42.26189773215091], [-71.16829705058073, 42.26279785517449], [-71.17109709488649, 42.26519790639766], [-71.17159696041065, 42.26609794711877], [-71.17379692348722, 42.26679801749126], [-71.17439691397415, 42.268197997666896], [-71.1727969066481, 42.269698079865684], [-71.17479690845745, 42.27369772323657], [-71.1742970791441, 42.27549803422946], [-71.17759703814718, 42.27659783401879], [-71.1831980186857, 42.27569793117902], [-71.18529803329034, 42.279298152401765], [-71.18809794212669, 42.280197086197475], [-71.19119795019914, 42.28269704007635], [-71.17839795766726, 42.29449689553242], [-71.17059694404703, 42.29979724183515], [-71.16599699585413, 42.30249723070214], [-71.16469692355544, 42.303697023253775], [-71.16629693403401, 42.30469707529088], [-71.16959703298906, 42.30759711833478], [-71.17389806649322, 42.310396942028866], [-71.17899808560287, 42.314297194782746], [-71.17109802014183, 42.31999678835422], [-71.17039790066089, 42.32059685350869], [-71.17059803033199, 42.321296837568845], [-71.16939803923324, 42.32189715540411], [-71.16409704539274, 42.32339708611502], [-71.15799694173383, 42.32479705810707], [-71.15329698610047, 42.32649690952495]]]}}