{"type": "Feature", "properties": {"district_name": "16th Worcester District", "chamber": "house", "vintage": "2012-2020"}, "geometry": {"type": "Polygon", "coordinates": [[[-71.82752599999999, 42.24184000000002], [-71.824523, 42.24251400000001], [-71.82249000000002, 42.24358899999997], [-71.820882, 42.24358899999999], [-71.82126699999999, 42.244188], [-71.81949399999999, 42.244240999999995], [-71.819379, 42.244678], [-71.815935, 42.246723], [-71.813923, 42.24503000000001], [-71.813665, 42.245036], [-71.809452, 42.251211999999995], [-71.808866, 42.251003], [-71.80802299999999, 42.252333000000014], [-71.807208, 42.25062], [-71.80602600000002, 42.251452], [-71.805425, 42.251591000000005], [-71.805938, 42.252651], [-71.79969899999999, 42.25277899999999], [-71.79787499999999, 42.255038000000006], [-71.797232, 42.254055999999984], [-71.795256, 42.255938], [-71.79276399999999, 42.254659999999994], [-71.791562, 42.25472099999998], [-71.791664, 42.25550199999999], [-71.789166, 42.255662999999984], [-71.789198, 42.25640399999998], [-71.784858, 42.255838999999995], [-71.772284, 42.25641999999998], [-71.767338, 42.25790000000001], [-71.764635, 42.259367000000005], [-71.763851, 42.25756099999999], [-71.762372, 42.252144], [-71.76136199999999, 42.25070099999999], [-71.761815, 42.250536], [-71.764315, 42.250310000000006], [-71.765485, 42.250668999999995], [-71.766757, 42.25075600000001], [-71.766294, 42.24720400000002], [-71.764675, 42.24686499999999], [-71.763798, 42.24650700000002], [-71.76323099999999, 42.246218], [-71.762433, 42.24550400000001], [-71.761322, 42.245167], [-71.76053600000002, 42.24459900000001], [-71.759546, 42.243318], [-71.757935, 42.242836000000004], [-71.755768, 42.241261], [-71.75426, 42.240997], [-71.752669, 42.241469999999985], [-71.752485, 42.24104800000001], [-71.750985, 42.24068399999999], [-71.751232, 42.24008499999999], [-71.751516, 42.24002900000001], [-71.750833, 42.23979899999999], [-71.750563, 42.23899], [-71.750903, 42.23852699999999], [-71.750872, 42.23832199999999], [-71.752532, 42.23767499999999], [-71.752205, 42.237100000000005], [-71.75171399999999, 42.236521], [-71.751026, 42.236064], [-71.748161, 42.23504499999998], [-71.745356, 42.232749999999996], [-71.797049, 42.209978], [-71.803834, 42.220926000000006], [-71.80675099999999, 42.22389800000001], [-71.810034, 42.231261999999994], [-71.819639, 42.23031699999999], [-71.819321, 42.23091900000001], [-71.82008499999999, 42.230999000000004], [-71.817869, 42.238397000000006], [-71.818744, 42.238476], [-71.820329, 42.239099], [-71.823278, 42.239085], [-71.824343, 42.23863999999999], [-71.82477, 42.23869199999999], [-71.82526299999999, 42.239021999999984], [-71.826155, 42.23914400000001], [-71.82683399999999, 42.23959099999999], [-71.827221, 42.241315000000014], [-71.82752599999999, 42.24184000000002]]]}}