{"type": "Feature", "properties": {"district_name": "2nd Essex District", "chamber": "house", "vintage": "2022-present"}, "geometry": {"type": "Polygon", "coordinates": [[[-71.034638, 42.732354], [-71.026997, 42.73134300000001], [-71.019311, 42.73362500000001], [-71.011255, 42.734184], [-71.00935, 42.73524800000001], [-71.001023, 42.739094000000016], [-70.98417, 42.746193], [-70.979465, 42.748659], [-70.97407500000001, 42.749523999999994], [-70.970224, 42.751213], [-70.959693, 42.75383300000001], [-70.967188, 42.75827699999999], [-70.96649400000001, 42.760237999999994], [-70.963419, 42.765377], [-70.95946, 42.76627400000001], [-70.958291, 42.765652], [-70.956828, 42.76708800000001], [-70.952696, 42.768989000000005], [-70.951699, 42.76886100000001], [-70.949989, 42.769763], [-70.949764, 42.770148999999996], [-70.947529, 42.771595], [-70.94655, 42.771838], [-70.942417, 42.774846], [-70.940534, 42.775808999999995], [-70.93361100000001, 42.77873499999999], [-70.931886, 42.77898300000002], [-70.929259, 42.77979999999999], [-70.92625, 42.781026000000004], [-70.917388, 42.78746999999999], [-70.905122, 42.797441], [-70.89791, 42.798363999999985], [-70.897906, 42.797774999999994], [-70.897697, 42.797551999999996], [-70.896047, 42.79667], [-70.895789, 42.796286], [-70.894354, 42.795369], [-70.89326, 42.79486899999999], [-70.891342, 42.79453900000002], [-70.890802, 42.7943], [-70.874866, 42.79805499999999], [-70.862965, 42.801550000000006], [-70.841045, 42.795908], [-70.808151, 42.81170500000001], [-70.805871, 42.812579], [-70.805999, 42.80934099999998], [-70.805698, 42.80544099999999], [-70.804059, 42.796453], [-70.803987, 42.793813], [-70.801476, 42.782748], [-70.799698, 42.776329999999994], [-70.794618, 42.762698], [-70.792999, 42.757731], [-70.791218, 42.753172], [-70.790752, 42.75052899999997], [-70.78426, 42.736898000000004], [-70.781154, 42.73195200000003], [-70.775454, 42.722213999999994], [-70.7747, 42.72020400000001], [-70.759124, 42.708492], [-70.747461, 42.70138800000001], [-70.73709, 42.695973], [-70.722743, 42.691771], [-70.70898, 42.690916], [-70.721542, 42.671014000000014], [-70.726696, 42.662441], [-70.731982, 42.65417700000001], [-70.73245600000001, 42.65396100000001], [-70.746636, 42.666318], [-70.747324, 42.66713200000001], [-70.751373, 42.67070099999999], [-70.759507, 42.67493700000001], [-70.761497, 42.67574499999999], [-70.762556, 42.67585100000001], [-70.766649, 42.67431700000001], [-70.768914, 42.67365400000001], [-70.771617, 42.673324], [-70.777916, 42.67300500000002], [-70.780984, 42.671242], [-70.784166, 42.67013300000001], [-70.785042, 42.66837399999999], [-70.785696, 42.66795300000002], [-70.786831, 42.667773000000004], [-70.789103, 42.667967], [-70.789456, 42.66781499999999], [-70.789684, 42.66721], [-70.789511, 42.66671300000001], [-70.78931, 42.666681000000004], [-70.78936, 42.665809], [-70.790852, 42.664637000000006], [-70.790976, 42.664076], [-70.790845, 42.663664], [-70.790542, 42.663565], [-70.788846, 42.66364099999999], [-70.788598, 42.663335000000004], [-70.788893, 42.66282999999999], [-70.790201, 42.66187599999999], [-70.792735, 42.66183100000002], [-70.793123, 42.66209], [-70.793135, 42.662271], [-70.792762, 42.66327100000001], [-70.793905, 42.663215], [-70.79408, 42.663067000000005], [-70.793603, 42.66188300000002], [-70.79367300000001, 42.66117500000001], [-70.793549, 42.66069500000001], [-70.792968, 42.660487999999994], [-70.791837, 42.66080300000001], [-70.791241, 42.66080300000001], [-70.790567, 42.66027799999999], [-70.79066, 42.65979899999999], [-70.79250200000001, 42.65888499999999], [-70.793485, 42.659011000000014], [-70.7945, 42.65984799999999], [-70.795482, 42.659821], [-70.795579, 42.65968600000001], [-70.795493, 42.659116], [-70.79462100000002, 42.65878399999998], [-70.794168, 42.658399], [-70.794353, 42.658086], [-70.795417, 42.658072000000004], [-70.795937, 42.65791200000002], [-70.796028, 42.657711], [-70.795897, 42.65728700000001], [-70.795379, 42.656878], [-70.794097, 42.656663], [-70.79388400000002, 42.65620700000001], [-70.793973, 42.65602299999999], [-70.795414, 42.65610900000001], [-70.795581, 42.65590499999998], [-70.795374, 42.655218999999995], [-70.795807, 42.655017], [-70.796367, 42.655244], [-70.796478, 42.65548299999999], [-70.796304, 42.655882000000005], [-70.79640400000001, 42.65608799999998], [-70.796824, 42.656147000000004], [-70.797245, 42.65599], [-70.798487, 42.65617700000001], [-70.79861, 42.656458], [-70.798233, 42.65664400000001], [-70.798065, 42.65706800000002], [-70.798365, 42.657316000000016], [-70.798769, 42.656821999999984], [-70.799722, 42.65636100000001], [-70.800416, 42.65656700000001], [-70.800325, 42.65693999999998], [-70.800686, 42.65728500000001], [-70.801314, 42.65690299999999], [-70.802, 42.65690500000001], [-70.802117, 42.656568000000014], [-70.803305, 42.65668099999999], [-70.80346, 42.656465999999995], [-70.803363, 42.656304000000006], [-70.802873, 42.65642100000001], [-70.802629, 42.65610999999999], [-70.802911, 42.65590499999998], [-70.803359, 42.656047], [-70.803825, 42.65594], [-70.803638, 42.65561099999999], [-70.803929, 42.65558299999999], [-70.803949, 42.655431], [-70.803386, 42.655170000000005], [-70.803814, 42.65487399999999], [-70.804615, 42.654832], [-70.80543, 42.65434299999999], [-70.805696, 42.65441599999999], [-70.805522, 42.654575], [-70.805638, 42.65464099999999], [-70.80554, 42.654911999999996], [-70.806263, 42.654666999999996], [-70.807479, 42.654684], [-70.807905, 42.653655], [-70.807473, 42.653390000000016], [-70.807523, 42.65318499999999], [-70.807721, 42.653245], [-70.807637, 42.652759999999994], [-70.807967, 42.65261499999999], [-70.807695, 42.652395000000006], [-70.80874300000002, 42.65182299999999], [-70.809133, 42.65122999999999], [-70.809919, 42.650943], [-70.810338, 42.649598], [-70.813763, 42.647952], [-70.816109, 42.64719000000001], [-70.815161, 42.64666900000001], [-70.814439, 42.646653], [-70.816929, 42.6413], [-70.813076, 42.64053299999999], [-70.812379, 42.635633000000006], [-70.811851, 42.62531700000002], [-70.818629, 42.624880999999995], [-70.818579, 42.621706], [-70.816112, 42.618798999999996], [-70.809456, 42.607347], [-70.800889, 42.602011999999995], [-70.800831, 42.59533800000001], [-70.814543, 42.59341499999999], [-70.875414, 42.609908000000004], [-70.918608, 42.62260899999999], [-70.919148, 42.622959], [-70.918989, 42.62333999999999], [-70.918553, 42.623598], [-70.918917, 42.623844999999996], [-70.919378, 42.62378799999998], [-70.919715, 42.623199000000014], [-70.91996000000002, 42.62313500000001], [-70.92046, 42.62333300000001], [-70.920836, 42.623755000000024], [-70.921446, 42.62375800000001], [-70.922768, 42.62323000000001], [-70.923489, 42.623383], [-70.924286, 42.623782], [-70.925714, 42.622925000000016], [-70.926592, 42.62056299999999], [-70.927466, 42.61701600000001], [-70.931109, 42.61242500000001], [-70.93165, 42.612496999999976], [-70.932422, 42.613238], [-70.943861, 42.60957400000001], [-70.954722, 42.605322], [-70.95838500000002, 42.60317800000001], [-70.949201, 42.622624000000016], [-70.942128, 42.63609900000001], [-70.947005, 42.639807000000005], [-70.950461, 42.64181799999998], [-70.950918, 42.64366999999999], [-70.950982, 42.645168], [-70.950711, 42.645981], [-70.949871, 42.646958000000005], [-70.949745, 42.64771300000001], [-70.951219, 42.65106300000001], [-70.952486, 42.653240000000004], [-70.952999, 42.65476999999999], [-70.952811, 42.65721500000001], [-70.952261, 42.65946199999999], [-70.952364, 42.660272], [-70.955363, 42.66580199999999], [-70.955939, 42.66639400000002], [-70.956674, 42.666833000000004], [-70.96583900000002, 42.671271000000004], [-70.966708, 42.67191600000002], [-70.967136, 42.672522], [-70.965341, 42.671867000000006], [-70.96445500000002, 42.674825000000006], [-70.948594, 42.68066699999999], [-70.976373, 42.694417], [-70.991611, 42.699467000000006], [-70.991946, 42.700840000000014], [-70.992303, 42.70049000000001], [-70.994921, 42.70056199999999], [-70.995766, 42.69962400000001], [-70.99743000000001, 42.700159000000006], [-70.997346, 42.70066799999999], [-70.999643, 42.70076799999999], [-71.004857, 42.70136300000001], [-71.023627, 42.70159399999999], [-71.025339, 42.70407999999999], [-71.026133, 42.70469099999999], [-71.026274, 42.704975], [-71.031619, 42.71803800000002], [-71.034638, 42.732354]]]}}