{"type": "Feature", "properties": {"district_name": "14th Norfolk", "chamber": "house", "vintage": "2001-2010"}, "geometry": {"type": "Polygon", "coordinates": [[[-71.26360004536795, 42.35449591517721], [-71.26000001159807, 42.35359605279906], [-71.25860008230238, 42.350096079433406], [-71.2585999129229, 42.34939610834083], [-71.26000001506047, 42.34839578956929], [-71.26069995695346, 42.347595995416214], [-71.2611000437532, 42.34459606189438], [-71.26101599087637, 42.344104106596326], [-71.26210207845406, 42.34150397656351], [-71.26070007238772, 42.340496123316115], [-71.2595999304746, 42.34109589428579], [-71.25749995573659, 42.340896230301404], [-71.25590004928553, 42.33999593493264], [-71.25719993984612, 42.33759604887464], [-71.25819994076092, 42.3368959330534], [-71.26020005104884, 42.33479626961526], [-71.26430002888796, 42.33429608664097], [-71.26470007809911, 42.33179579182032], [-71.26600000478847, 42.33099606418803], [-71.26780005685161, 42.33059627746169], [-71.26909992385798, 42.33109573729765], [-71.27020004793305, 42.33089594429573], [-71.2696999186614, 42.32959627885838], [-71.26990004963866, 42.3279958511137], [-71.26379996925031, 42.326296005348865], [-71.2610999298632, 42.32679627044674], [-71.25940004127385, 42.32649619694957], [-71.25849996547736, 42.32579601866501], [-71.2556999472348, 42.32419603236446], [-71.25290002283351, 42.3264959120809], [-71.24570102041244, 42.32069810242327], [-71.24280001687642, 42.320297203198606], [-71.23919903094166, 42.321596759985525], [-71.2303990898196, 42.32029691782364], [-71.22819890747584, 42.31849678115373], [-71.22809907097374, 42.31649677333717], [-71.22779908414806, 42.31639703118277], [-71.22749997917458, 42.31529796679841], [-71.22929901992462, 42.31619688298716], [-71.23069902023903, 42.31649726812675], [-71.23169908314587, 42.31639719899822], [-71.2333989085924, 42.315896991597135], [-71.24039893032027, 42.31119718182301], [-71.24239905648744, 42.30959691219639], [-71.24579991435108, 42.307497234365606], [-71.24829996291622, 42.30559693533198], [-71.25099994132415, 42.303896762909204], [-71.26250095342819, 42.29539814057321], [-71.27929996691714, 42.283797022052504], [-71.29040091513397, 42.27579673301204], [-71.29450099966948, 42.273197223955655], [-71.29640097469067, 42.27449703572069], [-71.29810105369559, 42.27429690287893], [-71.29940092158483, 42.2756968914448], [-71.29700108411228, 42.28039672344435], [-71.29790090381977, 42.28169698689401], [-71.29990091315607, 42.282797165408766], [-71.3038010421997, 42.27859726147343], [-71.30910095511467, 42.27579726811999], [-71.30780098945735, 42.27179721483591], [-71.30820108837756, 42.27089702824398], [-71.30590207366421, 42.26249788537948], [-71.30257498595884, 42.248054206653244], [-71.33210292881687, 42.24869820436682], [-71.3321579276316, 42.247303943910474], [-71.33600298379955, 42.24859805647923], [-71.34191603835946, 42.25010084958658], [-71.34150303720243, 42.25329802867568], [-71.34880398869566, 42.25499706216041], [-71.35049104879764, 42.25568687488475], [-71.35380901601403, 42.257483867635635], [-71.35581395541536, 42.25950026266001], [-71.35650804521303, 42.26332908231241], [-71.36088594327076, 42.26463821725532], [-71.3584029319062, 42.267596034719595], [-71.3547030196606, 42.27159604054125], [-71.35140400931529, 42.26849704985941], [-71.34790304805126, 42.272896042029174], [-71.34580292617082, 42.27419586199843], [-71.34510301412705, 42.27389612993518], [-71.34540298368381, 42.27469611396347], [-71.34160208544333, 42.273895856419415], [-71.34070192839553, 42.273396072421676], [-71.33950200455753, 42.273096178704996], [-71.33800195110202, 42.272395784749826], [-71.33250196182185, 42.27179595005226], [-71.33060194911776, 42.271896130199885], [-71.32790199664146, 42.273895843115476], [-71.32710200949447, 42.2746959053286], [-71.32390301367556, 42.277197244324604], [-71.32076508524881, 42.275705776501525], [-71.31726408239548, 42.27891487463055], [-71.31537997915495, 42.2801632726387], [-71.31396804192748, 42.28084128483257], [-71.32190191599848, 42.29499578667437], [-71.32290203767262, 42.29639616224922], [-71.32360190543807, 42.298596202654025], [-71.32470204660879, 42.300795723742105], [-71.32520206429363, 42.30239619533635], [-71.32700303811124, 42.306496927923924], [-71.32950194161863, 42.312896096666236], [-71.32710200950666, 42.31369601919267], [-71.32680195139541, 42.31779582442101], [-71.32700191698919, 42.321195838253914], [-71.32840196184364, 42.329096262174396], [-71.32836599756374, 42.32977704984191], [-71.3320689602197, 42.361687984225505], [-71.33210391141675, 42.36309584734319], [-71.33482100797092, 42.386081034770676], [-71.33540409131135, 42.39359578060302], [-71.3340039548777, 42.39619612482561], [-71.32117603310589, 42.392552180868016], [-71.3177019189802, 42.39229521100193], [-71.31650200482076, 42.392494740009965], [-71.3144019313815, 42.39349517696477], [-71.31330199498997, 42.39639509521027], [-71.31200195801279, 42.3958950107075], [-71.30995807041413, 42.399420722510406], [-71.30754597979285, 42.3999377466113], [-71.29512294003995, 42.40189184063061], [-71.2895349507595, 42.401029874435764], [-71.2828010411713, 42.3990952799364], [-71.2824010296285, 42.39979504472903], [-71.27920103304864, 42.39879527316281], [-71.27480108597807, 42.39269526799373], [-71.27070091322074, 42.391494873529865], [-71.26740093296577, 42.3902948183125], [-71.26860196779874, 42.38779616622519], [-71.27120108210106, 42.38369497905126], [-71.27120099762132, 42.38319475814121], [-71.27410094263372, 42.37869516872066], [-71.27570101301235, 42.37599521529351], [-71.27600095068746, 42.37519511030064], [-71.2763010055784, 42.37489522629433], [-71.27530098416, 42.3747948138692], [-71.27330101861776, 42.37399582701479], [-71.27040091724274, 42.369695743866444], [-71.27030107831423, 42.36819602065644], [-71.27120100760972, 42.36719625283571], [-71.27300099488613, 42.36709571986043], [-71.27330103033697, 42.36499584983269], [-71.26980103105218, 42.36319621418254], [-71.26499997312594, 42.35549584751002], [-71.26360004536795, 42.35449591517721]]]}}