{"type": "Feature", "properties": {"district_name": "7th Norfolk", "chamber": "house", "vintage": "2001-2010"}, "geometry": {"type": "Polygon", "coordinates": [[[-71.04391093565972, 42.25194108079902], [-71.0445939794583, 42.2513000696456], [-71.06109394758928, 42.24219916585757], [-71.05779400636854, 42.23729892926868], [-71.05709395812565, 42.23569986691773], [-71.05349296073227, 42.230098899859314], [-71.05319308820785, 42.22929927090917], [-71.06069299796637, 42.22629922424853], [-71.07349404130166, 42.22149876128602], [-71.07589495432046, 42.22040027256588], [-71.08559409623918, 42.21689915650492], [-71.09309393679743, 42.21399884904691], [-71.0836940884008, 42.205598941674594], [-71.08269395822045, 42.20449917226709], [-71.07759403394792, 42.204899155349416], [-71.07409397030594, 42.20459980592251], [-71.06949306567535, 42.20469910700378], [-71.06499306357132, 42.20569893308355], [-71.06164898363471, 42.199888154074536], [-71.06061108428929, 42.19494198863741], [-71.05927306291665, 42.19510003836716], [-71.05852497830706, 42.19201018939651], [-71.05933502452027, 42.19170776269959], [-71.0583039690109, 42.18998080860468], [-71.05463000451533, 42.1850508477965], [-71.05310395347192, 42.182606164777496], [-71.0461770657654, 42.170509003708524], [-71.04118805795895, 42.162529149749986], [-71.03992598897956, 42.16173911595943], [-71.0400150232536, 42.1615329654817], [-71.03974103378287, 42.160804852629546], [-71.03851795676601, 42.15829927962471], [-71.03551404254395, 42.155166948156136], [-71.03347596310542, 42.15565610256559], [-71.03323190745813, 42.15611484309151], [-71.03330497371012, 42.1567459276863], [-71.03229997319833, 42.15732591891803], [-71.03021292099591, 42.156293830134885], [-71.02899208105241, 42.15545995211353], [-71.02757809557097, 42.15533203114139], [-71.02920609383942, 42.150568117209595], [-71.03505406138059, 42.13547602455572], [-71.03798301354003, 42.13563474138583], [-71.04288292804046, 42.137235027632606], [-71.05056093082163, 42.14869900338903], [-71.05374894340525, 42.15138598828604], [-71.05643908183853, 42.15447611258653], [-71.06339304273136, 42.160800016909704], [-71.06948592722638, 42.16731608697077], [-71.08343993739875, 42.18152406509764], [-71.09453095176804, 42.19237495532528], [-71.11009608832427, 42.20829981467188], [-71.12679602557417, 42.224499089347724], [-71.13069596843611, 42.22779784164264], [-71.12769591040916, 42.2307979955299], [-71.1244949132643, 42.23299782950184], [-71.12449508859828, 42.234598131426516], [-71.1222949426336, 42.23439791290373], [-71.12219506722185, 42.23479822221477], [-71.12259508423966, 42.235398244401985], [-71.12619594140591, 42.23889816013835], [-71.1255960880771, 42.23939812752837], [-71.12179605361705, 42.24129826881388], [-71.12029501746865, 42.242298283441734], [-71.10919503047514, 42.24799824976033], [-71.10939498282994, 42.25229790161551], [-71.10929601420071, 42.25449881691216], [-71.10949493011198, 42.25549826754469], [-71.11379504536133, 42.259298043664], [-71.11269495665384, 42.259797942643], [-71.11099502602, 42.26129795837931], [-71.1086949451524, 42.26109826996848], [-71.10769505257957, 42.260698156193236], [-71.1057950811052, 42.26099775337605], [-71.10499493929815, 42.260697902511204], [-71.10337493994594, 42.25971210930531], [-71.10139604335232, 42.260698970370555], [-71.09899592631986, 42.262398945491285], [-71.09799491428937, 42.2628979334932], [-71.09489509083409, 42.26689790411456], [-71.09059505232605, 42.266698091813176], [-71.08999496745759, 42.26799801860137], [-71.08951603993313, 42.26962698674009], [-71.08899508899691, 42.26899828557743], [-71.0854950076077, 42.266097973279024], [-71.0868949289027, 42.26549811987137], [-71.08539507832928, 42.26469819381701], [-71.08159491861244, 42.264597755898194], [-71.0802949522418, 42.264998150158064], [-71.07839492453506, 42.2644982718532], [-71.07959509056991, 42.26249780458649], [-71.08059500517537, 42.26029795811143], [-71.08119490403435, 42.25829808785381], [-71.07749402399176, 42.254697924828726], [-71.07659494706184, 42.25639900551365], [-71.0757939059331, 42.258498269305264], [-71.07529394435338, 42.258898183736314], [-71.07449393431864, 42.260098258816136], [-71.06869408248195, 42.259997842788586], [-71.06819407462376, 42.26639827867518], [-71.0676940226701, 42.26859821572044], [-71.06729404961037, 42.268897745028426], [-71.06639403681511, 42.26659800860898], [-71.06409398294421, 42.26459792812545], [-71.06129397183686, 42.26269774313361], [-71.05719403893268, 42.26109802981278], [-71.0520939350042, 42.26039907363692], [-71.05159407857622, 42.26019905465748], [-71.05049405159069, 42.26029885641409], [-71.04969394395475, 42.25829928474626], [-71.04789394573963, 42.25559915857991], [-71.04667106655161, 42.25596684024211], [-71.04391093565972, 42.25194108079902]]]}}