{"type": "Feature", "properties": {"district_name": "3rd Hampshire District", "chamber": "house", "vintage": "2012-2020"}, "geometry": {"type": "Polygon", "coordinates": [[[-72.55860899999999, 42.280650000000016], [-72.55645799999999, 42.281364], [-72.54693, 42.28514100000001], [-72.543336, 42.285853], [-72.541485, 42.28655], [-72.540712, 42.287616], [-72.540482, 42.28876400000001], [-72.53999, 42.28981], [-72.540146, 42.29217500000001], [-72.53968400000001, 42.293065999999996], [-72.537637, 42.294643000000015], [-72.53633599999999, 42.294930000000015], [-72.53508099999999, 42.295542000000005], [-72.53363999999999, 42.29728999999999], [-72.53124, 42.297936], [-72.52789, 42.299838], [-72.52790999999999, 42.30143700000001], [-72.531212, 42.303624], [-72.534981, 42.304225], [-72.537928, 42.320122999999995], [-72.540819, 42.319595], [-72.53578499999999, 42.35997200000003], [-72.53678, 42.35986599999999], [-72.53646599999999, 42.36487900000001], [-72.53643799999999, 42.365085000000015], [-72.535468, 42.36526699999999], [-72.53158599999999, 42.401498999999994], [-72.546776, 42.40008700000001], [-72.54419899999999, 42.42714999999998], [-72.530968, 42.42885299999999], [-72.499513, 42.43252400000001], [-72.489891, 42.43381599999999], [-72.483786, 42.40746999999999], [-72.375022, 42.42081900000001], [-72.37485699999999, 42.42047700000001], [-72.37544799999999, 42.420429999999996], [-72.37556800000002, 42.41919500000001], [-72.37408599999999, 42.41760999999999], [-72.37432799999999, 42.417124], [-72.37338199999999, 42.41698499999999], [-72.372585, 42.416637], [-72.372173, 42.416191], [-72.37207599999999, 42.415712], [-72.372455, 42.41509199999999], [-72.37348, 42.41409900000001], [-72.37359, 42.41331899999999], [-72.373008, 42.41291299999998], [-72.372284, 42.412094999999994], [-72.371207, 42.41158600000001], [-72.370873, 42.411173999999995], [-72.37041300000001, 42.41097], [-72.369856, 42.410278999999996], [-72.369917, 42.409918000000005], [-72.37115200000001, 42.40932799999999], [-72.37151899999999, 42.40869199999998], [-72.370884, 42.40804299999998], [-72.37027499999999, 42.408057], [-72.370096, 42.40793], [-72.369473, 42.40714599999999], [-72.36939699999999, 42.40682699999999], [-72.36907099999999, 42.40677499999998], [-72.368605, 42.406009000000005], [-72.367922, 42.405603000000006], [-72.367756, 42.40528299999999], [-72.36786099999999, 42.404998], [-72.36759599999999, 42.40449299999999], [-72.366605, 42.403279999999995], [-72.366643, 42.402928], [-72.367615, 42.40270599999999], [-72.36837400000002, 42.40230699999998], [-72.368651, 42.40175399999998], [-72.368599, 42.401267000000004], [-72.36940899999999, 42.40040599999998], [-72.36933400000001, 42.40007899999999], [-72.368787, 42.39949700000001], [-72.36898, 42.39839], [-72.368554, 42.39816099999999], [-72.36809199999999, 42.39815899999999], [-72.367897, 42.397328000000016], [-72.368352, 42.396953], [-72.36845799999999, 42.396549999999976], [-72.368785, 42.396509999999985], [-72.368877, 42.39635099999999], [-72.368222, 42.39540799999999], [-72.367573, 42.39500999999999], [-72.367543, 42.394674], [-72.367138, 42.394521], [-72.367807, 42.394155], [-72.367232, 42.393153000000005], [-72.367224, 42.39286], [-72.36739399999999, 42.39275100000001], [-72.367901, 42.392804], [-72.367693, 42.39215699999999], [-72.367233, 42.391945], [-72.366648, 42.39192499999999], [-72.36660599999999, 42.391631000000004], [-72.366857, 42.391347], [-72.36676899999999, 42.39107], [-72.36573500000002, 42.39081299999999], [-72.365568, 42.390626999999995], [-72.36594699999999, 42.389966000000015], [-72.36603699999999, 42.388968], [-72.36578200000001, 42.388521999999995], [-72.364378, 42.388045000000005], [-72.364133, 42.38779199999999], [-72.36376, 42.386816], [-72.365532, 42.385600000000004], [-72.366968, 42.385145000000016], [-72.36712899999999, 42.384868999999995], [-72.36702199999999, 42.384263999999995], [-72.365664, 42.38267099999998], [-72.36515, 42.382291], [-72.36371199999999, 42.38189799999999], [-72.363736, 42.38174700000001], [-72.36485499999999, 42.381458000000016], [-72.365269, 42.38174599999999], [-72.366002, 42.381631999999996], [-72.366559, 42.381198000000005], [-72.366688, 42.38075400000001], [-72.366525, 42.379090999999995], [-72.366163, 42.37820800000001], [-72.365672, 42.37777800000003], [-72.365098, 42.37770799999999], [-72.364485, 42.378083], [-72.364637, 42.37857900000001], [-72.36446699999999, 42.37874600000001], [-72.36422999999999, 42.37877], [-72.364187, 42.378585000000015], [-72.363873, 42.378415], [-72.36407299999999, 42.377601999999996], [-72.363643, 42.376760999999995], [-72.363749, 42.37634199999999], [-72.364211, 42.37631], [-72.364383, 42.376043], [-72.363857, 42.375679000000005], [-72.364336, 42.375186], [-72.36358299999999, 42.374537], [-72.363843, 42.373774999999995], [-72.36276, 42.37217199999999], [-72.361255, 42.37154799999999], [-72.36137099999999, 42.37131399999998], [-72.36127200000001, 42.37115300000002], [-72.36078599999999, 42.37115000000001], [-72.360598, 42.37087100000001], [-72.360681, 42.37060299999998], [-72.360468, 42.370493], [-72.360505, 42.370307999999994], [-72.36106199999999, 42.37009399999998], [-72.360694, 42.369789000000004], [-72.360564, 42.369409999999995], [-72.360674, 42.36883199999998], [-72.359354, 42.367965999999996], [-72.35854300000001, 42.36705299999999], [-72.357992, 42.366864], [-72.356931, 42.366814000000005], [-72.356282, 42.36639799999999], [-72.35698, 42.365749], [-72.357044, 42.36526199999999], [-72.35728399999999, 42.365062999999985], [-72.357637, 42.36491399999999], [-72.35851699999999, 42.365021999999996], [-72.359163, 42.36411200000003], [-72.359135, 42.363708999999986], [-72.358295, 42.363223999999995], [-72.357941, 42.36270900000002], [-72.358389, 42.362251], [-72.357901, 42.36159299999999], [-72.35775, 42.361138], [-72.35780299999999, 42.360651999999995], [-72.357174, 42.359615], [-72.357305, 42.35917099999999], [-72.357219, 42.358860000000014], [-72.357985, 42.358261000000006], [-72.358053, 42.357490000000006], [-72.358935, 42.356682], [-72.358606, 42.35606699999999], [-72.35874799999999, 42.355606], [-72.358171, 42.354914], [-72.357754, 42.354876999999995], [-72.35765599999999, 42.35459900000001], [-72.35724100000002, 42.35439499999999], [-72.357542, 42.35394399999999], [-72.35730699999999, 42.35374899999999], [-72.357314, 42.35331199999998], [-72.357599, 42.353095999999994], [-72.357869, 42.353182], [-72.357856, 42.35255299999999], [-72.357626, 42.352089], [-72.356627, 42.35163699999999], [-72.356757, 42.35130200000001], [-72.35736899999999, 42.351172999999996], [-72.356583, 42.35079700000001], [-72.35642899999999, 42.350569], [-72.356794, 42.35029499999998], [-72.357993, 42.35016999999998], [-72.35852899999999, 42.349838999999996], [-72.35901199999999, 42.350044], [-72.359436, 42.34964400000002], [-72.359472, 42.349485], [-72.359304, 42.349399999999996], [-72.35840999999999, 42.34949400000001], [-72.358254, 42.349391999999995], [-72.35815, 42.348803], [-72.358758, 42.348925], [-72.358909, 42.34863300000001], [-72.358611, 42.348161], [-72.35806, 42.348005], [-72.35834799999999, 42.34763799999999], [-72.358997, 42.347265], [-72.358548, 42.34633899999998], [-72.358587, 42.345978], [-72.358679, 42.34584499999998], [-72.359024, 42.346191], [-72.359284, 42.34623500000001], [-72.35941199999999, 42.34595899999999], [-72.35922599999999, 42.34553], [-72.358791, 42.345190999999986], [-72.357871, 42.34475599999999], [-72.35705899999999, 42.34392699999999], [-72.356643, 42.343848], [-72.356454, 42.343637], [-72.356482, 42.34328499999998], [-72.35629, 42.34323300000001], [-72.355605, 42.34372300000001], [-72.35526, 42.34337599999999], [-72.355041, 42.34287899999999], [-72.355261, 42.342595], [-72.355597, 42.34275700000001], [-72.356112, 42.34235], [-72.355417, 42.341992000000005], [-72.355541, 42.341153999999996], [-72.35524, 42.34090000000001], [-72.355396, 42.34067800000002], [-72.378568, 42.34069799999999], [-72.38404, 42.34025], [-72.393708, 42.339296], [-72.39347, 42.338168999999986], [-72.405455, 42.336437], [-72.40941699999999, 42.35876199999999], [-72.472287, 42.35145800000001], [-72.464196, 42.30805600000001], [-72.455, 42.264564], [-72.457685, 42.265123], [-72.462825, 42.264351999999995], [-72.46386, 42.264351], [-72.471614, 42.26538899999999], [-72.47833899999999, 42.26440000000002], [-72.483929, 42.26456300000001], [-72.485816, 42.264418], [-72.494226, 42.26325799999999], [-72.500987, 42.262638], [-72.506192, 42.261940999999986], [-72.507183, 42.26164500000001], [-72.508792, 42.26075300000001], [-72.51150799999999, 42.260389999999994], [-72.512856, 42.260053], [-72.515378, 42.25889], [-72.516034, 42.258268], [-72.516758, 42.25631700000001], [-72.517794, 42.255649], [-72.51993399999999, 42.255083], [-72.523618, 42.255268999999984], [-72.531346, 42.253629], [-72.538316, 42.249603999999984], [-72.544336, 42.246724999999984], [-72.54629, 42.24777700000003], [-72.547629, 42.24829100000001], [-72.552716, 42.24902500000002], [-72.55384099999999, 42.24936600000001], [-72.555647, 42.25020200000003], [-72.55860899999999, 42.280650000000016]]]}}