{"type": "Feature", "properties": {"district_name": "29th Middlesex District", "chamber": "house", "vintage": "2012-2020"}, "geometry": {"type": "Polygon", "coordinates": [[[-71.196106, 42.367856], [-71.195802, 42.36814999999999], [-71.194869, 42.36793699999998], [-71.193741, 42.369443999999994], [-71.19273199999999, 42.369987], [-71.19379599999999, 42.37018800000001], [-71.195332, 42.371011], [-71.193583, 42.374029], [-71.193339, 42.37545199999999], [-71.1924, 42.375213999999986], [-71.192151, 42.375656000000006], [-71.191176, 42.376568999999996], [-71.189883, 42.37920199999999], [-71.19050299999999, 42.37986699999999], [-71.19000199999999, 42.380495999999994], [-71.189495, 42.380697], [-71.186779, 42.380363], [-71.185165, 42.38044100000001], [-71.179495, 42.38019500000001], [-71.17473199999999, 42.37928000000001], [-71.171229, 42.37827899999999], [-71.17080299999999, 42.378319], [-71.16954900000002, 42.37768599999999], [-71.164508, 42.37688899999999], [-71.160774, 42.376628000000004], [-71.158604, 42.37613599999998], [-71.155632, 42.375206000000006], [-71.154468, 42.37506799999999], [-71.15625, 42.38064600000001], [-71.155051, 42.38020000000001], [-71.155333, 42.380907999999984], [-71.15514, 42.38130299999999], [-71.15541999999999, 42.381510000000006], [-71.157792, 42.38221100000001], [-71.157971, 42.382805], [-71.160332, 42.386444], [-71.158381, 42.386776], [-71.157758, 42.387365], [-71.157054, 42.390252999999994], [-71.15838699999999, 42.39459300000001], [-71.156302, 42.395852], [-71.15316899999999, 42.39564300000001], [-71.150115, 42.394932999999995], [-71.146191, 42.393203], [-71.14428, 42.392638], [-71.132728, 42.39068599999999], [-71.13285499999999, 42.39347599999999], [-71.140479, 42.39406400000001], [-71.140631, 42.39588500000001], [-71.139625, 42.39582299999999], [-71.138311, 42.39543800000001], [-71.138223, 42.39642699999998], [-71.136873, 42.39649399999999], [-71.136815, 42.39756399999999], [-71.13221300000001, 42.39727600000001], [-71.132153, 42.395762], [-71.130854, 42.39578500000002], [-71.129463, 42.396626999999995], [-71.128744, 42.396010000000004], [-71.128654, 42.39605699999999], [-71.128824, 42.39620399999999], [-71.127375, 42.39708499999998], [-71.12436799999999, 42.39365299999999], [-71.125284, 42.393061999999986], [-71.12487399999999, 42.39269600000001], [-71.125266, 42.392586], [-71.125751, 42.391636000000005], [-71.12684899999999, 42.390342000000004], [-71.12764299999999, 42.39037799999999], [-71.127685, 42.38985100000001], [-71.12900599999999, 42.39007200000002], [-71.127558, 42.387402], [-71.12961899999999, 42.38665800000002], [-71.12906699999999, 42.38617099999998], [-71.13172999999999, 42.385185], [-71.130792, 42.384484], [-71.131146, 42.38400099999999], [-71.12977699999999, 42.38346099999999], [-71.130224, 42.383065], [-71.129072, 42.38233800000002], [-71.129775, 42.38168499999999], [-71.128855, 42.381132999999984], [-71.129781, 42.380772], [-71.130066, 42.379715], [-71.129184, 42.37823299999999], [-71.129815, 42.377988], [-71.12985499999999, 42.377804999999995], [-71.128954, 42.37754300000002], [-71.12835199999999, 42.377173], [-71.12897699999999, 42.375816], [-71.12822, 42.37561], [-71.128433, 42.374566999999985], [-71.130579, 42.374705], [-71.13064500000002, 42.37437399999999], [-71.130999, 42.37435200000001], [-71.13099700000001, 42.373796], [-71.131518, 42.37372599999999], [-71.13266, 42.37318099999999], [-71.133197, 42.372596], [-71.132997, 42.371697], [-71.131997, 42.369696], [-71.139997, 42.36449599999999], [-71.14379699999999, 42.364996], [-71.14509799999999, 42.36449199999999], [-71.14679699999999, 42.36229599999999], [-71.14856499999999, 42.361174000000005], [-71.155303, 42.359898], [-71.159598, 42.359996], [-71.161878, 42.35914099999999], [-71.163716, 42.358248999999994], [-71.16624399999999, 42.35960399999999], [-71.167766, 42.36012099999998], [-71.169506, 42.36019], [-71.17232899999999, 42.359414999999984], [-71.17485599999999, 42.35926799999999], [-71.178845, 42.35978], [-71.182042, 42.36080600000001], [-71.18368, 42.358829], [-71.196058, 42.361747], [-71.192101, 42.365505999999996], [-71.19348099999999, 42.36656], [-71.194865, 42.36715799999999], [-71.19528, 42.367923000000005], [-71.196106, 42.367856]]]}}