{"type": "Feature", "properties": {"district_name": "2nd Middlesex District", "chamber": "house", "vintage": "2012-2020"}, "geometry": {"type": "Polygon", "coordinates": [[[-71.542323, 42.550333999999985], [-71.533031, 42.55272999999999], [-71.533318, 42.55290699999999], [-71.532431, 42.55379699999998], [-71.53130399999999, 42.554098], [-71.529958, 42.5552], [-71.52985699999999, 42.555558], [-71.529618, 42.555689], [-71.528635, 42.555819000000014], [-71.527321, 42.55690599999999], [-71.526463, 42.556975], [-71.526354, 42.557160999999994], [-71.52644699999999, 42.55755600000001], [-71.525728, 42.557733999999975], [-71.525139, 42.558547999999995], [-71.524552, 42.558713999999995], [-71.524474, 42.559580000000025], [-71.524134, 42.55979500000004], [-71.523383, 42.559893], [-71.522279, 42.56152499999999], [-71.520892, 42.56431099999999], [-71.516325, 42.566627000000004], [-71.506411, 42.572172], [-71.50303699999999, 42.575468], [-71.498006, 42.57686199999999], [-71.496174, 42.59143199999999], [-71.49487599999999, 42.604363000000006], [-71.49438099999999, 42.607611999999975], [-71.493541, 42.617417999999994], [-71.41765199999999, 42.653821], [-71.40709, 42.616432], [-71.403672, 42.618467], [-71.403083, 42.61981699999999], [-71.40205999999999, 42.62133399999998], [-71.402036, 42.62166399999999], [-71.400862, 42.62197999999999], [-71.400198, 42.621278], [-71.400086, 42.621477999999996], [-71.399576, 42.621582999999994], [-71.398995, 42.62152299999999], [-71.398067, 42.621701], [-71.39656099999999, 42.622541999999996], [-71.389853, 42.62721199999999], [-71.379368, 42.62551899999999], [-71.357704, 42.62060000000002], [-71.353774, 42.620290999999995], [-71.35047, 42.620481999999996], [-71.351193, 42.61981799999998], [-71.351781, 42.619847], [-71.352091, 42.61944], [-71.352217, 42.618851], [-71.35338899999999, 42.618794], [-71.355322, 42.619034000000006], [-71.357599, 42.61888199999999], [-71.356961, 42.617863], [-71.358957, 42.61685799999999], [-71.35707, 42.615174], [-71.35990799999999, 42.61293299999999], [-71.362098, 42.61498399999999], [-71.36441099999999, 42.61399599999999], [-71.36469100000001, 42.61409], [-71.365138, 42.61460700000001], [-71.36528299999999, 42.61503200000001], [-71.367049, 42.614858000000005], [-71.36805799999999, 42.61390200000002], [-71.369901, 42.613077999999994], [-71.369464, 42.61245599999999], [-71.368768, 42.61185199999999], [-71.367687, 42.609832000000004], [-71.367661, 42.609575], [-71.368069, 42.60908099999999], [-71.367775, 42.606572], [-71.36644199999999, 42.604778999999986], [-71.366225, 42.604035999999994], [-71.365552, 42.602898], [-71.365714, 42.602632], [-71.365689, 42.60225099999999], [-71.36495, 42.60087499999999], [-71.36324499999999, 42.60109899999999], [-71.36077999999999, 42.60085999999999], [-71.378826, 42.59087399999998], [-71.378176, 42.58892999999999], [-71.377168, 42.58724099999999], [-71.377091, 42.586552999999995], [-71.37771599999999, 42.58584700000001], [-71.379651, 42.584454], [-71.379656, 42.58333], [-71.379927, 42.582283], [-71.379758, 42.581412], [-71.379834, 42.580968999999996], [-71.380866, 42.58030400000002], [-71.382391, 42.579941], [-71.38168399999999, 42.579457999999995], [-71.380331, 42.578962999999995], [-71.379256, 42.57878299999999], [-71.379009, 42.57855000000001], [-71.378344, 42.57870299999999], [-71.37774, 42.57907900000002], [-71.376324, 42.578714999999995], [-71.37505, 42.578185000000005], [-71.374833, 42.57869199999998], [-71.374365, 42.578590999999996], [-71.37257799999999, 42.57764100000003], [-71.370463, 42.57752499999999], [-71.370438, 42.576886], [-71.366163, 42.58017800000001], [-71.364269, 42.578839], [-71.36309, 42.576585], [-71.36058799999999, 42.57713400000001], [-71.360236, 42.576585], [-71.360219, 42.574182999999984], [-71.359633, 42.573063999999995], [-71.36031799999999, 42.572853999999985], [-71.360001, 42.571893], [-71.36009299999999, 42.570896], [-71.360377, 42.570248], [-71.36121399999999, 42.569373999999996], [-71.359957, 42.569100000000006], [-71.359115, 42.568073], [-71.357722, 42.567656000000014], [-71.35842099999999, 42.56579], [-71.35983100000001, 42.565189000000004], [-71.358738, 42.56421400000001], [-71.35764999999999, 42.563878999999986], [-71.35525299999999, 42.563603], [-71.354449, 42.562048], [-71.35404199999999, 42.561692999999984], [-71.368336, 42.558037], [-71.388359, 42.54994900000001], [-71.38474, 42.538699], [-71.423794, 42.526188999999974], [-71.428536, 42.52880400000001], [-71.435017, 42.52217], [-71.443939, 42.509059], [-71.473528, 42.50017700000001], [-71.500053, 42.509266000000004], [-71.50275800000001, 42.506922], [-71.50908400000002, 42.510043], [-71.51144, 42.508857000000006], [-71.51482, 42.511523999999994], [-71.517681, 42.51557799999999], [-71.531387, 42.52028500000001], [-71.538872, 42.54290500000002], [-71.542323, 42.550333999999985]]]}}