{"type": "Feature", "properties": {"district_name": "36th Middlesex District", "chamber": "house", "vintage": "2012-2020"}, "geometry": {"type": "Polygon", "coordinates": [[[-71.498593, 42.63879199999998], [-71.497478, 42.641667], [-71.497014, 42.644298000000006], [-71.49709399999999, 42.64495399999999], [-71.496484, 42.649802], [-71.49246, 42.649101999999985], [-71.48893699999999, 42.649223000000006], [-71.482511, 42.65102999999999], [-71.479484, 42.658794000000015], [-71.474784, 42.64988899999999], [-71.457188, 42.65836899999999], [-71.458666, 42.65974099999999], [-71.45490199999999, 42.660047999999996], [-71.455438, 42.661211], [-71.449754, 42.661826999999995], [-71.44695600000001, 42.663167999999985], [-71.447835, 42.666609999999984], [-71.448618, 42.667735000000015], [-71.451527, 42.66975800000001], [-71.451694, 42.66937199999999], [-71.45236899999999, 42.669385999999996], [-71.452343, 42.669743], [-71.446418, 42.67041000000002], [-71.447285, 42.677496], [-71.44803, 42.68091300000001], [-71.448537, 42.682142], [-71.450282, 42.685295999999994], [-71.45146600000001, 42.68535999999999], [-71.452088, 42.68715399999999], [-71.456121, 42.68635200000001], [-71.457027, 42.690656999999995], [-71.458113, 42.691121999999986], [-71.459532, 42.69042100000001], [-71.461033, 42.69196899999998], [-71.456336, 42.695848999999995], [-71.45770200000001, 42.70052399999999], [-71.423538, 42.69979199999998], [-71.38813, 42.698794999999976], [-71.383667, 42.698809], [-71.365307, 42.69819000000001], [-71.35180799999999, 42.69816699999999], [-71.344906, 42.69769000000001], [-71.33020599999999, 42.69719], [-71.31705699999999, 42.69699], [-71.29420499999999, 42.69699], [-71.288789, 42.702389], [-71.278488, 42.71175300000001], [-71.26790799999999, 42.72588599999999], [-71.266015, 42.72738100000001], [-71.258405, 42.734088000000014], [-71.255185, 42.73667], [-71.238103, 42.669490999999994], [-71.242227, 42.66228700000001], [-71.24950299999999, 42.66088800000001], [-71.250303, 42.660591000000004], [-71.256103, 42.656690999999995], [-71.26420399999999, 42.65769100000001], [-71.272607, 42.656664], [-71.275154, 42.656216], [-71.277749, 42.65533999999998], [-71.280406, 42.65412], [-71.28685999999999, 42.648867999999986], [-71.29956899999999, 42.66651499999999], [-71.357523, 42.654454000000044], [-71.368882, 42.661753000000004], [-71.378204, 42.660686999999996], [-71.38215799999999, 42.65337000000002], [-71.382491, 42.652494], [-71.38213, 42.65184799999999], [-71.38063, 42.65093300000001], [-71.380316, 42.650516], [-71.38027900000002, 42.650017000000005], [-71.38092, 42.649007999999995], [-71.382483, 42.64938699999997], [-71.38521999999999, 42.649598999999995], [-71.392488, 42.648476], [-71.394341, 42.648474], [-71.396968, 42.649637], [-71.398173, 42.65101899999998], [-71.398995, 42.652467], [-71.40211, 42.651603], [-71.401288, 42.649488], [-71.39831199999999, 42.64550199999999], [-71.39895899999999, 42.644883], [-71.402734, 42.646695], [-71.403966, 42.648419], [-71.405309, 42.648138000000024], [-71.409764, 42.648785], [-71.41197799999999, 42.64797400000001], [-71.412309, 42.64941], [-71.41765199999999, 42.653821], [-71.493541, 42.617417999999994], [-71.498593, 42.63879199999998]]]}}