{"type": "Feature", "properties": {"district_name": "7th Suffolk District", "chamber": "house", "vintage": "2022-present"}, "geometry": {"type": "Polygon", "coordinates": [[[-71.111559, 42.33738100000001], [-71.110885, 42.338884], [-71.110663, 42.340270999999994], [-71.110177, 42.340959], [-71.109553, 42.34149399999999], [-71.108412, 42.341888], [-71.10802700000002, 42.34247799999999], [-71.10651400000002, 42.34310599999999], [-71.106072, 42.34358299999999], [-71.104619, 42.34438799999999], [-71.10304, 42.342948], [-71.103275, 42.342741], [-71.101047, 42.34057000000001], [-71.099544, 42.33939800000002], [-71.098235, 42.338773], [-71.097289, 42.338783], [-71.096885, 42.339026], [-71.09621, 42.339827000000014], [-71.095718, 42.340101], [-71.09321700000001, 42.34088899999999], [-71.093277, 42.340596], [-71.092543, 42.33951299999999], [-71.09181, 42.33987100000002], [-71.091188, 42.340949], [-71.089523, 42.33712599999998], [-71.090654, 42.33574399999999], [-71.090518, 42.335665000000006], [-71.084681, 42.340293], [-71.081969, 42.338415999999995], [-71.08849400000001, 42.334896], [-71.088253, 42.334582], [-71.087462, 42.33412600000001], [-71.086991, 42.334602999999994], [-71.086174, 42.33428900000002], [-71.085345, 42.335071], [-71.083946, 42.33455], [-71.080943, 42.33293099999999], [-71.081738, 42.331942], [-71.082986, 42.330831], [-71.083448, 42.32865000000001], [-71.080891, 42.328497000000006], [-71.080318, 42.32599], [-71.078654, 42.32486699999999], [-71.0796, 42.324161000000004], [-71.076664, 42.32288900000001], [-71.077146, 42.322196], [-71.077709, 42.32063000000001], [-71.077761, 42.318606], [-71.078215, 42.315870999999994], [-71.078962, 42.316249], [-71.080863, 42.31775600000002], [-71.081789, 42.318269999999984], [-71.082367, 42.317233], [-71.086225, 42.318236999999975], [-71.086508, 42.317052999999994], [-71.085492, 42.316741], [-71.084424, 42.316772999999976], [-71.08285, 42.316362], [-71.083673, 42.314392999999995], [-71.083641, 42.31354499999999], [-71.081632, 42.313681], [-71.080766, 42.313495999999994], [-71.08097, 42.31277600000001], [-71.080312, 42.312418], [-71.082804, 42.309331], [-71.084739, 42.31014299999998], [-71.085298, 42.309415000000016], [-71.086956, 42.310235], [-71.085426, 42.312174999999996], [-71.084258, 42.312598], [-71.083644, 42.313093], [-71.08372400000002, 42.313236], [-71.088331, 42.31461], [-71.08993, 42.312628999999994], [-71.092028, 42.31366800000001], [-71.093104, 42.31232700000001], [-71.093603, 42.31215000000001], [-71.093977, 42.31269400000001], [-71.095145, 42.313282000000015], [-71.094088, 42.31414199999999], [-71.097701, 42.316419], [-71.095305, 42.31882499999998], [-71.095743, 42.31925], [-71.096319, 42.319424], [-71.098412, 42.31957200000001], [-71.098636, 42.32395900000002], [-71.098398, 42.324933999999985], [-71.098917, 42.325025000000025], [-71.097601, 42.328377], [-71.096506, 42.330212], [-71.095351, 42.33155399999999], [-71.097185, 42.331782], [-71.097603, 42.33077200000001], [-71.098495, 42.330067], [-71.1014, 42.331459], [-71.102293, 42.330354], [-71.106724, 42.331418000000006], [-71.106503, 42.331942], [-71.107282, 42.33215100000001], [-71.107027, 42.334066], [-71.106676, 42.334452000000006], [-71.108018, 42.335335999999984], [-71.107508, 42.335842], [-71.109333, 42.33700000000001], [-71.110808, 42.335586000000006], [-71.111, 42.335833], [-71.110708, 42.336307999999995], [-71.111559, 42.33738100000001]]]}}