{"type": "Feature", "properties": {"district_name": "18th Worcester District", "chamber": "house", "vintage": "2012-2020"}, "geometry": {"type": "Polygon", "coordinates": [[[-71.911855, 42.101326], [-71.899489, 42.10411399999998], [-71.902779, 42.120638000000014], [-71.90154799999999, 42.11977299999999], [-71.90001, 42.119375], [-71.895157, 42.11986499999999], [-71.893315, 42.11964899999999], [-71.890241, 42.117952999999986], [-71.887772, 42.116232999999994], [-71.886487, 42.115791000000016], [-71.88445999999999, 42.11554999999999], [-71.883301, 42.115215], [-71.881638, 42.11429500000001], [-71.880506, 42.11316899999999], [-71.879494, 42.112839], [-71.878303, 42.112791], [-71.87715299999999, 42.11299299999998], [-71.869554, 42.115409], [-71.869383, 42.114312], [-71.86951499999999, 42.11267100000001], [-71.868056, 42.112570000000005], [-71.867355, 42.11619299999999], [-71.864723, 42.11703199999998], [-71.853365, 42.11636], [-71.851877, 42.116119000000005], [-71.848331, 42.11504499999998], [-71.848158, 42.115277], [-71.84654499999999, 42.11595200000003], [-71.844379, 42.11727899999999], [-71.839958, 42.11923000000001], [-71.8371, 42.118767999999996], [-71.835962, 42.11882200000001], [-71.83393, 42.11934600000001], [-71.83121799999999, 42.11980299999998], [-71.82810599999999, 42.12084199999999], [-71.825104, 42.12137699999998], [-71.824023, 42.121038], [-71.822994, 42.121241], [-71.82187499999999, 42.120975], [-71.82040599999999, 42.12095999999999], [-71.819755, 42.12073], [-71.818772, 42.120797999999986], [-71.817227, 42.121317999999995], [-71.814775, 42.122814000000005], [-71.81438399999999, 42.12357199999998], [-71.813082, 42.125274000000005], [-71.817992, 42.13332199999999], [-71.829512, 42.129411000000005], [-71.83027299999999, 42.133303000000005], [-71.831942, 42.14377500000001], [-71.744114, 42.18250499999999], [-71.740533, 42.179206], [-71.73377099999999, 42.183504000000006], [-71.733961, 42.18677499999999], [-71.723535, 42.191484], [-71.718614, 42.17296700000001], [-71.69520399999999, 42.175788000000004], [-71.69131399999999, 42.163129999999995], [-71.693596, 42.161289999999994], [-71.691369, 42.14937800000001], [-71.693713, 42.136159], [-71.704661, 42.125233000000016], [-71.69201, 42.120292], [-71.707805, 42.099921], [-71.697617, 42.103139999999996], [-71.685541, 42.107264], [-71.679962, 42.10337399999999], [-71.680055, 42.100143], [-71.696606, 42.097193], [-71.696666, 42.09532700000001], [-71.696287, 42.0711], [-71.679242, 42.074176000000016], [-71.679964, 42.07088200000001], [-71.681657, 42.05684399999999], [-71.682188, 42.049808000000006], [-71.682451, 42.043742], [-71.681665, 42.031591999999975], [-71.680869, 42.01147399999999], [-71.76601, 42.009744999999995], [-71.790218, 42.008736999999996], [-71.79924199999999, 42.008064999999995], [-71.799898, 42.015505], [-71.800281, 42.021984], [-71.80064899999999, 42.023568999999995], [-71.86598, 42.02411299999999], [-71.87297199999999, 42.02435299999999], [-71.87443900000001, 42.02423499999999], [-71.883068, 42.02428799999997], [-71.884512, 42.02491999999999], [-71.88499, 42.024955999999996], [-71.885628, 42.025642], [-71.88723399999999, 42.02824899999999], [-71.88734699999999, 42.028815], [-71.886985, 42.02904800000001], [-71.88690799999999, 42.02954999999999], [-71.887002, 42.03007100000001], [-71.88751599999999, 42.030415], [-71.887957, 42.031205], [-71.887976, 42.031463], [-71.887677, 42.031942], [-71.887675, 42.032408999999994], [-71.888116, 42.032771999999994], [-71.88885599999999, 42.033952], [-71.889477, 42.036006999999984], [-71.888899, 42.038925000000006], [-71.888173, 42.040154000000015], [-71.887636, 42.04177], [-71.887385, 42.04282299999999], [-71.887434, 42.043716999999994], [-71.88713299999999, 42.044348000000014], [-71.88715599999999, 42.044759], [-71.88642, 42.04586800000002], [-71.886653, 42.04629799999999], [-71.887298, 42.046645999999996], [-71.8875, 42.046952999999995], [-71.88756699999999, 42.05033799999999], [-71.887174, 42.050720999999996], [-71.886699, 42.050908], [-71.883986, 42.05060700000001], [-71.882972, 42.05100700000001], [-71.881219, 42.051103], [-71.880667, 42.0516], [-71.880813, 42.052354999999984], [-71.88026099999999, 42.053924], [-71.880719, 42.056035999999985], [-71.880478, 42.056293999999994], [-71.880144, 42.05750299999999], [-71.88051, 42.05805600000001], [-71.88165, 42.058479], [-71.882145, 42.05840999999998], [-71.882477, 42.05867500000001], [-71.882443, 42.059289], [-71.88179699999999, 42.060041], [-71.882296, 42.06218500000001], [-71.882001, 42.062722999999984], [-71.880611, 42.063444000000004], [-71.880217, 42.063467], [-71.879609, 42.06389499999999], [-71.878827, 42.066158], [-71.879098, 42.06695], [-71.878978, 42.06775800000002], [-71.879083, 42.06817600000001], [-71.881509, 42.075893000000015], [-71.891139, 42.072731999999995], [-71.895113, 42.094247999999986], [-71.909235, 42.091260999999996], [-71.911855, 42.101326]]]}}