{"type": "Feature", "properties": {"district_name": "32nd Middlesex", "chamber": "house", "vintage": "2001-2010"}, "geometry": {"type": "Polygon", "coordinates": [[[-71.07997194725883, 42.526589937922104], [-71.07909808705851, 42.52499498896066], [-71.07899806777331, 42.52439483070771], [-71.0786969489324, 42.52389409079893], [-71.07799708601458, 42.52279379046772], [-71.07739695285326, 42.522393788799874], [-71.07789701455458, 42.52129393567219], [-71.0772370597644, 42.51966375155812], [-71.07469395922979, 42.51689792899859], [-71.07379704313828, 42.51619411089384], [-71.07429692699583, 42.51529401037976], [-71.07439698686227, 42.51469402674828], [-71.07369706236142, 42.51309404592802], [-71.07149691670682, 42.50969474232064], [-71.0714969092761, 42.506894943779606], [-71.07189699276987, 42.50559499135928], [-71.0712970284844, 42.50469475484547], [-71.07139707810835, 42.50429507937421], [-71.06959691010002, 42.50229485869178], [-71.06939697412088, 42.501394978893366], [-71.0693970169577, 42.49949487491128], [-71.06449593774714, 42.49879507335758], [-71.06179598990921, 42.49979482362908], [-71.06109598350972, 42.49909501741633], [-71.05969597675936, 42.49699489036544], [-71.0575969755872, 42.497196163482656], [-71.05519597074773, 42.49609478990163], [-71.0531960930539, 42.49569488317035], [-71.05249709036688, 42.49519590255111], [-71.05271394242416, 42.49485126915512], [-71.04952099073412, 42.49429305049947], [-71.04634998868019, 42.49399421285369], [-71.04376992622416, 42.493306023638496], [-71.04238194044186, 42.4926332017796], [-71.04549608512728, 42.488594901844465], [-71.04689605692609, 42.4876950921152], [-71.04729593818492, 42.48769497113239], [-71.05149608165357, 42.4862951720176], [-71.05259603609748, 42.485794733128905], [-71.05299598999747, 42.48339483253078], [-71.05359606930318, 42.4810947336739], [-71.0536959607866, 42.47919500451179], [-71.05419607650602, 42.47699522569501], [-71.05349601726452, 42.47589475854143], [-71.04769592033306, 42.46969518299842], [-71.04729600360115, 42.46889518321478], [-71.04689596410162, 42.46869499360251], [-71.04459603217113, 42.465794939892575], [-71.04279593845861, 42.46389499530442], [-71.03909597936016, 42.45949481367998], [-71.0361959050161, 42.45679699136419], [-71.02961006490666, 42.44914103750392], [-71.02529496286658, 42.444895989923744], [-71.02869592662944, 42.444297204852305], [-71.04859603166511, 42.442495922299145], [-71.05009701382936, 42.442196828462954], [-71.05339607978975, 42.4420960103933], [-71.05683009620655, 42.4415437882317], [-71.05859591023757, 42.44149599558965], [-71.07149597458208, 42.44019599387933], [-71.08279608469304, 42.43889608232932], [-71.08179593262899, 42.44559497646884], [-71.08039608741814, 42.45309476110701], [-71.08039599561124, 42.45439509142387], [-71.08009596743122, 42.4552948250589], [-71.07979600984716, 42.45789494886266], [-71.07909602841073, 42.46099494131334], [-71.07839699388201, 42.46889503348057], [-71.07819706356256, 42.47359481124], [-71.07785303640216, 42.474236115119005], [-71.07759703760136, 42.477395104054736], [-71.07659703418015, 42.47729522262057], [-71.07609705880324, 42.479195191323804], [-71.07629708715, 42.48039496067785], [-71.07495499227274, 42.48791283512625], [-71.07989792847202, 42.489696038286425], [-71.08559692440566, 42.49239494527005], [-71.08709698455458, 42.49509491362506], [-71.08739798670237, 42.496095846177255], [-71.0889980053509, 42.498796144321126], [-71.09009692235986, 42.50119474322244], [-71.09009706360828, 42.50149520465431], [-71.09442995856594, 42.50208894628799], [-71.10109191393781, 42.50198503190546], [-71.09939801374107, 42.505895272775405], [-71.09469805003677, 42.506995161644895], [-71.09419707342752, 42.50729385962081], [-71.09449796606727, 42.50789528095416], [-71.09631499737226, 42.50942927436278], [-71.09769806540072, 42.51009523836384], [-71.0973969645923, 42.51059382873636], [-71.09299793936691, 42.5152951491464], [-71.09099809533507, 42.51719492682896], [-71.08599805788296, 42.522695066495594], [-71.08329105546309, 42.52535118775363], [-71.08129901682537, 42.5254379402776], [-71.07997194725883, 42.526589937922104]]]}}