{"type": "Feature", "properties": {"district_name": "15th Suffolk District", "chamber": "house", "vintage": "2012-2020"}, "geometry": {"type": "Polygon", "coordinates": [[[-71.14044100000001, 42.285106000000006], [-71.13933, 42.28616600000002], [-71.139742, 42.287685999999994], [-71.136629, 42.287918], [-71.134305, 42.28881699999997], [-71.13363799999999, 42.289448], [-71.132494, 42.290772999999994], [-71.134126, 42.29205099999999], [-71.133697, 42.29250299999999], [-71.131577, 42.29134099999999], [-71.130577, 42.291962999999996], [-71.130462, 42.29320699999998], [-71.13057599999999, 42.294559], [-71.129429, 42.29603199999999], [-71.12933199999999, 42.29636200000001], [-71.129819, 42.297564], [-71.1298, 42.297882], [-71.130068, 42.298184000000006], [-71.12792499999999, 42.300157], [-71.13107099999999, 42.30130700000001], [-71.13461699999999, 42.30175], [-71.137103, 42.30118499999999], [-71.140135, 42.302147000000005], [-71.13650200000001, 42.306204], [-71.13079499999999, 42.31449699999999], [-71.126999, 42.318615], [-71.12879, 42.31881], [-71.12952, 42.31937999999999], [-71.12971, 42.32011999999999], [-71.13181, 42.32166000000001], [-71.13186, 42.32183999999998], [-71.131, 42.32251999999999], [-71.13087, 42.32350999999999], [-71.131998, 42.32565599999999], [-71.13161, 42.32704999999998], [-71.13251, 42.32814999999998], [-71.13287, 42.32890000000001], [-71.11749, 42.33165], [-71.117167, 42.331579999999995], [-71.11775, 42.33152999999999], [-71.11834, 42.329350000000005], [-71.11752000000001, 42.32940999999999], [-71.11531099999999, 42.32855300000001], [-71.115079, 42.32848599999999], [-71.114992, 42.32861900000001], [-71.114777, 42.328484], [-71.114775, 42.328987999999995], [-71.113784, 42.33059600000001], [-71.113162, 42.33257499999999], [-71.112219, 42.333911999999984], [-71.11072300000001, 42.33525599999999], [-71.110894, 42.33550499999999], [-71.10933299999999, 42.33700000000001], [-71.10491, 42.33419000000001], [-71.09813299999999, 42.33678299999999], [-71.099152, 42.33622399999999], [-71.099276, 42.335998999999994], [-71.095089, 42.33475700000001], [-71.097185, 42.331782], [-71.095351, 42.33155399999999], [-71.09650599999999, 42.330211999999996], [-71.097601, 42.32837699999999], [-71.099745, 42.32316900000001], [-71.103681, 42.318291], [-71.104475, 42.31702200000001], [-71.10537699999999, 42.314644], [-71.10605199999999, 42.314827], [-71.107793, 42.312891000000015], [-71.108848, 42.31343599999998], [-71.109883, 42.31290699999999], [-71.11071199999999, 42.31206099999999], [-71.111595, 42.31243800000001], [-71.11080799999999, 42.313199], [-71.11228100000001, 42.31401300000001], [-71.114113, 42.314136], [-71.11418100000002, 42.312307000000004], [-71.114853, 42.310393999999995], [-71.115472, 42.30967500000001], [-71.116529, 42.30916], [-71.118393, 42.30875099999997], [-71.12012899999999, 42.30895599999999], [-71.12058499999999, 42.313336], [-71.121741, 42.313029], [-71.12209899999999, 42.31272000000001], [-71.122254, 42.312207], [-71.122214, 42.31151799999999], [-71.121749, 42.31004099999998], [-71.120042, 42.30829400000001], [-71.119441, 42.30725499999999], [-71.119376, 42.306428000000004], [-71.119888, 42.30510899999998], [-71.119821, 42.30453199999999], [-71.11935799999999, 42.30369999999999], [-71.118073, 42.30279000000001], [-71.115934, 42.30237600000002], [-71.11394899999999, 42.301579], [-71.114588, 42.30100199999998], [-71.114671, 42.30055999999999], [-71.114159, 42.30017899999999], [-71.115436, 42.29820600000001], [-71.11583499999999, 42.298290000000016], [-71.115434, 42.298903], [-71.120708, 42.29559499999999], [-71.12280400000002, 42.294005], [-71.123077, 42.293735], [-71.12281, 42.293527999999995], [-71.122855, 42.293185000000015], [-71.123921, 42.291936], [-71.124278, 42.291234], [-71.125742, 42.28985699999999], [-71.125928, 42.288763], [-71.12581399999999, 42.288615], [-71.132699, 42.28220100000001], [-71.134119, 42.282559], [-71.13532900000001, 42.28335100000001], [-71.13604099999999, 42.28273099999999], [-71.137475, 42.28365999999998], [-71.139392, 42.28359900000002], [-71.139496, 42.284549000000005], [-71.14044100000001, 42.285106000000006]]]}}