{"type": "Feature", "properties": {"district_name": "3rd Bristol", "chamber": "house", "vintage": "2001-2010"}, "geometry": {"type": "Polygon", "coordinates": [[[-71.1017909531201, 41.99480013563331], [-71.08908996519928, 41.99200014446913], [-71.08625099867034, 41.983581811733224], [-71.08477093108313, 41.98163676850839], [-71.08289496825084, 41.980591723646185], [-71.08211601273342, 41.97982921210564], [-71.08135293619766, 41.97854680352931], [-71.08094104744703, 41.97656284939708], [-71.08092597907282, 41.97570127091122], [-71.08139891709385, 41.97364908886708], [-71.0838100355753, 41.96904811948974], [-71.08420704385544, 41.96595799856367], [-71.08119002684195, 41.96089997743324], [-71.08098995070654, 41.96019978195554], [-71.08099002231725, 41.959300001731464], [-71.08149005601797, 41.958900053891306], [-71.08279006700313, 41.95649975342178], [-71.08413096353279, 41.95449123814434], [-71.08586991833192, 41.95008922414786], [-71.08617506210054, 41.94796775835001], [-71.08688991388605, 41.94719998004598], [-71.08721296304354, 41.945534944528134], [-71.08745704290696, 41.945031063639995], [-71.09018797197965, 41.94249797419253], [-71.09153107726543, 41.94062105515677], [-71.09186700390372, 41.94077418961299], [-71.09288995391968, 41.93879988107045], [-71.09128995520423, 41.93700022243434], [-71.0859889625192, 41.93010021081731], [-71.07888897546417, 41.92129977936742], [-71.07792298573705, 41.91962887098319], [-71.06452506042837, 41.90338685185825], [-71.05930606678878, 41.90257789212076], [-71.05692601650787, 41.901219842640884], [-71.05643807779009, 41.901090205813006], [-71.05588795567448, 41.901479162987314], [-71.05550700968428, 41.901990882274426], [-71.055216957615, 41.90305104483383], [-71.05512493613234, 41.90431005619478], [-71.05434703530571, 41.90500422952539], [-71.05303499444739, 41.905142032111975], [-71.04949497898393, 41.90476797790124], [-71.04836598505072, 41.90408094127133], [-71.04746509168648, 41.902646936370736], [-71.04627505447243, 41.90165519989532], [-71.04597995921823, 41.8999647366184], [-71.04604605814328, 41.89959472862579], [-71.04563408695441, 41.89797807858033], [-71.04499308037158, 41.89724511281153], [-71.04325397092698, 41.89587975769538], [-71.04273492824034, 41.89505610586834], [-71.04276597904456, 41.894796252687236], [-71.04331490688651, 41.89439216466858], [-71.04433705544606, 41.89397983485978], [-71.04450494299726, 41.89409417468895], [-71.04476496535374, 41.89507097167901], [-71.04560403263918, 41.89501016421774], [-71.04656504477647, 41.894192969622814], [-71.04801490982997, 41.89341485218754], [-71.04810601994726, 41.893178869703725], [-71.04633600845148, 41.89248420316202], [-71.04601607731658, 41.891988861392335], [-71.04592400452192, 41.891247953028234], [-71.04734302049656, 41.891042005229465], [-71.04781608795092, 41.89081372232801], [-71.0481669995759, 41.8905011129579], [-71.04848792115823, 41.88966224333314], [-71.04929593516955, 41.8891122762598], [-71.0496169187646, 41.888662240114236], [-71.0489759690572, 41.8870221881786], [-71.04772507765499, 41.886021787681756], [-71.04720596430349, 41.8858998652864], [-71.0467019361452, 41.885403794632715], [-71.04592399125822, 41.88530503974125], [-71.04539003274279, 41.885443036698334], [-71.04507006408157, 41.88474792074377], [-71.04534397455689, 41.88411482853254], [-71.04586301347372, 41.883558107021244], [-71.04668691630742, 41.88301610870019], [-71.04882304738489, 41.882429212322776], [-71.05106605788286, 41.88299290079606], [-71.05642193393813, 41.883336843372916], [-71.05684998782105, 41.88345105050175], [-71.05747504676656, 41.88417601058342], [-71.06101505746086, 41.88532018385605], [-71.06307507386903, 41.885504224286045], [-71.06748507283768, 41.88453513170184], [-71.07329900096475, 41.893598251030646], [-71.07665599250055, 41.89557408689552], [-71.07799894392986, 41.8961918573962], [-71.08031906305764, 41.89679521027855], [-71.08269893869586, 41.8967341568251], [-71.08579604854988, 41.8984662345578], [-71.08881801194529, 41.900837765119185], [-71.09102998738082, 41.89879290698087], [-71.09122905597944, 41.897876953225854], [-71.09125891710251, 41.896451127051726], [-71.09174699618458, 41.896329075024695], [-71.0924490677912, 41.89522189913588], [-71.09267800525032, 41.89442983879263], [-71.0946160854853, 41.89427579939926], [-71.09705693173662, 41.89438292134087], [-71.09633999965503, 41.89627506287591], [-71.09727107262214, 41.89675610502743], [-71.09760694059477, 41.89709210327972], [-71.09769793902468, 41.897443003064964], [-71.0990870166729, 41.89690092568195], [-71.10477891611994, 41.89426923597265], [-71.10375700035002, 41.8930400893376], [-71.11086805755683, 41.88965277518962], [-71.11307994130918, 41.88787478795554], [-71.1135989802401, 41.88725698690974], [-71.11443804624109, 41.885769741558974], [-71.11579604994662, 41.88497582538591], [-71.11652892003421, 41.88479315047274], [-71.11727592003085, 41.883069232530076], [-71.1171850556386, 41.88252703286146], [-71.11657407834512, 41.880414781384644], [-71.11483498532769, 41.87603489588034], [-71.11336994146548, 41.8758217355391], [-71.10891393732085, 41.87453199497515], [-71.10700608860584, 41.873213176241705], [-71.11001306745224, 41.87221284508999], [-71.11149295210258, 41.87016114384414], [-71.11307991842281, 41.86666697921035], [-71.1135990014068, 41.86498788619385], [-71.11369006403581, 41.86387400697177], [-71.11335492861323, 41.86197425101117], [-71.11350692675602, 41.86151727821787], [-71.11875601899627, 41.86379820117334], [-71.12111700124693, 41.86420109517416], [-71.12112006937781, 41.86504687015869], [-71.12276990241003, 41.866593065477346], [-71.12306397972267, 41.86670377229441], [-71.12542203607627, 41.86637896485787], [-71.1267720805993, 41.867332135310406], [-71.12741190261322, 41.86760377380442], [-71.12795494849208, 41.86917328466118], [-71.12813491492001, 41.87062006251955], [-71.12836200968933, 41.87105297149123], [-71.13689992569898, 41.87247825324125], [-71.16699102831947, 41.87690014615749], [-71.17559207270554, 41.878300203057556], [-71.1876919532481, 41.87990000417386], [-71.19189204996299, 41.89680026610581], [-71.19539297615454, 41.909999748891785], [-71.17979197670198, 41.920100042500174], [-71.17709205209079, 41.92149979051063], [-71.16389193452152, 41.93020013921296], [-71.16319208929684, 41.93080018443667], [-71.15239201901635, 41.937599766449395], [-71.14286391326868, 41.947945183505404], [-71.12579095075152, 41.96599987186592], [-71.12019098270432, 41.97219996427261], [-71.1017909531201, 41.99480013563331]]]}}