{"type": "Feature", "properties": {"district_name": "12th Plymouth", "chamber": "house", "vintage": "2001-2010"}, "geometry": {"type": "MultiPolygon", "coordinates": [[[[-70.67654467464725, 42.0227274373606], [-70.67658393212012, 42.02226008448521], [-70.67596996796985, 42.021854439213115], [-70.67590929503467, 42.02132390770717], [-70.67692163986337, 42.0204533332711], [-70.67860878035891, 42.01983407470435], [-70.6783632953577, 42.01967587186882], [-70.67692154936927, 42.01949837027554], [-70.67661533220803, 42.018989706658736], [-70.67560273433052, 42.018833293184514], [-70.67412969072369, 42.01827849933728], [-70.67348603119923, 42.01702627476701], [-70.67360930526702, 42.01546614296475], [-70.67333347327218, 42.015380297893145], [-70.67308828079375, 42.01560868797611], [-70.67311769424275, 42.01755426561297], [-70.67225895106823, 42.01897233698256], [-70.67228855766339, 42.01953921917166], [-70.67274906764719, 42.02001919019169], [-70.67253401737644, 42.02088705301253], [-70.67192063523215, 42.02093213468726], [-70.67176795636732, 42.020573698182176], [-70.67072418119302, 42.01965225676089], [-70.6693755610162, 42.017113546765486], [-70.66882424880033, 42.01535606346365], [-70.66885496433471, 42.01395901404823], [-70.66861025441214, 42.01279181800208], [-70.66821175426004, 42.01222111738606], [-70.66811960831234, 42.01098805953721], [-70.66965386107805, 42.00883099899533], [-70.67131064605613, 42.007482325105734], [-70.67278315934203, 42.00686665826094], [-70.67802823826752, 42.005222470957285], [-70.6789791909758, 42.005082424178866], [-70.68042099423887, 42.005728097293215], [-70.68140273790429, 42.006596111406225], [-70.68229067156983, 42.00769134863438], [-70.68348718985173, 42.00846634051608], [-70.68403901656168, 42.009151753505165], [-70.68520505410248, 42.010071694602416], [-70.68637101247016, 42.01185653893445], [-70.68676920283083, 42.01320149330971], [-70.68643230705769, 42.014350448614564], [-70.68664679871851, 42.01489669940262], [-70.68630743526974, 42.015794090646686], [-70.68627867041137, 42.016361687736435], [-70.6868003652051, 42.01702041876104], [-70.68636959001742, 42.01848608713667], [-70.68716767305622, 42.0183938459178], [-70.6873525368763, 42.01801250142373], [-70.68867130109571, 42.01792112973333], [-70.68867150286239, 42.017461383314526], [-70.68910139869033, 42.016977663871714], [-70.68913147192063, 42.01595032765698], [-70.69140129312835, 42.01503451211839], [-70.69176946438122, 42.01471354777335], [-70.69180022741624, 42.01416341287092], [-70.69210673513696, 42.0135285652397], [-70.69268960741144, 42.013204603488326], [-70.69364086227878, 42.01322651237039], [-70.6945612166145, 42.0134834088273], [-70.6951740907727, 42.01388838854576], [-70.69520525897408, 42.01434779734827], [-70.69566479235363, 42.014737064192765], [-70.69575654133062, 42.01601455298838], [-70.69606473923409, 42.016109007720765], [-70.69618663397725, 42.015539812379075], [-70.69680063832331, 42.01460323785175], [-70.6969232126445, 42.01397946594975], [-70.69916192208386, 42.012703697740335], [-70.70078641315469, 42.01121087390024], [-70.70140062043549, 42.01112062538884], [-70.70232093946713, 42.01153053130739], [-70.70247394813585, 42.011213092102736], [-70.70232053402577, 42.010179404487154], [-70.70271916911045, 42.009497902033566], [-70.70357820767467, 42.00901656154329], [-70.70498845791744, 42.009013435341764], [-70.70728899388078, 42.00825846191286], [-70.708791532799, 42.006840086378766], [-70.70946674569659, 42.00654200615545], [-70.71047854505616, 42.00657150518319], [-70.7113377757339, 42.007252711952596], [-70.71185907907004, 42.00722704374657], [-70.7118894749922, 42.006478820115206], [-70.71247190247999, 42.005812623508355], [-70.71253329150133, 42.0054241941389], [-70.71136750205572, 42.00445951651365], [-70.71127517095934, 42.0035692051338], [-70.71148938122305, 42.00317845373697], [-70.71143370509641, 42.00240544335097], [-70.71099762698971, 42.000915697283155], [-70.71029257769783, 42.00009767785845], [-70.71038284758627, 41.99747428515724], [-70.71090432811005, 41.99624155762539], [-70.7109347506106, 41.99582647105236], [-70.7100753555223, 41.994290471892214], [-70.70998273159908, 41.993517762808395], [-70.71050355290133, 41.99276222946858], [-70.71084083071742, 41.992694220834125], [-70.7125583180612, 41.993649760207816], [-70.71488898881184, 41.99388525347362], [-70.71593171501904, 41.99426550470402], [-70.71663790997346, 41.994777362407845], [-70.71752670128612, 41.994610694018164], [-70.71580873938184, 41.993655217809405], [-70.7147050184003, 41.99326667719417], [-70.71234383086102, 41.99287846476047], [-70.71080995772567, 41.991595553573205], [-70.71047251590127, 41.99164612073995], [-70.71022697256319, 41.992072659974916], [-70.70943031988186, 41.99253478964898], [-70.7089101492157, 41.99372249240435], [-70.70890987682647, 41.99419968782291], [-70.70961568894654, 41.99573857804418], [-70.70961622081022, 41.99624279003818], [-70.7084214119086, 41.999718405753164], [-70.70803694843374, 42.000119785458516], [-70.70663477814094, 42.0004578342292], [-70.70512512174167, 42.00009958142777], [-70.70311607143846, 41.999347851158376], [-70.7019807857126, 41.998527347585444], [-70.70136698842286, 41.99784272270433], [-70.7006617155758, 41.997655469106604], [-70.69995613098318, 41.9969538709701], [-70.699925646306, 41.99637854449039], [-70.69967957279816, 41.99576062514245], [-70.69903565065424, 41.99489682714788], [-70.69903489475898, 41.99351868359391], [-70.69983192993811, 41.99027391644413], [-70.69961682657731, 41.988395131732325], [-70.69909569185528, 41.987160220927535], [-70.69869692059999, 41.98675170011383], [-70.69737878388521, 41.98606885671267], [-70.69477131289314, 41.98436963861158], [-70.6930381886327, 41.98355720981659], [-70.69121494888793, 41.98224271591617], [-70.6902334512055, 41.981878993893694], [-70.68934433795646, 41.98201844506075], [-70.6878730019658, 41.98153586283593], [-70.68722904382507, 41.98196853556095], [-70.68679979231028, 41.98206508237487], [-70.68655423555114, 41.98174482740831], [-70.68689169433709, 41.98110008317347], [-70.68492994258652, 41.98019248934537], [-70.68217051443416, 41.97947668177612], [-70.67925828388321, 41.9777186404216], [-70.67600918736198, 41.972984040658865], [-70.67505937075012, 41.97202560716675], [-70.67505894825975, 41.9714763736401], [-70.67441562331015, 41.970494818492845], [-70.67266851733719, 41.969124865031034], [-70.67263779200866, 41.96893612139788], [-70.67446189150901, 41.96875910667896], [-70.67794203195555, 41.96731489141893], [-70.6781580901901, 41.96754716712359], [-70.68142289211062, 41.96568598982228], [-70.68221111991355, 41.96478394402984], [-70.68367407180503, 41.96706278724488], [-70.6860668587992, 41.96589473160563], [-70.6872741725056, 41.96488083721944], [-70.68844512770266, 41.96432079530599], [-70.69011593412426, 41.96417676561901], [-70.69326186377583, 41.9629677511555], [-70.6923621020529, 41.96218594633348], [-70.6857278770027, 41.95788177381613], [-70.68653209628236, 41.95724991698283], [-70.68716802374101, 41.95701415837239], [-70.68820315842079, 41.95713124589403], [-70.6882079694977, 41.95563102535137], [-70.68891487265533, 41.95434907193552], [-70.6887490489975, 41.95393202813176], [-70.68776482143849, 41.95358120869754], [-70.68754790704453, 41.953298856605386], [-70.68754988800764, 41.952966856197406], [-70.68691717859281, 41.95239286632623], [-70.69004715278398, 41.95082705420281], [-70.69395802112187, 41.95026608833533], [-70.69747499322084, 41.94799713284979], [-70.70204503861986, 41.94540398320984], [-70.70219699181261, 41.94488676007737], [-70.69758918249171, 41.945336760054865], [-70.69579813057935, 41.945253262081145], [-70.6937799105547, 41.94480516362779], [-70.69230998451941, 41.94415776344778], [-70.69583219130362, 41.94228788084502], [-70.69659690138383, 41.94144803091691], [-70.69789798654683, 41.93919215445499], [-70.6991079835985, 41.937969943571964], [-70.70051991752499, 41.936746873566065], [-70.70254098982794, 41.93532489704684], [-70.7028190163758, 41.934548010359165], [-70.705329105961, 41.93321380727851], [-70.70796296033609, 41.92994909664154], [-70.70927987885358, 41.92503090034594], [-70.70985714238208, 41.92362974663667], [-70.71099311680584, 41.92323017874286], [-70.71237683848602, 41.923299937986805], [-70.71302185735824, 41.922567199624794], [-70.71316182642846, 41.92233800930533], [-70.71304383124134, 41.920696814788776], [-70.71397600519018, 41.91806174877299], [-70.71372808105352, 41.91766781910904], [-70.71292899614375, 41.91709282495584], [-70.7132461750959, 41.916149045529906], [-70.71255203429025, 41.91589328053158], [-70.71214609897523, 41.915941126976264], [-70.71146007905604, 41.91655202616014], [-70.71010211814095, 41.91709018885394], [-70.70987984880212, 41.917334004537075], [-70.70986589353204, 41.917973177137064], [-70.70862715168577, 41.9182212078015], [-70.70823797958977, 41.91794895477024], [-70.70771110194829, 41.918057848058744], [-70.70747089535823, 41.918500185351995], [-70.70784700642547, 41.91912574021292], [-70.70452106914153, 41.91907617755259], [-70.70478786707531, 41.91662618500645], [-70.70552902304259, 41.915315105623506], [-70.70655400443472, 41.91401780692883], [-70.70913405474936, 41.91140715466767], [-70.70980482217107, 41.909199115362476], [-70.7107209506608, 41.9092859275547], [-70.70987506441472, 41.91012586708139], [-70.70977692267641, 41.91056806669028], [-70.70994191596375, 41.91081005995105], [-70.71116583451544, 41.91120005746404], [-70.71224094026255, 41.91089177944082], [-70.71248315534334, 41.91058619572061], [-70.71271894587211, 41.90973415394193], [-70.71247011958242, 41.90920289788406], [-70.71190799457646, 41.90899981053935], [-70.71213691828278, 41.908398136014675], [-70.71119915231125, 41.90820427454061], [-70.71225288608369, 41.90563026857085], [-70.71194683658283, 41.90546383731237], [-70.71130914851474, 41.905435241000305], [-70.71225001334244, 41.90309005195714], [-70.71297617844654, 41.902418091223744], [-70.71325015862777, 41.90124610910746], [-70.71355392062783, 41.90104674191124], [-70.71519794150325, 41.90070578112496], [-70.71691911201492, 41.89978626472939], [-70.71967813679161, 41.89680914246608], [-70.72294401316871, 41.894277159043455], [-70.73108415958554, 41.90383689816069], [-70.73378482507715, 41.906392993833265], [-70.73632307993796, 41.90941275724642], [-70.74051716946781, 41.91524196491438], [-70.74263085087438, 41.917240206635405], [-70.75049006773571, 41.9258782587548], [-70.7508580117387, 41.92720591588304], [-70.75841004547867, 41.947829844246264], [-70.77004207105671, 41.946421949100504], [-70.77050603920412, 41.94650201122831], [-70.77156201123574, 41.94624594843139], [-70.78223505767136, 41.94318021058153], [-70.80549901302966, 41.93579804527244], [-70.82962697111918, 41.92773421583107], [-70.82770701698709, 41.92565377807426], [-70.82474704187516, 41.923013994474324], [-70.82357904082878, 41.92163795564416], [-70.81527495188278, 41.9136382083386], [-70.81369105206755, 41.90883817272382], [-70.81327491725666, 41.90797412437299], [-70.80687408983161, 41.888325920385974], [-70.80788202710772, 41.888037722621036], [-70.81133908142614, 41.88647004221092], [-70.81225102062992, 41.8866297292547], [-70.81401093654773, 41.88661386670116], [-70.81489100865471, 41.88653418430587], [-70.81593096295892, 41.886134128742164], [-70.81687498194201, 41.887253992365565], [-70.81793097803217, 41.889542181741746], [-70.82117896287458, 41.89159019595645], [-70.8220430187919, 41.89261387539152], [-70.82322692520424, 41.89355784410607], [-70.82847501958278, 41.89687012726029], [-70.83233098000483, 41.900213981612474], [-70.8336270206568, 41.90086981947558], [-70.83585100201492, 41.90131776473885], [-70.83703509275482, 41.901862058818345], [-70.83897102271801, 41.90312592173946], [-70.83980292361926, 41.90427813775659], [-70.84034692207851, 41.90450187226409], [-70.84329104942562, 41.904710172153585], [-70.84577097347187, 41.904405903747104], [-70.84596308556169, 41.90379813052907], [-70.84781908284708, 41.902517844742995], [-70.84881102874257, 41.902582030544195], [-70.85007508007516, 41.90214974555078], [-70.85183499454851, 41.90093412471193], [-70.85388291980395, 41.898662175238805], [-70.85421901785993, 41.89853408177485], [-70.8562029466948, 41.89885422976363], [-70.85594692325935, 41.898102104236656], [-70.85577102927104, 41.896725800137006], [-70.85511492283014, 41.8956540344323], [-70.85546709564767, 41.8936380736412], [-70.85540295532445, 41.89299788294518], [-70.85490694705996, 41.89170192733566], [-70.855098995217, 41.89101423077488], [-70.85637891136707, 41.88931807486664], [-70.85714705793937, 41.88896619072876], [-70.85925897948458, 41.88570185023394], [-70.85945105046734, 41.8852859497004], [-70.85938698064655, 41.88360583589682], [-70.86444400033415, 41.88298190706492], [-70.86941999255917, 41.88267805406688], [-70.87164400369001, 41.88226208665281], [-70.8754199100153, 41.88221415861702], [-70.87911608237177, 41.88109423522739], [-70.88058791766393, 41.882886084289865], [-70.88098807149304, 41.8836698815659], [-70.88105201113005, 41.88454977853504], [-70.88188393837041, 41.88573376695838], [-70.882363985128, 41.88581402213927], [-70.89001202457453, 41.8922297387659], [-70.89343598720839, 41.89416576105574], [-70.89423592982578, 41.895205986530435], [-70.89434799075998, 41.89571810539301], [-70.89586805943898, 41.89677395900482], [-70.89694008429565, 41.89639021925524], [-70.89764404315122, 41.896357921143064], [-70.89746804404099, 41.896950107528575], [-70.89765990796143, 41.897270182154045], [-70.89820405243225, 41.89733382641244], [-70.89972394747348, 41.89827820701056], [-70.9000600335645, 41.89946226885994], [-70.89996403166452, 41.8998781827539], [-70.89964391906307, 41.90019781284037], [-70.8984600872502, 41.90055004355767], [-70.89833199711933, 41.90077389241985], [-70.89865199547192, 41.9012859767532], [-70.90006003275883, 41.90178183175915], [-70.90207606081245, 41.90200624396992], [-70.90239598514063, 41.902390006341136], [-70.90268403561988, 41.90330088101761], [-70.903355907815, 41.9039087630534], [-70.90873293154776, 41.9048849342866], [-70.91066904601298, 41.90547680352871], [-70.91090898369131, 41.90630918466782], [-70.9111970402815, 41.90664493016039], [-70.91313301782485, 41.906788826035076], [-70.91238092384094, 41.90800494932985], [-70.92185297012841, 41.90744499959151], [-70.91951704608766, 41.9035891594402], [-70.91881295439372, 41.900613255628926], [-70.91791697740595, 41.896676923376646], [-70.91942106345086, 41.896452738883355], [-70.91886097094009, 41.89435710321583], [-70.91964508380737, 41.89459687922158], [-70.92225301304853, 41.8947091473385], [-70.9262690214184, 41.89550877302993], [-70.92959701088493, 41.89648490278695], [-70.9337729303685, 41.8981488513714], [-70.93487702845891, 41.8983090671823], [-70.93628490005992, 41.89810106612932], [-70.93894098233221, 41.89648506301892], [-70.94058891108628, 41.89584488967738], [-70.94228505686608, 41.895717008801235], [-70.94545299913781, 41.89611677840173], [-70.94898893463544, 41.896164853963604], [-70.95066906428328, 41.895861200907234], [-70.95190107159047, 41.89526894082756], [-70.95538895369516, 41.896837071410985], [-70.95863702323373, 41.8988372467854], [-70.95748307961486, 41.89344311253832], [-70.960501048732, 41.89445175499488], [-70.96239093885333, 41.895898995890384], [-70.96295803970001, 41.89603727727991], [-70.96329397900658, 41.89666123091265], [-70.96316606567746, 41.89698082448632], [-70.96323005971422, 41.89747688153916], [-70.96426999041279, 41.89819699403556], [-70.96474994990903, 41.89958917545876], [-70.96723005909791, 41.90150897046931], [-70.967726054365, 41.901668846758895], [-70.97009401574529, 41.9016050238321], [-70.97212590731063, 41.90198921073981], [-70.9739979506532, 41.901732803075035], [-70.97446204536239, 41.90149296882451], [-70.97577394325431, 41.90163687192365], [-70.9764139324398, 41.901509256650726], [-70.97686198643876, 41.90184500143648], [-70.97761406144205, 41.902837155680096], [-70.97790194102544, 41.90298083714268], [-70.97796603929213, 41.90331708098393], [-70.97865406379162, 41.90413279812951], [-70.97946999638486, 41.90406899399083], [-70.97993400654262, 41.9038612079384], [-70.98031795371303, 41.90400476256972], [-70.98098999402309, 41.90482095989295], [-70.98118199986645, 41.905317029472734], [-70.98223791574684, 41.905733169122335], [-70.98284592912641, 41.906277264814456], [-70.98367805529642, 41.9063091668764], [-70.98375804949634, 41.90675689837566], [-70.98422205215591, 41.90685296563749], [-70.98468594891301, 41.90768508195667], [-70.98511801365137, 41.90779675765054], [-70.98538991694686, 41.90768488048077], [-70.98742196868375, 41.90611726941598], [-70.99135503892835, 41.90605495124758], [-70.99197897715838, 41.906310954528294], [-70.99225105014914, 41.90679103775809], [-70.99268301295253, 41.90667872948961], [-70.993034966775, 41.90687105138708], [-70.9937709553492, 41.90682311347386], [-70.99423509101966, 41.90635923546165], [-70.99459102850504, 41.90640526216457], [-70.99457596052115, 41.906666866262974], [-70.99329607977191, 41.90754692007944], [-70.99276800468256, 41.908138811172016], [-70.99231994906164, 41.90981879502282], [-70.99231992121982, 41.9110989944789], [-70.99278395485193, 41.91252305318878], [-70.9934239244016, 41.91572272722317], [-70.99396794411165, 41.91642684996239], [-70.99495997477811, 41.91671485371947], [-70.9959359067081, 41.91649126736043], [-70.99612805745365, 41.91610721302376], [-70.99611194845279, 41.91564289122018], [-70.99647999832723, 41.91540311108011], [-70.99744008105019, 41.915658872777364], [-70.99811191584295, 41.91613901617966], [-70.9965630147734, 41.91636291475025], [-70.9970060833663, 41.91728492309572], [-70.99710206865983, 41.91910912507283], [-70.99625190817791, 41.922525047003454], [-70.99665394372734, 41.9239730158753], [-70.99632505396197, 41.92406610329734], [-70.99582106553584, 41.9247678406794], [-70.99576007132009, 41.925333111772616], [-70.99646206287565, 41.9269191417228], [-70.99722495093332, 41.9276439121135], [-70.99925397553325, 41.928445138033425], [-70.99959301542965, 41.928452818329085], [-70.99998706380485, 41.92870101618489], [-71.00014309038217, 41.92905621387929], [-70.99988696923769, 41.92950076847556], [-70.99998696920294, 41.92960080353688], [-70.99948606671728, 41.93002909644878], [-70.99862207867255, 41.93043721970016], [-70.99871898092418, 41.93330077339613], [-70.99849507528978, 41.93390921368908], [-70.9977899246819, 41.93454874387042], [-70.99188600644098, 41.931500818210736], [-70.98851007928049, 41.93091684350368], [-70.9863860957631, 41.935800744846716], [-70.9848859520692, 41.936500769069085], [-70.98168602633173, 41.93980072828076], [-70.97948606194618, 41.94060104564563], [-70.97578608436427, 41.93960104757821], [-70.97348602117088, 41.94010086386416], [-70.96858605431119, 41.938701189304844], [-70.96558596937673, 41.936800947424985], [-70.9605860160957, 41.93600088954188], [-70.95668598589698, 41.934200825054724], [-70.95168591597518, 41.93450106268414], [-70.94858603764546, 41.93450077194775], [-70.94678598873763, 41.93270092327726], [-70.94298503331629, 41.93670085871159], [-70.94028506707693, 41.9391011888085], [-70.93658496091051, 41.94750077996095], [-70.93708499750231, 41.94960107753099], [-70.93448491433477, 41.95550077643284], [-70.93038491253229, 41.96020109238688], [-70.92828505880716, 41.96030090015691], [-70.92368507201806, 41.9592007420195], [-70.92028497660256, 41.963101224731936], [-70.92018495012405, 41.96210076237593], [-70.91368494159725, 41.96150093190874], [-70.91488496652208, 41.962001153713636], [-70.91378502908773, 41.96330103564114], [-70.91238490506372, 41.96330116505331], [-70.9098850605259, 41.964201022103275], [-70.91088492427879, 41.965800939375825], [-70.9088850177903, 41.96640116371708], [-70.90718492729874, 41.96830111672441], [-70.90718500757593, 41.9706009728044], [-70.90858492611287, 41.972101125724286], [-70.90858501893885, 41.97420120944727], [-70.91218505745455, 41.97790111312304], [-70.91218498323168, 41.97850097524885], [-70.91148506107984, 41.98020074023977], [-70.9012850850386, 41.98260124599718], [-70.89928502911167, 41.991900998571516], [-70.89908502604175, 41.99900094524547], [-70.89948501037975, 42.003200952323056], [-70.89858501979323, 42.00860115996899], [-70.89774104792893, 42.00888483206821], [-70.89682908966395, 42.009892924760905], [-70.89588507222035, 42.010500750394556], [-70.8938529070551, 42.01058115898719], [-70.89170895642764, 42.01010102439286], [-70.88497296260235, 42.009509029706365], [-70.8843849385124, 42.00930103513823], [-70.88498502057777, 42.00190108850929], [-70.88452497314202, 42.00077316805789], [-70.88372502615887, 42.00019713337384], [-70.8831169125393, 41.9994448748423], [-70.88218906546317, 41.99730095113825], [-70.8818210756638, 41.99691687782867], [-70.88076502607987, 41.996309049871066], [-70.87238501315358, 41.993301182680526], [-70.86858498325559, 41.99270121313943], [-70.86158398206133, 41.99100117383716], [-70.85698407662628, 41.99180091773943], [-70.85318405118187, 41.99150093000908], [-70.85338393515681, 41.99820073401945], [-70.85408397659914, 41.99850125076379], [-70.85358391218863, 41.9989007683188], [-70.85518392122233, 42.00060079277874], [-70.8543840870158, 42.00080111135008], [-70.85448400598405, 42.00140097213353], [-70.85198400887838, 42.00190116225685], [-70.85168394098834, 42.00140088776525], [-70.8502840290946, 42.00100072805898], [-70.84898393758479, 42.00080088210439], [-70.84498396458879, 42.00073077081543], [-70.84488401631417, 41.999300877571166], [-70.8443840337637, 41.9993008211282], [-70.84408402270346, 41.99580120278415], [-70.8390839869916, 41.99710213511163], [-70.83518404099583, 41.99690226364679], [-70.83148390972732, 41.99560217790901], [-70.82978408546668, 41.998902179099325], [-70.83068407906346, 42.00150218192506], [-70.829383989273, 42.00440216198492], [-70.8266839147237, 42.00590227816662], [-70.82308401699349, 42.008601807875166], [-70.82078404745178, 42.01240175584675], [-70.82058402784337, 42.01290196039244], [-70.8211839131827, 42.01670222298973], [-70.82098396953185, 42.01850175541454], [-70.81608392418447, 42.0158018689539], [-70.81598401440382, 42.01560206680202], [-70.81758399039029, 42.01470226026185], [-70.8150840760569, 42.0117020637976], [-70.81318394435661, 42.012102016784546], [-70.81208399514937, 42.01100203472284], [-70.81048400840062, 42.0087021056739], [-70.80898390443762, 42.00760192131131], [-70.80638399268045, 42.01060183591758], [-70.80748393466202, 42.01150211025946], [-70.80738809118603, 42.01242214937827], [-70.79918008228609, 42.01355780834055], [-70.80038394329398, 42.01610194761397], [-70.79668393644171, 42.02050172415167], [-70.77608304868866, 42.02320202551194], [-70.77158308987698, 42.022601728479806], [-70.76978396658883, 42.022203101441505], [-70.76820306056753, 42.02681411411189], [-70.76692107754891, 42.028014085569815], [-70.76558400238065, 42.03120292431389], [-70.76359300052121, 42.03117492776318], [-70.76098395107518, 42.031802989242856], [-70.75939502661046, 42.03308980494602], [-70.75928408678725, 42.03430288446751], [-70.76008404443925, 42.03540312731496], [-70.76248394223464, 42.03720303324739], [-70.76422993395254, 42.038115762256666], [-70.76674594401626, 42.04307208212545], [-70.76699002580823, 42.04400101824961], [-70.76752908704593, 42.044554815972475], [-70.76881498815803, 42.045191041778544], [-70.78118499009163, 42.04650290761029], [-70.77398393907256, 42.05810191776852], [-70.77178502660516, 42.06130278860187], [-70.76654499929816, 42.05571298553487], [-70.76143493680104, 42.049235790121], [-70.76007296873945, 42.04786913888792], [-70.75915308223159, 42.04728020310194], [-70.75569395233592, 42.045603899208295], [-70.75347092834167, 42.04300312661891], [-70.7517439106391, 42.04164974728879], [-70.74425687139713, 42.03780719162495], [-70.74192885582978, 42.036161005800345], [-70.7391779968489, 42.03387326840904], [-70.73584490212647, 42.03156412635127], [-70.733708084701, 42.029309047924656], [-70.7317861075828, 42.02830518761538], [-70.73129807282389, 42.02781290227859], [-70.73078790147004, 42.026811191538755], [-70.73013412596798, 42.026232809818154], [-70.72884701869651, 42.02557193272283], [-70.72577783170671, 42.02465083430609], [-70.72631984084461, 42.014000897824054], [-70.72055981378647, 42.0143298149478], [-70.71259788948971, 42.01629773411405], [-70.71047096434977, 42.01712210866926], [-70.69924802040902, 42.02249808347951], [-70.69878889374114, 42.02290903886743], [-70.69694793244567, 42.02538002604004], [-70.69603981217048, 42.02563306205391], [-70.69417381337676, 42.023841142724265], [-70.6925930342792, 42.02461725317656], [-70.68885115464113, 42.021451861889524], [-70.68852303071279, 42.02055198130444], [-70.68098003866189, 42.02439626454117], [-70.68030082252739, 42.02451126601613], [-70.68018015723295, 42.02415306168801], [-70.67982799468817, 42.02389618218318], [-70.67622630344789, 42.023272679569125], [-70.67654467464725, 42.0227274373606]]], [[[-70.60912197070589, 42.01358474284903], [-70.60469822921472, 42.00926438422249], [-70.60284313488006, 42.00795779858149], [-70.60083033008777, 42.00679062686479], [-70.60194706135057, 42.0048089989074], [-70.6029838213486, 42.004401834713036], [-70.6046589132572, 42.004659748934685], [-70.60604116589329, 42.005489910329395], [-70.60685731045206, 42.00628468863183], [-70.61035706900508, 42.00779647168379], [-70.61154848853728, 42.00790308297972], [-70.61334956408503, 42.00749557471858], [-70.61988200976722, 42.004809437096384], [-70.62254207674405, 42.00324127506203], [-70.62745836489299, 41.9994337036939], [-70.62920823412834, 41.996761101276334], [-70.62936228543379, 41.99630870786084], [-70.63016047815697, 41.99550499892442], [-70.63197012072834, 41.99440734935344], [-70.63331969758501, 41.99404561315213], [-70.6368768857565, 41.99418394350597], [-70.6377658924768, 41.99465716473481], [-70.63819548240254, 41.995299672883434], [-70.63804092914746, 41.996517396377], [-70.63751920893814, 41.997245578611], [-70.63632192715315, 41.99772218791462], [-70.63543310599879, 41.99781563807732], [-70.63469733851866, 41.99763730765946], [-70.63298082287118, 41.99674305822984], [-70.63184576184906, 41.99685881523623], [-70.63107749389489, 41.99884169352769], [-70.63120760486566, 42.00011446849171], [-70.63208758665826, 42.00056121152282], [-70.6326690211604, 42.001408603359245], [-70.6327299221813, 42.001867133240474], [-70.63242322154211, 42.00200661646483], [-70.63138066247426, 42.00136393435897], [-70.63061454467046, 42.001113884290625], [-70.63027726462745, 42.00119966474288], [-70.62987792000884, 42.001961949378334], [-70.6284972001787, 42.00273814159693], [-70.62545865178379, 42.00520449412111], [-70.62446972480694, 42.00557283562174], [-70.62432886518043, 42.00607653701686], [-70.62341328234434, 42.00624059467686], [-70.62190996356175, 42.00711311756573], [-70.62106086202715, 42.00781564399688], [-70.62024596434497, 42.007761549917454], [-70.61979039998386, 42.008212736390455], [-70.61848995854152, 42.008404179978136], [-70.61807293838861, 42.00885002942267], [-70.61754248112096, 42.00879697483377], [-70.61590217013307, 42.00933635620607], [-70.61567052384221, 42.009554032928406], [-70.61518589230405, 42.00956941755227], [-70.61519314281959, 42.00975292614792], [-70.61489153863683, 42.00998131480499], [-70.61495181919184, 42.010394263559775], [-70.61396390361935, 42.01111311301794], [-70.61317157753629, 42.01119700995114], [-70.6120038440982, 42.01093021522375], [-70.61298233085832, 42.012268120483256], [-70.61251054091217, 42.01355256253635], [-70.60912197070589, 42.01358474284903]]], [[[-70.6400907046128, 42.00278933681564], [-70.64042668040005, 42.00374851475052], [-70.64005578534469, 42.007158717555136], [-70.63895017205944, 42.009462686068126], [-70.63802884892954, 42.01077310657809], [-70.63643324593542, 42.012642301062414], [-70.63612498487639, 42.01278234082318], [-70.6353591402933, 42.01266682456434], [-70.63496028426407, 42.0123661165639], [-70.63459266226606, 42.011794971835464], [-70.63428742207839, 42.01049330802717], [-70.63462811065588, 42.00644361641436], [-70.63502776410462, 42.00521256299926], [-70.63558055128584, 42.00459210513251], [-70.63714501332561, 42.00420043360454], [-70.63763576573528, 42.003590194352626], [-70.63775928569716, 42.00299405771387], [-70.63815836563886, 42.00271794878102], [-70.63959957962041, 42.002508208982164], [-70.6400907046128, 42.00278933681564]]]]}}