{"type": "Feature", "properties": {"district_name": "17th Suffolk District", "chamber": "house", "vintage": "2012-2020"}, "geometry": {"type": "Polygon", "coordinates": [[[-71.16851, 42.349462999999986], [-71.16778699999999, 42.34999299999999], [-71.16385, 42.348881999999996], [-71.163333, 42.349115000000005], [-71.162138, 42.348989], [-71.161985, 42.352547], [-71.162368, 42.352492999999996], [-71.16184799999999, 42.354727], [-71.15889899999999, 42.35418899999998], [-71.158594, 42.353813], [-71.158059, 42.354074000000004], [-71.15807099999999, 42.351915999999996], [-71.156621, 42.351890999999995], [-71.154939, 42.351603999999995], [-71.15442999999999, 42.352396], [-71.15356799999999, 42.352148000000014], [-71.15402499999999, 42.35137099999999], [-71.152384, 42.35090299999999], [-71.14908199999999, 42.35615100000001], [-71.140681, 42.35400400000001], [-71.139066, 42.353791000000015], [-71.137979, 42.357608000000006], [-71.140782, 42.357977000000005], [-71.138977, 42.36131100000001], [-71.139925, 42.361606], [-71.13959899999999, 42.362213999999994], [-71.139679, 42.36260699999999], [-71.13381, 42.363381], [-71.132645, 42.363332], [-71.130218, 42.36269399999998], [-71.130417, 42.36195699999999], [-71.130578, 42.361985999999995], [-71.13281300000001, 42.36011000000002], [-71.133157, 42.35922], [-71.133083, 42.358556], [-71.13224, 42.358585000000005], [-71.131621, 42.358799000000005], [-71.13148799999999, 42.35859500000002], [-71.13083, 42.359024], [-71.12968, 42.35708000000001], [-71.129718, 42.356654000000006], [-71.132404, 42.35571199999999], [-71.13734099999999, 42.353590000000004], [-71.128344, 42.35260400000001], [-71.128031, 42.35372400000001], [-71.12495, 42.35335399999999], [-71.12474, 42.35430100000001], [-71.120832, 42.353824], [-71.12131099999999, 42.351674999999986], [-71.12242599999999, 42.35180999999997], [-71.123434, 42.35144899999999], [-71.12421599999999, 42.35152499999999], [-71.126854, 42.35008799999999], [-71.12858299999999, 42.349833000000004], [-71.12928099999999, 42.34906699999999], [-71.133381, 42.347122000000006], [-71.135278, 42.345940999999996], [-71.141302, 42.341072999999994], [-71.141939, 42.340008], [-71.14421200000001, 42.34002199999999], [-71.146253, 42.338709], [-71.146844, 42.33895700000001], [-71.147106, 42.339389], [-71.14710699999999, 42.339892000000006], [-71.146795, 42.340346000000004], [-71.147143, 42.340585999999995], [-71.147571, 42.340610999999996], [-71.14686, 42.34137199999999], [-71.145761, 42.341519999999996], [-71.145923, 42.341897], [-71.148633, 42.34181399999999], [-71.149044, 42.34220099999999], [-71.149529, 42.342258], [-71.149361, 42.342932000000005], [-71.15012999999999, 42.343141], [-71.149982, 42.344124000000015], [-71.150159, 42.344694000000004], [-71.151018, 42.344993], [-71.15128, 42.344643000000005], [-71.153072, 42.345105999999994], [-71.15290999999999, 42.34564500000001], [-71.152446, 42.346096], [-71.153067, 42.346153999999984], [-71.153786, 42.34725599999999], [-71.155147, 42.345229], [-71.153274, 42.34464999999997], [-71.153457, 42.344143999999986], [-71.15341699999999, 42.343289000000006], [-71.15473399999999, 42.341206], [-71.153111, 42.340696], [-71.151648, 42.340535], [-71.14961199999999, 42.339473999999996], [-71.148847, 42.33935799999999], [-71.150601, 42.33625100000002], [-71.15126, 42.33634099999999], [-71.152262, 42.337185], [-71.15065799999999, 42.33749500000001], [-71.15069199999999, 42.33827399999999], [-71.15274099999999, 42.338645999999976], [-71.152587, 42.338896], [-71.15319199999999, 42.339149000000006], [-71.154268, 42.340163], [-71.155056, 42.34038499999999], [-71.157878, 42.33973], [-71.159758, 42.340058], [-71.157901, 42.343248], [-71.157688, 42.34512099999999], [-71.158103, 42.346091], [-71.159309, 42.345977999999995], [-71.159378, 42.34632], [-71.16075099999999, 42.346702999999984], [-71.16042999999999, 42.347325999999995], [-71.161311, 42.34757599999999], [-71.16211799999999, 42.34637300000001], [-71.164878, 42.34642599999999], [-71.167149, 42.34718399999999], [-71.168044, 42.347654000000006], [-71.16834899999999, 42.348099000000005], [-71.167163, 42.34778900000001], [-71.166601, 42.348917], [-71.16851, 42.349462999999986]]]}}