{"type": "Feature", "properties": {"district_name": "4th Worcester District", "chamber": "house", "vintage": "2022-present"}, "geometry": {"type": "Polygon", "coordinates": [[[-71.842326, 42.51263000000001], [-71.837123, 42.548551], [-71.832831, 42.54900200000001], [-71.83088, 42.54901800000001], [-71.829067, 42.548641999999994], [-71.822928, 42.546794], [-71.821281, 42.546539], [-71.819247, 42.54659899999999], [-71.814214, 42.54725300000001], [-71.8079, 42.54716400000001], [-71.806546, 42.54747200000001], [-71.804663, 42.548261999999994], [-71.803752, 42.548897], [-71.800126, 42.552110000000006], [-71.798699, 42.552594000000006], [-71.797118, 42.552551000000015], [-71.78937, 42.550931], [-71.786023, 42.551047000000004], [-71.771342, 42.559248], [-71.76918, 42.558142000000004], [-71.764287, 42.55505600000001], [-71.761588, 42.55190399999999], [-71.761951, 42.549808000000006], [-71.760362, 42.54762200000001], [-71.757766, 42.548567999999996], [-71.754166, 42.54605199999999], [-71.749679, 42.54520199999998], [-71.749149, 42.54905000000001], [-71.749869, 42.54975900000001], [-71.747769, 42.549935], [-71.75045, 42.553461999999996], [-71.754096, 42.559456], [-71.755875, 42.56117000000001], [-71.757247, 42.562068], [-71.76295, 42.56392400000001], [-71.745072, 42.573859999999996], [-71.720417, 42.55232900000001], [-71.711231, 42.535354000000005], [-71.702236, 42.53389499999997], [-71.712384, 42.52132899999999], [-71.71674, 42.518971], [-71.728385, 42.475128000000005], [-71.830019, 42.49218600000001], [-71.822289, 42.504306000000014], [-71.842326, 42.51263000000001]]]}}