{"type": "Feature", "properties": {"district_name": "25th Middlesex District", "chamber": "house", "vintage": "2012-2020"}, "geometry": {"type": "Polygon", "coordinates": [[[-71.13172999999999, 42.385185], [-71.12906699999999, 42.38617099999998], [-71.12961899999999, 42.38665800000002], [-71.127558, 42.387402], [-71.12900599999999, 42.39007200000002], [-71.127685, 42.38985100000001], [-71.12764299999999, 42.39037799999999], [-71.12684899999999, 42.390342000000004], [-71.125751, 42.391636000000005], [-71.125266, 42.392586], [-71.12487399999999, 42.39269600000001], [-71.125284, 42.393061999999986], [-71.12436799999999, 42.39365299999999], [-71.122838, 42.39224199999999], [-71.12097399999999, 42.39370599999999], [-71.120214, 42.392641000000005], [-71.117085, 42.389580999999986], [-71.117966, 42.389126000000005], [-71.11739399999999, 42.38841499999999], [-71.11819299999999, 42.388009], [-71.115584, 42.385158], [-71.111656, 42.38174900000002], [-71.110643, 42.38163999999999], [-71.107855, 42.379374], [-71.108457, 42.379112000000006], [-71.103077, 42.374205999999994], [-71.10305, 42.374018], [-71.104716, 42.374233999999994], [-71.104995, 42.37387700000001], [-71.103937, 42.373417999999994], [-71.105738, 42.371190000000006], [-71.106831, 42.37161399999999], [-71.107275, 42.37094299999999], [-71.106493, 42.37067700000001], [-71.10692, 42.370049], [-71.10175, 42.36830199999999], [-71.103146, 42.36634400000002], [-71.108719, 42.36124100000001], [-71.110326, 42.362213999999994], [-71.110928, 42.361735], [-71.112329, 42.36267699999998], [-71.116995, 42.36117300000001], [-71.11719699999999, 42.36719699999999], [-71.11849699999999, 42.36839699999999], [-71.123297, 42.368996], [-71.12749699999999, 42.372996], [-71.128338, 42.37342400000002], [-71.129627, 42.373757], [-71.13099700000001, 42.373796], [-71.130999, 42.37435200000001], [-71.13064500000002, 42.37437399999999], [-71.130579, 42.374705], [-71.128433, 42.374566999999985], [-71.12822, 42.37561], [-71.12897699999999, 42.375816], [-71.12835199999999, 42.377173], [-71.128954, 42.37754300000002], [-71.12985499999999, 42.377804999999995], [-71.129815, 42.377988], [-71.129184, 42.37823299999999], [-71.130066, 42.379715], [-71.129781, 42.380772], [-71.128855, 42.381132999999984], [-71.129775, 42.38168499999999], [-71.129072, 42.38233800000002], [-71.130224, 42.383065], [-71.12977699999999, 42.38346099999999], [-71.131146, 42.38400099999999], [-71.130792, 42.384484], [-71.13172999999999, 42.385185]]]}}