{"type": "Feature", "properties": {"district_name": "2nd Norfolk District", "chamber": "house", "vintage": "2012-2020"}, "geometry": {"type": "Polygon", "coordinates": [[[-71.03661, 42.25157000000001], [-71.03515999999999, 42.253130000000006], [-71.03450000000001, 42.252800000000015], [-71.0331, 42.254370000000016], [-71.03249, 42.25405999999999], [-71.0312, 42.255529999999986], [-71.02875999999999, 42.25472000000001], [-71.02708, 42.25475999999997], [-71.02626, 42.25514999999999], [-71.02618, 42.255469999999995], [-71.02789, 42.257340000000006], [-71.02897999999999, 42.25783999999999], [-71.028764, 42.258407], [-71.02601, 42.258860000000006], [-71.02787, 42.260679999999994], [-71.02911999999999, 42.26026999999999], [-71.032207, 42.263231000000005], [-71.02861, 42.26534], [-71.02620999999999, 42.26307], [-71.020319, 42.266535999999995], [-71.016342, 42.262727000000005], [-71.01572999999999, 42.262829999999994], [-71.01294, 42.26415999999999], [-71.01432299999999, 42.266633], [-71.01338, 42.26962], [-71.01736, 42.27025000000001], [-71.01702, 42.27112999999999], [-71.019027, 42.27276100000001], [-71.01841999999999, 42.27321000000001], [-71.01689, 42.27592], [-71.013581, 42.278555000000004], [-71.013328, 42.27844100000001], [-71.00468599999999, 42.28581099999999], [-71.005158, 42.28477199999999], [-71.004391, 42.284908], [-70.971735, 42.295696000000014], [-70.966375, 42.29973299999999], [-70.96019199999999, 42.29949800000001], [-70.960392, 42.287698999999996], [-70.937691, 42.277499], [-70.938091, 42.266399], [-70.959491, 42.24779899999999], [-70.960191, 42.246798999999996], [-70.960909, 42.24609100000001], [-70.962194, 42.24645499999999], [-70.9648, 42.246727], [-70.9644, 42.248073999999995], [-70.97009100000001, 42.249799], [-70.975392, 42.253699000000005], [-70.982492, 42.25429900000001], [-70.983977, 42.253659], [-70.98477600000001, 42.25350100000002], [-70.98581999999999, 42.251964], [-70.98490000000001, 42.251784000000015], [-70.98573999999999, 42.25025000000001], [-70.98404, 42.249519999999976], [-70.98499, 42.24871000000001], [-70.98704, 42.24911000000001], [-70.98885, 42.249100000000006], [-70.99517000000002, 42.25004999999999], [-70.99716, 42.24992], [-70.99772999999999, 42.25008], [-70.99794, 42.24879], [-70.99853999999999, 42.24828], [-70.99804999999999, 42.247960000000006], [-70.99743000000001, 42.247110000000006], [-70.99762, 42.24677], [-71.00019, 42.245409999999985], [-71.00039, 42.245790000000014], [-71.00209, 42.24529999999999], [-71.00238999999999, 42.245349999999995], [-71.00269, 42.245719999999984], [-71.00312, 42.245459999999994], [-71.00328999999999, 42.24491999999999], [-71.00327, 42.24426], [-71.00305, 42.244119999999995], [-71.00265999999999, 42.24429], [-71.00031, 42.24154000000001], [-71.00092, 42.24116000000001], [-71.00094, 42.24089000000001], [-71.00193999999999, 42.240029999999976], [-71.00323999999999, 42.23975999999999], [-71.00332999999999, 42.238880000000016], [-71.00395999999999, 42.23787999999998], [-71.00500000000001, 42.23901], [-71.0044, 42.241509999999984], [-71.00666, 42.24053], [-71.0098, 42.24114000000003], [-71.00971899999999, 42.24048900000001], [-71.01151399999999, 42.23993900000001], [-71.01375999999999, 42.23972], [-71.01398999999999, 42.239119999999986], [-71.01503, 42.23935], [-71.01619, 42.2391], [-71.01768, 42.24043], [-71.01925, 42.24116000000001], [-71.020882, 42.241619000000014], [-71.02127999999999, 42.24197999999999], [-71.02300799999999, 42.24148900000001], [-71.02376199999999, 42.242439999999995], [-71.025502, 42.242264], [-71.02544, 42.24214], [-71.02685699999999, 42.24326699999999], [-71.031528, 42.24506199999999], [-71.03174899999999, 42.245456], [-71.03150000000001, 42.24540999999999], [-71.03141, 42.24625999999998], [-71.03258, 42.24641], [-71.03423, 42.24836], [-71.03661, 42.25157000000001]]]}}