{"type": "Feature", "properties": {"district_name": "5th Hampden District", "chamber": "house", "vintage": "2022-present"}, "geometry": {"type": "Polygon", "coordinates": [[[-72.690515, 42.213076], [-72.670033, 42.216503999999986], [-72.66777, 42.225456], [-72.656536, 42.227739], [-72.634585, 42.273943], [-72.613138, 42.286265], [-72.612708, 42.28592000000001], [-72.611529, 42.28542999999999], [-72.605056, 42.28440100000001], [-72.60432000000002, 42.284021], [-72.601209, 42.281259], [-72.600797, 42.279986000000015], [-72.600714, 42.27858700000001], [-72.600376, 42.27739299999998], [-72.599959, 42.276845], [-72.599364, 42.275336], [-72.59884, 42.27066800000001], [-72.599074, 42.267718000000016], [-72.599917, 42.265741], [-72.600627, 42.265071000000006], [-72.607781, 42.26057999999999], [-72.611248, 42.25725], [-72.612579, 42.255310000000016], [-72.613621, 42.254248999999994], [-72.615071, 42.252013999999996], [-72.618009, 42.248368999999975], [-72.619172, 42.24633600000001], [-72.623983, 42.235925], [-72.62411, 42.23507299999999], [-72.624007, 42.234031000000016], [-72.623656, 42.23165599999999], [-72.622861, 42.230539], [-72.621612, 42.22973500000001], [-72.615127, 42.22681000000001], [-72.613564, 42.22558199999999], [-72.61285100000002, 42.224790999999996], [-72.611959, 42.223611000000005], [-72.611654, 42.22294599999999], [-72.61121100000001, 42.220903], [-72.610322, 42.21857800000001], [-72.60949, 42.217466], [-72.608035, 42.21630200000001], [-72.606533, 42.215297], [-72.604638, 42.214298], [-72.602352, 42.21331500000001], [-72.59872900000002, 42.21231300000001], [-72.596133, 42.211774999999996], [-72.593627, 42.211603000000004], [-72.593238, 42.211380999999996], [-72.591781, 42.209829], [-72.59139, 42.20911399999999], [-72.590476, 42.206685000000014], [-72.590216, 42.20507799999999], [-72.59023500000002, 42.20412900000001], [-72.590396, 42.20339499999999], [-72.591335, 42.20155599999998], [-72.593125, 42.199949000000004], [-72.594771, 42.19878299999999], [-72.601989, 42.194557], [-72.60617, 42.191368], [-72.607637, 42.190626000000016], [-72.609696, 42.18984800000001], [-72.61764, 42.186997000000005], [-72.62204, 42.185637], [-72.623113, 42.18508400000002], [-72.623745, 42.184552], [-72.625053, 42.18302099999999], [-72.626133, 42.18112500000001], [-72.626851, 42.17923600000001], [-72.627902, 42.175380000000004], [-72.625816, 42.17521299999999], [-72.624618, 42.180127000000006], [-72.621858, 42.179258], [-72.619703, 42.178327000000024], [-72.620105, 42.17803000000001], [-72.614639, 42.17552999999999], [-72.614561, 42.17150499999999], [-72.614288, 42.167997], [-72.623349, 42.167108999999996], [-72.622734, 42.166321], [-72.621296, 42.16508699999999], [-72.61899, 42.16336000000001], [-72.617183, 42.162251999999995], [-72.617951, 42.161505], [-72.621937, 42.161178], [-72.622244, 42.16185599999999], [-72.625594, 42.161660999999995], [-72.625601, 42.162362999999985], [-72.626402, 42.162353999999986], [-72.627505, 42.162586], [-72.627342, 42.16203200000001], [-72.684891, 42.16293700000001], [-72.686861, 42.18339000000001], [-72.686774, 42.18599100000001], [-72.686266, 42.18904699999999], [-72.690515, 42.213076]]]}}