{"type": "Feature", "properties": {"district_name": "4th Plymouth", "chamber": "house", "vintage": "2001-2010"}, "geometry": {"type": "MultiPolygon", "coordinates": [[[[-70.74546902761261, 42.22016185208309], [-70.74176494980969, 42.219265232480105], [-70.73917884856215, 42.2181693906941], [-70.7384087712653, 42.217649404696346], [-70.7375460234022, 42.216527253344836], [-70.73585240095785, 42.21478733298962], [-70.73301958011238, 42.21261436563624], [-70.7306801498629, 42.211217236977475], [-70.72864925336354, 42.210536222673745], [-70.72526297418925, 42.20971322706274], [-70.72255491860099, 42.20833933414082], [-70.72157094495215, 42.20809294571541], [-70.720370489826, 42.20815625452577], [-70.71895524364797, 42.20872679171722], [-70.71840184569848, 42.20873540268887], [-70.7173245566249, 42.208138891702134], [-70.71572349067523, 42.20635202971915], [-70.71510722980877, 42.20431641355048], [-70.7172614716104, 42.205094741071804], [-70.71966213735712, 42.207040640042486], [-70.72129285328155, 42.20728637674462], [-70.72233925283358, 42.20694627511885], [-70.72320019483561, 42.20632974551634], [-70.7240000444105, 42.20513770197259], [-70.7240302258076, 42.2045881384214], [-70.72378325573756, 42.20383468078793], [-70.72384440504639, 42.203167147570745], [-70.72412120754653, 42.2028747246714], [-70.72507470709044, 42.20241917624553], [-70.72679676174975, 42.200906964361835], [-70.72707261398872, 42.19975863408633], [-70.72654967448162, 42.198983064311015], [-70.72408723896355, 42.1970830309367], [-70.72353282678466, 42.19681198504293], [-70.72356380696208, 42.19635246070178], [-70.72377909372663, 42.19610575572618], [-70.72380878698971, 42.19534854152822], [-70.72319347160455, 42.1947991091219], [-70.7233153059587, 42.1939958089102], [-70.72374681055675, 42.19361102333136], [-70.72596054825763, 42.19296535558301], [-70.72513029885879, 42.192851708284834], [-70.72386853286122, 42.193032807999856], [-70.72306857836529, 42.19291822531991], [-70.72239239988863, 42.19326196877803], [-70.72205403416031, 42.19323997477165], [-70.72180762798486, 42.19241448711383], [-70.72285299801713, 42.191552183181855], [-70.72309858843853, 42.1911166121076], [-70.72297478413886, 42.1902891480104], [-70.72349709520502, 42.189624178580075], [-70.72282037913499, 42.189490170313704], [-70.72272919935709, 42.18986094512173], [-70.72242153277472, 42.18992863648397], [-70.72211393741058, 42.1897436634225], [-70.72205209378146, 42.18951084665457], [-70.7210679374275, 42.18905680303531], [-70.72091298124535, 42.1882122431445], [-70.7206360179976, 42.187937439418576], [-70.72029763788242, 42.18788843852637], [-70.72026710254819, 42.18898777891662], [-70.72165267545405, 42.189903721789584], [-70.72211400199937, 42.19072560810714], [-70.72214507176484, 42.1911844279559], [-70.72165266614894, 42.19113776282462], [-70.72054429973923, 42.190290096059506], [-70.72036052356047, 42.19058990468923], [-70.72143788385392, 42.191528513707524], [-70.72063807807584, 42.192234355002746], [-70.72100696418869, 42.192328020955635], [-70.72103880280835, 42.19250774810714], [-70.71977849353847, 42.19376979477504], [-70.7181170612037, 42.194938492302775], [-70.71811745449997, 42.195397671197505], [-70.71836399333094, 42.19587147460506], [-70.71891822173312, 42.1961245285703], [-70.72082503487688, 42.19598781474228], [-70.72125679694472, 42.196539957307664], [-70.7226717208729, 42.19754556097572], [-70.7227031915006, 42.19772528495928], [-70.7207643687957, 42.19790795552404], [-70.71953513971145, 42.19829518310158], [-70.71913464250093, 42.19855355749824], [-70.71873548168857, 42.199532782690774], [-70.71845852759517, 42.19980718490773], [-70.71624443756815, 42.20088487236387], [-70.71473598242346, 42.20022293157814], [-70.7144897813925, 42.19987518029899], [-70.71421300209344, 42.19894255278648], [-70.71424334586997, 42.19805029329294], [-70.71525810153607, 42.19701734093971], [-70.71602623662598, 42.19585270243828], [-70.7161179396141, 42.19299529838359], [-70.71534713034488, 42.19079993554197], [-70.71531585094009, 42.190179040668255], [-70.7159619550222, 42.189421540914], [-70.71737624241602, 42.18935523800128], [-70.71792959897329, 42.188969045515755], [-70.71882134102107, 42.187432721078686], [-70.71897415183767, 42.18537646939426], [-70.7186653183751, 42.18406604442319], [-70.71811081846762, 42.182831040309146], [-70.71715666500381, 42.181305194331806], [-70.71583325181385, 42.179910183812424], [-70.71506313075261, 42.176633832209745], [-70.71453967076795, 42.17510134747366], [-70.71460099838657, 42.17356948150833], [-70.71503136759864, 42.172842020278026], [-70.7151536882436, 42.17105623136175], [-70.71484492810282, 42.1683767025025], [-70.71515127373019, 42.16709298313344], [-70.71564274852356, 42.16652687504264], [-70.71674988636164, 42.16547428168936], [-70.7173330911247, 42.165195779643234], [-70.71822491896187, 42.16503811771126], [-70.71847095757808, 42.16535829398441], [-70.7184407932722, 42.16571935379187], [-70.71745732969316, 42.16597712318475], [-70.71604273316464, 42.16745753846931], [-70.71610477403254, 42.167762956198686], [-70.71699603391357, 42.16716411930929], [-70.71911807005766, 42.16686234403749], [-70.72166981432929, 42.16713911302326], [-70.72163962334393, 42.16768924663607], [-70.72096397454744, 42.168627206515055], [-70.72102496419716, 42.16926574341932], [-70.72130262628589, 42.169478086135754], [-70.72207138711403, 42.169583468482884], [-70.72145614260286, 42.168926539356775], [-70.72151724325816, 42.16860057764196], [-70.72256195416651, 42.16729709990223], [-70.72397607196329, 42.16720369811966], [-70.72443769991082, 42.16734131587435], [-70.72539171549242, 42.16881308320493], [-70.72757555836364, 42.169338764216505], [-70.72871291996131, 42.16917760549971], [-70.72997334819033, 42.16859972554724], [-70.73028097534858, 42.168712642063525], [-70.73194353496154, 42.17109283213162], [-70.73323622830117, 42.17354142595327], [-70.73409814721136, 42.17470863430823], [-70.73572809677256, 42.17489114296181], [-70.73634305660848, 42.17555755326306], [-70.73671240271463, 42.17566917945928], [-70.73797303850344, 42.17529829293898], [-70.73846500825988, 42.17543548785235], [-70.7389887164432, 42.175922900982464], [-70.74095593039523, 42.17529838652461], [-70.74126345638248, 42.17539270729277], [-70.74212469429865, 42.17454194829424], [-70.74212451718219, 42.17433486745037], [-70.74160112712154, 42.17394650880822], [-70.74138514597257, 42.173219733859995], [-70.74061543019526, 42.172871381625576], [-70.74095395803559, 42.172649661857136], [-70.74098437448762, 42.17235219054491], [-70.74024646154784, 42.17250767326859], [-70.74003267766564, 42.17292491782324], [-70.7401240135828, 42.17313091926332], [-70.74092376772921, 42.173560504835685], [-70.74055615466138, 42.17498005102237], [-70.7397571468954, 42.175433374870344], [-70.73904919677953, 42.175390414262544], [-70.73855765192502, 42.17502813802336], [-70.73812755465809, 42.17493580470837], [-70.73658940815108, 42.17513940694517], [-70.73615827146189, 42.17431722008267], [-70.73569717357812, 42.173972582897186], [-70.73409762882014, 42.1736546664055], [-70.73360455716063, 42.1732659061467], [-70.73363562827694, 42.172760793828274], [-70.73409636019389, 42.17260068430261], [-70.73378763727722, 42.17088458499025], [-70.73391061041578, 42.17056747590273], [-70.73335680184611, 42.170449538169514], [-70.73320310141443, 42.17058693885447], [-70.73360406593379, 42.17221137089601], [-70.73326622660632, 42.17228001465665], [-70.73080327310824, 42.168371205774605], [-70.73015773456798, 42.1681468459968], [-70.72914341563934, 42.16814397441504], [-70.72858913363058, 42.16844073780419], [-70.72822066229082, 42.1688518512207], [-70.7267145174437, 42.16882932322329], [-70.72603737002694, 42.16862330120491], [-70.72563754357068, 42.16828691423734], [-70.72548354059894, 42.16798313168873], [-70.72563665540481, 42.16736798508322], [-70.72588289805007, 42.167210961426946], [-70.72877251599229, 42.16688830278348], [-70.72938781904664, 42.166455770934704], [-70.72960231645575, 42.16592094668677], [-70.73070880435486, 42.16539997975877], [-70.73200009144794, 42.164326534778226], [-70.73236851213456, 42.16391539990761], [-70.73252132057024, 42.16338128257036], [-70.73295158653305, 42.1630150190552], [-70.73313553865262, 42.16221944079251], [-70.73353510570846, 42.161825959267254], [-70.73408798922803, 42.161826836249915], [-70.73538038750307, 42.16281571810823], [-70.73608810317957, 42.16358910868175], [-70.73765665804638, 42.16372729103307], [-70.73983899910688, 42.16285662241403], [-70.74122123609038, 42.16178142665826], [-70.74195819069716, 42.161409839285696], [-70.74447584499653, 42.161427026237554], [-70.74557681701292, 42.16167061802941], [-70.74626388020812, 42.16228174668065], [-70.74691118245539, 42.16369504470086], [-70.7474342358475, 42.1643624855987], [-70.74820398920305, 42.16490942784269], [-70.74949543739798, 42.16518686782367], [-70.7494945800189, 42.16470067475953], [-70.74897207186405, 42.16459146234061], [-70.7482953326342, 42.1639984251247], [-70.74743313856332, 42.16266925781108], [-70.74663219660812, 42.16187056584256], [-70.74663254129223, 42.161681495055845], [-70.74555575777927, 42.16118429151434], [-70.74404872473195, 42.16083785882711], [-70.74032796050209, 42.16042611350408], [-70.73897545662875, 42.16072551249535], [-70.73777730727305, 42.16136523641747], [-70.73734724377466, 42.16143497135584], [-70.73642419968643, 42.16105236422183], [-70.73568634148667, 42.160522993974816], [-70.73301053444936, 42.15954569263458], [-70.73242624006774, 42.15951814774268], [-70.73236472702902, 42.15972649990304], [-70.73276500735602, 42.160116897011335], [-70.73279633112465, 42.160341626772684], [-70.73227398417407, 42.16041240871054], [-70.73171923069556, 42.15988030415472], [-70.73135040734103, 42.159858699374745], [-70.73024398334847, 42.16022717149248], [-70.72972228281499, 42.16071210699589], [-70.72913851545357, 42.16200918827381], [-70.72913958221709, 42.16279305766194], [-70.72941538305979, 42.16281573687617], [-70.73018431541762, 42.16230882902907], [-70.7302762431681, 42.16258686190392], [-70.72978447514247, 42.1633150928912], [-70.72929350742443, 42.163664622259724], [-70.72797157786803, 42.164207191924916], [-70.72569583162228, 42.16372759730798], [-70.72397396203186, 42.1628617482305], [-70.72311225900147, 42.16263139187063], [-70.72305087673804, 42.162425020835954], [-70.72240500681113, 42.1621736038461], [-70.72111395960773, 42.162355038715226], [-70.71905461996268, 42.162953267332426], [-70.7184386891772, 42.16288154374927], [-70.71813156031709, 42.162517058507426], [-70.71846905618553, 42.16219635900167], [-70.71920740673828, 42.161969549781375], [-70.71942274732069, 42.16174086861195], [-70.71942279284974, 42.16139873574007], [-70.71923828904497, 42.16114931571486], [-70.71932987803335, 42.16080555534846], [-70.71963649771703, 42.16050377460698], [-70.72000553022156, 42.160416818207445], [-70.72129726558191, 42.160730593435495], [-70.72191276318303, 42.16071282204761], [-70.72074339895352, 42.160072383135194], [-70.71960623039533, 42.1600443897391], [-70.7190837149589, 42.16025073034551], [-70.71877638982036, 42.1607325749586], [-70.71880793615298, 42.16157911949121], [-70.71828465987787, 42.16163182450604], [-70.717024289235, 42.16138068695279], [-70.71585533364694, 42.16089326044929], [-70.7148102595099, 42.159503510161564], [-70.71425674611822, 42.15934103073794], [-70.71336341824554, 42.15803895634398], [-70.71280846314168, 42.15448888583235], [-70.71228589854569, 42.153208488435446], [-70.71499039708009, 42.15187988981908], [-70.71652828859382, 42.15190222444145], [-70.7174500997162, 42.15236545009054], [-70.71781921135876, 42.15281927084366], [-70.71818859815612, 42.152822916296266], [-70.71904912380771, 42.15215239299822], [-70.72009347013156, 42.151722274632945], [-70.7193862555664, 42.15142652981339], [-70.71910988914598, 42.15170094736872], [-70.71858754864347, 42.151745214366834], [-70.7183715062576, 42.15154116215867], [-70.71827935171127, 42.15101101864323], [-70.7165580357984, 42.15044217343111], [-70.71631171295653, 42.15113038452973], [-70.71514341532504, 42.15124731470412], [-70.71419111430771, 42.15154015727139], [-70.71382245529745, 42.15190620660007], [-70.71308445193758, 42.152205578639716], [-70.71207024466631, 42.15227457422329], [-70.71173202302303, 42.15204547698744], [-70.71188553437452, 42.151223835336545], [-70.71136283745706, 42.150627691040086], [-70.71010233415409, 42.14964663013772], [-70.70976366098928, 42.14975965794043], [-70.70985596823307, 42.15002870757179], [-70.71130194311434, 42.15126821520995], [-70.71114727988952, 42.15209040641754], [-70.71173215843655, 42.15261325825651], [-70.7110558105336, 42.15284832396319], [-70.70838133197714, 42.1506988664881], [-70.70684393729333, 42.149731045749114], [-70.70641259840859, 42.14806184778265], [-70.70613554653455, 42.147904050951205], [-70.70601271469535, 42.148293170337325], [-70.70613648415623, 42.14964286539216], [-70.70506067755306, 42.14980254190239], [-70.70469171750196, 42.14955576149452], [-70.70453759442375, 42.14854910489144], [-70.70441475093693, 42.148334985462604], [-70.70398416539453, 42.14826897109711], [-70.70352295642276, 42.147330524341626], [-70.70349220244523, 42.146375935210855], [-70.70373814074686, 42.1460298822659], [-70.70435228892279, 42.14586758180289], [-70.70453678088974, 42.14635111010115], [-70.70475275189773, 42.146465153077294], [-70.70512114004931, 42.145820020800194], [-70.70573531972028, 42.14568472380152], [-70.70595037869907, 42.145780751131966], [-70.70607414851601, 42.1462835559237], [-70.70647410301365, 42.146529421254364], [-70.70714937608108, 42.14652846726369], [-70.70764154608999, 42.146233061387946], [-70.70859400814979, 42.14607476928862], [-70.70960807968265, 42.14515890437226], [-70.71086876233859, 42.14502296759703], [-70.71077582566963, 42.14483494604947], [-70.70957783747753, 42.14458246934711], [-70.70923941125518, 42.14476808374631], [-70.70859368405092, 42.1456155866092], [-70.70770272533747, 42.14584464849672], [-70.70742644300289, 42.14577689539874], [-70.70702604688212, 42.145323390655065], [-70.70696487106682, 42.14495494765337], [-70.70718029732846, 42.1445372061754], [-70.706627215535, 42.144383136795675], [-70.70702592179249, 42.14321543555439], [-70.70668835326217, 42.1431213713213], [-70.70631933185356, 42.14348683623954], [-70.70613492571708, 42.14408429469295], [-70.70613574976757, 42.144562055384334], [-70.7063509740299, 42.14476555842659], [-70.7062278161867, 42.14527228018445], [-70.70324542434943, 42.145253278818124], [-70.7028768369693, 42.14497948411329], [-70.70247768113146, 42.144129806750854], [-70.70244639657567, 42.14367040815979], [-70.70290756073591, 42.14355601209696], [-70.70315301024607, 42.143308995925715], [-70.70318326387975, 42.142524772188146], [-70.70339874762664, 42.14204401310263], [-70.70419791263436, 42.141473905265116], [-70.70342953662514, 42.14154847369656], [-70.70296816861796, 42.141770912963736], [-70.70226168061319, 42.1424845977793], [-70.70216947657862, 42.143143465885004], [-70.70124739033176, 42.14257150323242], [-70.70020247955046, 42.14247868224756], [-70.69789705979547, 42.14152226625483], [-70.69559111326318, 42.13971833056625], [-70.69417771816795, 42.138072570809705], [-70.69303959337456, 42.13520705532905], [-70.69257844601859, 42.13461012967995], [-70.69150329276175, 42.13381530381453], [-70.68968962060463, 42.132985976963354], [-70.6887984699122, 42.13193582415127], [-70.68803007706585, 42.13065918458476], [-70.68627907764899, 42.12663116472658], [-70.68612450238221, 42.12775045514195], [-70.68633333934234, 42.12841370184715], [-70.68501863251828, 42.12768575503704], [-70.68403589993235, 42.12674520577575], [-70.6833907067963, 42.12551161910828], [-70.6832977314157, 42.125070905856575], [-70.68351212943645, 42.1246807776396], [-70.68163761314173, 42.12273556547345], [-70.68132996296846, 42.12220834976687], [-70.68111625730337, 42.11955469503501], [-70.6807472431632, 42.118776063294675], [-70.68004057882489, 42.11848007424186], [-70.6784424471543, 42.11838646692191], [-70.67804411804092, 42.118094936074385], [-70.67782874761468, 42.11744963269203], [-70.67881135936486, 42.116219242512194], [-70.68016389470526, 42.115046080823035], [-70.68019468273634, 42.11438847944449], [-70.6798252185911, 42.11408702299455], [-70.67899614972352, 42.1137929685747], [-70.67881229213371, 42.113516482336145], [-70.67887285930706, 42.11312863570491], [-70.68025551285557, 42.112369287724384], [-70.68056365919449, 42.112004595226864], [-70.68025592112858, 42.110405944612005], [-70.68090166656168, 42.109441549872535], [-70.68274501109074, 42.10763992073454], [-70.68308281202846, 42.106905159317826], [-70.6830215686202, 42.105644783251016], [-70.68345085214253, 42.10517008539206], [-70.68550985617269, 42.10430239105268], [-70.68627726680408, 42.10429996747474], [-70.68692272559564, 42.1049393062027], [-70.68756828228675, 42.10510032481979], [-70.6879055908151, 42.104960351723506], [-70.68848885553635, 42.10414121316131], [-70.68901166899282, 42.10479992910081], [-70.68962567806463, 42.10503443430317], [-70.69011738582071, 42.104964190558015], [-70.69033259616252, 42.104798587020554], [-70.69030144957578, 42.10374494411164], [-70.69057833765052, 42.103660241417366], [-70.69128449762886, 42.103838549183145], [-70.69306631453006, 42.10392989790448], [-70.69294369696685, 42.10439102724039], [-70.69303569646661, 42.104614514800204], [-70.69460197161813, 42.1048708874258], [-70.69487863770308, 42.10480362178679], [-70.6965987791144, 42.103201803634455], [-70.69656711625078, 42.102418825796306], [-70.6959221558322, 42.10173452713232], [-70.69579986568357, 42.101366771373996], [-70.6955538525426, 42.10146070707332], [-70.6955844586508, 42.101937555207044], [-70.69619882761532, 42.10253216320673], [-70.69629130694055, 42.10292672008838], [-70.69466338673193, 42.104437462391644], [-70.69417206297224, 42.10450771929114], [-70.69361923991231, 42.10436314718382], [-70.69364946539577, 42.10376799626547], [-70.69235973753533, 42.10372402016552], [-70.69027050669663, 42.10317805589229], [-70.68993318241229, 42.103291033933395], [-70.68977931421476, 42.1038611078722], [-70.68984094975956, 42.10450867859104], [-70.68953348640923, 42.10453126333723], [-70.68842779905582, 42.103655710768955], [-70.6881509743054, 42.10370496149756], [-70.68750613687551, 42.104641825082965], [-70.68633832251923, 42.103839533064544], [-70.68440340114503, 42.1041380796782], [-70.68305211974256, 42.104914582563346], [-70.68256048365272, 42.105507564704304], [-70.6823767390459, 42.10589734342452], [-70.68237637344986, 42.1071589728003], [-70.68209925931738, 42.10764038057967], [-70.6807789790277, 42.10875864855893], [-70.67967174050254, 42.11052218590264], [-70.6801021464551, 42.11186736414503], [-70.67887339452292, 42.11244379769935], [-70.67828941868235, 42.11301078145074], [-70.67825924654156, 42.11379500481201], [-70.6784130367742, 42.11399981462997], [-70.679640855656, 42.11452237798267], [-70.6773373806038, 42.117222698699834], [-70.6775218244614, 42.11818347453777], [-70.67779806479064, 42.118593996079106], [-70.67893471685844, 42.11910015541215], [-70.68016369140219, 42.119424082819236], [-70.68043991477903, 42.119690539993776], [-70.68068510261412, 42.121659580513864], [-70.68025513415635, 42.12255743204491], [-70.68025501355544, 42.12303518012278], [-70.681053620433, 42.12335658440247], [-70.68185256026915, 42.1239756622918], [-70.68265264024572, 42.12594583969272], [-70.6844655330811, 42.12854954031655], [-70.68710877266963, 42.13090700352309], [-70.68753863165631, 42.131639342144354], [-70.68747711163178, 42.13257697075108], [-70.68759997544747, 42.13278267327046], [-70.69168794602176, 42.135433872858115], [-70.69217968870183, 42.13701239756401], [-70.692487367035, 42.13722389896325], [-70.69248681227606, 42.137980761794225], [-70.69319390450904, 42.13918602516257], [-70.69384007368501, 42.140131444626526], [-70.69470039988846, 42.14079475310476], [-70.69476186014518, 42.14104615915706], [-70.69457707672106, 42.14142695368853], [-70.69516119529688, 42.141454124390926], [-70.69531454135502, 42.141704491686575], [-70.69513078238602, 42.14209428880777], [-70.69528434603201, 42.14232665052436], [-70.69602220324836, 42.14269365491735], [-70.6960221948651, 42.143351481560394], [-70.69642214230721, 42.14344432202486], [-70.696544635888, 42.143623000998346], [-70.69660604680539, 42.14534254267419], [-70.69851286378596, 42.14916101659431], [-70.69860501023234, 42.14970919334843], [-70.70124989136838, 42.15339940563187], [-70.70214085629941, 42.1539627042567], [-70.70361785149316, 42.15552665142525], [-70.70552384930998, 42.15632711858979], [-70.70641557675697, 42.157349568182376], [-70.70721499192729, 42.157923446902934], [-70.70810697318448, 42.158080988321814], [-70.7087831510769, 42.1574407801392], [-70.71059671031495, 42.157170230493094], [-70.7108429908606, 42.157373947158376], [-70.71159498829489, 42.158633419582216], [-70.70986023514038, 42.1592534147281], [-70.70863080440041, 42.160803101042916], [-70.70740049148299, 42.161721963773715], [-70.70694002578279, 42.162890929058456], [-70.70641778360236, 42.163070194626535], [-70.70586389374019, 42.162817078857344], [-70.704849451105, 42.16147189947379], [-70.70383392232323, 42.15934282928182], [-70.70186581953641, 42.156047925206195], [-70.7002659363125, 42.15394570414052], [-70.6992514661336, 42.15229435099845], [-70.69202687568948, 42.142959866124485], [-70.68962903615224, 42.139509202519974], [-70.68667819278342, 42.13436357311488], [-70.68259104566162, 42.12914449270734], [-70.67739795631786, 42.123311263188626], [-70.67601462763986, 42.121917018863655], [-70.67232842145485, 42.11879995918718], [-70.66984050531036, 42.1153949054732], [-70.66584761776869, 42.11056190780811], [-70.66308438059308, 42.10734096022542], [-70.6605965044824, 42.104890646808144], [-70.65703408982246, 42.10194280006853], [-70.65663490256544, 42.101759221095065], [-70.65298170998969, 42.09850614410862], [-70.65089426637029, 42.097157577512874], [-70.6488672824229, 42.09612399140773], [-70.64794630878735, 42.09544356060836], [-70.64527543308802, 42.09268935035939], [-70.6442012065522, 42.09189407306948], [-70.64211244417216, 42.09145527118093], [-70.642082463293, 42.09065427728683], [-70.64140777188469, 42.08951082202659], [-70.63987341559293, 42.08802833012721], [-70.6392905760365, 42.086856847628546], [-70.63923083604496, 42.08468650935127], [-70.63818879099092, 42.0820349613842], [-70.63834273254612, 42.08157355513311], [-70.6389883797324, 42.08075344862831], [-70.6410769494512, 42.07994867425122], [-70.64255060629436, 42.078919226230845], [-70.643442466764, 42.07885218887502], [-70.64430130052365, 42.07921819145991], [-70.64506909484231, 42.07933309707534], [-70.64577465548915, 42.0803411494509], [-70.6458354219878, 42.08093472082751], [-70.64534385653828, 42.08125687803991], [-70.64549686140406, 42.08198450064471], [-70.64611140333156, 42.082516368319666], [-70.64614155883379, 42.082858166050606], [-70.64574253704278, 42.08315175310341], [-70.64610967737458, 42.0853716489483], [-70.64620036024151, 42.087505630437015], [-70.64653773784691, 42.08750083455616], [-70.64684533695089, 42.086928574985066], [-70.64724453511329, 42.08690510481991], [-70.65006983006434, 42.08762107753288], [-70.64997780432525, 42.087045851838184], [-70.65037685018716, 42.086976784012975], [-70.65059305657908, 42.085694796851335], [-70.64994833759141, 42.084731120568414], [-70.64994866060275, 42.084226358661134], [-70.64954940803024, 42.08414236078878], [-70.64918124710505, 42.083796360330744], [-70.64844482772853, 42.08271662937609], [-70.64764660590102, 42.0823319769795], [-70.64776997571443, 42.08070885546474], [-70.6473096554939, 42.080589505696075], [-70.64562222169076, 42.07878462449246], [-70.64559200154551, 42.07830777053171], [-70.64709787092629, 42.07672759605587], [-70.64743560482202, 42.07587588624849], [-70.6481150014687, 42.07289114986941], [-70.65918483250495, 42.068476772709346], [-70.66055316710047, 42.06754480418717], [-70.66302205802423, 42.06619376391], [-70.67159056902126, 42.062437966788636], [-70.67166487422826, 42.063139108211736], [-70.67178761269906, 42.06328180438644], [-70.67212524650813, 42.063276926896435], [-70.67240134881499, 42.06277696820405], [-70.67209080183254, 42.062210866711666], [-70.68234499428895, 42.057675820321684], [-70.69066305275867, 42.06323787619693], [-70.69495488031582, 42.06626523484161], [-70.69535580460865, 42.06669010016279], [-70.69700707173915, 42.06740904061484], [-70.69786489255424, 42.06825577084837], [-70.69825196350511, 42.06903223818921], [-70.6983810961716, 42.06966227252078], [-70.69829309515853, 42.0705018046865], [-70.70044114929863, 42.07184486556662], [-70.71090817668274, 42.07710415089312], [-70.7118488582555, 42.07775101343227], [-70.74998504114177, 42.097302983470136], [-70.7618849300703, 42.10270307821141], [-70.76238495755258, 42.102801962197155], [-70.76165499645022, 42.10488327227203], [-70.76051994444403, 42.107418883599514], [-70.76018505768587, 42.10960177235578], [-70.76658408470996, 42.10980104228054], [-70.76698408957625, 42.11330091597684], [-70.77351093902071, 42.11311290451079], [-70.77399401287245, 42.11290213344457], [-70.77618498769148, 42.112600874997945], [-70.77628507351181, 42.113500733903415], [-70.77768494108325, 42.11350112389432], [-70.77618899861525, 42.11433801236415], [-70.77568600890964, 42.115002218967625], [-70.77548604935797, 42.115901873466456], [-70.7768859170841, 42.11700182713016], [-70.77701597305722, 42.117976152845884], [-70.77754693940355, 42.118655891252345], [-70.77767999759159, 42.119002807203536], [-70.7773629328018, 42.119831939750455], [-70.77734504082224, 42.12062413570974], [-70.77924108416302, 42.12153980657538], [-70.77935700160072, 42.121749867259716], [-70.77905709452055, 42.12246713543244], [-70.77842296248956, 42.12301179896183], [-70.77830600894983, 42.12384106835627], [-70.77785500773209, 42.12473182433558], [-70.77802098369149, 42.12537493707338], [-70.77916803146056, 42.12627800745781], [-70.77941695698856, 42.12667403451744], [-70.77883293363513, 42.12801075592206], [-70.77926306924931, 42.12979221998109], [-70.77972900050338, 42.13000278831913], [-70.78142592593616, 42.12990427513785], [-70.78195802987962, 42.13026324870818], [-70.78175704560466, 42.13123999327873], [-70.78127400978924, 42.13158697523833], [-70.78004199564546, 42.13193319532916], [-70.77982494486507, 42.1323409230036], [-70.78120291485017, 42.13472874662885], [-70.78111904178915, 42.13545919547493], [-70.78038502982025, 42.13658508405169], [-70.78053397108302, 42.137351882541054], [-70.78096594414545, 42.13794600544426], [-70.78226303805445, 42.13882522316729], [-70.78277806024937, 42.1394311223852], [-70.78270802641278, 42.140929195752875], [-70.7830840761418, 42.14229389151147], [-70.78545505782297, 42.143384045978124], [-70.78751199107454, 42.14494207172804], [-70.78766406166966, 42.14523675503998], [-70.7875829168676, 42.1455451865856], [-70.78669007132396, 42.14628692094527], [-70.78604795609917, 42.14722378496376], [-70.78571099697336, 42.14896216297133], [-70.78540104640038, 42.14972609243867], [-70.78482009530597, 42.14996218620916], [-70.78345702482287, 42.15006396563648], [-70.7827459176658, 42.15065712284283], [-70.78297300569064, 42.15210978444882], [-70.78265006184677, 42.153552260790505], [-70.78248392424116, 42.15585498036083], [-70.78235301410777, 42.156213173630235], [-70.78200597125696, 42.156423139870014], [-70.78099209215222, 42.1565979795788], [-70.77882803741049, 42.15644427388819], [-70.77714392897308, 42.155968863001156], [-70.77572499443069, 42.155271141829395], [-70.77449094400876, 42.15489307064727], [-70.7725970875927, 42.15520575149243], [-70.77164794908673, 42.15515920910129], [-70.77039508899954, 42.15446079283095], [-70.76891094912922, 42.1540338009361], [-70.76784998562916, 42.15450477144598], [-70.76735596321882, 42.15515886830153], [-70.76652591139322, 42.157748251624824], [-70.76598205484105, 42.15837726407231], [-70.76533593411393, 42.158773212163446], [-70.76420404067323, 42.15871475000881], [-70.76287901122302, 42.15726511538432], [-70.7620609500671, 42.156935168999645], [-70.76157990160432, 42.15713408220678], [-70.76080999601639, 42.15877394638895], [-70.76029807801957, 42.15931703794354], [-70.75946803374316, 42.15947881050455], [-70.75656990943507, 42.15902000806065], [-70.75568908115486, 42.159206741726905], [-70.75458295427431, 42.16036775540867], [-70.75425497504261, 42.16097223134818], [-70.75431897351238, 42.1629922342796], [-70.75367391804895, 42.16344890647316], [-70.75221398551494, 42.164007170101044], [-70.77884707597867, 42.18415302788311], [-70.81335100807496, 42.19529884715191], [-70.82600995443005, 42.1949912854685], [-70.83717005162508, 42.194467157096874], [-70.82116895050115, 42.20421706159635], [-70.7887119409737, 42.22296686095178], [-70.78780105795722, 42.22065297798339], [-70.78747705221423, 42.22024806664045], [-70.78569693006064, 42.21876495105766], [-70.78319002562085, 42.217245190052765], [-70.78260101769112, 42.216965781080816], [-70.77890309204096, 42.21598318481608], [-70.77682299184099, 42.21607306505842], [-70.77525597598816, 42.21596189013413], [-70.77152608300005, 42.214201744682924], [-70.77079895188126, 42.213614724436404], [-70.77103992495563, 42.2133129499058], [-70.77103497581393, 42.21267312045352], [-70.76986199253335, 42.21153123612457], [-70.76906894042273, 42.20996915956731], [-70.76883906570299, 42.21042518379098], [-70.76445399651595, 42.21142297373111], [-70.76207599977165, 42.21152812427458], [-70.76112609358286, 42.21129692617424], [-70.75913498740297, 42.21204093831782], [-70.75730500096098, 42.212096065339054], [-70.75486592085699, 42.21628483413243], [-70.75442509850116, 42.22195579433015], [-70.75244190408813, 42.2226192707888], [-70.75027793693752, 42.220161860310036], [-70.74626007199916, 42.218957220375444], [-70.74623594534947, 42.21948994554365], [-70.74546902761261, 42.22016185208309]]], [[[-70.69915764353574, 42.14447636868863], [-70.69964987118469, 42.14483825634983], [-70.70008003423511, 42.1458946744582], [-70.70007930314942, 42.14646245997574], [-70.6997728797415, 42.14701628989663], [-70.69912690759273, 42.14742256475364], [-70.69863544989303, 42.14753785942146], [-70.69832834953111, 42.14733538295352], [-70.69771309974456, 42.14632662423063], [-70.6974976541877, 42.145842858852596], [-70.69737447359162, 42.14479083184652], [-70.69777476989475, 42.14401932906626], [-70.69915764353574, 42.14447636868863]]], [[[-70.70850447375513, 42.15334618727211], [-70.70970421369232, 42.15380520867917], [-70.70973434708806, 42.154057515138], [-70.70955032984227, 42.15416822318887], [-70.70831994683209, 42.15419518804905], [-70.7082280668842, 42.15437687485203], [-70.70838197605444, 42.154861310123266], [-70.70887415841568, 42.15444829497863], [-70.70915048004348, 42.15451604449304], [-70.70915069326603, 42.154741692305144], [-70.70872074962936, 42.155045412309875], [-70.70862865981542, 42.15533514025448], [-70.70964325566364, 42.15581538337658], [-70.70973517159514, 42.156390558839874], [-70.70939765743508, 42.15671066567902], [-70.70890591888438, 42.15675398346941], [-70.70659959608952, 42.155455041761364], [-70.70527740696076, 42.15369132011761], [-70.70530717155265, 42.15309616802274], [-70.70576878120474, 42.152981196046014], [-70.70850447375513, 42.15334618727211]]]]}}