{"type": "Feature", "properties": {"district_name": "36th Middlesex District", "chamber": "house", "vintage": "2022-present"}, "geometry": {"type": "Polygon", "coordinates": [[[-71.498593, 42.63879200000001], [-71.497478, 42.641667], [-71.496484, 42.649802], [-71.49246, 42.649101999999985], [-71.489029, 42.64919700000001], [-71.482511, 42.65102999999999], [-71.479484, 42.658794000000015], [-71.474784, 42.649888999999995], [-71.457188, 42.65836899999999], [-71.458683, 42.65975499999999], [-71.45493, 42.660105], [-71.455438, 42.661211], [-71.449754, 42.661827], [-71.44695600000001, 42.663167999999985], [-71.447835, 42.666609999999984], [-71.448618, 42.667735000000015], [-71.451527, 42.66975800000001], [-71.451694, 42.669372], [-71.45236900000002, 42.66938600000001], [-71.452343, 42.669743], [-71.446418, 42.67041000000002], [-71.447285, 42.677496], [-71.44803, 42.68091300000001], [-71.450282, 42.685295999999994], [-71.45146600000001, 42.68536], [-71.452088, 42.68715399999999], [-71.456121, 42.68635200000001], [-71.457027, 42.690656999999995], [-71.458139, 42.69104100000002], [-71.459532, 42.69042100000001], [-71.461033, 42.69196899999998], [-71.456336, 42.695848999999995], [-71.457691, 42.70052499999997], [-71.390474, 42.69903499999999], [-71.351635, 42.697901000000016], [-71.321814, 42.697306999999995], [-71.317065, 42.697389000000015], [-71.294637, 42.69704200000002], [-71.289324, 42.70217000000001], [-71.278949, 42.71135000000003], [-71.275441, 42.715787000000006], [-71.267873, 42.726026], [-71.255147, 42.73655399999999], [-71.238179, 42.669418999999984], [-71.240397, 42.66673], [-71.241186, 42.66416100000001], [-71.241754, 42.663079999999994], [-71.24249, 42.662345999999985], [-71.243523, 42.661767000000005], [-71.24618, 42.661067999999986], [-71.249479, 42.66110100000001], [-71.250763, 42.66078200000001], [-71.252879, 42.659544000000004], [-71.254966, 42.657775], [-71.256733, 42.657001], [-71.258482, 42.65692299999999], [-71.261963, 42.657483], [-71.26434700000001, 42.657667], [-71.272607, 42.656664], [-71.275154, 42.656216], [-71.277749, 42.65534], [-71.280406, 42.65412], [-71.28686, 42.648867999999986], [-71.299569, 42.66651499999999], [-71.357523, 42.654454000000044], [-71.368882, 42.661753000000004], [-71.378204, 42.660686999999996], [-71.382474, 42.652770999999994], [-71.38224, 42.651877], [-71.380531, 42.650859999999994], [-71.380247, 42.65035999999999], [-71.38027900000002, 42.650017000000005], [-71.38092, 42.649007999999995], [-71.382483, 42.64938699999997], [-71.38522, 42.649599], [-71.392488, 42.648476], [-71.394341, 42.648474], [-71.396968, 42.649637], [-71.398173, 42.65101899999998], [-71.398995, 42.652467], [-71.40211, 42.651603], [-71.401094, 42.649182999999994], [-71.398312, 42.64550199999999], [-71.39889, 42.64494900000002], [-71.402782, 42.646770999999994], [-71.404028, 42.648405999999994], [-71.405309, 42.648138000000024], [-71.409764, 42.648785], [-71.411978, 42.64797400000001], [-71.412309, 42.64941000000001], [-71.417642, 42.653774], [-71.493528, 42.61740400000001], [-71.498593, 42.63879200000001]]]}}