{"type": "Feature", "properties": {"district_name": "16th Suffolk District", "chamber": "house", "vintage": "2022-present"}, "geometry": {"type": "Polygon", "coordinates": [[[-71.033181, 42.41420599999999], [-71.031275, 42.418433000000014], [-71.02962, 42.42129899999999], [-71.02858, 42.42356800000001], [-71.020377, 42.43824999999998], [-71.025836, 42.44470900000001], [-71.018757, 42.45011800000001], [-71.011864, 42.442134], [-71.009671, 42.441047], [-71.00945, 42.44130400000001], [-71.009106, 42.442586999999996], [-71.005497, 42.44203099999998], [-71.005439, 42.44170700000001], [-71.004294, 42.441392000000015], [-71.003896, 42.440988000000004], [-71.001827, 42.44204099999999], [-71.001294, 42.44139599999999], [-71.000163, 42.44342600000001], [-71.000807, 42.444261], [-71.000314, 42.445023], [-70.99883, 42.446879], [-70.99748, 42.44892300000003], [-70.995923, 42.44967999999999], [-71.001298, 42.449962], [-71.001416, 42.450635999999996], [-71.000182, 42.450650000000024], [-71.000541, 42.451781], [-71.000135, 42.452031000000005], [-71.000452, 42.45224699999999], [-70.99992, 42.45254299999999], [-71.000106, 42.453215], [-71.000595, 42.453196], [-71.001675, 42.455695000000006], [-71.003777, 42.45494899999999], [-71.004061, 42.45540900000001], [-71.004138, 42.45629700000002], [-71.004556, 42.456326000000004], [-71.004559, 42.456638000000005], [-71.004219, 42.457102000000006], [-71.006516, 42.45718800000001], [-71.006545, 42.457562], [-71.007223, 42.457458], [-71.007272, 42.45800799999999], [-71.005561, 42.458325000000016], [-71.005301, 42.459270000000004], [-71.003089, 42.45940100000001], [-71.000536, 42.458868], [-71.000168, 42.459478000000004], [-70.999937, 42.45939700000002], [-70.99949, 42.460232999999995], [-70.999344, 42.460860000000004], [-70.999132, 42.46071200000001], [-70.998205, 42.46065200000001], [-70.998398, 42.46037799999999], [-70.998977, 42.460278000000024], [-70.998621, 42.46004099999997], [-70.998567, 42.45978100000001], [-70.997927, 42.459950000000006], [-70.997448, 42.45960699999999], [-70.997108, 42.460063], [-70.996475, 42.460429999999995], [-70.995132, 42.460287], [-70.994507, 42.46060400000001], [-70.99388, 42.460683], [-70.993822, 42.461038999999985], [-70.994005, 42.461244], [-70.995312, 42.46168899999999], [-70.995981, 42.46170899999999], [-70.996519, 42.46135999999999], [-70.996983, 42.461356], [-70.997481, 42.461479000000004], [-70.997601, 42.46177800000001], [-70.998253, 42.46219099999999], [-70.999492, 42.46193800000001], [-70.999989, 42.46206100000001], [-71.000609, 42.46258199999999], [-70.999663, 42.462634], [-70.999522, 42.46282500000001], [-71.000329, 42.46309900000001], [-71.000301, 42.46376099999999], [-71.000488, 42.46404900000001], [-71.000862, 42.464202], [-71.00107, 42.464085000000004], [-71.002179, 42.46486399999999], [-71.00149600000002, 42.465011], [-71.001088, 42.464888], [-71.001722, 42.46542600000001], [-70.999624, 42.465005], [-70.999703, 42.464634], [-70.996524, 42.46392300000001], [-70.995698, 42.463601000000004], [-70.995342, 42.46391199999999], [-70.995228, 42.46477000000001], [-70.995326, 42.46499599999999], [-70.994698, 42.46520799999998], [-70.993587, 42.46507299999999], [-70.992295, 42.46517699999999], [-70.9922, 42.46570200000001], [-70.991695, 42.466431], [-70.989139, 42.459689], [-70.988787, 42.45958199999998], [-70.988075, 42.45871999999999], [-70.98736, 42.45894599999999], [-70.986364, 42.459765999999995], [-70.985609, 42.459699], [-70.98568, 42.45921699999999], [-70.987402, 42.457162999999994], [-70.987494, 42.45499600000001], [-70.986694, 42.454596], [-70.986161, 42.45498700000002], [-70.985995, 42.45548699999999], [-70.986094, 42.456796000000004], [-70.985969, 42.45722500000001], [-70.984853, 42.458355000000005], [-70.98416, 42.45861199999999], [-70.983108, 42.45861000000001], [-70.982068, 42.45773199999998], [-70.979494, 42.456196], [-70.97942, 42.45582100000001], [-70.979694, 42.455305], [-70.983353, 42.45380800000001], [-70.983768, 42.453187], [-70.983828, 42.452375999999994], [-70.981404, 42.45126899999998], [-70.979083, 42.450863000000005], [-70.972289, 42.44681699999999], [-70.968594, 42.444396], [-70.971594, 42.442696], [-70.975194, 42.436896000000004], [-70.979894, 42.432396000000004], [-70.982294, 42.431296], [-70.983708, 42.431663], [-70.985754, 42.432557], [-70.987805, 42.43399799999998], [-70.99012, 42.43487700000001], [-70.992023, 42.43413499999999], [-70.994849, 42.43115], [-70.995714, 42.430855000000015], [-70.997234, 42.43105099999999], [-71.004022, 42.421904999999995], [-71.005053, 42.421431000000005], [-71.005076, 42.42060200000001], [-71.00791, 42.416755], [-70.999698, 42.416417], [-70.999356, 42.417047], [-70.99565100000001, 42.415816], [-71.000172, 42.40962399999999], [-70.999571, 42.40990699999999], [-70.998675, 42.410681], [-70.996224, 42.409832999999985], [-70.996619, 42.409188], [-70.996935, 42.407973], [-70.997932, 42.40834600000001], [-70.998016, 42.407481000000004], [-70.999137, 42.406018999999986], [-71.001762, 42.406738000000004], [-71.002266, 42.406181], [-71.002693, 42.40685300000001], [-71.003845, 42.405788000000015], [-71.00498, 42.40518900000001], [-71.001915, 42.40402699999999], [-70.99868500000001, 42.40167099999999], [-70.99667, 42.400588000000006], [-71.000683, 42.39681700000001], [-71.001407, 42.39674000000001], [-71.0056, 42.393961000000004], [-71.005861, 42.393892], [-71.009894, 42.395475000000005], [-71.01193, 42.39575200000001], [-71.011272, 42.396589000000006], [-71.013395, 42.39739799999999], [-71.009629, 42.40016700000001], [-71.009445, 42.400475], [-71.009396, 42.401183], [-71.010861, 42.401689000000005], [-71.013007, 42.402864], [-71.013772, 42.402964], [-71.01563, 42.402704000000014], [-71.017035, 42.40271499999999], [-71.017826, 42.402883], [-71.018088, 42.40335699999999], [-71.018715, 42.403709000000006], [-71.019981, 42.40372300000001], [-71.020828, 42.403513000000004], [-71.021169, 42.40392400000001], [-71.021191, 42.40423299999999], [-71.020305, 42.404829], [-71.020442, 42.405114], [-71.02148, 42.405164000000006], [-71.022442, 42.405474], [-71.022855, 42.40512499999999], [-71.023278, 42.40554399999999], [-71.023847, 42.40532400000001], [-71.024901, 42.40590000000002], [-71.025753, 42.405756999999994], [-71.026237, 42.40592500000002], [-71.026888, 42.40655000000001], [-71.026898, 42.40733199999999], [-71.027115, 42.40778199999998], [-71.02797, 42.40872699999999], [-71.029036, 42.410354000000005], [-71.033181, 42.41420599999999]]]}}