{"type": "Feature", "properties": {"district_name": "19th Suffolk District", "chamber": "house", "vintage": "2022-present"}, "geometry": {"type": "Polygon", "coordinates": [[[-71.010363, 42.365031], [-71.006123, 42.376052], [-71.000206, 42.37775400000002], [-70.999326, 42.377737999999994], [-70.996694, 42.37874100000001], [-70.994648, 42.38114999999999], [-70.994634, 42.38271099999997], [-70.994239, 42.384647000000015], [-70.988281, 42.38710700000001], [-70.987836, 42.38694799999998], [-70.986798, 42.386956000000005], [-70.986053, 42.388116000000004], [-70.987289, 42.388734], [-70.987511, 42.38922900000001], [-70.987571, 42.390582], [-70.987113, 42.391985], [-70.987442, 42.39274200000001], [-70.989771, 42.393240000000006], [-70.993818, 42.392924], [-70.995361, 42.393813], [-70.996475, 42.396308000000005], [-70.998306, 42.396929], [-71.000683, 42.39681700000001], [-70.99667, 42.400588000000006], [-70.99868500000001, 42.40167099999999], [-71.001915, 42.40402699999999], [-71.00498, 42.40518900000001], [-71.003845, 42.405788000000015], [-71.002693, 42.40685300000001], [-71.002266, 42.406181], [-71.001762, 42.406738000000004], [-70.999137, 42.406018999999986], [-70.998016, 42.407481000000004], [-70.997932, 42.40834600000001], [-70.996935, 42.407973], [-70.996619, 42.409188], [-70.996224, 42.409832999999985], [-70.998675, 42.410681], [-70.999571, 42.40990699999999], [-71.000172, 42.40962399999999], [-70.99565100000001, 42.415816], [-70.999356, 42.417047], [-70.999698, 42.416417], [-71.00791, 42.416755], [-71.005076, 42.42060200000001], [-71.005053, 42.421431000000005], [-71.004022, 42.421904999999995], [-70.997234, 42.43105099999999], [-70.995714, 42.430855000000015], [-70.994849, 42.43115], [-70.992023, 42.43413499999999], [-70.99012, 42.43487700000001], [-70.987805, 42.43399799999998], [-70.985754, 42.432557], [-70.983708, 42.431663], [-70.982294, 42.431296], [-70.979894, 42.432396000000004], [-70.975194, 42.436896000000004], [-70.971594, 42.442696], [-70.968594, 42.444396], [-70.966293, 42.44349700000001], [-70.950793, 42.44429599999999], [-70.951393, 42.436996], [-70.952993, 42.42939599999999], [-70.959093, 42.41859699999998], [-70.962093, 42.412397000000006], [-70.959494, 42.407498000000004], [-70.924593, 42.386798], [-70.917892, 42.38599700000002], [-70.967048, 42.356954], [-70.967257, 42.35706900000001], [-70.96882, 42.35586600000001], [-70.968935, 42.35592500000001], [-70.972893, 42.35359699999999], [-70.985593, 42.356796999999986], [-70.986597, 42.364572], [-71.000736, 42.364818], [-71.000695, 42.36464], [-71.010363, 42.365031]]]}}