{"type": "Feature", "properties": {"district_name": "9th Essex District", "chamber": "house", "vintage": "2022-present"}, "geometry": {"type": "Polygon", "coordinates": [[[-71.080033, 42.526454999999984], [-71.07515, 42.531035], [-71.067567, 42.52468], [-71.067263, 42.52494200000001], [-71.067324, 42.52522099999999], [-71.067122, 42.52536999999999], [-71.066354, 42.52481], [-71.065395, 42.524779], [-71.064241, 42.52440400000001], [-71.063784, 42.52462899999999], [-71.06327600000002, 42.524659000000014], [-71.062026, 42.52427599999997], [-71.061478, 42.525034999999995], [-71.060744, 42.525239], [-71.060069, 42.52430699999999], [-71.059109, 42.524089999999994], [-71.05902, 42.523872000000004], [-71.058447, 42.523610000000005], [-71.058209, 42.523914999999995], [-71.057662, 42.52417899999999], [-71.040983, 42.52626200000001], [-71.040004, 42.525189], [-71.038905, 42.52458200000001], [-71.038599, 42.523959999999995], [-71.038736, 42.52353800000001], [-71.039287, 42.523205], [-71.039883, 42.522411000000005], [-71.040913, 42.521718], [-71.04108, 42.520123000000005], [-71.040989, 42.51984700000001], [-71.040325, 42.519292999999976], [-71.040127, 42.518809999999995], [-71.040261, 42.51742099999999], [-71.038888, 42.51674100000001], [-71.039036, 42.51648999999999], [-71.038907, 42.516341], [-71.038516, 42.51642300000002], [-71.038296, 42.516242000000005], [-71.038274, 42.515692], [-71.039259, 42.51484100000002], [-71.039467, 42.51445799999999], [-71.038383, 42.51418899999999], [-71.038298, 42.513750000000016], [-71.037496, 42.513287], [-71.036911, 42.512541000000006], [-71.036556, 42.51243500000001], [-71.03667400000002, 42.511557999999994], [-71.036497, 42.510828], [-71.036926, 42.51045899999998], [-71.037048, 42.509999000000015], [-71.036756, 42.50997399999999], [-71.036457, 42.50969300000001], [-71.036529, 42.509508000000004], [-71.036206, 42.50926999999999], [-71.036305, 42.50900200000001], [-71.03573, 42.50863900000002], [-71.035876, 42.508392], [-71.035553, 42.508313], [-71.03563200000002, 42.50756299999998], [-71.034898, 42.507054], [-71.034929, 42.506679000000005], [-71.035404, 42.506377], [-71.035424, 42.50590900000001], [-71.035739, 42.50573599999999], [-71.035839, 42.50519200000001], [-71.011623, 42.50164800000001], [-71.001736, 42.50707800000001], [-70.996886, 42.507012], [-70.995308, 42.50557200000001], [-70.988372, 42.509214], [-70.988641, 42.509537], [-70.99143, 42.51110899999999], [-70.992966, 42.512267], [-70.98934, 42.511686000000005], [-70.986911, 42.511774], [-70.959531, 42.497834], [-70.960079, 42.497261], [-70.960315, 42.497459], [-70.962793, 42.495811999999994], [-70.963281, 42.49475699999999], [-70.963215, 42.494500999999985], [-70.963417, 42.49446399999999], [-70.965076, 42.490881999999985], [-70.963427, 42.490677999999996], [-70.962139, 42.491009], [-70.961745, 42.49087999999999], [-70.962051, 42.490429000000006], [-70.961847, 42.49031], [-70.962563, 42.48901599999999], [-70.961544, 42.488653000000006], [-70.96115, 42.48775500000001], [-70.960609, 42.487336000000006], [-70.960578, 42.48699500000001], [-70.961219, 42.48706900000001], [-70.962132, 42.487615999999996], [-70.962701, 42.48684599999999], [-70.964147, 42.487272999999995], [-70.965753, 42.48826999999999], [-70.971734, 42.491240000000005], [-70.974354, 42.489852], [-70.974594, 42.48989499999999], [-70.975064, 42.49118], [-70.974674, 42.491658], [-70.97725, 42.49302600000001], [-70.97939, 42.493267], [-70.979391, 42.49310100000001], [-70.98041, 42.492988999999994], [-70.981384, 42.49326000000001], [-70.983014, 42.49343], [-70.989433, 42.49373300000001], [-70.993242, 42.49357699999999], [-70.994586, 42.49333700000001], [-70.995459, 42.49344399999999], [-70.996238, 42.49324099999999], [-70.998332, 42.493263], [-70.999495, 42.49299], [-70.999875, 42.492623999999985], [-71.001071, 42.492611999999994], [-71.001706, 42.49279], [-70.991695, 42.466431], [-70.9922, 42.46570200000001], [-70.992295, 42.46517699999999], [-70.993587, 42.46507299999999], [-70.994698, 42.46520799999998], [-70.995326, 42.46499599999999], [-70.995228, 42.46477000000001], [-70.995342, 42.46391199999999], [-70.995698, 42.463601000000004], [-70.996524, 42.46392300000001], [-70.999703, 42.464634], [-70.999624, 42.465005], [-71.001722, 42.46542600000001], [-71.001088, 42.464888], [-71.00149600000002, 42.465011], [-71.002179, 42.46486399999999], [-71.00107, 42.464085000000004], [-71.000862, 42.464202], [-71.000488, 42.46404900000001], [-71.000301, 42.46376099999999], [-71.000329, 42.46309900000001], [-70.999522, 42.46282500000001], [-70.999663, 42.462634], [-71.000609, 42.46258199999999], [-70.999989, 42.46206100000001], [-70.999492, 42.46193800000001], [-70.998253, 42.46219099999999], [-70.997601, 42.46177800000001], [-70.997481, 42.461479000000004], [-70.996983, 42.461356], [-70.996519, 42.46135999999999], [-70.995981, 42.46170899999999], [-70.995312, 42.46168899999999], [-70.994005, 42.461244], [-70.993822, 42.461038999999985], [-70.99388, 42.460683], [-70.994507, 42.46060400000001], [-70.995132, 42.460287], [-70.996475, 42.460429999999995], [-70.997108, 42.460063], [-70.997448, 42.45960699999999], [-70.997927, 42.459950000000006], [-70.998567, 42.45978100000001], [-70.998621, 42.46004099999997], [-70.998977, 42.460278000000024], [-70.998398, 42.46037799999999], [-70.998205, 42.46065200000001], [-70.999132, 42.46071200000001], [-70.999344, 42.460860000000004], [-70.99949, 42.460232999999995], [-70.999937, 42.45939700000002], [-71.000168, 42.459478000000004], [-71.000536, 42.458868], [-71.003089, 42.45940100000001], [-71.005301, 42.459270000000004], [-71.005561, 42.458325000000016], [-71.007272, 42.45800799999999], [-71.007223, 42.457458], [-71.006545, 42.457562], [-71.006516, 42.45718800000001], [-71.004219, 42.457102000000006], [-71.004559, 42.456638000000005], [-71.004556, 42.456326000000004], [-71.004138, 42.45629700000002], [-71.004061, 42.45540900000001], [-71.003777, 42.45494899999999], [-71.001675, 42.455695000000006], [-71.000595, 42.453196], [-71.000106, 42.453215], [-70.99992, 42.45254299999999], [-71.000452, 42.45224699999999], [-71.000135, 42.452031000000005], [-71.000541, 42.451781], [-71.000182, 42.450650000000024], [-71.001416, 42.450635999999996], [-71.001298, 42.449962], [-70.995923, 42.44967999999999], [-70.99748, 42.44892300000003], [-70.99883, 42.446879], [-71.000314, 42.445023], [-71.000807, 42.444261], [-71.000163, 42.44342600000001], [-71.001294, 42.44139599999999], [-71.001827, 42.44204099999999], [-71.003896, 42.440988000000004], [-71.004294, 42.441392000000015], [-71.005439, 42.44170700000001], [-71.005497, 42.44203099999998], [-71.009106, 42.442586999999996], [-71.00945, 42.44130400000001], [-71.009671, 42.441047], [-71.011864, 42.442134], [-71.018757, 42.45011800000001], [-71.025836, 42.44470900000001], [-71.054214, 42.476903], [-71.052629, 42.48605700000001], [-71.056673, 42.485099000000005], [-71.056596, 42.48439499999999], [-71.058964, 42.483402], [-71.060506, 42.485274], [-71.061278, 42.484259], [-71.060862, 42.48393600000001], [-71.060662, 42.483526000000005], [-71.060475, 42.481826], [-71.060286, 42.48142000000001], [-71.061532, 42.481141999999984], [-71.06107, 42.480422], [-71.060536, 42.478804], [-71.06237300000001, 42.47872699999999], [-71.063845, 42.48305800000001], [-71.065912, 42.482611000000006], [-71.066805, 42.481931], [-71.069034, 42.486303], [-71.069386, 42.487724], [-71.069484, 42.488711], [-71.069322, 42.49079499999999], [-71.069555, 42.49302000000001], [-71.070305, 42.495553], [-71.069319, 42.49970199999999], [-71.069216, 42.500986], [-71.06964900000001, 42.50232500000001], [-71.07116200000002, 42.504459], [-71.071615, 42.50536700000001], [-71.071684, 42.506129000000016], [-71.071205, 42.50810000000002], [-71.071306, 42.509416], [-71.072196, 42.511321], [-71.073311, 42.512724999999996], [-71.074229, 42.514567], [-71.074311, 42.515105000000005], [-71.074008, 42.51614700000001], [-71.074073, 42.516685999999986], [-71.075411, 42.517649999999996], [-71.077292, 42.51978200000001], [-71.077745, 42.52105300000001], [-71.077669, 42.521580000000014], [-71.077373, 42.52206799999999], [-71.077453, 42.522516], [-71.078237, 42.523041], [-71.078144, 42.52320800000001], [-71.078819, 42.52466600000001], [-71.07917, 42.52490399999999], [-71.079256, 42.525369], [-71.080033, 42.526454999999984]]]}}