{"type": "Feature", "properties": {"district_name": "10th Essex", "chamber": "house", "vintage": "2001-2010"}, "geometry": {"type": "Polygon", "coordinates": [[[-70.95069398072495, 42.4948952203482], [-70.94529401601189, 42.49359491194832], [-70.94379396715811, 42.49309478584965], [-70.94069308578736, 42.492495172180924], [-70.9342929974151, 42.490495154869095], [-70.93409291106953, 42.48989493514399], [-70.931060037713, 42.4843911616756], [-70.92809300805831, 42.47809595185509], [-70.92689297747687, 42.47589614078137], [-70.92669303863849, 42.47579611604469], [-70.92329308209312, 42.46889598306114], [-70.9251930013169, 42.46719608009699], [-70.9273929409867, 42.46669612914972], [-70.92749393411185, 42.466496886945215], [-70.92809303098917, 42.4665960750305], [-70.92919302972736, 42.46849605156695], [-70.93069299354829, 42.46749572368135], [-70.93179301025481, 42.468495958070605], [-70.93199294709386, 42.46899603828102], [-70.93239305408392, 42.46929622616378], [-70.9347929538235, 42.46819618580804], [-70.93409292304571, 42.4676959057094], [-70.93419296516147, 42.46719618636726], [-70.9349930324872, 42.46649620597111], [-70.93509305005695, 42.46559586316517], [-70.93499302103713, 42.46509627800803], [-70.93389307602301, 42.463496264916174], [-70.93259309812221, 42.46219572247557], [-70.93659292318895, 42.46079573610407], [-70.93749300533287, 42.46169590951248], [-70.93979296054975, 42.461196210833734], [-70.94029300050036, 42.46329628372313], [-70.94119297846824, 42.46449576817789], [-70.9424929034953, 42.465096247847946], [-70.94319298915538, 42.46559591014699], [-70.94549303146107, 42.46559575049488], [-70.94709305833133, 42.465996185492315], [-70.94759304504748, 42.465395958406035], [-70.94949295311896, 42.46659623269636], [-70.94989302410185, 42.46579577448898], [-70.95089303873714, 42.46449627302242], [-70.95129307659822, 42.46439577290697], [-70.95259306632956, 42.46449591912104], [-70.95599399163085, 42.463996064217795], [-70.95599398281244, 42.4654961456985], [-70.95719402427967, 42.46639588598267], [-70.95659409254958, 42.466896085555355], [-70.95729400142191, 42.46769612666997], [-70.95859394272236, 42.46869591932195], [-70.9571940539525, 42.469796109698756], [-70.95549397376793, 42.468796094583766], [-70.95459408710762, 42.47029586100794], [-70.95539404134776, 42.471195974617466], [-70.95259397574735, 42.47359600217789], [-70.95249402871723, 42.47519576073618], [-70.95229399871837, 42.47549583393387], [-70.95739391534019, 42.47729574851889], [-70.9567940360067, 42.47839575389807], [-70.9573510309926, 42.478217198872294], [-70.95639508413342, 42.47959685910863], [-70.95719490208727, 42.480197058693264], [-70.95739502375552, 42.47999713290268], [-70.9615940197547, 42.48209475983361], [-70.96229508579061, 42.48269615431741], [-70.96339391058017, 42.482295029837594], [-70.96419400888797, 42.48269487134889], [-70.96479399943017, 42.481795139559324], [-70.96747101382753, 42.48034122817899], [-70.9698940875795, 42.48279493900805], [-70.96989394399175, 42.48317417658723], [-70.96929392971319, 42.483494953434686], [-70.96950893490346, 42.483714816740175], [-70.97057195929553, 42.48397515667295], [-70.97204595760651, 42.48397516715224], [-70.97373805394082, 42.4835749773933], [-70.9749089952896, 42.48301877648133], [-70.97526597494732, 42.48278013891854], [-70.97539699093454, 42.48233679500725], [-70.97627504933371, 42.481159744531666], [-70.97755401233766, 42.48001095543748], [-70.97883396967592, 42.4794270753965], [-70.9797440343501, 42.47935804106329], [-70.98050291423127, 42.480181276754294], [-70.98100204559898, 42.48111586214492], [-70.98123590888986, 42.48265187273628], [-70.9824890803674, 42.48230077621471], [-70.98198406452292, 42.484395006090075], [-70.98333191764483, 42.48450628033762], [-70.98425992430731, 42.48406423768135], [-70.98545891261033, 42.4840200827542], [-70.98569808525748, 42.48461589413387], [-70.98683599813933, 42.4852348321964], [-70.98713606300322, 42.485964259010586], [-70.98710608537374, 42.48684695432745], [-70.9865670559635, 42.48759796031183], [-70.98689597100224, 42.487840813705375], [-70.98725591704765, 42.488593012901575], [-70.9868959131792, 42.48892394201748], [-70.98671702271889, 42.489630979753265], [-70.98680594330622, 42.49038197258385], [-70.98605793868413, 42.49139819049663], [-70.98483000340663, 42.492061155530614], [-70.98399094004743, 42.49230384965835], [-70.98234296844844, 42.49268019785622], [-70.98117492655352, 42.49254722499648], [-70.97779393615942, 42.493095179876015], [-70.97619399569852, 42.49239528184584], [-70.97519497691121, 42.49159625207834], [-70.97569509378357, 42.490995907938455], [-70.9745940661531, 42.48989481902688], [-70.97209399371694, 42.491094820445795], [-70.97169408626227, 42.49109523863521], [-70.96781190876956, 42.489114227554566], [-70.96289401917386, 42.48699491336882], [-70.96219396259585, 42.487495240615296], [-70.96189403681761, 42.487094904657894], [-70.96079408073516, 42.486995235167235], [-70.96149398879916, 42.48769509045832], [-70.96199396166463, 42.48859488490972], [-70.96282691666124, 42.488872784970106], [-70.96199392094036, 42.490295265558025], [-70.96219406198453, 42.49049481671927], [-70.96199403751952, 42.49099522410856], [-70.95869408745241, 42.48999510425906], [-70.95869407745968, 42.49059490765758], [-70.9590939548279, 42.492194760016226], [-70.95779407275992, 42.49409496786907], [-70.95749404046782, 42.49649501751138], [-70.95729406144697, 42.49669494352408], [-70.95479394619838, 42.495695101882305], [-70.95069398072495, 42.4948952203482]]]}}