{"type": "Feature", "properties": {"district_name": "6th Essex District", "chamber": "house", "vintage": "2022-present"}, "geometry": {"type": "Polygon", "coordinates": [[[-70.922263, 42.59151200000001], [-70.901128, 42.590973000000005], [-70.885954, 42.590906], [-70.885733, 42.59193799999999], [-70.884967, 42.59282900000001], [-70.884953, 42.59355600000001], [-70.885327, 42.59434499999998], [-70.886592, 42.595185000000015], [-70.886889, 42.595583], [-70.887188, 42.596509], [-70.888037, 42.598113000000005], [-70.888771, 42.60024500000001], [-70.889069, 42.60134], [-70.888973, 42.60222299999999], [-70.888509, 42.603154], [-70.88751, 42.604344], [-70.885896, 42.605273000000004], [-70.883394, 42.606009], [-70.884308, 42.61045199999998], [-70.881305, 42.61064], [-70.880328, 42.611350999999985], [-70.874658, 42.609696], [-70.814543, 42.59341499999999], [-70.810085, 42.58421799999999], [-70.807036, 42.580464000000006], [-70.794417, 42.569219], [-70.794028, 42.5692], [-70.794218, 42.568677], [-70.793793, 42.56853999999999], [-70.79397600000001, 42.568117000000015], [-70.79364, 42.56777700000001], [-70.79379, 42.56759600000001], [-70.793632, 42.567324], [-70.793271, 42.567275], [-70.793158, 42.56692600000001], [-70.793469, 42.5664], [-70.793598, 42.565436000000005], [-70.793407, 42.56509], [-70.793326, 42.56454699999999], [-70.79344, 42.56438200000001], [-70.793312, 42.564263999999994], [-70.793901, 42.56293700000001], [-70.793824, 42.562218], [-70.794805, 42.55739], [-70.795415, 42.551479], [-70.794675, 42.551169], [-70.788368, 42.54954900000001], [-70.777085, 42.53946200000001], [-70.773429, 42.53570800000001], [-70.745428, 42.51319500000001], [-70.733558, 42.50395700000001], [-70.736119, 42.50010699999999], [-70.743567, 42.49597399999999], [-70.77789, 42.522795], [-70.78846, 42.530625], [-70.787672, 42.530583000000014], [-70.787275, 42.53087099999999], [-70.78673700000002, 42.530758999999996], [-70.785863, 42.53102999999998], [-70.785453, 42.53139199999999], [-70.785383, 42.531839], [-70.785058, 42.532353], [-70.783442, 42.532805999999994], [-70.783148, 42.533207000000004], [-70.782252, 42.533716], [-70.782213, 42.533982], [-70.782638, 42.53456099999999], [-70.782823, 42.535309999999996], [-70.783209, 42.535669], [-70.786007, 42.537134], [-70.787344, 42.53718], [-70.788405, 42.536879000000006], [-70.788783, 42.535486999999996], [-70.78872900000002, 42.534223], [-70.789403, 42.53185700000001], [-70.796666, 42.53977799999999], [-70.799807, 42.53979500000001], [-70.842493, 42.538196000000006], [-70.856343, 42.539343999999986], [-70.862766, 42.53972], [-70.867792, 42.541795], [-70.870992, 42.540195], [-70.878793, 42.53719499999999], [-70.886447, 42.53804799999999], [-70.887192, 42.537943], [-70.887554, 42.537001999999994], [-70.887527, 42.53638200000001], [-70.887774, 42.536302], [-70.88814, 42.53648799999998], [-70.888266, 42.53678799999999], [-70.8881, 42.539000000000016], [-70.890294, 42.539296], [-70.894394, 42.540696000000004], [-70.898429, 42.54290700000001], [-70.902758, 42.544828], [-70.907041, 42.54619999999999], [-70.907019, 42.546626], [-70.907888, 42.54683599999999], [-70.909208, 42.54624799999999], [-70.908399, 42.545558], [-70.912394, 42.54669499999999], [-70.911671, 42.54963799999999], [-70.91151100000002, 42.549611], [-70.908589, 42.557584999999996], [-70.908381, 42.57304900000001], [-70.922263, 42.59151200000001]], [[-70.803524, 42.548263999999996], [-70.802581, 42.547352], [-70.802047, 42.54710300000001], [-70.800926, 42.54747200000001], [-70.799975, 42.547505000000015], [-70.79938, 42.54711400000001], [-70.798653, 42.547147999999986], [-70.79683600000001, 42.54633400000001], [-70.796442, 42.546386], [-70.7959, 42.546939], [-70.794724, 42.547489], [-70.793333, 42.547325999999984], [-70.793171, 42.54785099999998], [-70.79324, 42.54826800000001], [-70.793627, 42.54866299999999], [-70.794477, 42.548915000000015], [-70.79544400000002, 42.548941], [-70.795668, 42.54941399999999], [-70.795227, 42.549764], [-70.795119, 42.550373], [-70.794879, 42.55058399999998], [-70.795868, 42.55119899999999], [-70.796379, 42.55114100000002], [-70.797075, 42.550473000000004], [-70.797254, 42.54984799999999], [-70.798298, 42.549823999999994], [-70.798846, 42.55097699999999], [-70.799379, 42.551337], [-70.800872, 42.551407999999995], [-70.80234, 42.55208300000001], [-70.803082, 42.551874], [-70.802457, 42.551068], [-70.802225, 42.550473000000004], [-70.803524, 42.548263999999996]], [[-70.798847, 42.54441600000001], [-70.798553, 42.544083], [-70.798251, 42.54406500000002], [-70.797486, 42.544468999999985], [-70.796705, 42.54460300000001], [-70.796202, 42.545069999999996], [-70.79614, 42.54553899999999], [-70.796548, 42.545725999999995], [-70.79781, 42.545512], [-70.798769, 42.544768999999995], [-70.798847, 42.54441600000001]]]}}