{"type": "Feature", "properties": {"district_name": "5th Plymouth District", "chamber": "house", "vintage": "2012-2020"}, "geometry": {"type": "Polygon", "coordinates": [[[-70.948928, 42.148166999999994], [-70.89351599999999, 42.16981399999999], [-70.887603, 42.173334999999994], [-70.870248, 42.182471], [-70.852165, 42.19046199999999], [-70.838864, 42.19480600000001], [-70.813502, 42.195372], [-70.77786400000001, 42.183854], [-70.752394, 42.163937], [-70.753674, 42.16344900000001], [-70.754319, 42.162992], [-70.754255, 42.16097200000001], [-70.754583, 42.16036799999999], [-70.755689, 42.159207], [-70.75657, 42.159019999999984], [-70.757318, 42.159054999999995], [-70.759734, 42.15944599999998], [-70.760413, 42.15913100000001], [-70.760774, 42.15875], [-70.761447, 42.157165], [-70.762231, 42.156898000000005], [-70.762896, 42.15713700000002], [-70.76418199999999, 42.15869799999999], [-70.765311, 42.158752999999976], [-70.765954, 42.15835500000002], [-70.76649499999999, 42.157724], [-70.767217, 42.15523599999998], [-70.767805, 42.15446999999999], [-70.768863, 42.153996], [-70.770342, 42.154419], [-70.77159, 42.155113000000014], [-70.772536, 42.15515799999999], [-70.774424, 42.15483999999999], [-70.775654, 42.155214999999984], [-70.77708000000001, 42.155918], [-70.77877099999999, 42.156399], [-70.78094399999999, 42.15656], [-70.781962, 42.156387999999986], [-70.78231099999999, 42.15618], [-70.78252599999999, 42.155222], [-70.782623, 42.15353], [-70.782954, 42.152094999999996], [-70.782735, 42.15064799999999], [-70.783219, 42.150088], [-70.785401, 42.149726], [-70.78571099999999, 42.148962], [-70.786048, 42.147223999999994], [-70.78669, 42.146286999999994], [-70.787583, 42.145545], [-70.78766399999999, 42.14523700000001], [-70.78751199999999, 42.14494199999999], [-70.785455, 42.143384], [-70.783084, 42.14229399999999], [-70.782708, 42.140929], [-70.782778, 42.139431], [-70.782263, 42.138825000000004], [-70.78096599999999, 42.137946], [-70.780534, 42.137351999999986], [-70.780385, 42.13658499999999], [-70.781119, 42.13545900000001], [-70.78120299999999, 42.13472900000001], [-70.779825, 42.13234099999999], [-70.780169, 42.131727], [-70.781757, 42.13123999999999], [-70.781958, 42.13026300000001], [-70.78138299999999, 42.129814999999994], [-70.779729, 42.130003], [-70.779263, 42.129792], [-70.77883299999999, 42.128011], [-70.778883, 42.127663999999996], [-70.779367, 42.126971], [-70.77944, 42.126485999999986], [-70.778021, 42.125375], [-70.777855, 42.124732], [-70.778318, 42.124112], [-70.778423, 42.123011999999996], [-70.779057, 42.12246699999999], [-70.77935699999999, 42.12175], [-70.779241, 42.12153999999999], [-70.777345, 42.12062399999999], [-70.777363, 42.11983200000001], [-70.77768, 42.11900300000001], [-70.776624, 42.117177999999974], [-70.778384, 42.115916999999996], [-70.78254299999999, 42.11652900000001], [-70.78204699999999, 42.11462600000001], [-70.783253, 42.111922], [-70.78635799999999, 42.11151899999999], [-70.788361, 42.111616999999995], [-70.788164, 42.11031500000001], [-70.790167, 42.110713], [-70.790071, 42.10880999999999], [-70.792074, 42.10910800000002], [-70.789481, 42.106804], [-70.792185, 42.106201000000006], [-70.798885, 42.112300999999995], [-70.800685, 42.10970100000001], [-70.803502, 42.111706000000005], [-70.806793, 42.10843399999999], [-70.811863, 42.10403999999999], [-70.810012, 42.10047999999999], [-70.81080299999999, 42.100187], [-70.809585, 42.099201], [-70.811185, 42.09810100000001], [-70.814785, 42.099001000000015], [-70.819619, 42.09932799999999], [-70.821322, 42.100609000000006], [-70.82308499999999, 42.10053], [-70.831214, 42.098701999999996], [-70.836061, 42.09696], [-70.839416, 42.09462500000001], [-70.842486, 42.094800999999975], [-70.84734, 42.096318000000004], [-70.849024, 42.095725], [-70.853651, 42.095514000000016], [-70.856786, 42.091801], [-70.86220399999999, 42.08865399999999], [-70.86539499999999, 42.090348999999996], [-70.867077, 42.08905399999999], [-70.86768599999999, 42.08826900000002], [-70.87001099999999, 42.087303], [-70.87433, 42.08847899999999], [-70.874653, 42.08873299999998], [-70.874945, 42.089667000000006], [-70.90238699999999, 42.08590100000001], [-70.93148699999999, 42.116549], [-70.936723, 42.13619500000001], [-70.939888, 42.13610000000002], [-70.94238899999999, 42.1426], [-70.94539, 42.142401], [-70.948928, 42.148166999999994]]]}}