{"type": "Feature", "properties": {"district_name": "5th Hampden", "chamber": "house", "vintage": "2001-2010"}, "geometry": {"type": "Polygon", "coordinates": [[[-72.59343304835002, 42.21169124702536], [-72.59053290205351, 42.207092027312754], [-72.5905331379074, 42.202291875367564], [-72.5975329507832, 42.19719198470364], [-72.60133298163458, 42.19509200167793], [-72.6058329795219, 42.191691957814015], [-72.60983312354018, 42.189791775049], [-72.62243398437971, 42.185391751123106], [-72.62683396551296, 42.178991861379735], [-72.62853404453577, 42.1682920176766], [-72.62763404403016, 42.16199194184217], [-72.64573404024516, 42.162291934121185], [-72.64733501525136, 42.16219207773419], [-72.64953499955581, 42.16239176085163], [-72.68483603524508, 42.16299183127491], [-72.68693600078753, 42.18319080187436], [-72.6868480204296, 42.186874901063526], [-72.68654395272362, 42.18893882860478], [-72.68654398675596, 42.19092307510298], [-72.68896002385877, 42.20298698126483], [-72.69060808895061, 42.21308298921562], [-72.68053497129014, 42.214591130364994], [-72.67003497239511, 42.21639085126596], [-72.66773497264852, 42.225391150263675], [-72.65633498383728, 42.22769114928488], [-72.64563502155686, 42.25058994586483], [-72.64383403376333, 42.253989954028924], [-72.63433401258459, 42.27398982888157], [-72.61303400217619, 42.28619004067965], [-72.6056329895553, 42.28478998169148], [-72.6013330140375, 42.28129002653774], [-72.59893296388245, 42.26808996842137], [-72.60013297442194, 42.26538974628525], [-72.60791802426334, 42.260169835137745], [-72.61803003331013, 42.24807487293669], [-72.62393398659441, 42.23369107482544], [-72.62093398884886, 42.22929111390991], [-72.61293399258815, 42.22499088055673], [-72.61023397378676, 42.218490965357006], [-72.6079329771033, 42.216290960226715], [-72.60223301785109, 42.21329075264893], [-72.60073296893127, 42.212790811700174], [-72.59663300353749, 42.21189086939096], [-72.59343304835002, 42.21169124702536]]]}}