{"type": "Feature", "properties": {"district_name": "17th Middlesex", "chamber": "house", "vintage": "2001-2010"}, "geometry": {"type": "Polygon", "coordinates": [[[-71.27470409474671, 42.65599108179739], [-71.27150395013038, 42.648591248969424], [-71.27123104388824, 42.64346681529211], [-71.27463896432393, 42.62898679773715], [-71.27766300110532, 42.62090700488427], [-71.28323101277783, 42.6153711088042], [-71.29684793624203, 42.61263500558149], [-71.29520395728622, 42.60759198419945], [-71.29422390325138, 42.605484278309575], [-71.30526400464659, 42.59263583969872], [-71.3064159117904, 42.59103594099342], [-71.3107360338983, 42.58617174987683], [-71.31627201326229, 42.57926018601457], [-71.31772794321733, 42.577980225238505], [-71.31876806348254, 42.57884383323627], [-71.3194039056528, 42.57979176337229], [-71.32030408771577, 42.58009192752214], [-71.32100405039154, 42.580791818112374], [-71.32190393514999, 42.58019174906852], [-71.32380399137011, 42.57939176881035], [-71.32730401061372, 42.57869207126043], [-71.32900397878949, 42.578992236283035], [-71.33220403396166, 42.578191794824704], [-71.33330393828508, 42.57819226341065], [-71.3361440671072, 42.57868413787693], [-71.34084908313686, 42.58023573986867], [-71.34049699772012, 42.58105221142346], [-71.34056095669222, 42.58172409534971], [-71.34130494337128, 42.581591778839176], [-71.3415050184198, 42.58309205913123], [-71.34270502947876, 42.58359220196426], [-71.34340492241235, 42.58589210990019], [-71.34270496187388, 42.58659221013645], [-71.34270491379262, 42.586992243982316], [-71.34130493806514, 42.58779209689855], [-71.34180496997833, 42.588792034907264], [-71.34240491140761, 42.58859198797481], [-71.34190499384495, 42.5892917976545], [-71.34230501275115, 42.58949207804768], [-71.34084906891684, 42.59132373258776], [-71.34022492734613, 42.591291920647905], [-71.33932909719938, 42.59180380603698], [-71.33225593075234, 42.59238001684886], [-71.33881698576116, 42.597915061945685], [-71.33896094220535, 42.59901916259887], [-71.33840502595436, 42.59879107928958], [-71.33550493546333, 42.59969114159896], [-71.33300490728546, 42.60069074388224], [-71.32990500839387, 42.602690899033334], [-71.32530408495441, 42.604290927336756], [-71.32410395841167, 42.60449109728273], [-71.325552015373, 42.607515223497394], [-71.32300800429216, 42.607870882647624], [-71.32281893092322, 42.60718923267012], [-71.31940806800044, 42.607370744533725], [-71.31856000768028, 42.60887503619927], [-71.31867205239327, 42.61413925446675], [-71.31841601457329, 42.61417092700055], [-71.31911990486478, 42.61541883649592], [-71.3197600251463, 42.61586712957347], [-71.31975995801612, 42.61602691847744], [-71.32020806050143, 42.6159629181836], [-71.32022403024972, 42.61617111885638], [-71.32017606189814, 42.61676293857172], [-71.31980792202833, 42.61663520873683], [-71.31982400072214, 42.618202740794416], [-71.32014402843451, 42.61877881269893], [-71.3189039298437, 42.620791114224254], [-71.31868799355294, 42.621770888145555], [-71.31958509474299, 42.62295495442167], [-71.31932900168887, 42.62498679530963], [-71.32315307262101, 42.62599477241004], [-71.32299294760914, 42.62637880271933], [-71.32337699322494, 42.627243040541615], [-71.32330497053799, 42.62759119716583], [-71.32366494566513, 42.62828323050444], [-71.32401691116787, 42.62965884739777], [-71.32523299496756, 42.62957910717543], [-71.32542491771945, 42.6312588667838], [-71.32520505271742, 42.63539107875543], [-71.31787301500414, 42.63757909215919], [-71.31617700482691, 42.63794717699229], [-71.31598508567424, 42.638363220313245], [-71.31640495106488, 42.6390908108009], [-71.31681707017016, 42.63946674597384], [-71.31820902124795, 42.64010697082759], [-71.31707306908392, 42.64073082586963], [-71.31756896963715, 42.64119521966032], [-71.316944905499, 42.64149917963952], [-71.31499306719668, 42.64362675662752], [-71.31632094323054, 42.6443788690402], [-71.31472791774324, 42.64619587858396], [-71.31376094548577, 42.646010905863086], [-71.3134729570753, 42.64642678914424], [-71.3129050215158, 42.6485908788572], [-71.31030492347051, 42.64789122637127], [-71.30920505479884, 42.647790950314075], [-71.3083049503323, 42.64879094533496], [-71.3074050218299, 42.64879114120511], [-71.30560978044932, 42.64773094488817], [-71.30525081092944, 42.648161316547494], [-71.30758706985563, 42.64957518609328], [-71.30650501621678, 42.650491035891314], [-71.30630498787019, 42.65159120794357], [-71.30596907709862, 42.65220278727491], [-71.3034239617347, 42.650587109042775], [-71.30444808485099, 42.648890824180924], [-71.30480407324977, 42.64789106646447], [-71.30150405429814, 42.64719115628752], [-71.2995039332097, 42.64697108493897], [-71.29350395131281, 42.64459127617676], [-71.29050393463812, 42.64509111967856], [-71.2873920830915, 42.64783501626846], [-71.28664001374206, 42.64901910062595], [-71.28200398741821, 42.652691184945034], [-71.27880405856828, 42.6546908804692], [-71.27470409474671, 42.65599108179739]]]}}