{"type": "Feature", "properties": {"district_name": "27th Middlesex District", "chamber": "house", "vintage": "2022-present"}, "geometry": {"type": "Polygon", "coordinates": [[[-71.127291, 42.39715399999999], [-71.126012, 42.39706400000001], [-71.124159, 42.398518], [-71.124567, 42.39903400000001], [-71.122225, 42.401458000000005], [-71.12175, 42.40132899999998], [-71.12068100000002, 42.402855], [-71.121716, 42.403636999999996], [-71.123482, 42.40446], [-71.12242, 42.406029], [-71.120808, 42.40540299999999], [-71.12144, 42.404567000000014], [-71.119367, 42.40374600000001], [-71.118342, 42.404225], [-71.117199, 42.404015], [-71.116909, 42.401303], [-71.116393, 42.401217], [-71.114916, 42.40216699999999], [-71.113868, 42.400985000000006], [-71.112374, 42.400226], [-71.100489, 42.396253999999985], [-71.099608, 42.39712099999998], [-71.098255, 42.395887], [-71.097596, 42.39484300000002], [-71.097649, 42.39472799999999], [-71.098647, 42.395272000000006], [-71.099884, 42.39347599999999], [-71.099087, 42.393123], [-71.100823, 42.390826], [-71.100021, 42.390490999999976], [-71.100302, 42.390099], [-71.097398, 42.38876700000001], [-71.097146, 42.38912100000001], [-71.096284, 42.388304], [-71.093175, 42.38736099999998], [-71.092782, 42.38818700000001], [-71.090778, 42.390838], [-71.088199, 42.389604000000006], [-71.089502, 42.388232], [-71.090477, 42.386520000000026], [-71.091321, 42.38387700000001], [-71.091801, 42.383815999999996], [-71.09014, 42.38142500000001], [-71.089741, 42.380109000000004], [-71.089925, 42.38006399999999], [-71.089263, 42.377264], [-71.091862, 42.37826], [-71.091489, 42.37684200000001], [-71.093295, 42.37689700000001], [-71.093092, 42.378704], [-71.094129, 42.379074], [-71.095589, 42.376972], [-71.094749, 42.37429199999999], [-71.097463, 42.374431], [-71.103204, 42.374327], [-71.108457, 42.379112000000006], [-71.107855, 42.379374], [-71.110699, 42.381687], [-71.111656, 42.38174900000002], [-71.115584, 42.385158], [-71.118193, 42.388009], [-71.117452, 42.388386000000004], [-71.118007, 42.38910400000002], [-71.117085, 42.389580999999986], [-71.120214, 42.392641000000005], [-71.120974, 42.393706000000016], [-71.122838, 42.392242], [-71.124313, 42.393584000000004], [-71.127291, 42.39715399999999]]]}}