{"type": "Feature", "properties": {"district_name": "1st Plymouth District", "chamber": "house", "vintage": "2012-2020"}, "geometry": {"type": "Polygon", "coordinates": [[[-70.72265999999999, 41.893778999999995], [-70.720759, 41.895967000000006], [-70.719689, 41.89671899999998], [-70.719179, 41.8975], [-70.716748, 41.89985700000001], [-70.715721, 41.900320999999984], [-70.71352499999999, 41.900155000000005], [-70.713319, 41.900355999999995], [-70.713076, 41.90209], [-70.712423, 41.903090999999996], [-70.71154299999999, 41.90547199999998], [-70.712143, 41.905517], [-70.71235899999999, 41.905910000000006], [-70.71145, 41.90821100000001], [-70.711894, 41.908308999999996], [-70.711776, 41.90872100000001], [-70.711908, 41.90900000000001], [-70.711287, 41.908873000000014], [-70.71072099999999, 41.90928599999999], [-70.710034, 41.909206999999995], [-70.709127, 41.911581000000005], [-70.706476, 41.914216], [-70.70488399999999, 41.91653900000001], [-70.704405, 41.919591000000004], [-70.707847, 41.919126], [-70.707471, 41.9185], [-70.707711, 41.918057999999995], [-70.708238, 41.917949000000014], [-70.70862699999999, 41.918220999999996], [-70.70986599999999, 41.91797299999998], [-70.70988, 41.917334000000004], [-70.71010199999999, 41.91709], [-70.71146, 41.916551999999996], [-70.712267, 41.915895000000006], [-70.71298, 41.915998], [-70.71330800000001, 41.916255000000014], [-70.712771, 41.91759599999999], [-70.713219, 41.917577999999985], [-70.713464, 41.917744999999975], [-70.71360899999999, 41.91795700000001], [-70.71347, 41.91835300000002], [-70.713246, 41.918369], [-70.71320399999999, 41.91814099999999], [-70.712858, 41.91821899999999], [-70.712577, 41.91861499999998], [-70.712321, 41.919483], [-70.71077, 41.921102], [-70.710509, 41.92107700000001], [-70.710303, 41.92171299999999], [-70.709941, 41.92172399999999], [-70.709181, 41.92141399999999], [-70.70867100000001, 41.922003000000004], [-70.70961900000002, 41.92347899999999], [-70.70966, 41.92377099999999], [-70.709057, 41.925372], [-70.708339, 41.92901399999999], [-70.708406, 41.929618], [-70.707365, 41.930600000000005], [-70.7051, 41.93322500000001], [-70.702955, 41.934328], [-70.70224499999999, 41.93552299999999], [-70.700814, 41.936517], [-70.698471, 41.938511999999974], [-70.696055, 41.94205900000001], [-70.692404, 41.94421199999999], [-70.69380000000001, 41.944818000000005], [-70.696485, 41.94534899999999], [-70.69771200000001, 41.94536], [-70.701398, 41.944948000000004], [-70.701945, 41.94506799999999], [-70.69381000000001, 41.949948000000006], [-70.69263900000001, 41.95030900000001], [-70.689623, 41.95079800000001], [-70.68650099999999, 41.952448999999994], [-70.687045, 41.95348099999999], [-70.687576, 41.953801000000006], [-70.687874, 41.953615], [-70.68800800000001, 41.95370599999999], [-70.687472, 41.954369], [-70.68794299999999, 41.95467600000001], [-70.687023, 41.955445000000005], [-70.68642299999999, 41.95628399999999], [-70.685684, 41.95790399999999], [-70.688386, 41.96008299999998], [-70.69287, 41.96311599999999], [-70.69237799999999, 41.963190999999995], [-70.689747, 41.96428500000001], [-70.68834, 41.964319], [-70.686956, 41.96481300000002], [-70.685552, 41.966057000000006], [-70.68265199999999, 41.96760799999999], [-70.681769, 41.96676799999999], [-70.680477, 41.966134], [-70.678122, 41.967701999999996], [-70.67775499999999, 41.96731399999999], [-70.674624, 41.96873199999999], [-70.672341, 41.96854], [-70.670585, 41.96903799999999], [-70.669398, 41.96918000000001], [-70.652197, 41.977166999999994], [-70.652723, 41.978635], [-70.652671, 41.979115000000014], [-70.652069, 41.979240999999995], [-70.651268, 41.97897499999999], [-70.650131, 41.977739], [-70.62011, 41.990193], [-70.603552, 42.001124], [-70.59563399999999, 42.003145], [-70.594365, 42.003261], [-70.59129, 41.999761000000014], [-70.579026, 41.993208], [-70.569636, 41.985088], [-70.559478, 41.97582800000001], [-70.552005, 41.966852999999986], [-70.53963999999999, 41.947965], [-70.534267, 41.94105800000002], [-70.528504, 41.93211200000002], [-70.522863, 41.92248500000001], [-70.520588, 41.917275000000004], [-70.51887099999999, 41.91177799999999], [-70.517669, 41.90366099999999], [-70.517068, 41.89611900000001], [-70.516638, 41.88736200000001], [-70.516381, 41.87510499999999], [-70.516363, 41.85803699999999], [-70.520343, 41.837859], [-70.525164, 41.821523], [-70.54727, 41.802145], [-70.560536, 41.790916], [-70.565281, 41.786705000000005], [-70.569124, 41.78560799999998], [-70.58121299999999, 41.78169299999999], [-70.58935699999999, 41.82529499999999], [-70.58977399999999, 41.828554999999994], [-70.594472, 41.82979099999998], [-70.594533, 41.82938100000001], [-70.595691, 41.82727699999999], [-70.59584199999999, 41.82667399999999], [-70.596304, 41.826128999999995], [-70.596432, 41.82454599999999], [-70.596994, 41.823597], [-70.597154, 41.82275599999999], [-70.59821699999999, 41.822584000000006], [-70.600363, 41.821258], [-70.601779, 41.82065100000001], [-70.602793, 41.820534], [-70.604179, 41.82005700000001], [-70.606295, 41.818054999999994], [-70.608771, 41.814544], [-70.607456, 41.81457400000001], [-70.606161, 41.815031], [-70.605587, 41.814945], [-70.606522, 41.81388899999999], [-70.60867999999999, 41.812799999999996], [-70.610155, 41.81129499999999], [-70.609798, 41.810708], [-70.610303, 41.80982100000003], [-70.610086, 41.809506999999996], [-70.609738, 41.808098], [-70.60993200000001, 41.8068], [-70.608902, 41.80608799999999], [-70.607934, 41.80462], [-70.608276, 41.803594999999994], [-70.6079, 41.802042], [-70.60786999999999, 41.800825], [-70.60741, 41.799833], [-70.607336, 41.799001], [-70.606783, 41.79785400000002], [-70.606803, 41.796316000000004], [-70.60642399999999, 41.794834000000016], [-70.605389, 41.79311500000001], [-70.60472299999999, 41.79238599999999], [-70.604486, 41.790988], [-70.603798, 41.789939], [-70.603495, 41.789127999999984], [-70.60327099999999, 41.787713], [-70.603298, 41.78645599999999], [-70.603781, 41.78368], [-70.603274, 41.781961], [-70.60538, 41.782198], [-70.60916, 41.78231299999999], [-70.61204599999999, 41.78217200000001], [-70.61522, 41.781763999999995], [-70.620013, 41.780618], [-70.630256, 41.77710299999998], [-70.629341, 41.778794999999995], [-70.62942199999999, 41.779129999999995], [-70.629008, 41.779606], [-70.628963, 41.780374], [-70.6293, 41.780713999999996], [-70.630022, 41.780677], [-70.63050299999999, 41.780907], [-70.630505, 41.78133999999999], [-70.630763, 41.781853], [-70.630652, 41.782102999999985], [-70.63094099999999, 41.78243099999999], [-70.630686, 41.782484000000004], [-70.63078399999999, 41.78301299999998], [-70.630577, 41.78321700000001], [-70.630515, 41.783789], [-70.630788, 41.78393099999998], [-70.63058, 41.784184], [-70.630612, 41.78437599999999], [-70.630132, 41.78456799999999], [-70.630164, 41.78476], [-70.629828, 41.78503200000001], [-70.629908, 41.785591999999994], [-70.630516, 41.78604], [-70.630692, 41.786855999999986], [-70.630068, 41.787240000000004], [-70.62881999999999, 41.78707999999998], [-70.62739499999999, 41.787342], [-70.627312, 41.787843], [-70.624476, 41.792553000000005], [-70.616478, 41.80543900000001], [-70.631892, 41.80633], [-70.717655, 41.80152700000001], [-70.717591, 41.802151], [-70.717879, 41.80357499999999], [-70.717767, 41.803767], [-70.716903, 41.804055000000005], [-70.71682299999999, 41.80423100000001], [-70.717703, 41.80560699999999], [-70.717671, 41.80730300000001], [-70.71743099999999, 41.807894999999995], [-70.71661499999999, 41.80847099999998], [-70.717399, 41.809367], [-70.717159, 41.81002300000001], [-70.716391, 41.81103099999999], [-70.716135, 41.81195900000001], [-70.715319, 41.812743000000005], [-70.715543, 41.814087], [-70.715383, 41.814519], [-70.71551099999999, 41.815255000000015], [-70.715127, 41.815975], [-70.714744, 41.816123000000005], [-70.714698, 41.816414], [-70.714379, 41.816546], [-70.714846, 41.81706399999999], [-70.7148, 41.817420000000006], [-70.714499, 41.81802000000001], [-70.713702, 41.818476], [-70.712589, 41.81964399999999], [-70.712113, 41.820438], [-70.711762, 41.82072999999999], [-70.711542, 41.82137800000001], [-70.710936, 41.821752999999994], [-70.709807, 41.82298600000001], [-70.708962, 41.823555999999996], [-70.70800799999999, 41.824528], [-70.707898, 41.824917], [-70.70795799999999, 41.82706400000002], [-70.70706400000002, 41.827984000000015], [-70.70687, 41.82869700000001], [-70.706493, 41.829157], [-70.70579599999999, 41.829361000000006], [-70.704807, 41.82940499999999], [-70.703683, 41.829084], [-70.703351, 41.82920700000001], [-70.70269499999999, 41.82880700000001], [-70.70208699999999, 41.82867900000001], [-70.700647, 41.82856700000001], [-70.70024699999999, 41.82861499999999], [-70.699975, 41.828838999999995], [-70.699799, 41.82971899999999], [-70.699063, 41.829511000000004], [-70.698311, 41.829654999999995], [-70.697495, 41.829319], [-70.697271, 41.829463000000004], [-70.697431, 41.830103], [-70.697271, 41.83056700000001], [-70.69496699999999, 41.83259899999998], [-70.69487099999999, 41.83407100000001], [-70.694423, 41.834519000000014], [-70.693879, 41.835879000000006], [-70.69365499999999, 41.836119], [-70.692567, 41.836583], [-70.690871, 41.837783000000016], [-70.689847, 41.83800699999999], [-70.689703, 41.839690000000004], [-70.68950199999999, 41.840091], [-70.68792599999999, 41.841232999999995], [-70.684878, 41.84402700000001], [-70.683633, 41.84493299999998], [-70.682211, 41.84558300000001], [-70.680534, 41.845529000000006], [-70.708626, 41.877632999999996], [-70.72265999999999, 41.893778999999995]]]}}