{"type": "Feature", "properties": {"district_name": "1st Middlesex", "chamber": "house", "vintage": "2001-2010"}, "geometry": {"type": "Polygon", "coordinates": [[[-71.77251517485495, 42.70806124342134], [-71.6244880736057, 42.70445741717124], [-71.54213766121035, 42.70280468241598], [-71.4578189684258, 42.70064701966822], [-71.45649092327977, 42.69599814792593], [-71.46120491199856, 42.691833044058484], [-71.45990893633632, 42.69029719950387], [-71.458293024077, 42.69090482789351], [-71.45739699685627, 42.690457211426455], [-71.45611694012109, 42.68623312307201], [-71.45230906999211, 42.686905071203576], [-71.45157292301496, 42.68519326340024], [-71.45042096884411, 42.68500092484446], [-71.44814892208305, 42.68092090098448], [-71.44746109009431, 42.67751276556966], [-71.44658099426995, 42.670282058923554], [-71.45240500855509, 42.66971522553423], [-71.4524600247839, 42.66929496141847], [-71.45162196389174, 42.66927098335429], [-71.4513809382134, 42.6696579695006], [-71.44853295046167, 42.66753000628631], [-71.44792497568977, 42.66681013816684], [-71.44768304410981, 42.66642181601517], [-71.44726803270814, 42.663113934579044], [-71.44971697548837, 42.66176978667592], [-71.45554093659547, 42.66119379200515], [-71.45507694161282, 42.66002615409431], [-71.45890102821437, 42.65972207452667], [-71.45736495662388, 42.65810620649393], [-71.47486890070803, 42.64951380065673], [-71.47549306976542, 42.65112980861899], [-71.47667695138597, 42.65314595194536], [-71.4796369194745, 42.65933824960158], [-71.48254892704243, 42.65090603764419], [-71.48830890722046, 42.64924193669573], [-71.48957299782111, 42.649018130793294], [-71.49242198538434, 42.64892214746804], [-71.49650200916231, 42.64951423015492], [-71.49709404302742, 42.64495412020263], [-71.49701405798174, 42.6442980902301], [-71.49735001750757, 42.642906148491164], [-71.49784599247478, 42.641673995669024], [-71.49831001269351, 42.6377862161771], [-71.496725089898, 42.632122161804254], [-71.4968049442114, 42.631386239560555], [-71.49411700158774, 42.62074615081478], [-71.49354102615935, 42.617418135161074], [-71.4945330721249, 42.60636180640106], [-71.4948689254238, 42.60431381989268], [-71.49504509211953, 42.6014499986287], [-71.49773307401568, 42.57655492834685], [-71.49888509279356, 42.57663484048097], [-71.50298400763502, 42.57542905940437], [-71.50646993175366, 42.57208625842514], [-71.51629091438312, 42.56654605686062], [-71.52078104373867, 42.564218238031], [-71.52230192582901, 42.561328777043705], [-71.52339000598305, 42.559991149363924], [-71.52446599411101, 42.559494114843034], [-71.5246519544869, 42.558715932044436], [-71.5270649145503, 42.55729977474072], [-71.5283340681865, 42.55624788940624], [-71.52926103538817, 42.55585999044414], [-71.53377808480562, 42.55281990837429], [-71.53382308701943, 42.552660103575676], [-71.54229501728828, 42.55022780000425], [-71.5388720225762, 42.54290501695], [-71.58032598898602, 42.55042420256434], [-71.58848397040232, 42.546192192968256], [-71.59121894091228, 42.54435976425108], [-71.59473802581785, 42.543294089668564], [-71.60217198240122, 42.54509777935063], [-71.60783000223965, 42.545367201332716], [-71.62003903460416, 42.55245012922204], [-71.61587602284347, 42.55360781201897], [-71.61253604525949, 42.55356385602593], [-71.61133096451864, 42.55376982867402], [-71.61096005544604, 42.55393110298689], [-71.61083600533075, 42.55425080558011], [-71.61086802243368, 42.55482186569016], [-71.61127096692643, 42.555781910932545], [-71.6121689705987, 42.55726812020256], [-71.61241696878136, 42.55827389018043], [-71.61223197213371, 42.55973694980798], [-71.61149202934457, 42.56147511714136], [-71.61016300090505, 42.563029853242234], [-71.60883406920533, 42.56412827252947], [-71.60858806984827, 42.56492802741813], [-71.60821703682399, 42.56538580182933], [-71.60663993775299, 42.56618679292821], [-71.6066400341638, 42.566575017709376], [-71.60778497781227, 42.56732902305445], [-71.60988890596437, 42.567786156643535], [-71.61109495266962, 42.56840221835011], [-71.61162204433701, 42.56956807595992], [-71.61174701495871, 42.570824902078], [-71.61199497447024, 42.57135072936259], [-71.61261400855369, 42.57176198231253], [-71.61388193339029, 42.572128149019804], [-71.61447098610975, 42.57320221586372], [-71.61583308089199, 42.57404707279171], [-71.61598790586272, 42.57461799597448], [-71.61586395373872, 42.57489325763841], [-71.61382309476753, 42.57537409354135], [-71.6134220906856, 42.576220145678754], [-71.6128660569935, 42.57690599014245], [-71.61215496506738, 42.57720375889502], [-71.61042303415661, 42.57754694874919], [-71.60989696778866, 42.57786815734401], [-71.60949500403646, 42.57853077452724], [-71.60958906053422, 42.57997105050516], [-71.60897200424336, 42.58118299945452], [-71.6105799887121, 42.58109088916896], [-71.61092091239317, 42.58131899483649], [-71.61079705495214, 42.58157117756231], [-71.60999303209461, 42.58198323357592], [-71.61002400481883, 42.58228027914113], [-71.61020993560103, 42.58237124978776], [-71.61126205477028, 42.58232522900429], [-71.61228196162656, 42.581936018208005], [-71.61311801018877, 42.581980780391056], [-71.61333403361648, 42.58218705367773], [-71.61327306362857, 42.5831019696675], [-71.61451206748951, 42.58408424531836], [-71.6146050482435, 42.584449870268344], [-71.61423406739613, 42.58497574547677], [-71.61426497463029, 42.585433147120334], [-71.61488501007295, 42.58609588167067], [-71.61519395912865, 42.58620979450695], [-71.61652391558921, 42.58598115238067], [-71.61729802394414, 42.586163222355054], [-71.61819508512268, 42.58582022115864], [-71.619217024262, 42.58579610638849], [-71.6192170572099, 42.58611624495838], [-71.61869094993122, 42.58673400944776], [-71.61872203054021, 42.58696184279506], [-71.61909395893484, 42.58735080755213], [-71.62005408353392, 42.58744208615963], [-71.62048700705176, 42.58767006749728], [-71.6237700570842, 42.59066322086519], [-71.62376991183693, 42.59116622197262], [-71.62346093056797, 42.5916470480862], [-71.62349307114656, 42.59269802648802], [-71.62409296675466, 42.593200950984134], [-71.62451294336162, 42.593305149904175], [-71.62451291041526, 42.59318980413478], [-71.62498609496228, 42.593625901814065], [-71.62639005415451, 42.59360299291459], [-71.62680205629843, 42.593900740542104], [-71.62686292709678, 42.59454208368493], [-71.62612997542553, 42.59625106234882], [-71.62631392613667, 42.598647148748476], [-71.62828197563962, 42.600515750565755], [-71.62735094093283, 42.602399939073074], [-71.62768695218209, 42.60331610228945], [-71.62800705162435, 42.60323922896396], [-71.62884606192367, 42.60235382729167], [-71.62910605228285, 42.60240024040361], [-71.63029599518359, 42.60375092051435], [-71.62976209207552, 42.6050399643997], [-71.6298990719367, 42.60581794395933], [-71.63028105283836, 42.60646679832258], [-71.63003701253912, 42.607053900666294], [-71.63028099682334, 42.607359142699664], [-71.63073907820815, 42.60761124499024], [-71.63195898698754, 42.60756484625167], [-71.63256997829764, 42.60780889849257], [-71.63293590609595, 42.6083277882686], [-71.63380592849714, 42.6085951662227], [-71.63528590762918, 42.61065382165513], [-71.6342330126894, 42.61117323516503], [-71.63351291571132, 42.61238880883859], [-71.6340500281011, 42.61261492495195], [-71.63551493483283, 42.61240110535932], [-71.63626195684746, 42.612912226309554], [-71.63707102298679, 42.612782987479605], [-71.63792502775848, 42.61361410669557], [-71.63856597559543, 42.61341585821607], [-71.63986293020137, 42.6141479736293], [-71.64061292876919, 42.614089106713344], [-71.64225898902008, 42.61473581581123], [-71.64325103624212, 42.61576589861234], [-71.64346399677852, 42.61662028413079], [-71.64299094977922, 42.617215015194866], [-71.6441139859846, 42.617289012548866], [-71.64413693393684, 42.61849696012756], [-71.64384702020845, 42.61881014745303], [-71.64383205852809, 42.61917587973487], [-71.64338903246184, 42.61966479894326], [-71.64328195270694, 42.62081721069921], [-71.64344997295444, 42.62116696174374], [-71.6440759279616, 42.62146494678598], [-71.64482304288205, 42.62152590232144], [-71.64479298988881, 42.621708792182844], [-71.6438469858659, 42.62229680800079], [-71.64404493340547, 42.6226549557896], [-71.64514403156137, 42.62279311345641], [-71.64552502608132, 42.623319261056444], [-71.64525106281377, 42.62369994760283], [-71.64416704845213, 42.62316624379282], [-71.64399900360714, 42.62331104629149], [-71.64445707968866, 42.623730767574166], [-71.64407607630001, 42.624279808614894], [-71.64418304932738, 42.62474610440819], [-71.64445690461305, 42.624898231911395], [-71.6447169741106, 42.62476906734565], [-71.64482304998609, 42.62426481302668], [-71.64566302654485, 42.624105093524605], [-71.64596809408978, 42.62473823593115], [-71.64558602342714, 42.62523383728688], [-71.6455859529822, 42.62569913226325], [-71.6462729675855, 42.6260200916206], [-71.64657800157937, 42.62638598492556], [-71.64691404796928, 42.62648908284872], [-71.64714295544643, 42.626148959824704], [-71.64670001078176, 42.625698847936654], [-71.646868044049, 42.625386934440634], [-71.64671402291172, 42.62508893345231], [-71.64697494823612, 42.62483710819903], [-71.64721406430913, 42.62478897516346], [-71.64900396702954, 42.62578311166303], [-71.6490499221013, 42.62628717354154], [-71.64996607335765, 42.626759726479975], [-71.64995008800928, 42.62700393086774], [-71.6492940531015, 42.62730916173886], [-71.64930996213404, 42.627515065586095], [-71.64993508659308, 42.62822486823932], [-71.65019491418835, 42.62894920431275], [-71.65048391573904, 42.629048977148514], [-71.65104906293301, 42.629834235634945], [-71.65170491186382, 42.63023904017205], [-71.65309401054678, 42.63050614677057], [-71.65413099144739, 42.63127613508895], [-71.65645096597135, 42.63258902235442], [-71.65774790522352, 42.63352685753019], [-71.65799192032223, 42.63443517341806], [-71.65829691062015, 42.634434755887895], [-71.6589530070413, 42.634069268172865], [-71.65925791715587, 42.63411498419894], [-71.66041404608062, 42.635088991704706], [-71.66461391476969, 42.61158910121703], [-71.69401509607135, 42.62028908435943], [-71.7093149261556, 42.624589044898435], [-71.75881702058076, 42.63908800496544], [-71.76491703132639, 42.640988261139626], [-71.77291694484258, 42.6432882521653], [-71.77551699034075, 42.643888042690584], [-71.77251517485495, 42.70806124342134]]]}}