{"type": "Feature", "properties": {"district_name": "3rd Middlesex", "chamber": "house", "vintage": "2001-2010"}, "geometry": {"type": "Polygon", "coordinates": [[[-71.43027603227411, 42.43674596055795], [-71.4335789680227, 42.42881377690431], [-71.43516595240906, 42.42548820458923], [-71.44261996689774, 42.40666702527622], [-71.46461004269453, 42.403096192876504], [-71.46816405784786, 42.402333127153106], [-71.46916407782263, 42.402381788926], [-71.47261393336605, 42.38903276889379], [-71.47513899591844, 42.38047680334415], [-71.55624492926391, 42.37228505786799], [-71.58626194681044, 42.369453100519046], [-71.60306291140392, 42.36750086013837], [-71.60791107140771, 42.370493211484245], [-71.59829507303962, 42.37599689116531], [-71.5802140511146, 42.387181072237986], [-71.6024229646972, 42.39695615784645], [-71.60629500882789, 42.39871605254746], [-71.60650301599264, 42.398939802627325], [-71.60703099685807, 42.39893987996104], [-71.60743096294672, 42.39932380590972], [-71.62976805338843, 42.40924426945741], [-71.65701595977579, 42.41710005368161], [-71.66045597704964, 42.41825215420889], [-71.65805607092933, 42.42574006739058], [-71.6578890413006, 42.4290302092281], [-71.6453800936245, 42.462558909376625], [-71.63915495147167, 42.4784667935031], [-71.60001407990735, 42.46546722599578], [-71.59543905500689, 42.46413310113471], [-71.57710408491599, 42.45741910351454], [-71.56405491355628, 42.45292580851908], [-71.54907694028815, 42.4474860293502], [-71.54335895792495, 42.46625476051966], [-71.52289692537731, 42.465441970174815], [-71.49856106744357, 42.46384684988299], [-71.43027603227411, 42.43674596055795]]]}}