{"type": "Feature", "properties": {"district_name": "1st Hampshire District", "chamber": "house", "vintage": "2012-2020"}, "geometry": {"type": "Polygon", "coordinates": [[[-72.86841799999999, 42.22374799999999], [-72.864308, 42.23209099999999], [-72.857641, 42.240491], [-72.813416, 42.24500700000001], [-72.82225799999999, 42.352816999999995], [-72.777142, 42.358244], [-72.67212599999999, 42.37135299999999], [-72.66919299999999, 42.40965799999999], [-72.629014, 42.414322999999996], [-72.629042, 42.414868], [-72.62244, 42.41518], [-72.585554, 42.423176], [-72.581106, 42.422504], [-72.577916, 42.41392799999999], [-72.575907, 42.41016400000001], [-72.575222, 42.408242], [-72.574825, 42.406012], [-72.574833, 42.403811], [-72.575319, 42.40081], [-72.57579799999999, 42.399569], [-72.576656, 42.398488], [-72.578012, 42.397588999999996], [-72.579253, 42.397237999999994], [-72.580461, 42.397237999999994], [-72.584479, 42.398925000000006], [-72.58657199999999, 42.39909599999999], [-72.587656, 42.39902999999999], [-72.588887, 42.39867200000002], [-72.590244, 42.39698700000002], [-72.59034199999999, 42.395954999999994], [-72.586991, 42.39158699999998], [-72.586176, 42.38984799999999], [-72.586389, 42.38889999999999], [-72.587453, 42.38750799999998], [-72.58993199999999, 42.381546], [-72.591402, 42.37692399999998], [-72.59176599999999, 42.374848], [-72.59169299999999, 42.372888], [-72.59121, 42.370654000000016], [-72.590335, 42.368522999999996], [-72.588285, 42.364433999999996], [-72.587453, 42.36117199999999], [-72.58746900000001, 42.359593], [-72.587693, 42.357945000000015], [-72.588151, 42.35657299999998], [-72.589278, 42.35437], [-72.591375, 42.352365], [-72.593718, 42.35111800000001], [-72.595962, 42.350488], [-72.60114399999999, 42.34965300000001], [-72.605903, 42.34951299999999], [-72.614338, 42.35018], [-72.618611, 42.350624999999994], [-72.62597199999999, 42.351687], [-72.628242, 42.35174600000001], [-72.634254, 42.351113000000005], [-72.635803, 42.350401], [-72.637519, 42.349258], [-72.63860799999999, 42.34775599999998], [-72.639089, 42.34633999999999], [-72.639129, 42.345425999999996], [-72.63893, 42.344819], [-72.638016, 42.344189000000014], [-72.633691, 42.344483000000004], [-72.624558, 42.34334200000001], [-72.62251599999999, 42.342759], [-72.62079299999999, 42.341854000000005], [-72.620137, 42.34130799999999], [-72.61903, 42.33892900000001], [-72.61871000000001, 42.337476], [-72.618318, 42.33692], [-72.61711, 42.336060999999994], [-72.61228299999999, 42.333339999999986], [-72.608226, 42.331449], [-72.603414, 42.32967899999999], [-72.597972, 42.328806], [-72.592946, 42.32776500000001], [-72.58746, 42.32712099999999], [-72.58633, 42.326533000000026], [-72.585786, 42.32603199999999], [-72.58438, 42.323941999999995], [-72.584211, 42.322997], [-72.58467, 42.321369], [-72.586066, 42.31942799999999], [-72.58689799999999, 42.318660999999985], [-72.588439, 42.317993000000016], [-72.593391, 42.31677500000001], [-72.594325, 42.315616000000006], [-72.59487, 42.31423400000001], [-72.594993, 42.31408200000001], [-72.595272, 42.31414799999999], [-72.597169, 42.31059200000001], [-72.599228, 42.307849000000004], [-72.61129, 42.295806000000006], [-72.613704, 42.292395000000006], [-72.614701, 42.29019900000001], [-72.61823199999999, 42.29018800000001], [-72.622159, 42.28902599999997], [-72.624521, 42.28814800000001], [-72.627382, 42.28649199999999], [-72.627927, 42.28592299999999], [-72.629022, 42.28526699999998], [-72.630232, 42.28492899999999], [-72.633669, 42.285122], [-72.634849, 42.28538800000001], [-72.636196, 42.286113], [-72.63743699999999, 42.28739], [-72.640677, 42.284137000000015], [-72.64207999999999, 42.288174000000005], [-72.643832, 42.28851900000001], [-72.646048, 42.290339999999986], [-72.648652, 42.29176100000001], [-72.65383299999999, 42.290389999999995], [-72.656086, 42.289941999999996], [-72.660488, 42.28862799999999], [-72.660216, 42.28925399999998], [-72.672035, 42.290192999999995], [-72.672169, 42.290962000000015], [-72.672091, 42.29188699999999], [-72.736726, 42.284241], [-72.736463, 42.27658100000001], [-72.725019, 42.27808800000001], [-72.724713, 42.27772300000001], [-72.72403, 42.277618], [-72.723283, 42.277109999999986], [-72.721237, 42.27634399999998], [-72.71872499999999, 42.27634599999998], [-72.717051, 42.276628], [-72.71454200000001, 42.276014999999994], [-72.71275299999999, 42.275984999999984], [-72.71241100000002, 42.275808000000005], [-72.712421, 42.27557100000001], [-72.712088, 42.275335000000005], [-72.711713, 42.274576], [-72.710796, 42.27386199999998], [-72.710559, 42.273204000000014], [-72.71069299999999, 42.272501], [-72.71017499999999, 42.27216], [-72.709968, 42.271831], [-72.70942099999999, 42.271545], [-72.709288, 42.27078799999999], [-72.70831199999999, 42.269689], [-72.70723199999999, 42.269656000000005], [-72.70703999999999, 42.26975500000001], [-72.707084, 42.27015], [-72.7067, 42.270302999999984], [-72.70532399999999, 42.26954499999999], [-72.703683, 42.269566000000005], [-72.702012, 42.26924700000001], [-72.70145, 42.268950000000004], [-72.70028099999999, 42.269245999999995], [-72.69985199999999, 42.269641], [-72.699556, 42.26961899999999], [-72.69915700000001, 42.26948799999997], [-72.698817, 42.269081000000014], [-72.698551, 42.267807000000005], [-72.697402, 42.267089000000006], [-72.69708, 42.267214999999986], [-72.69569, 42.26599600000001], [-72.69550699999999, 42.26574], [-72.69551799999999, 42.265418000000004], [-72.696332, 42.26457800000001], [-72.696637, 42.263897], [-72.697548, 42.26378100000001], [-72.69735299999999, 42.263453000000005], [-72.69745, 42.263102999999994], [-72.698529, 42.26264900000002], [-72.698166, 42.262302999999996], [-72.698742, 42.26192900000001], [-72.69874, 42.26121099999999], [-72.698931, 42.260593], [-72.698354, 42.259744000000005], [-72.69863099999999, 42.25946500000001], [-72.698702, 42.25912099999999], [-72.69899699999999, 42.25912399999999], [-72.699068, 42.25946600000002], [-72.699466, 42.25926299999999], [-72.699433, 42.25894399999999], [-72.700028, 42.25899699999998], [-72.700131, 42.25884399999998], [-72.69963, 42.258479], [-72.69907300000001, 42.25857899999999], [-72.69898100000002, 42.25842299999999], [-72.69960999999999, 42.25801400000002], [-72.70006, 42.25813899999999], [-72.700604, 42.257937999999996], [-72.70079299999999, 42.257718999999994], [-72.700727, 42.25740000000001], [-72.701481, 42.257189], [-72.682592, 42.244127000000006], [-72.684236, 42.242622], [-72.685711, 42.24019], [-72.686956, 42.238653000000006], [-72.687263, 42.237930999999996], [-72.68718, 42.236816], [-72.686042, 42.23442800000001], [-72.685784, 42.23193099999998], [-72.686712, 42.225789000000006], [-72.687666, 42.22327799999999], [-72.667733, 42.225461], [-72.670006, 42.21650599999998], [-72.690455, 42.213083], [-72.686235, 42.189073], [-72.686774, 42.18599100000001], [-72.686861, 42.183389999999996], [-72.78576199999999, 42.200474], [-72.79789199999999, 42.165860999999985], [-72.802506, 42.16288600000001], [-72.80751400000001, 42.157340000000005], [-72.81287499999999, 42.155848000000006], [-72.812465, 42.15746100000001], [-72.812981, 42.16130400000001], [-72.82786, 42.18096], [-72.82830799999999, 42.182047], [-72.837329, 42.191239], [-72.84661299999999, 42.201022], [-72.84754699999999, 42.201827], [-72.848686, 42.20218900000001], [-72.852826, 42.20258499999999], [-72.85620899999999, 42.20321999999998], [-72.856505, 42.203396999999995], [-72.856338, 42.204048], [-72.854514, 42.205927], [-72.854233, 42.206496], [-72.854171, 42.207131], [-72.854792, 42.208625], [-72.8575, 42.21265400000001], [-72.857924, 42.21446799999998], [-72.85841099999999, 42.21555300000001], [-72.85967200000002, 42.21683399999999], [-72.85944599999999, 42.21765799999999], [-72.85804399999999, 42.218927], [-72.85800499999999, 42.219238000000004], [-72.857711, 42.21946599999999], [-72.857669, 42.22008699999999], [-72.857884, 42.22056099999999], [-72.860018, 42.22229], [-72.861912, 42.22229], [-72.863359, 42.221992], [-72.86448, 42.222027000000004], [-72.86841799999999, 42.22374799999999]]]}}