{"type": "Feature", "properties": {"district_name": "18th Essex District", "chamber": "house", "vintage": "2012-2020"}, "geometry": {"type": "Polygon", "coordinates": [[[-71.276083, 42.62526799999999], [-71.274709, 42.62885899999998], [-71.271271, 42.643918000000006], [-71.27146499999999, 42.64611100000001], [-71.271682, 42.646305], [-71.27170699999999, 42.64801799999999], [-71.272018, 42.64921600000001], [-71.275154, 42.656216], [-71.272607, 42.656664], [-71.26420399999999, 42.65769100000001], [-71.256103, 42.656690999999995], [-71.250303, 42.660591000000004], [-71.24950299999999, 42.66088800000001], [-71.242198, 42.662299999999995], [-71.238103, 42.669490999999994], [-71.23445199999999, 42.67208999999999], [-71.23376300000001, 42.672824000000006], [-71.229647, 42.677856999999996], [-71.227721, 42.68090000000001], [-71.226074, 42.684431999999994], [-71.22564899999999, 42.685783], [-71.22538899999999, 42.68686699999999], [-71.224807, 42.69342999999999], [-71.223638, 42.69533800000001], [-71.22117399999999, 42.69849599999998], [-71.220229, 42.69940099999997], [-71.219202, 42.700036], [-71.217553, 42.700720999999994], [-71.216723, 42.70100699999999], [-71.215138, 42.701207999999994], [-71.209942, 42.70062], [-71.209514, 42.697779000000004], [-71.208659, 42.69518699999998], [-71.191121, 42.656853], [-71.190315, 42.65671200000001], [-71.189695, 42.65591699999999], [-71.188767, 42.65550699999999], [-71.188464, 42.65510299999999], [-71.18785199999999, 42.654889999999995], [-71.186706, 42.653935000000004], [-71.18527399999999, 42.653389999999995], [-71.18476199999999, 42.652854999999995], [-71.18348399999999, 42.65202899999999], [-71.182757, 42.651831], [-71.18097999999999, 42.65179499999999], [-71.179954, 42.650029999999994], [-71.177427, 42.65082500000001], [-71.174542, 42.652702000000005], [-71.17235099999999, 42.654707], [-71.168759, 42.65862800000001], [-71.166479, 42.660477000000014], [-71.165685, 42.66032999999998], [-71.155086, 42.65998599999999], [-71.14938599999999, 42.65927699999998], [-71.14819600000001, 42.65869999999999], [-71.147607, 42.65770500000001], [-71.14715199999999, 42.657251], [-71.145747, 42.657357999999995], [-71.143919, 42.65659200000002], [-71.141809, 42.655176999999995], [-71.142077, 42.654706000000004], [-71.139873, 42.65519700000001], [-71.13581599999999, 42.65647699999998], [-71.132702, 42.656774000000006], [-71.133347, 42.658832999999994], [-71.132458, 42.65896299999999], [-71.133715, 42.66146699999998], [-71.13500499999999, 42.662698], [-71.13400899999999, 42.663478], [-71.131118, 42.665198999999994], [-71.130268, 42.66593900000001], [-71.128423, 42.668861], [-71.127479, 42.67083299999999], [-71.12683500000001, 42.671814999999995], [-71.11875599999999, 42.66102299999999], [-71.11732099999999, 42.66295499999998], [-71.115584, 42.66433800000001], [-71.114817, 42.66520599999999], [-71.106025, 42.658836], [-71.10574299999999, 42.658969], [-71.10539399999999, 42.659169], [-71.1053, 42.65971599999998], [-71.107075, 42.66203600000001], [-71.10727299999999, 42.66274799999998], [-71.106962, 42.663893000000016], [-71.10579299999999, 42.664222999999986], [-71.104872, 42.66492900000001], [-71.102548, 42.665089], [-71.10163399999999, 42.66531300000001], [-71.101332, 42.66556600000002], [-71.1001, 42.66544], [-71.099396, 42.66555200000001], [-71.099025, 42.665676999999995], [-71.09828800000001, 42.666371999999996], [-71.099913, 42.66812799999998], [-71.101955, 42.670993], [-71.099569, 42.67448100000002], [-71.09993200000001, 42.676075999999995], [-71.099569, 42.678197000000026], [-71.099593, 42.67924599999999], [-71.098587, 42.68140999999998], [-71.098968, 42.68247600000001], [-71.099103, 42.683862000000005], [-71.099443, 42.68525899999999], [-71.099317, 42.686122999999995], [-71.0976, 42.687993999999996], [-71.089557, 42.694494999999996], [-71.085132, 42.69600499999999], [-71.084011, 42.696800999999994], [-71.08381, 42.69668199999998], [-71.08272900000001, 42.69677900000001], [-71.08193299999999, 42.69700400000001], [-71.080083, 42.696701], [-71.07611399999999, 42.69527799999998], [-71.074764, 42.694987999999995], [-71.07335499999999, 42.694925999999995], [-71.071466, 42.695327000000006], [-71.069332, 42.694626], [-71.06853199999999, 42.694184000000014], [-71.066987, 42.69475799999999], [-71.064491, 42.69471699999999], [-71.040519, 42.67268800000001], [-71.03757499999999, 42.667655], [-71.028908, 42.666227000000006], [-71.024926, 42.666385999999996], [-71.023223, 42.665881999999996], [-71.02102599999999, 42.66469300000001], [-71.018855, 42.664422], [-71.01782, 42.662852000000015], [-71.017079, 42.662395999999994], [-71.011811, 42.662333], [-71.007691, 42.66144399999998], [-71.003331, 42.659653000000006], [-71.00236699999999, 42.66088200000001], [-70.99797099999999, 42.663514000000006], [-70.99783, 42.663728000000006], [-70.995147, 42.664642999999984], [-70.992817, 42.66516499999999], [-70.991889, 42.665625], [-70.990501, 42.667158], [-70.99000699999999, 42.669116], [-70.988666, 42.67081199999999], [-70.983018, 42.673272000000004], [-70.980368, 42.674209999999995], [-70.979017, 42.67396000000001], [-70.97801799999999, 42.67395500000001], [-70.97586299999999, 42.673249], [-70.975329, 42.67267299999999], [-70.974825, 42.67275399999998], [-70.97381, 42.672222], [-70.972818, 42.67207199999999], [-70.97213599999999, 42.671472], [-70.97102, 42.671040999999995], [-70.970811, 42.67102600000001], [-70.970362, 42.671354], [-70.96999, 42.671279000000006], [-70.968525, 42.67001199999999], [-70.96789, 42.669793000000006], [-70.967975, 42.66948599999999], [-70.967506, 42.66943399999999], [-70.96036099999999, 42.64984299999998], [-70.975545, 42.642184], [-70.975692, 42.641936], [-70.97637, 42.640714], [-70.976214, 42.64063499999999], [-70.97614399999999, 42.640167999999996], [-70.975888, 42.639934000000004], [-70.97529899999999, 42.63984099999999], [-70.975137, 42.63967199999999], [-70.97528299999999, 42.63939099999998], [-70.974657, 42.639293], [-70.97422999999999, 42.638517], [-70.973696, 42.638247], [-70.973936, 42.637906], [-70.973742, 42.637778], [-70.973765, 42.63745399999999], [-70.97338500000001, 42.63686599999999], [-70.973362, 42.636550999999976], [-70.97375, 42.63651000000001], [-70.97400999999999, 42.63623700000001], [-70.974436, 42.636129999999994], [-70.974963, 42.635167], [-70.974739, 42.634533], [-70.975188, 42.63437199999999], [-70.975078, 42.633788999999986], [-70.974328, 42.633919000000006], [-70.974514, 42.633564], [-70.973274, 42.63170300000001], [-70.973258, 42.63155999999999], [-70.973931, 42.63093599999999], [-70.973668, 42.63031900000001], [-70.97304, 42.629591000000005], [-70.972336, 42.629342], [-70.97242, 42.628994], [-70.972234, 42.628745], [-70.971383, 42.628071], [-70.970237, 42.627793], [-70.96981099999999, 42.627517000000005], [-70.968525, 42.627125], [-70.968053, 42.626740999999996], [-70.967667, 42.626722], [-70.969386, 42.625297], [-70.96990000000001, 42.62519100000001], [-70.970348, 42.625389999999996], [-70.971272, 42.62512099999999], [-70.971756, 42.624842000000015], [-70.972177, 42.62415199999999], [-70.973089, 42.624374], [-70.97402799999999, 42.62349900000001], [-70.974513, 42.623442], [-70.97497, 42.62378100000001], [-70.97550199999999, 42.623825000000004], [-70.976669, 42.623311], [-70.97671199999999, 42.623193], [-70.976263, 42.62277199999998], [-70.976472, 42.622364000000005], [-70.976374, 42.62119699999998], [-70.976721, 42.62088000000001], [-70.977642, 42.620857000000015], [-70.978002, 42.621404999999996], [-70.980019, 42.62172599999999], [-70.982295, 42.621594], [-70.983623, 42.621876000000015], [-70.985348, 42.62171800000001], [-71.02230999999999, 42.641636], [-71.054576, 42.627652000000005], [-71.05877199999999, 42.60899599999999], [-71.07596099999999, 42.604092], [-71.13529, 42.599061], [-71.141528, 42.603386], [-71.143074, 42.604080999999994], [-71.145749, 42.60828000000001], [-71.14656, 42.609979999999986], [-71.148613, 42.61324899999999], [-71.154336, 42.615277000000006], [-71.156564, 42.61497700000001], [-71.15861699999999, 42.61294799999999], [-71.159517, 42.60765900000001], [-71.160667, 42.605318], [-71.163664, 42.60212999999999], [-71.165015, 42.59795899999999], [-71.167254, 42.599495999999995], [-71.180481, 42.60770900000001], [-71.181167, 42.60824200000001], [-71.181101, 42.608681999999995], [-71.182007, 42.60845200000001], [-71.181501, 42.60811499999999], [-71.182288, 42.60794999999999], [-71.18246599999999, 42.607775999999994], [-71.181922, 42.607473], [-71.182047, 42.60626399999999], [-71.181585, 42.604637], [-71.181587, 42.604369000000005], [-71.182079, 42.603939], [-71.182884, 42.60423500000002], [-71.182521, 42.60468099999999], [-71.182656, 42.604866], [-71.18295599999999, 42.60492300000001], [-71.18318099999999, 42.604665999999995], [-71.18345099999999, 42.60467999999999], [-71.183352, 42.605599], [-71.18397399999999, 42.606503000000004], [-71.183826, 42.606785], [-71.18481299999999, 42.60622199999999], [-71.187511, 42.60629300000001], [-71.188578, 42.606067999999986], [-71.18948300000001, 42.606187000000006], [-71.189345, 42.60764500000001], [-71.189754, 42.610298], [-71.19165100000001, 42.61031099999998], [-71.195708, 42.60970499999999], [-71.196141, 42.610062], [-71.202181, 42.61251], [-71.209034, 42.612266], [-71.215684, 42.612708999999974], [-71.222633, 42.611478999999996], [-71.22571599999999, 42.61154999999999], [-71.22787699999999, 42.611328], [-71.229918, 42.611505], [-71.23161499999999, 42.611888], [-71.232008, 42.61346], [-71.231999, 42.614157], [-71.231006, 42.617021], [-71.229619, 42.618624], [-71.228945, 42.619911], [-71.230448, 42.620625], [-71.231274, 42.62073600000001], [-71.231174, 42.621826999999996], [-71.230549, 42.621883000000004], [-71.23074199999999, 42.62241499999999], [-71.231297, 42.62253999999999], [-71.23190000000001, 42.622032000000004], [-71.232339, 42.621942000000004], [-71.23282499999999, 42.620188000000006], [-71.252209, 42.622752999999996], [-71.251975, 42.623866], [-71.25113999999999, 42.62517899999998], [-71.251187, 42.625598], [-71.251851, 42.626233], [-71.252245, 42.62740900000001], [-71.25462, 42.628902], [-71.254263, 42.629729000000005], [-71.254061, 42.630759], [-71.25460199999999, 42.631937], [-71.254942, 42.632133], [-71.255802, 42.63203499999997], [-71.256839, 42.631640999999995], [-71.258698, 42.631239999999984], [-71.25942599999999, 42.63064000000001], [-71.260556, 42.63075699999999], [-71.26079, 42.63105900000001], [-71.267974, 42.629214], [-71.270245, 42.628369], [-71.27325499999999, 42.62692899999998], [-71.276083, 42.62526799999999]]]}}