{"type": "Feature", "properties": {"district_name": "6th Plymouth District", "chamber": "house", "vintage": "2022-present"}, "geometry": {"type": "Polygon", "coordinates": [[[-70.906699, 42.05555], [-70.903842, 42.05757700000001], [-70.899395, 42.05861800000001], [-70.895067, 42.061042000000015], [-70.894225, 42.061263999999994], [-70.891475, 42.061452], [-70.890781, 42.06068], [-70.888783, 42.059707999999986], [-70.888259, 42.05926900000001], [-70.888005, 42.058848999999995], [-70.887144, 42.05605], [-70.885368, 42.05383699999999], [-70.884003, 42.053175], [-70.883019, 42.05306900000001], [-70.882007, 42.05316500000002], [-70.880297, 42.05366600000001], [-70.87672200000002, 42.055200000000006], [-70.876295, 42.05617299999999], [-70.873064, 42.061646999999994], [-70.871172, 42.063766], [-70.868776, 42.065891], [-70.863577, 42.06496300000001], [-70.862089, 42.068222000000006], [-70.860014, 42.06998600000001], [-70.859073, 42.07050900000001], [-70.85961, 42.07079999999999], [-70.859767, 42.071092], [-70.859651, 42.072791], [-70.86065500000001, 42.073439], [-70.860986, 42.07450099999999], [-70.860908, 42.074922], [-70.860681, 42.07566400000002], [-70.860475, 42.075747000000014], [-70.860238, 42.076231], [-70.859867, 42.076333999999996], [-70.85996, 42.076736], [-70.859815, 42.077076], [-70.85911, 42.07804399999999], [-70.858651, 42.078323], [-70.857569, 42.07846700000002], [-70.857043, 42.079105999999996], [-70.857259, 42.07985899999999], [-70.856978, 42.08037900000001], [-70.857696, 42.080304], [-70.859568, 42.079423999999996], [-70.861808, 42.07881600000001], [-70.863007, 42.081643999999976], [-70.866275, 42.085894], [-70.86610500000002, 42.088662000000014], [-70.865295, 42.090624000000005], [-70.864512, 42.090412], [-70.864303, 42.089794000000005], [-70.863102, 42.089544999999994], [-70.862187, 42.089162], [-70.861281, 42.089225], [-70.861101, 42.089653], [-70.85965800000001, 42.09023100000001], [-70.859452, 42.090667], [-70.858824, 42.09104199999999], [-70.857481, 42.09137200000001], [-70.855486, 42.09242300000001], [-70.854976, 42.093339], [-70.855137, 42.094166], [-70.854537, 42.09482299999999], [-70.85367200000002, 42.09541399999999], [-70.853039, 42.095264], [-70.852084, 42.09531900000001], [-70.851153, 42.094953], [-70.850642, 42.094927999999996], [-70.848142, 42.09629199999999], [-70.847095, 42.096241], [-70.846571, 42.095859], [-70.845405, 42.09548200000001], [-70.845142, 42.09516499999999], [-70.844731, 42.095003000000005], [-70.843157, 42.094743000000015], [-70.8419, 42.09493999999999], [-70.84059200000002, 42.094535000000015], [-70.84008, 42.094538000000014], [-70.839157, 42.09495800000001], [-70.838504, 42.09609900000002], [-70.83791000000001, 42.096738000000016], [-70.837165, 42.09691], [-70.836247, 42.096774], [-70.835995, 42.097132], [-70.835504, 42.09732199999997], [-70.834162, 42.097589], [-70.833717, 42.097935000000014], [-70.831448, 42.098516999999994], [-70.828893, 42.099622999999994], [-70.826319, 42.10039200000001], [-70.823542, 42.100413], [-70.822259, 42.10072900000002], [-70.821242, 42.10072900000001], [-70.82091800000002, 42.100545000000004], [-70.820592, 42.09992499999998], [-70.819864, 42.09948700000001], [-70.819649, 42.09947099999999], [-70.819482, 42.099714999999996], [-70.818601, 42.099670999999994], [-70.81702800000001, 42.099061000000006], [-70.816277, 42.099433999999995], [-70.814937, 42.098824], [-70.814103, 42.098862999999994], [-70.813176, 42.098186999999996], [-70.811166, 42.098043], [-70.810717, 42.09831600000001], [-70.810316, 42.098834000000004], [-70.809817, 42.098982], [-70.80961100000002, 42.099388999999995], [-70.810623, 42.10000800000001], [-70.810536, 42.10023399999999], [-70.809885, 42.10046200000001], [-70.809883, 42.100731], [-70.811968, 42.10253100000001], [-70.812278, 42.103410000000004], [-70.812157, 42.104149], [-70.810896, 42.105107], [-70.809417, 42.106767999999974], [-70.807167, 42.10846500000001], [-70.804847, 42.111265], [-70.80385, 42.111477000000015], [-70.802809, 42.111227000000014], [-70.801944, 42.11062700000001], [-70.801109, 42.109716000000006], [-70.80066, 42.10963300000001], [-70.79992, 42.112061], [-70.799665, 42.112376000000005], [-70.799256, 42.112506999999994], [-70.798438, 42.112386], [-70.798034, 42.11214999999999], [-70.795047, 42.10940699999999], [-70.794003, 42.107169000000006], [-70.792994, 42.10635499999999], [-70.792276, 42.10611699999998], [-70.791001, 42.10643700000001], [-70.789398, 42.106516], [-70.789293, 42.106812], [-70.789435, 42.10695100000001], [-70.790465, 42.107368], [-70.792173, 42.108528], [-70.79226, 42.10906499999999], [-70.791741, 42.10924399999999], [-70.790507, 42.108691], [-70.790052, 42.108698], [-70.78995, 42.10896299999999], [-70.790528, 42.110082999999996], [-70.7905, 42.11032899999999], [-70.790234, 42.11061799999999], [-70.789682, 42.11069000000001], [-70.788682, 42.110057000000005], [-70.788167, 42.11008299999999], [-70.787988, 42.11047800000001], [-70.788547, 42.11128299999999], [-70.788332, 42.11160400000001], [-70.787823, 42.11165100000001], [-70.786716, 42.111290999999994], [-70.786326, 42.111307], [-70.785199, 42.11202000000001], [-70.783777, 42.111738999999965], [-70.783007, 42.112005999999994], [-70.782892, 42.11222800000001], [-70.782928, 42.113381999999994], [-70.782142, 42.11409800000001], [-70.782077, 42.11432000000001], [-70.78228200000001, 42.11497500000001], [-70.782959, 42.115931999999994], [-70.782991, 42.11620300000002], [-70.782603, 42.11665], [-70.78143, 42.116845], [-70.78094, 42.116752999999996], [-70.77978, 42.115862], [-70.779003, 42.11558599999999], [-70.776624, 42.117177999999974], [-70.777148, 42.11809], [-70.777875, 42.11885599999999], [-70.777847, 42.11931300000001], [-70.777361, 42.11985899999999], [-70.77737, 42.12062600000001], [-70.779299, 42.121482999999984], [-70.779481, 42.121778], [-70.779483, 42.121980000000015], [-70.778495, 42.12300099999999], [-70.778431, 42.12425300000001], [-70.777897, 42.12492300000002], [-70.77793, 42.125199999999985], [-70.778854, 42.125865999999995], [-70.779502, 42.12671500000001], [-70.778822, 42.12782800000001], [-70.779242, 42.129634], [-70.779628, 42.12981600000002], [-70.781597, 42.12968200000001], [-70.78192, 42.129847], [-70.78228200000001, 42.130383], [-70.782179, 42.13092100000001], [-70.781846, 42.13125300000001], [-70.780169, 42.131727], [-70.779932, 42.13197700000001], [-70.779873, 42.132349], [-70.781494, 42.13487200000001], [-70.780561, 42.13621299999999], [-70.780474, 42.13654900000002], [-70.780624, 42.137163], [-70.78114, 42.13772600000001], [-70.782864, 42.13900400000001], [-70.783061, 42.139908], [-70.782828, 42.14142499999997], [-70.783222, 42.142209000000015], [-70.785629, 42.143305], [-70.786283, 42.143988], [-70.787572, 42.144693000000004], [-70.787836, 42.145100000000006], [-70.787693, 42.145458], [-70.786671, 42.14632], [-70.786346, 42.14683200000001], [-70.785726, 42.149302000000006], [-70.785415, 42.14974599999998], [-70.783524, 42.149989000000005], [-70.783053, 42.1502], [-70.782783, 42.150584], [-70.783109, 42.15215999999999], [-70.78262200000002, 42.153540000000014], [-70.782526, 42.155222000000016], [-70.782311, 42.15618], [-70.781656, 42.156554], [-70.779323, 42.156486000000015], [-70.777586, 42.15608900000001], [-70.775654, 42.155214999999984], [-70.775716, 42.154360000000004], [-70.774669, 42.15274600000001], [-70.772803, 42.151489], [-70.772289, 42.15095300000001], [-70.770052, 42.14537099999998], [-70.769873, 42.14464499999998], [-70.770339, 42.143854000000005], [-70.76966, 42.140235999999994], [-70.768383, 42.13570200000001], [-70.767633, 42.133633], [-70.767229, 42.131699000000005], [-70.76735, 42.130423], [-70.768357, 42.128954000000014], [-70.768428, 42.127975], [-70.766984, 42.12476100000001], [-70.766813, 42.123842999999994], [-70.764237, 42.12434900000001], [-70.759244, 42.12622599999999], [-70.756034, 42.127873], [-70.754444, 42.129096999999994], [-70.752252, 42.129983], [-70.74861700000001, 42.130726], [-70.746766, 42.127274], [-70.74603, 42.125523], [-70.745718, 42.12446599999999], [-70.745662, 42.123422999999995], [-70.74489100000001, 42.121812], [-70.744798, 42.121015000000014], [-70.74555, 42.11977], [-70.745723, 42.118964999999996], [-70.745695, 42.118075000000005], [-70.745202, 42.117169], [-70.744338, 42.11616699999999], [-70.74103600000001, 42.113195000000005], [-70.736834, 42.10994699999999], [-70.734811, 42.10579], [-70.73262200000002, 42.103858], [-70.731298, 42.103209], [-70.730345, 42.102419], [-70.729752, 42.101614000000005], [-70.728338, 42.09896699999999], [-70.727225, 42.098122999999994], [-70.720552, 42.094939000000004], [-70.714953, 42.092856], [-70.711159, 42.09224699999999], [-70.710539, 42.091847999999985], [-70.71047, 42.090942999999996], [-70.711435, 42.08900400000001], [-70.71126900000002, 42.08750100000001], [-70.711587, 42.087253999999994], [-70.712216, 42.08588900000002], [-70.715196, 42.08306100000001], [-70.715601, 42.082499], [-70.715639, 42.08200699999999], [-70.715319, 42.08068000000001], [-70.715631, 42.07938100000003], [-70.698445, 42.07050299999999], [-70.698482, 42.06902100000001], [-70.697446, 42.06742099999999], [-70.696884, 42.067024], [-70.69586, 42.06667], [-70.68276100000001, 42.057469], [-70.651306, 42.07122799999999], [-70.648001, 42.07244200000001], [-70.647932, 42.072948000000004], [-70.629803, 42.077186000000005], [-70.628724, 42.073549], [-70.626033, 42.06655999999999], [-70.622529, 42.06013200000001], [-70.614905, 42.049111], [-70.608105, 42.037786000000004], [-70.602953, 42.025846999999985], [-70.598554, 42.01367700000001], [-70.609301, 42.01358299999998], [-70.60889800000001, 42.01319999999998], [-70.612821, 42.01321499999998], [-70.612653, 42.01355099999999], [-70.6415, 42.013155000000005], [-70.64202, 42.012396999999986], [-70.643583, 42.007777], [-70.645899, 42.002459], [-70.64839, 41.997844], [-70.649808, 41.99604200000001], [-70.652348, 41.990216999999994], [-70.653511, 41.987113], [-70.662497, 41.988123000000016], [-70.66525300000002, 41.988588], [-70.667055, 41.989205], [-70.667655, 41.989558], [-70.668738, 41.99033900000002], [-70.669137, 41.99087800000001], [-70.6701, 41.992642999999994], [-70.671066, 41.99651000000001], [-70.671738, 41.998325000000015], [-70.672635, 41.999658], [-70.673269, 42.00023000000001], [-70.682081, 42.001403999999994], [-70.698582, 42.00670300000001], [-70.705902, 42.004456], [-70.711225, 42.00314900000001], [-70.711264, 42.002403000000015], [-70.721793, 42.00281699999999], [-70.722223, 42.004259], [-70.722814, 42.004639999999995], [-70.724657, 42.007039], [-70.724022, 42.009288], [-70.730136, 42.01623100000001], [-70.73124000000001, 42.017707], [-70.769492, 42.022063], [-70.775527, 42.023167000000015], [-70.796725, 42.020587000000006], [-70.800525, 42.01644199999999], [-70.800384, 42.016102], [-70.801284, 42.016602], [-70.801684, 42.017801999999996], [-70.80144, 42.01855499999999], [-70.799563, 42.02149], [-70.800754, 42.02285899999999], [-70.798683, 42.02498700000001], [-70.800702, 42.02740300000001], [-70.801609, 42.029173], [-70.801669, 42.029925], [-70.800998, 42.033256], [-70.801096, 42.033819999999984], [-70.801494, 42.034486], [-70.802709, 42.03527000000002], [-70.805738, 42.036267000000024], [-70.805948, 42.036042000000016], [-70.80769, 42.03675400000001], [-70.807819, 42.03693599999998], [-70.815551, 42.039393000000004], [-70.81723700000002, 42.03948399999998], [-70.821455, 42.03874799999999], [-70.821676, 42.039142000000005], [-70.821706, 42.039919], [-70.820105, 42.043293999999996], [-70.819838, 42.04453999999999], [-70.819901, 42.045924], [-70.819414, 42.04758000000001], [-70.81892600000002, 42.04824299999999], [-70.817566, 42.04915400000001], [-70.816461, 42.05012499999999], [-70.815654, 42.05129000000001], [-70.818129, 42.05130199999999], [-70.820222, 42.052446], [-70.820805, 42.051761999999975], [-70.821212, 42.053184000000016], [-70.821132, 42.05338600000001], [-70.820485, 42.053201], [-70.821122, 42.053964], [-70.822771, 42.05345800000001], [-70.825834, 42.05558000000002], [-70.828035, 42.057931000000025], [-70.832498, 42.058172000000006], [-70.835116, 42.05804400000001], [-70.835075, 42.058673], [-70.836825, 42.05929099999999], [-70.84583, 42.055073], [-70.845367, 42.05409099999999], [-70.845417, 42.053857], [-70.846997, 42.05191499999999], [-70.847251, 42.050672], [-70.847022, 42.050188], [-70.847246, 42.049684], [-70.847013, 42.048158999999984], [-70.846517, 42.04772200000001], [-70.846306, 42.04736299999999], [-70.846294, 42.04696299999999], [-70.845658, 42.046155], [-70.841071, 42.04489300000002], [-70.842246, 42.04343200000002], [-70.844766, 42.04269799999999], [-70.833463, 42.019548], [-70.814978, 42.02397500000001], [-70.812975, 42.022721999999995], [-70.813757, 42.021208999999985], [-70.813367, 42.020424000000006], [-70.813772, 42.019871], [-70.81363, 42.019416], [-70.812296, 42.01862700000001], [-70.812289, 42.01818800000001], [-70.811855, 42.017629], [-70.809389, 42.01666800000001], [-70.809765, 42.015848], [-70.809676, 42.01530799999999], [-70.808804, 42.014586], [-70.808193, 42.013679], [-70.807318, 42.01311], [-70.807251, 42.01287599999998], [-70.807494, 42.012489999999985], [-70.807668, 42.012491], [-70.807989, 42.01212600000001], [-70.807931, 42.01167099999999], [-70.807517, 42.011084000000025], [-70.806495, 42.01033300000002], [-70.809597, 42.00684800000002], [-70.8099, 42.007184], [-70.810826, 42.006981], [-70.81206, 42.00739000000001], [-70.816481, 42.01044199999997], [-70.817051, 42.010664], [-70.81832, 42.010505999999985], [-70.820491, 42.009558000000006], [-70.822933, 42.008860999999996], [-70.823664, 42.007877], [-70.82499800000001, 42.00680499999999], [-70.828701, 42.00491800000001], [-70.829452, 42.004275], [-70.830552, 42.001582000000006], [-70.829757, 41.998853999999994], [-70.831246, 41.99562499999998], [-70.832473, 41.995937000000005], [-70.833989, 41.996653000000016], [-70.837237, 41.99741600000001], [-70.842352, 41.99662399999998], [-70.843448, 41.996306999999995], [-70.844203, 41.99589999999999], [-70.84454, 41.999344], [-70.845266, 41.999313], [-70.845378, 42.00029], [-70.845848, 42.000292], [-70.846138, 42.000637000000005], [-70.847657, 42.00027899999999], [-70.848899, 42.000691], [-70.84968, 42.00065099999998], [-70.850386, 42.00091900000001], [-70.850838, 42.000885000000004], [-70.852042, 42.001410000000014], [-70.852271, 42.001884999999994], [-70.852808, 42.001960000000004], [-70.854561, 42.001588000000005], [-70.854513, 42.00092799999996], [-70.855375, 42.00076], [-70.85493500000001, 42.00000999999999], [-70.853727, 41.99921499999999], [-70.854685, 41.998285], [-70.853677, 41.99767599999998], [-70.853955, 41.996375999999984], [-70.853445, 41.99327199999999], [-70.853591, 41.992656999999994], [-70.854173, 41.99186799999999], [-70.854162, 41.99150899999999], [-70.857618, 41.99171100000001], [-70.86055, 41.990937], [-70.861948, 41.990897999999994], [-70.870317, 41.99312799999999], [-70.874185, 41.99341899999999], [-70.877406, 41.994191], [-70.877699, 41.99457900000001], [-70.880058, 41.995710999999986], [-70.882008, 41.996952], [-70.882467, 41.997440000000005], [-70.883372, 41.99948199999999], [-70.885095, 42.001507000000004], [-70.884741, 42.003369], [-70.884467, 42.008517999999995], [-70.88457, 42.00927099999999], [-70.885045, 42.00957], [-70.892004, 42.010341000000004], [-70.893874, 42.010825], [-70.894971, 42.01089799999999], [-70.895789, 42.010727], [-70.898768, 42.00881699999999], [-70.897744, 42.01644900000001], [-70.89691200000001, 42.01928900000001], [-70.896618, 42.02328499999998], [-70.89764900000002, 42.024224000000004], [-70.897418, 42.024941], [-70.899729, 42.02529899999999], [-70.906699, 42.05555]]]}}