{"type": "Feature", "properties": {"district_name": "23rd Middlesex", "chamber": "house", "vintage": "2001-2010"}, "geometry": {"type": "Polygon", "coordinates": [[[-71.12549703653474, 42.43929494642039], [-71.12593301796534, 42.43798816278998], [-71.12600595196788, 42.436896254535064], [-71.12652400195088, 42.43570902039601], [-71.1267659361442, 42.43548191927221], [-71.12586192490083, 42.43132873433641], [-71.12653096216818, 42.4312211902408], [-71.12559701131912, 42.42729577856337], [-71.12309697549267, 42.42569583069604], [-71.12279692202976, 42.42519575450104], [-71.121097059012, 42.42639598065363], [-71.1202970277001, 42.426696061780895], [-71.11969697725797, 42.42449572161599], [-71.1179970305127, 42.42469603121105], [-71.11759702179657, 42.42139576596486], [-71.11799705091798, 42.42139596871339], [-71.11779702339855, 42.41739583375143], [-71.11909707342215, 42.4156958044446], [-71.12219707132584, 42.416695765291486], [-71.12369709005995, 42.41419622037175], [-71.12679697325865, 42.41659598525752], [-71.12679698690609, 42.416850871164186], [-71.12711697506587, 42.41731724223742], [-71.12679798656285, 42.41809719690573], [-71.12859700633305, 42.41799610760467], [-71.13039701685415, 42.41749605468502], [-71.13119708947657, 42.41699615941241], [-71.13139695686534, 42.415896213554866], [-71.1316969589071, 42.41549598425635], [-71.13229706711226, 42.41529590805378], [-71.1323969661266, 42.41489616286839], [-71.13269689922532, 42.411696082788396], [-71.1321969894401, 42.40939596453874], [-71.13369699483273, 42.40709604014756], [-71.13449692407033, 42.404396068627236], [-71.13439808154897, 42.40379707022184], [-71.13629704868043, 42.401096060108095], [-71.1368969836556, 42.40119585974976], [-71.1383199461149, 42.402578890730666], [-71.14189691648318, 42.4053961319476], [-71.14389799292681, 42.40409581404868], [-71.14579806465295, 42.40349624117071], [-71.14619808163714, 42.404496211745126], [-71.1474979094129, 42.406395849457226], [-71.14809896017073, 42.40579675427978], [-71.15039804560806, 42.405296230046595], [-71.15318199574526, 42.41110298638033], [-71.15429801411797, 42.41109621556429], [-71.15609793221536, 42.4102958612545], [-71.15659807528426, 42.40869598989654], [-71.15773590829907, 42.40780923167928], [-71.16099895331334, 42.40679707602215], [-71.16227694784007, 42.40569912073414], [-71.1614030826384, 42.40520027609046], [-71.15943408386671, 42.40476515185494], [-71.15781290948716, 42.40392814581658], [-71.15806992915304, 42.403538981981015], [-71.1645990920766, 42.40619712870902], [-71.16619998430949, 42.40658720876936], [-71.17346000275514, 42.409289171104035], [-71.17862099303476, 42.410601775658726], [-71.18162206045837, 42.411064754218884], [-71.18330004110841, 42.4114970133733], [-71.18689899568437, 42.412794817588164], [-71.19161592038203, 42.414231108116695], [-71.19528007788958, 42.41561490726461], [-71.19478506688729, 42.414456745622466], [-71.19390009260304, 42.413196264421224], [-71.20273597910712, 42.41469305123879], [-71.19889997560769, 42.418396145095834], [-71.19759897834307, 42.42009480616273], [-71.19599907738616, 42.421794922776336], [-71.19479903086773, 42.42139506114426], [-71.19269906843031, 42.420995047917934], [-71.192499077097, 42.42159487778592], [-71.19059900091754, 42.420894894418105], [-71.18909893022449, 42.421594748233325], [-71.18329901015416, 42.423295081076525], [-71.18129893806702, 42.42289513480849], [-71.17899902071798, 42.42269518659108], [-71.17819793227099, 42.42099481265419], [-71.17809795955613, 42.42019497461105], [-71.17709797034286, 42.41949503030189], [-71.1735979311824, 42.417794897891696], [-71.17209802057373, 42.416795266465634], [-71.17059796474513, 42.41619624531223], [-71.16909800686895, 42.41529617128924], [-71.1682979348624, 42.41509580841122], [-71.16709801894237, 42.41609614943081], [-71.16899806512215, 42.417594956728365], [-71.16849800609091, 42.4179952645818], [-71.16709807402607, 42.41709601110314], [-71.16629794055083, 42.417695752055295], [-71.16679797539483, 42.41809501313621], [-71.1662979315458, 42.41859489966736], [-71.16339804915866, 42.41719610207448], [-71.15799793472041, 42.41649597715792], [-71.15779809121969, 42.41739621501142], [-71.15699797068582, 42.41909591750509], [-71.15889791777929, 42.41949599048657], [-71.16269803686437, 42.42179500541969], [-71.16339793568757, 42.42099525335119], [-71.16549789776575, 42.421395243411396], [-71.16519791542531, 42.422794852767964], [-71.16819802373418, 42.42219472959812], [-71.1688979751472, 42.42249495991399], [-71.16909793125006, 42.423794744030005], [-71.168598059916, 42.4238951449184], [-71.17039802949363, 42.42479495697691], [-71.17368405453962, 42.427073000536076], [-71.17403502605164, 42.42753707597047], [-71.17399807521852, 42.42829488210085], [-71.17429898902587, 42.428596198985694], [-71.17569790877207, 42.429395203468275], [-71.17819905542288, 42.430094861895505], [-71.18049898548388, 42.431094939684904], [-71.18459890092663, 42.43339517783306], [-71.1842990403635, 42.43389513062184], [-71.18380000669512, 42.434195918521226], [-71.18339905630941, 42.434894775688235], [-71.18199892550393, 42.43629476918059], [-71.17849891700601, 42.4360948685212], [-71.17669897032073, 42.43629520720729], [-71.17519896242106, 42.435995022600544], [-71.16439803559065, 42.4360951470323], [-71.15559795864384, 42.435795147927294], [-71.14659803528248, 42.43589504114339], [-71.13239691881006, 42.43569528423003], [-71.13119697217944, 42.435495071188996], [-71.13019696450822, 42.43549523997528], [-71.12899693533522, 42.43579522115517], [-71.12879702071005, 42.43549523683421], [-71.12829693968719, 42.43699482496468], [-71.12699702344831, 42.438895260486355], [-71.12549703653474, 42.43929494642039]]]}}