{"type": "Feature", "properties": {"district_name": "6th Middlesex", "chamber": "house", "vintage": "2001-2010"}, "geometry": {"type": "Polygon", "coordinates": [[[-71.37736001083738, 42.31444711056623], [-71.37960402921964, 42.31219482845087], [-71.38780400305698, 42.30189481405806], [-71.38990396963929, 42.30039504400507], [-71.39330406893124, 42.298795176191064], [-71.40227896627782, 42.29339128488012], [-71.39972593593718, 42.28112878079884], [-71.39957200860322, 42.28071788721541], [-71.39690395432805, 42.278895803903104], [-71.39580390977355, 42.27419583980136], [-71.39680399950085, 42.271996078783616], [-71.39790398324207, 42.27229585198138], [-71.40090406989296, 42.27359603042843], [-71.40850600665637, 42.27709604008028], [-71.40900502814715, 42.27769513232109], [-71.40910493510468, 42.27829503253184], [-71.4155049873876, 42.277095217148805], [-71.41640508230068, 42.27669524474896], [-71.41810495462748, 42.27639487071992], [-71.42030608760786, 42.27559628229049], [-71.42070601393019, 42.2756961496846], [-71.4199060344222, 42.276796204673836], [-71.41980607530911, 42.27779602884004], [-71.42440607552344, 42.28429589239354], [-71.42530501858667, 42.28539483784593], [-71.43110502298379, 42.28899513125292], [-71.42880504729915, 42.290295209068326], [-71.42700496429917, 42.2879949583282], [-71.42440501372337, 42.28899485201707], [-71.4241050148677, 42.28859514953219], [-71.42380503370792, 42.28959484246735], [-71.421706013085, 42.28989615431131], [-71.41850505718591, 42.290794778369786], [-71.41660497244779, 42.289894815290886], [-71.41530496079172, 42.28969523276102], [-71.41470500996421, 42.29119490048046], [-71.40920507300252, 42.291294786135204], [-71.40920506201047, 42.29249498316852], [-71.40881497134936, 42.29576892608525], [-71.4082049781646, 42.29829488166839], [-71.40840502617495, 42.298194883983854], [-71.40960506727485, 42.30229496411805], [-71.40830500858874, 42.30249481568516], [-71.40840508339751, 42.30339518530683], [-71.40820504650328, 42.30399484366649], [-71.40840495018756, 42.30479513551321], [-71.40680508149524, 42.30509487887243], [-71.40720504069392, 42.306195248067475], [-71.40700496570585, 42.30809525437315], [-71.40740496856755, 42.30969528237967], [-71.4113050027979, 42.309095165346484], [-71.41280505007336, 42.30949524920673], [-71.41340500475327, 42.308994917348855], [-71.41510500577267, 42.30869515630949], [-71.42308303033919, 42.30953691620111], [-71.42520502519042, 42.309595143128774], [-71.42590503360027, 42.30739495818608], [-71.42540505257307, 42.30549502496962], [-71.42200493397367, 42.29809519356488], [-71.423504968648, 42.29819523400982], [-71.43220492810542, 42.299695178794195], [-71.43580498237424, 42.30069488499953], [-71.43720707031869, 42.300296156116524], [-71.43710702346682, 42.30009578686338], [-71.43890606825425, 42.2994952467105], [-71.4403060091571, 42.298494976859736], [-71.4411060092573, 42.29749494199036], [-71.44180604690321, 42.29719482672849], [-71.44410605135081, 42.29669518202785], [-71.44710597591036, 42.29549527235753], [-71.44930600803849, 42.29809472784318], [-71.4472060915065, 42.298595135796326], [-71.44720600974685, 42.299595016026615], [-71.44840596673143, 42.29969516021308], [-71.45100593608792, 42.301694941756566], [-71.45160590699975, 42.30239517117842], [-71.45390591399274, 42.301795173569126], [-71.47030706606921, 42.300494037112635], [-71.47540701548756, 42.2986940948162], [-71.47850692019605, 42.296793978675645], [-71.48270699979501, 42.293894068002245], [-71.48430798872576, 42.29259506075374], [-71.49107909607156, 42.288202930270124], [-71.49683296772191, 42.28984119696395], [-71.48620807860637, 42.31039515456381], [-71.48558504944998, 42.31407612886961], [-71.48500703569923, 42.32099419896502], [-71.48660797898447, 42.33009515296212], [-71.48570796545263, 42.33459477067285], [-71.48301808231119, 42.352651243300315], [-71.46970794083533, 42.35109495737917], [-71.40230604328733, 42.34179580207116], [-71.39660499097272, 42.340896160731695], [-71.394804919718, 42.338996056253094], [-71.39460397532599, 42.33669509013637], [-71.39390393931004, 42.33569513137969], [-71.38930396467873, 42.33739513920903], [-71.38840396370634, 42.33629479776765], [-71.38820405881778, 42.33579494605754], [-71.38160508800131, 42.32849603417554], [-71.38033605954574, 42.32388807480877], [-71.37736001083738, 42.31444711056623]]]}}