{"type": "Feature", "properties": {"district_name": "15th Middlesex District", "chamber": "house", "vintage": "2012-2020"}, "geometry": {"type": "Polygon", "coordinates": [[[-71.272695, 42.459704], [-71.261515, 42.47624600000001], [-71.256553, 42.47855899999999], [-71.251986, 42.48501499999999], [-71.240983, 42.48988099999998], [-71.24089, 42.49003299999999], [-71.212245, 42.466349000000015], [-71.211855, 42.46652899999999], [-71.21091, 42.467415], [-71.210606, 42.468521], [-71.210289, 42.47091500000002], [-71.204291, 42.46587099999999], [-71.188279, 42.479696000000004], [-71.18739599999999, 42.479364000000004], [-71.18548, 42.47996699999999], [-71.186562, 42.480954], [-71.184189, 42.48183599999999], [-71.18406399999999, 42.48152400000002], [-71.183399, 42.48159400000001], [-71.181832, 42.480332999999995], [-71.17880199999999, 42.480506000000005], [-71.17445099999999, 42.481292], [-71.174092, 42.48003899999998], [-71.172442, 42.479077000000004], [-71.170341, 42.47798100000001], [-71.168658, 42.47797699999999], [-71.167821, 42.477332000000004], [-71.166842, 42.477098000000005], [-71.167279, 42.47624099999999], [-71.167024, 42.47540399999999], [-71.16502899999999, 42.475953], [-71.16279399999999, 42.476866], [-71.159572, 42.476932999999995], [-71.155579, 42.477897000000006], [-71.150905, 42.47372400000002], [-71.150033, 42.47253999999999], [-71.150404, 42.47176600000001], [-71.150193, 42.471158999999986], [-71.147868, 42.467976], [-71.14656099999999, 42.46673900000001], [-71.146008, 42.465800999999985], [-71.152282, 42.463783000000014], [-71.154552, 42.46007499999997], [-71.156159, 42.45687899999998], [-71.163003, 42.46019600000001], [-71.189599, 42.44979499999999], [-71.18712599999999, 42.44672299999998], [-71.186454, 42.44562600000001], [-71.185813, 42.444981999999996], [-71.183815, 42.444609], [-71.183979, 42.44421499999999], [-71.183486, 42.444117], [-71.183529, 42.444001000000014], [-71.182543, 42.443893], [-71.18256199999999, 42.443637], [-71.182399, 42.443495000000006], [-71.177885, 42.440200999999995], [-71.182277, 42.43627900000001], [-71.185558, 42.432312999999986], [-71.194124, 42.423487], [-71.197653, 42.42011600000002], [-71.202612, 42.41482599999999], [-71.211261, 42.406074], [-71.26723, 42.42443800000002], [-71.26615, 42.429916000000006], [-71.269018, 42.44049399999999], [-71.272695, 42.459704]]]}}