{"type": "Feature", "properties": {"district_name": "1st Worcester", "chamber": "house", "vintage": "2001-2010"}, "geometry": {"type": "Polygon", "coordinates": [[[-71.83751794341777, 42.543889101339026], [-71.84181695766611, 42.51438996006751], [-71.84221694146375, 42.51258995423525], [-71.82211695703116, 42.504189999073546], [-71.82981696850054, 42.4918898782359], [-71.77741603804984, 42.48319079155068], [-71.77764002871346, 42.4824391053072], [-71.7774799108855, 42.48176710747104], [-71.7761039052956, 42.47839107356028], [-71.77552804382736, 42.4777189514973], [-71.77558008313957, 42.47545073598535], [-71.77593196935524, 42.47474713444306], [-71.77942005154154, 42.47233109511545], [-71.78085990876754, 42.47044324405596], [-71.78111600396709, 42.469755046416154], [-71.7811800903335, 42.46869876856533], [-71.77951597119463, 42.46644316574877], [-71.77913195125925, 42.4656591869783], [-71.77871603080477, 42.46306687638122], [-71.77494007840399, 42.463226743796234], [-71.76978805688198, 42.46573883924789], [-71.7694999722358, 42.46572319181811], [-71.76826702376069, 42.46449102974193], [-71.7662189794765, 42.46178712219403], [-71.7666670647734, 42.46082674082141], [-71.76596294104185, 42.45823505811235], [-71.76429901920682, 42.45714675355512], [-71.76473099152324, 42.45437914823823], [-71.76580307536041, 42.45026697918872], [-71.76578696262962, 42.44986695732811], [-71.7651149596533, 42.44833074790177], [-71.76489099253007, 42.44741917891673], [-71.76399496227833, 42.446074783333444], [-71.76397891735189, 42.44537092145435], [-71.76351503784164, 42.44444302789592], [-71.7629870393727, 42.4440751263399], [-71.76009104205292, 42.44309872220047], [-71.75933900023536, 42.44213882731455], [-71.75927501935884, 42.4409871902317], [-71.75956296997725, 42.43961082802939], [-71.76049103778189, 42.43789878564446], [-71.76063501850544, 42.43735492424721], [-71.7622989682328, 42.43612284975429], [-71.7644750159158, 42.43189899643729], [-71.76519501234745, 42.43084290202579], [-71.76898702544587, 42.42777094334458], [-71.77381906726197, 42.42332290963667], [-71.77466700581462, 42.421098915670484], [-71.77476297735573, 42.42037902866382], [-71.77407498121393, 42.41548319561919], [-71.77452293647887, 42.41205884504733], [-71.77466696510044, 42.40933912073571], [-71.77561097974746, 42.405083073506944], [-71.77721497047412, 42.40039104357478], [-71.78651604342495, 42.39869093344429], [-71.78761605350407, 42.399191218322635], [-71.81731591964493, 42.40389081466547], [-71.82351602685053, 42.40459095581198], [-71.81766006200816, 42.38463518163315], [-71.81011593078202, 42.35979223307398], [-71.8067000745351, 42.34761208787693], [-71.80261604290746, 42.33499187318494], [-71.80161506891277, 42.3313922216272], [-71.80801596091455, 42.32759177983594], [-71.80921594063395, 42.32669221076352], [-71.81281608370772, 42.32469225936221], [-71.86481706019032, 42.292891873903145], [-71.87531702749679, 42.28669211894106], [-71.88171694444613, 42.29219212527522], [-71.87921702823503, 42.29389184303052], [-71.87911702584168, 42.29529213913496], [-71.87861707708426, 42.297492201808026], [-71.88011691537538, 42.29829189185859], [-71.88151699374285, 42.29759177017941], [-71.88821691040881, 42.296491785292645], [-71.89121702237038, 42.295791753899046], [-71.90011703880849, 42.313292173571355], [-71.900816988151, 42.313591892242805], [-71.9108780451587, 42.33330716960598], [-71.90345398775777, 42.33569110760509], [-71.90548605488513, 42.340475199372975], [-71.9013740261796, 42.341723028194366], [-71.90508590878888, 42.349499222227124], [-71.91836602846067, 42.34796281502312], [-71.92082991475864, 42.34735513004603], [-71.94159807831274, 42.33866706177814], [-71.94290999309531, 42.337883260285935], [-71.95374300455563, 42.33338680235168], [-71.97191892035787, 42.328875157332156], [-71.99375890933241, 42.31933926945435], [-71.98950295212688, 42.31015526370594], [-71.99895301817905, 42.30976800432343], [-72.00728094659691, 42.309019736022044], [-72.04177697591045, 42.30820505367286], [-72.11350809166747, 42.356691754088395], [-72.05503897657748, 42.39145208051293], [-72.03522395336567, 42.40388327975554], [-72.00718899023902, 42.42117189108947], [-72.09953405410528, 42.484530893484305], [-72.00134190895827, 42.546716044815994], [-71.97972090208742, 42.5323887680133], [-71.9757199848656, 42.53578916722803], [-71.97241994060927, 42.53608912010373], [-71.96142000005796, 42.54488915689297], [-71.95942004566656, 42.54628915006535], [-71.9640200598625, 42.549387849701226], [-71.95961993476983, 42.553488088490056], [-71.95194295307117, 42.56015378901774], [-71.92336291279527, 42.595477863129815], [-71.92782004940545, 42.60188797530631], [-71.91284993617042, 42.60781479249695], [-71.91248396720943, 42.607440821316466], [-71.9111560250765, 42.60770774961148], [-71.91028692607563, 42.60670876739724], [-71.89515008265148, 42.611454006174974], [-71.8957140234477, 42.61243782525897], [-71.89247994881187, 42.61342280122357], [-71.89176207561069, 42.61239278526716], [-71.88256002235234, 42.615284109646915], [-71.8833080043345, 42.61636809518847], [-71.88008797913412, 42.61747419653689], [-71.88162995746754, 42.619693794920465], [-71.8586190124715, 42.62888792907233], [-71.86041897923342, 42.59198820436648], [-71.86031902595931, 42.591487762186134], [-71.86201791666218, 42.563388886611584], [-71.86221808721363, 42.55798906624939], [-71.85951798732803, 42.558489268174164], [-71.85641795493439, 42.558089276797], [-71.85491804823928, 42.55828914477303], [-71.85521789922458, 42.553289064447064], [-71.85551802022074, 42.551988982424746], [-71.86261797730846, 42.55238887274577], [-71.86291803172816, 42.54478874815598], [-71.85071803174746, 42.54408884475313], [-71.83751794341777, 42.543889101339026]]]}}