{"type": "Feature", "properties": {"district_name": "6th Suffolk District", "chamber": "house", "vintage": "2012-2020"}, "geometry": {"type": "Polygon", "coordinates": [[[-71.121776, 42.270675999999995], [-71.120429, 42.276503999999996], [-71.11971199999999, 42.28028799999999], [-71.11948799999999, 42.28791599999999], [-71.119282, 42.290235], [-71.118143, 42.290157000000015], [-71.117967, 42.29119499999998], [-71.11704, 42.291150999999985], [-71.116804, 42.29234099999999], [-71.115471, 42.292348000000004], [-71.114437, 42.29304599999998], [-71.1139, 42.29248199999999], [-71.114329, 42.291833999999994], [-71.11448399999999, 42.29118799999999], [-71.11398299999999, 42.289480000000005], [-71.11350999999999, 42.289066000000005], [-71.111749, 42.288223], [-71.110681, 42.28730900000001], [-71.110563, 42.28694999999999], [-71.10976300000002, 42.28763900000001], [-71.107089, 42.289234000000015], [-71.105666, 42.289744999999996], [-71.10173999999999, 42.293168], [-71.099582, 42.292995999999995], [-71.096402, 42.293234999999996], [-71.094549, 42.29320599999999], [-71.094583, 42.29297999999999], [-71.091437, 42.296865], [-71.090059, 42.297391], [-71.086992, 42.298142], [-71.08572699999999, 42.30195299999998], [-71.083716, 42.30091600000001], [-71.082236, 42.30169999999999], [-71.084169, 42.30318499999999], [-71.08415099999999, 42.303403999999986], [-71.084389, 42.303525], [-71.083191, 42.30367599999998], [-71.080151, 42.30566599999999], [-71.078407, 42.306152999999995], [-71.076978, 42.305243999999995], [-71.076185, 42.30504599999998], [-71.074161, 42.30491], [-71.07287099999999, 42.30458499999999], [-71.071426, 42.30340699999999], [-71.071591, 42.302353999999994], [-71.071994, 42.301565], [-71.072034, 42.300427], [-71.072184, 42.300038], [-71.07292699999999, 42.29957900000001], [-71.07543, 42.29881], [-71.076289, 42.29731299999996], [-71.078852, 42.296707999999995], [-71.078195, 42.29249799999999], [-71.078143, 42.291339], [-71.078537, 42.289335000000015], [-71.07918699999999, 42.288137000000006], [-71.07781299999999, 42.28799], [-71.07626499999999, 42.288346000000004], [-71.073059, 42.28927100000001], [-71.071996, 42.290217000000005], [-71.071602, 42.290217999999996], [-71.071866, 42.29328900000001], [-71.063142, 42.29561499999999], [-71.063069, 42.29470299999998], [-71.065203, 42.294210000000014], [-71.06459, 42.29234699999999], [-71.067578, 42.291425999999994], [-71.067218, 42.290757], [-71.069648, 42.28995199999999], [-71.06771499999999, 42.289381999999996], [-71.066081, 42.28848200000001], [-71.065104, 42.28745199999999], [-71.06434, 42.285807], [-71.06412499999999, 42.28634500000001], [-71.064303, 42.285699], [-71.067712, 42.284892], [-71.068496, 42.28445399999999], [-71.071477, 42.28354100000001], [-71.07155, 42.28389500000001], [-71.07620899999999, 42.28290899999999], [-71.076257, 42.28316000000001], [-71.080175, 42.28246], [-71.080585, 42.283000999999985], [-71.081147, 42.284254999999995], [-71.08381800000001, 42.283238000000004], [-71.086091, 42.280215999999996], [-71.08692599999999, 42.27934399999998], [-71.088454, 42.280095999999986], [-71.089939, 42.278583], [-71.09270599999999, 42.28010700000001], [-71.092968, 42.28002100000001], [-71.09349, 42.27842100000001], [-71.093576, 42.27724799999999], [-71.095396, 42.278622], [-71.09806499999999, 42.281423], [-71.099632, 42.28233600000001], [-71.10051, 42.28184000000002], [-71.104108, 42.281165], [-71.105834, 42.280284999999985], [-71.10743599999999, 42.27874400000001], [-71.107742, 42.27750499999999], [-71.10858, 42.275395], [-71.109191, 42.274363], [-71.110374, 42.275065], [-71.11219299999999, 42.271962999999985], [-71.110159, 42.27070099999997], [-71.111649, 42.267483999999996], [-71.110828, 42.266065000000005], [-71.115493, 42.264587], [-71.118251, 42.26404499999998], [-71.11799900000001, 42.26457999999999], [-71.11827, 42.26659499999999], [-71.12060699999999, 42.27028399999999], [-71.121185, 42.270683999999996], [-71.12143999999999, 42.27038599999999], [-71.121776, 42.270675999999995]]]}}