{"type": "Feature", "properties": {"district_name": "10th Bristol District", "chamber": "house", "vintage": "2022-present"}, "geometry": {"type": "Polygon", "coordinates": [[[-70.946942, 41.697008], [-70.943721, 41.703255999999996], [-70.943334, 41.702439000000005], [-70.942248, 41.69746700000001], [-70.935574, 41.69909700000001], [-70.935733, 41.700019000000005], [-70.928829, 41.701821], [-70.926557, 41.69482600000003], [-70.925786, 41.69430100000001], [-70.923001, 41.693447], [-70.922946, 41.69268700000001], [-70.922677, 41.69213599999999], [-70.921773, 41.692261], [-70.920704, 41.69269200000001], [-70.920294, 41.692225], [-70.919994, 41.69112799999998], [-70.919188, 41.690397000000004], [-70.917204, 41.68983200000002], [-70.916911, 41.69010600000002], [-70.916691, 41.69080900000001], [-70.91579, 41.69140099999998], [-70.915966, 41.691894999999995], [-70.9159, 41.69217], [-70.915255, 41.69257599999999], [-70.915724, 41.69319099999999], [-70.915738, 41.69343200000001], [-70.91527, 41.693641], [-70.914969, 41.69407400000001], [-70.914486, 41.694397999999985], [-70.914376, 41.695189000000006], [-70.914507, 41.695628000000006], [-70.914241, 41.696236], [-70.912547, 41.696656000000004], [-70.911185, 41.69651000000001], [-70.908413, 41.69532599999999], [-70.907556, 41.69436199999999], [-70.906865, 41.694212], [-70.907047, 41.693303000000036], [-70.903137, 41.69277700000001], [-70.90519, 41.688705000000006], [-70.906466, 41.68657699999999], [-70.904653, 41.68624299999999], [-70.904434, 41.68432500000001], [-70.900555, 41.684912999999995], [-70.900279, 41.684827999999996], [-70.899915, 41.684287], [-70.899565, 41.684195], [-70.888152, 41.685834], [-70.884851, 41.686437], [-70.879812, 41.687705000000015], [-70.879272, 41.687993000000006], [-70.879256, 41.688441000000005], [-70.876855, 41.68854000000002], [-70.876108, 41.688495999999994], [-70.875684, 41.68821599999999], [-70.875464, 41.687892000000005], [-70.875546, 41.68715], [-70.875429, 41.687008], [-70.874733, 41.686359999999986], [-70.873923, 41.685973000000004], [-70.87316800000002, 41.685095], [-70.872069, 41.684585000000006], [-70.870722, 41.684915000000004], [-70.870107, 41.68526200000001], [-70.86991, 41.685931000000004], [-70.869025, 41.687122999999985], [-70.868923, 41.687782000000006], [-70.868169, 41.688441000000005], [-70.866493, 41.688759999999995], [-70.86565, 41.68808], [-70.86551, 41.68760800000001], [-70.864836, 41.686982], [-70.864829, 41.686664], [-70.864081, 41.68622499999999], [-70.863978, 41.68579200000001], [-70.86377300000001, 41.685627000000004], [-70.863363, 41.685457000000014], [-70.86247, 41.68549599999999], [-70.861437, 41.68529899999999], [-70.86099, 41.684931000000006], [-70.860067, 41.684602], [-70.859489, 41.684736], [-70.886439, 41.760232], [-70.904438, 41.75800000000001], [-70.905211, 41.759819], [-70.921792, 41.79126399999999], [-70.771806, 41.80891400000001], [-70.7719, 41.80559600000001], [-70.772857, 41.80209500000001], [-70.774399, 41.80051999999998], [-70.776319, 41.79792899999999], [-70.777538, 41.79708799999999], [-70.777771, 41.79676800000001], [-70.777968, 41.79598], [-70.777848, 41.79456599999999], [-70.778359, 41.793033], [-70.778491, 41.79204399999999], [-70.778259, 41.78957100000002], [-70.777365, 41.787726], [-70.777008, 41.786436], [-70.77649, 41.77997799999999], [-70.775501, 41.77627399999999], [-70.775509, 41.773037], [-70.774404, 41.77045700000001], [-70.77435, 41.769738000000004], [-70.775851, 41.766259999999996], [-70.778063, 41.762741000000005], [-70.780123, 41.758266], [-70.780715, 41.754512], [-70.781614, 41.751560000000005], [-70.781422, 41.749871999999996], [-70.779121, 41.744517], [-70.778355, 41.74349300000002], [-70.77481, 41.74043700000001], [-70.774342, 41.739705000000015], [-70.77425700000002, 41.739183], [-70.774416, 41.737823], [-70.775032, 41.73526400000001], [-70.774992, 41.73419400000001], [-70.774428, 41.734211], [-70.77266200000001, 41.73509500000001], [-70.772489, 41.735023000000005], [-70.772482, 41.734824000000025], [-70.772782, 41.73445300000001], [-70.773291, 41.734238000000005], [-70.77301, 41.73379100000002], [-70.77223000000001, 41.73377], [-70.771738, 41.733506999999996], [-70.770761, 41.73351499999999], [-70.770468, 41.733895], [-70.770463, 41.733602999999995], [-70.77025, 41.733563999999994], [-70.768375, 41.73395099999998], [-70.76767, 41.73444499999999], [-70.767469, 41.734975000000006], [-70.76714, 41.73529400000001], [-70.766052, 41.735591], [-70.766072, 41.73575199999999], [-70.76538, 41.735986], [-70.765319, 41.736259], [-70.765585, 41.736757], [-70.76519, 41.7367], [-70.764924, 41.736935999999986], [-70.764631, 41.737346], [-70.764806, 41.73767999999999], [-70.764667, 41.73786400000002], [-70.763606, 41.738054000000005], [-70.763601, 41.738279999999996], [-70.763857, 41.738531], [-70.763626, 41.73888999999999], [-70.763257, 41.73903899999999], [-70.762441, 41.73904399999999], [-70.761857, 41.73932099999999], [-70.760503, 41.738865999999994], [-70.760067, 41.739023999999986], [-70.760496, 41.738968], [-70.760436, 41.73912600000001], [-70.759764, 41.73941299999999], [-70.759564, 41.739742], [-70.760621, 41.74100299999999], [-70.76041, 41.74107], [-70.760329, 41.74147], [-70.75958, 41.742208000000005], [-70.75879800000001, 41.742149], [-70.757747, 41.742496], [-70.755375, 41.742299], [-70.755585, 41.74219300000001], [-70.753928, 41.741015000000004], [-70.752152, 41.738854999999994], [-70.751192, 41.73829500000001], [-70.750392, 41.73794300000001], [-70.749512, 41.737847000000016], [-70.748926, 41.737857], [-70.747762, 41.738305999999994], [-70.746607, 41.73833599999998], [-70.746802, 41.738184], [-70.74644700000002, 41.73798800000001], [-70.746196, 41.738214], [-70.746027, 41.73814900000001], [-70.744272, 41.73680999999999], [-70.743231, 41.735758], [-70.742982, 41.73518299999999], [-70.743019, 41.734753000000005], [-70.744333, 41.733509000000005], [-70.744563, 41.733014], [-70.744192, 41.73191400000001], [-70.743498, 41.73119599999999], [-70.742564, 41.73067099999999], [-70.742041, 41.73060799999999], [-70.738583, 41.731238999999995], [-70.735047, 41.72864800000001], [-70.733463, 41.727896], [-70.729111, 41.72651999999999], [-70.728535, 41.726216], [-70.727831, 41.72552799999998], [-70.726551, 41.72368800000002], [-70.725174, 41.722648], [-70.72319, 41.721544], [-70.719958, 41.720376000000016], [-70.71855, 41.71930400000001], [-70.717654, 41.71837600000001], [-70.716006, 41.718647999999995], [-70.676629, 41.691129], [-70.686196, 41.669800999999985], [-70.699574, 41.643719000000004], [-70.749206, 41.66850500000001], [-70.750847, 41.669590999999976], [-70.751867, 41.660342000000014], [-70.752498, 41.65038799999999], [-70.754006, 41.64579499999999], [-70.755568, 41.64310400000001], [-70.756354, 41.642074999999984], [-70.75748, 41.64131999999999], [-70.762944, 41.639025000000004], [-70.774624, 41.634933000000004], [-70.803891, 41.62506699999999], [-70.801544, 41.621168999999995], [-70.800336, 41.61874100000001], [-70.801026, 41.61657300000001], [-70.804856, 41.612776000000004], [-70.813274, 41.607960000000006], [-70.839175, 41.61476100000001], [-70.842264, 41.624457], [-70.84932, 41.624472000000004], [-70.860365, 41.624091], [-70.859872, 41.62362600000001], [-70.859766, 41.623825999999994], [-70.859393, 41.623917000000006], [-70.859283, 41.62381100000002], [-70.857934, 41.623880000000014], [-70.857551, 41.623136], [-70.857208, 41.622899000000025], [-70.856773, 41.62274099999999], [-70.856516, 41.622825000000006], [-70.856564, 41.62261100000001], [-70.856421, 41.622472], [-70.855325, 41.62217700000001], [-70.855209, 41.621767000000006], [-70.855442, 41.620651999999986], [-70.855254, 41.6202], [-70.854749, 41.620071], [-70.854682, 41.619175000000006], [-70.854219, 41.618408], [-70.854573, 41.61598499999999], [-70.853983, 41.61441399999999], [-70.853713, 41.61436499999999], [-70.85397700000001, 41.61379500000001], [-70.85297, 41.61361099999999], [-70.853093, 41.61341900000001], [-70.852923, 41.613013999999986], [-70.852705, 41.61296499999999], [-70.852792, 41.61284900000001], [-70.852618, 41.612545], [-70.852248, 41.612218000000006], [-70.851693, 41.61213699999999], [-70.851801, 41.611973], [-70.851339, 41.61118499999999], [-70.850566, 41.61094400000002], [-70.849334, 41.610093000000006], [-70.84956, 41.60911699999997], [-70.847402, 41.60749599999999], [-70.844428, 41.60628], [-70.840391, 41.605277], [-70.837257, 41.604935999999995], [-70.837136, 41.605225000000004], [-70.836544, 41.60501100000001], [-70.83604500000001, 41.60517999999999], [-70.835749, 41.604879999999994], [-70.835833, 41.60459], [-70.835643, 41.604046], [-70.835448, 41.60404700000001], [-70.835304, 41.604466000000016], [-70.835115, 41.604341], [-70.835535, 41.60385200000002], [-70.835332, 41.60387300000001], [-70.83556600000001, 41.60359099999999], [-70.83463, 41.603163999999985], [-70.834561, 41.60275299999999], [-70.834124, 41.602033], [-70.83361900000001, 41.60185700000001], [-70.832768, 41.602197000000004], [-70.832214, 41.601764], [-70.831823, 41.601831999999995], [-70.831971, 41.601919], [-70.831979, 41.602454], [-70.83145, 41.60302399999999], [-70.831897, 41.603882999999996], [-70.831549, 41.604959000000015], [-70.831889, 41.606446999999996], [-70.83159, 41.606653999999985], [-70.831194, 41.60653], [-70.83069, 41.605830000000005], [-70.830412, 41.60573000000001], [-70.829825, 41.60443399999998], [-70.828816, 41.60374200000001], [-70.82773, 41.602187], [-70.827116, 41.602080000000015], [-70.826028, 41.601580000000006], [-70.82489, 41.601462], [-70.824374, 41.60035999999998], [-70.823957, 41.600005000000024], [-70.823165, 41.599814], [-70.822919, 41.599244999999996], [-70.820089, 41.596114000000014], [-70.818254, 41.592351], [-70.817698, 41.592129000000014], [-70.817332, 41.59178800000001], [-70.816494, 41.591893999999996], [-70.816162, 41.59168900000001], [-70.815818, 41.59178800000001], [-70.816191, 41.591338], [-70.81641800000001, 41.59019599999999], [-70.816951, 41.58928000000001], [-70.819342, 41.588654000000005], [-70.819898, 41.58837900000002], [-70.820892, 41.587439999999994], [-70.821689, 41.58583200000001], [-70.821755, 41.58399], [-70.8215, 41.582837], [-70.821717, 41.58245699999999], [-70.822251, 41.58235000000001], [-70.823576, 41.582696000000006], [-70.82551, 41.582848999999996], [-70.827158, 41.58333299999999], [-70.827581, 41.58313599999999], [-70.827905, 41.58354099999998], [-70.828008, 41.583401], [-70.829078, 41.584167], [-70.829417, 41.584172], [-70.830433, 41.584978], [-70.830358, 41.58516099999999], [-70.831039, 41.585740000000015], [-70.831244, 41.586218999999986], [-70.834249, 41.58929700000001], [-70.834641, 41.590180000000004], [-70.834913, 41.590314000000006], [-70.834805, 41.590436999999994], [-70.834988, 41.590503000000005], [-70.834968, 41.590693], [-70.836336, 41.591922000000004], [-70.836504, 41.59214699999999], [-70.83656300000001, 41.59289899999998], [-70.83707900000002, 41.593306000000005], [-70.837592, 41.59345700000001], [-70.837478, 41.593731999999996], [-70.837662, 41.59384500000001], [-70.837877, 41.59458899999999], [-70.837728, 41.595617], [-70.837962, 41.59596199999999], [-70.83927, 41.596308], [-70.841545, 41.596362000000006], [-70.841575, 41.596542000000014], [-70.841777, 41.59651199999999], [-70.841735, 41.596334000000006], [-70.843217, 41.596083000000014], [-70.843299, 41.59557599999999], [-70.843134, 41.59526100000001], [-70.84271, 41.594608], [-70.842178, 41.594243000000006], [-70.842026, 41.593528], [-70.841754, 41.593117], [-70.841904, 41.592762], [-70.84229, 41.59302499999999], [-70.842282, 41.593617000000016], [-70.842582, 41.593928], [-70.843481, 41.594348], [-70.843873, 41.59479400000001], [-70.844646, 41.595088], [-70.845072, 41.595518999999996], [-70.846158, 41.59559199999999], [-70.847201, 41.595455999999984], [-70.84758, 41.595127], [-70.847641, 41.594843000000004], [-70.848713, 41.594223], [-70.848517, 41.59379599999999], [-70.849165, 41.593901], [-70.850237, 41.593268], [-70.850556, 41.59271499999999], [-70.849865, 41.591991], [-70.85085, 41.591039], [-70.850974, 41.590337], [-70.85218, 41.589282], [-70.852508, 41.588563000000015], [-70.853005, 41.588239], [-70.853369, 41.585944000000026], [-70.852937, 41.584149999999994], [-70.853002, 41.583435999999985], [-70.852811, 41.58264599999999], [-70.853886, 41.582057999999996], [-70.854361, 41.58207999999998], [-70.85548, 41.58257299999999], [-70.85696, 41.58357500000002], [-70.85763, 41.586389], [-70.857494, 41.58752500000001], [-70.857727, 41.58809], [-70.8589, 41.589173000000024], [-70.858705, 41.58928699999999], [-70.85907, 41.590023], [-70.859347, 41.591480999999995], [-70.859609, 41.59201], [-70.859986, 41.591964], [-70.85974200000001, 41.592273999999996], [-70.859993, 41.59230300000001], [-70.859727, 41.59256799999999], [-70.859967, 41.592879], [-70.859882, 41.59301099999999], [-70.860136, 41.59318], [-70.859727, 41.593379000000006], [-70.859839, 41.593632], [-70.86169, 41.595273], [-70.863651, 41.59636900000002], [-70.864276, 41.597281999999986], [-70.863918, 41.59770099999999], [-70.864033, 41.598300999999985], [-70.865855, 41.599629], [-70.866352, 41.60021600000002], [-70.866412, 41.600754], [-70.86494200000001, 41.601287000000006], [-70.863479, 41.60220499999998], [-70.863328, 41.60353899999999], [-70.864199, 41.604971000000006], [-70.864603, 41.60656200000002], [-70.865474, 41.607775], [-70.866061, 41.60912], [-70.866395, 41.609392000000014], [-70.866113, 41.610014], [-70.867372, 41.611577999999994], [-70.867525, 41.61223200000001], [-70.867815, 41.61258000000001], [-70.867566, 41.61269499999998], [-70.867688, 41.613011000000014], [-70.867922, 41.61334], [-70.868686, 41.613811999999996], [-70.868713, 41.614190000000015], [-70.869035, 41.61450299999998], [-70.869138, 41.615455000000004], [-70.869293, 41.61563499999999], [-70.868933, 41.61578900000001], [-70.868887, 41.61595700000001], [-70.869433, 41.617093], [-70.869279, 41.61731900000001], [-70.869425, 41.61763899999999], [-70.869291, 41.61770300000003], [-70.869239, 41.618242], [-70.869349, 41.61844799999999], [-70.869129, 41.618576], [-70.868828, 41.61963600000001], [-70.869129, 41.620696999999986], [-70.86961800000002, 41.621230999999995], [-70.869246, 41.621336], [-70.868796, 41.62201199999999], [-70.868624, 41.62302400000001], [-70.869159, 41.623473], [-70.869092, 41.62364099999999], [-70.869564, 41.62437899999999], [-70.869525, 41.624781000000006], [-70.869817, 41.625282], [-70.871457, 41.62646], [-70.871995, 41.62704099999999], [-70.87273800000001, 41.62719000000003], [-70.872965, 41.627607], [-70.876928, 41.628448999999996], [-70.876908, 41.628647000000015], [-70.877191, 41.628791], [-70.877937, 41.628817999999995], [-70.878031, 41.628892], [-70.877855, 41.628997], [-70.878849, 41.62922699999999], [-70.879059, 41.629817999999965], [-70.88101100000002, 41.63084600000001], [-70.882192, 41.63111199999998], [-70.882649, 41.631007], [-70.883309, 41.631433], [-70.884384, 41.631386], [-70.884623, 41.63175699999999], [-70.884863, 41.631739], [-70.885373, 41.63204499999999], [-70.885739, 41.632028000000005], [-70.886134, 41.63242000000002], [-70.886746, 41.63251100000001], [-70.88711, 41.632168], [-70.887575, 41.63210200000001], [-70.88887, 41.632278], [-70.889255, 41.63219300000001], [-70.889082, 41.631196], [-70.889886, 41.630733], [-70.889893, 41.62969200000001], [-70.89037, 41.629245999999995], [-70.890539, 41.628483], [-70.891745, 41.627421], [-70.891773, 41.626911], [-70.892045, 41.626295], [-70.893259, 41.625348], [-70.89333, 41.62516600000002], [-70.893177, 41.624957999999985], [-70.89333, 41.624887], [-70.89561000000002, 41.62430600000002], [-70.895797, 41.624013999999974], [-70.899759, 41.62403800000003], [-70.902573, 41.623780000000004], [-70.903078, 41.62405700000001], [-70.903025, 41.624341000000015], [-70.903188, 41.62452], [-70.90600600000002, 41.623850000000026], [-70.906695, 41.625134], [-70.907582, 41.63050400000001], [-70.910282, 41.632004000000016], [-70.913182, 41.63450400000001], [-70.913882, 41.63750500000001], [-70.910381, 41.63980599999999], [-70.909981, 41.64160700000001], [-70.911881, 41.64420599999999], [-70.916982, 41.64470499999998], [-70.919182, 41.64650499999999], [-70.919982, 41.649204], [-70.918692, 41.65293099999999], [-70.917627, 41.654894], [-70.916495, 41.65961], [-70.917482, 41.666303], [-70.915482, 41.674103], [-70.916475, 41.67814600000001], [-70.916737, 41.67844399999999], [-70.916738, 41.679534000000004], [-70.917067, 41.680588], [-70.917623, 41.681154000000014], [-70.918646, 41.68141299999999], [-70.91896700000001, 41.68182499999999], [-70.919194, 41.681753], [-70.91853300000001, 41.680856000000006], [-70.918471, 41.680056000000015], [-70.918684, 41.68000800000001], [-70.922708, 41.679938], [-70.922902, 41.67960299999999], [-70.932195, 41.679962], [-70.932184, 41.67978300000001], [-70.93357, 41.679815000000005], [-70.934008, 41.682155000000016], [-70.934975, 41.693365000000014], [-70.937392, 41.692771000000015], [-70.939013, 41.69290099999999], [-70.939061, 41.694072000000006], [-70.941444, 41.693464], [-70.944934, 41.69288099999999], [-70.946942, 41.697008]]]}}