{"type": "Feature", "properties": {"district_name": "4th Barnstable District", "chamber": "house", "vintage": "2012-2020"}, "geometry": {"type": "Polygon", "coordinates": [[[-70.250188, 42.06336700000001], [-70.24959199999999, 42.06578999999999], [-70.24879, 42.067702000000004], [-70.244574, 42.07279299999999], [-70.24113899999999, 42.075553000000006], [-70.237504, 42.077737000000006], [-70.23392199999999, 42.079527000000006], [-70.23208199999999, 42.08024899999999], [-70.221403, 42.08321000000001], [-70.217788, 42.08387300000001], [-70.208865, 42.085066000000005], [-70.20150000000001, 42.085494], [-70.185298, 42.08560899999999], [-70.181347, 42.085419], [-70.160775, 42.08285999999998], [-70.153566, 42.080504000000005], [-70.139786, 42.07755100000001], [-70.135981, 42.07625699999999], [-70.12447, 42.07341], [-70.11777099999999, 42.072022], [-70.11309299999999, 42.07132299999999], [-70.10728499999999, 42.068746000000004], [-70.101064, 42.06671100000001], [-70.08744800000001, 42.061426999999995], [-70.07956200000001, 42.05733300000001], [-70.060014, 42.04665800000001], [-70.053293, 42.041185999999975], [-70.04587699999999, 42.035866000000006], [-70.03660599999999, 42.02684800000001], [-70.03372499999999, 42.023767], [-70.036616, 42.02066000000001], [-70.034161, 42.018275], [-70.03071, 42.014210999999996], [-70.02962099999999, 42.01262399999997], [-70.02830399999999, 42.011433], [-70.026885, 42.009588], [-70.025914, 42.008593999999995], [-70.024369, 42.006474000000004], [-70.02333899999999, 42.004688999999985], [-70.019993, 42.000664], [-70.019562, 41.999926], [-70.01798, 41.99835], [-70.016289, 41.995632000000015], [-70.016098, 41.994983999999995], [-70.013885, 41.99232099999998], [-70.01375300000001, 41.991794000000006], [-70.012863, 41.990635], [-70.011363, 41.98914599999999], [-70.009401, 41.98537399999999], [-70.004374, 41.977987999999996], [-70.002302, 41.97521400000001], [-70.002118, 41.97513700000001], [-70.002059, 41.975522], [-70.001919, 41.975466999999995], [-70.001589, 41.97451099999999], [-70.00034, 41.972303000000004], [-69.995645, 41.96523299999999], [-69.995041, 41.963921], [-69.993273, 41.961561], [-69.991373, 41.958510000000025], [-69.990555, 41.957461], [-69.98608399999999, 41.94954200000002], [-69.984464, 41.94700000000001], [-69.983311, 41.944618999999975], [-69.978841, 41.946604000000015], [-69.97289200000002, 41.934045000000005], [-69.97111199999999, 41.930977], [-69.969681, 41.927763000000006], [-69.967249, 41.920307000000015], [-69.96140799999999, 41.906563], [-69.95814399999999, 41.898179999999996], [-69.957701, 41.89663800000002], [-69.955619, 41.892379999999996], [-69.952905, 41.884547999999995], [-69.95223399999999, 41.880784], [-69.951017, 41.878484], [-69.95017899999999, 41.87510699999999], [-69.93862, 41.839428000000005], [-69.93550900000001, 41.82542500000002], [-69.934736, 41.81923899999999], [-69.93475699999999, 41.81750000000001], [-69.935394, 41.816507], [-69.935354, 41.816264000000004], [-69.932067, 41.811552999999996], [-69.930782, 41.808944000000004], [-69.930712, 41.808408], [-69.93097999999999, 41.80583300000001], [-69.930572, 41.804421000000005], [-69.930398, 41.801291], [-69.929778, 41.798286000000004], [-69.928696, 41.78474699999999], [-69.928538, 41.780927], [-69.926219, 41.76604799999999], [-69.92652799999999, 41.76369100000001], [-69.926475, 41.761701999999985], [-69.925587, 41.75752400000001], [-69.92549199999999, 41.754788000000026], [-69.92488, 41.751647999999996], [-69.924443, 41.743951], [-69.924303, 41.734299000000014], [-69.92356199999999, 41.72205699999999], [-69.928355, 41.72246700000001], [-69.928181, 41.71662299999998], [-69.928321, 41.71116599999999], [-69.927977, 41.70716399999999], [-69.928337, 41.697748000000004], [-69.928147, 41.69715999999999], [-69.928206, 41.69428300000001], [-69.92839599999999, 41.69267500000001], [-69.928279, 41.69202100000002], [-69.928462, 41.69168600000001], [-69.928499, 41.690796999999996], [-69.928719, 41.690067], [-69.928748, 41.688601], [-69.92907799999999, 41.687141], [-69.929459, 41.686383], [-69.929408, 41.685779], [-69.92965699999999, 41.685093], [-69.929796, 41.683510999999996], [-69.930331, 41.682309], [-69.930499, 41.68114000000002], [-69.931722, 41.676988000000016], [-69.933195, 41.66966800000001], [-69.934215, 41.66815700000001], [-69.936467, 41.665761], [-69.93862899999999, 41.662907999999995], [-69.938965, 41.66233400000001], [-69.939491, 41.66072299999999], [-69.940724, 41.658216], [-69.94106, 41.65784499999999], [-69.941651, 41.656071], [-69.94299, 41.65309], [-69.943613, 41.65224899999999], [-69.94430799999999, 41.651794], [-69.945025, 41.650196000000015], [-69.946108, 41.648796000000004], [-69.946716, 41.64723099999999], [-69.947952, 41.645073000000004], [-69.948677, 41.64463900000001], [-69.950001, 41.642454], [-69.951048, 41.64129499999999], [-69.952255, 41.640471999999995], [-69.952811, 41.64036699999999], [-69.952563, 41.640921999999996], [-69.95120899999999, 41.641932000000004], [-69.951019, 41.64238799999999], [-69.951121, 41.642394], [-69.95268, 41.641553], [-69.953031, 41.640905], [-69.954487, 41.639752], [-69.955116, 41.63943899999998], [-69.956031, 41.63928000000001], [-69.956885, 41.63971999999999], [-69.968718, 41.63695899999999], [-69.970556, 41.632748], [-69.97226599999999, 41.629376999999984], [-69.97343599999999, 41.62647200000001], [-69.973817, 41.62487], [-69.974402, 41.62389799999999], [-69.975762, 41.62230000000002], [-69.97640500000001, 41.62081200000002], [-69.97733199999999, 41.616661], [-69.978479, 41.614864999999995], [-69.980223, 41.60841300000001], [-69.9802, 41.60747999999999], [-69.980572, 41.605865999999985], [-69.98075299999999, 41.603362], [-69.982564, 41.598596], [-69.982563, 41.59751899999999], [-69.98295, 41.595805999999996], [-69.983036, 41.594356999999995], [-69.983729, 41.59229800000001], [-69.985474, 41.588398999999995], [-69.985598, 41.587454], [-69.986284, 41.58508800000001], [-69.986909, 41.58109599999999], [-69.98744099999999, 41.57916899999999], [-69.98743999999999, 41.576764000000004], [-69.98702, 41.573650999999984], [-69.987319, 41.572542000000006], [-69.987099, 41.571197], [-69.987642, 41.565580000000004], [-69.987543, 41.560606], [-69.987658, 41.558223], [-69.988372, 41.55462100000001], [-69.990262, 41.55148499999999], [-69.992993, 41.54835399999998], [-69.99484799999999, 41.546931], [-69.997959, 41.544124000000004], [-69.998959, 41.543448], [-70.002123, 41.54249500000001], [-70.00389899999999, 41.54219399999999], [-70.007706, 41.542223000000014], [-70.009869, 41.542444], [-70.010994, 41.54279599999998], [-70.012273, 41.54336199999999], [-70.013543, 41.54452099999999], [-70.015289, 41.546471000000004], [-70.01599, 41.54764000000001], [-70.016624, 41.54913899999999], [-70.016843, 41.550748], [-70.016579, 41.551587999999995], [-70.015935, 41.552674999999994], [-70.014772, 41.55325599999998], [-70.01222899999999, 41.553129000000006], [-70.011695, 41.55293700000001], [-70.011601, 41.552728], [-70.01183499999999, 41.55264], [-70.013165, 41.55283300000001], [-70.013406, 41.552722999999986], [-70.013033, 41.55251500000001], [-70.011162, 41.552436999999976], [-70.010424, 41.552673], [-70.009839, 41.55317199999998], [-70.006502, 41.557534999999994], [-70.005208, 41.558221], [-70.00392699999999, 41.559873], [-70.001769, 41.561837], [-70.00104499999999, 41.562776000000014], [-70.000495, 41.564071], [-69.99766699999999, 41.56724899999998], [-69.997091, 41.568606], [-69.996433, 41.56940799999999], [-69.99626599999999, 41.57016600000001], [-69.9955, 41.57164300000001], [-69.995084, 41.573082], [-69.994354, 41.574092], [-69.993623, 41.574784], [-69.992784, 41.57652000000001], [-69.992187, 41.578749], [-69.992355, 41.579342000000004], [-69.991721, 41.580895999999996], [-69.991575, 41.581796000000004], [-69.991505, 41.58568899999999], [-69.991844, 41.588867999999984], [-69.991038, 41.594501000000015], [-69.99131, 41.59679100000002], [-69.991239, 41.598449], [-69.991783, 41.602543999999995], [-69.991207, 41.604054999999995], [-69.990805, 41.60459299999999], [-69.990836, 41.605965], [-69.990112, 41.60700899999999], [-69.989542, 41.60719000000001], [-69.989088, 41.60710299999999], [-69.988182, 41.608129999999996], [-69.987246, 41.60870699999999], [-69.984723, 41.60917500000001], [-69.982609, 41.61005900000001], [-69.981044, 41.611092], [-69.98026200000001, 41.61197099999999], [-69.979686, 41.61412899999997], [-69.979687, 41.615857999999996], [-69.980364, 41.61683000000001], [-69.98272399999999, 41.618013000000005], [-69.98407399999999, 41.61985499999998], [-69.984017, 41.622167999999995], [-69.982513, 41.624093], [-69.980946, 41.62429300000001], [-69.97937499999999, 41.62375799999999], [-69.978771, 41.624236999999994], [-69.977805, 41.624682], [-69.97737099999999, 41.625115], [-69.977401, 41.625362], [-69.977094, 41.62548799999999], [-69.977504, 41.626103], [-69.977139, 41.62688299999999], [-69.97618, 41.62757499999999], [-69.97523699999999, 41.627679000000015], [-69.97638599999999, 41.62804099999999], [-69.976415, 41.62847999999999], [-69.976137, 41.628854000000004], [-69.977045, 41.628941], [-69.97745499999999, 41.629293], [-69.977513, 41.62954000000001], [-69.977559, 41.631883999999985], [-69.977259, 41.632152999999995], [-69.976359, 41.63245499999999], [-69.97649799999999, 41.63269700000001], [-69.977633, 41.63333899999999], [-69.977604, 41.633581], [-69.97683599999999, 41.63450899999999], [-69.976119, 41.63471800000001], [-69.97590699999999, 41.63504200000001], [-69.975073, 41.63539899999999], [-69.97456799999999, 41.636118], [-69.974773, 41.636205999999994], [-69.97568799999999, 41.63582099999999], [-69.976427, 41.63605700000001], [-69.976691, 41.637342], [-69.97641399999999, 41.63826400000002], [-69.974841, 41.64008199999998], [-69.972112, 41.64169199999999], [-69.971197, 41.641835], [-69.96969000000001, 41.64161600000002], [-69.969104, 41.64193999999999], [-69.970158, 41.642130999999985], [-69.970451, 41.642345], [-69.97040799999999, 41.642625], [-69.969171, 41.643454999999996], [-69.96912, 41.64377900000001], [-69.97026199999999, 41.643756000000025], [-69.970738, 41.64414099999999], [-69.970972, 41.64500299999999], [-69.970398, 41.645484], [-69.97573899999999, 41.65379600000001], [-69.977214, 41.65399399999998], [-69.979024, 41.655514], [-69.980532, 41.656298], [-69.980888, 41.65709100000001], [-69.98360000000001, 41.657247], [-69.98392199999999, 41.657378999999985], [-69.98496999999999, 41.658486999999994], [-69.988047, 41.660874], [-69.99091899999999, 41.66369500000001], [-69.992736, 41.66502800000002], [-69.995256, 41.66656400000001], [-69.999088, 41.668670000000006], [-70.001391, 41.66971499999999], [-70.002892, 41.669854], [-70.004363, 41.670677999999995], [-70.008031, 41.671805], [-70.01009499999999, 41.672141000000025], [-70.012299, 41.67222400000001], [-70.015441, 41.67186299999999], [-70.016708, 41.67086400000001], [-70.017288, 41.66967299999998], [-70.018152, 41.669975], [-70.020568, 41.67010299999999], [-70.023731, 41.669774000000004], [-70.024896, 41.669385], [-70.024947, 41.669171], [-70.027188, 41.66870499999999], [-70.027627, 41.668507], [-70.027562, 41.668392], [-70.02906999999999, 41.66803500000001], [-70.029136, 41.667728], [-70.031194, 41.667827], [-70.032072, 41.667640999999996], [-70.03372000000002, 41.667943], [-70.036304, 41.66804300000001], [-70.036861, 41.66824], [-70.037322, 41.66868499999998], [-70.037461, 41.66820800000001], [-70.037241, 41.668223999999995], [-70.036897, 41.66796], [-70.03727099999999, 41.66757599999998], [-70.037103, 41.666735999999986], [-70.037491, 41.66731400000002], [-70.03976999999999, 41.663024], [-70.039953, 41.663003999999994], [-70.051107, 41.639916], [-70.068289, 41.606548000000004], [-70.068569, 41.61069699999999], [-70.077934, 41.61252799999999], [-70.094223, 41.60824499999999], [-70.117521, 41.65511000000001], [-70.11883999999999, 41.65963300000001], [-70.119294, 41.66059999999999], [-70.127014, 41.68445299999998], [-70.127271, 41.685739], [-70.128613, 41.68997999999998], [-70.13393599999999, 41.70611299999999], [-70.09637099999999, 41.71600100000002], [-70.09405, 41.724502], [-70.086823, 41.725941], [-70.08626, 41.726192999999995], [-70.08491699999999, 41.72604499999999], [-70.08464099999999, 41.72664599999998], [-70.083479, 41.72654700000001], [-70.082065, 41.726724], [-70.08108399999999, 41.72620200000001], [-70.080575, 41.72627200000001], [-70.079011, 41.727626], [-70.078705, 41.72821599999998], [-70.078527, 41.729328], [-70.077383, 41.730689], [-70.075239, 41.731722], [-70.07272499999999, 41.731423000000014], [-70.071618, 41.73163100000001], [-70.070745, 41.73212499999999], [-70.069394, 41.732552], [-70.06854, 41.733083], [-70.06777, 41.73401499999999], [-70.065912, 41.735056000000014], [-70.065243, 41.73560599999999], [-70.064833, 41.736284000000005], [-70.06381, 41.73682999999998], [-70.063141, 41.737395000000035], [-70.061348, 41.737782], [-70.060391, 41.738827], [-70.059274, 41.739275], [-70.058808, 41.739775], [-70.058842, 41.740496], [-70.058455, 41.74139800000002], [-70.058651, 41.742829], [-70.05635199999999, 41.744389000000005], [-70.053958, 41.74153200000001], [-70.05327199999999, 41.743539], [-70.05273799999999, 41.74433700000001], [-70.05072799999999, 41.746059999999986], [-70.048475, 41.74832], [-70.04632, 41.749361], [-70.04465499999999, 41.750726000000014], [-70.041763, 41.753823000000004], [-70.041167, 41.75495699999999], [-70.041528, 41.756323999999985], [-70.041607, 41.758560999999986], [-70.041961, 41.75903499999998], [-70.043592, 41.760310999999994], [-70.044202, 41.76219399999999], [-70.044234, 41.763002], [-70.043847, 41.76418400000002], [-70.043667, 41.76592800000001], [-70.04426699999999, 41.76896399999999], [-70.044291, 41.77034000000001], [-70.04391199999999, 41.77222], [-70.044302, 41.773047], [-70.038772, 41.774316999999996], [-70.034826, 41.775487], [-70.03337599999999, 41.775620999999994], [-70.034204, 41.77923800000001], [-70.034155, 41.780153000000006], [-70.033307, 41.782212], [-70.033496, 41.783331], [-70.033247, 41.784238], [-70.03163099999999, 41.78513299999999], [-70.03111, 41.785210000000006], [-70.029899, 41.785802000000004], [-70.029246, 41.78633500000002], [-70.028189, 41.786565], [-70.02726500000001, 41.787059000000006], [-70.026333, 41.78711299999999], [-70.02501300000002, 41.78753], [-70.024641, 41.787413], [-70.022965, 41.78833799999999], [-70.023083, 41.788721], [-70.022885, 41.788974], [-70.022606, 41.788424999999975], [-70.02203399999999, 41.78797999999999], [-70.02145399999999, 41.788216], [-70.02085300000002, 41.78809999999999], [-70.021146, 41.788501], [-70.022166, 41.788962], [-70.02253999999999, 41.789523], [-70.02232599999999, 41.789961999999996], [-70.021204, 41.790690999999995], [-70.020645, 41.791707], [-70.020066, 41.79222300000001], [-70.019545, 41.79243099999999], [-70.01845, 41.793918999999995], [-70.017144, 41.79444499999998], [-70.01590999999999, 41.796377], [-70.01527899999999, 41.796783000000005], [-70.014245, 41.79687099999999], [-70.013812, 41.797321], [-70.01343, 41.796745], [-70.013586, 41.797444999999996], [-70.013929, 41.79747399999999], [-70.01417099999999, 41.797261], [-70.014428, 41.797381], [-70.014229, 41.79802399999999], [-70.01227700000001, 41.798939999999995], [-70.011661, 41.798807999999994], [-70.011161, 41.799257999999966], [-70.00954, 41.799662999999995], [-70.00885699999999, 41.800294], [-70.00751, 41.79965299999999], [-70.007448, 41.799792999999994], [-70.03976399999999, 41.81536100000002], [-70.041185, 41.816371000000004], [-70.040724, 41.835992000000005], [-70.040719, 41.854262999999996], [-70.040504, 41.865774], [-70.040979, 41.87582299999999], [-70.082652, 41.87039599999998], [-70.085397, 41.93562699999999], [-70.085262, 41.955936], [-70.086745, 41.991600000000005], [-70.087769, 42.007742000000015], [-70.09024699999999, 42.014998999999996], [-70.094132, 42.02291799999999], [-70.100853, 42.03241099999999], [-70.10623199999999, 42.037684], [-70.112845, 42.042909], [-70.117753, 42.045791], [-70.129144, 42.05143500000001], [-70.133834, 42.05303500000001], [-70.140014, 42.05476700000002], [-70.143682, 42.05604500000001], [-70.147534, 42.056726000000005], [-70.147545, 42.03949100000002], [-70.165368, 42.037940000000006], [-70.163798, 42.037181000000004], [-70.162684, 42.035819000000004], [-70.162063, 42.034014000000006], [-70.162446, 42.03193100000001], [-70.163518, 42.029774999999994], [-70.168568, 42.02449400000001], [-70.17367899999999, 42.02040399999999], [-70.176349, 42.019183999999996], [-70.181763, 42.017843000000006], [-70.183083, 42.01738599999997], [-70.186358, 42.017064999999995], [-70.192571, 42.017019999999995], [-70.196212, 42.017622], [-70.19869, 42.01821400000001], [-70.212267, 42.028549999999996], [-70.216999, 42.03365000000001], [-70.21928, 42.037741999999994], [-70.221325, 42.041947], [-70.22776, 42.047748000000006], [-70.23209299999999, 42.05151600000001], [-70.235691, 42.05381500000001], [-70.238584, 42.055032], [-70.241179, 42.055583], [-70.245211, 42.05695599999998], [-70.246887, 42.05817099999999], [-70.248424, 42.05949], [-70.250188, 42.06336700000001]]]}}