{"type": "Feature", "properties": {"district_name": "10th Hampden", "chamber": "house", "vintage": "2001-2010"}, "geometry": {"type": "Polygon", "coordinates": [[[-72.58373296602645, 42.11859289590923], [-72.58293303186115, 42.11769274877091], [-72.58183300930943, 42.115093132055485], [-72.58003200593483, 42.11379387086111], [-72.57863210353136, 42.11229383593777], [-72.57843194501923, 42.11099409622301], [-72.57873210407544, 42.10999408584576], [-72.57703212695132, 42.10779399323212], [-72.58233299743989, 42.10479411389542], [-72.58163196230991, 42.103993759027404], [-72.58418904186482, 42.10215809810009], [-72.58316496157946, 42.10196576651223], [-72.58173201528912, 42.10129388500888], [-72.57873211922454, 42.10389392722863], [-72.57803199577255, 42.10339404825024], [-72.57713196692237, 42.10379418694215], [-72.57683197283903, 42.10329391348154], [-72.57753195318666, 42.10249385903939], [-72.58033198291726, 42.1002941572092], [-72.57653198745444, 42.09769403842669], [-72.57283210233793, 42.09389420921362], [-72.5718320381268, 42.09439372087828], [-72.57103198193475, 42.094393895104005], [-72.57113204607954, 42.093494249857734], [-72.57013195869409, 42.093494037761765], [-72.56893200829398, 42.09309387339006], [-72.56723189916879, 42.090794037123345], [-72.56673202306287, 42.09039407628959], [-72.5653320808016, 42.089794283768555], [-72.56373197235506, 42.089494021803716], [-72.5629319644962, 42.0912937899651], [-72.56273201556542, 42.092094185666596], [-72.56323200768368, 42.0962938078044], [-72.56163195603665, 42.09629402049567], [-72.55663200470184, 42.09449390236433], [-72.55293198237192, 42.09339404810245], [-72.55058802046236, 42.09294118739297], [-72.54443100425154, 42.088694202243865], [-72.54483100056416, 42.08859376116688], [-72.5441310679593, 42.087694127941965], [-72.53793100328033, 42.08349390353851], [-72.53743102529, 42.08119400326961], [-72.53963100079856, 42.08099396986612], [-72.54033098143165, 42.08129374450525], [-72.540130860997, 42.08029387806142], [-72.54223111631583, 42.08019374322486], [-72.54233102710322, 42.08049389742684], [-72.54203101230043, 42.08229403361419], [-72.5446990245034, 42.08370978804548], [-72.54543093586297, 42.08219382701413], [-72.54783102364166, 42.081994059780754], [-72.54843101039265, 42.084294127649144], [-72.55483202329668, 42.08549420164751], [-72.55773204499762, 42.08579384085637], [-72.55783197765382, 42.08599381320238], [-72.56013200518852, 42.086293873237885], [-72.56163201169981, 42.086593987401436], [-72.56164404976367, 42.086766075900854], [-72.56428391230297, 42.08723003253158], [-72.56433209220701, 42.08659424033764], [-72.56963213626129, 42.085494209739636], [-72.56943195128484, 42.084793772339964], [-72.57413202114023, 42.08389383465038], [-72.57433198448398, 42.084293759725675], [-72.57973990004425, 42.08355015251852], [-72.58006003259796, 42.083445271373854], [-72.58033196376795, 42.08199419427478], [-72.58073185909788, 42.081794025935096], [-72.58283211316109, 42.08149393358851], [-72.5831319959376, 42.08299419135542], [-72.58863293126349, 42.09289421634085], [-72.59143297095036, 42.09579384951267], [-72.59503293698398, 42.09879381717581], [-72.59913297350067, 42.101294216126746], [-72.60393312345956, 42.10339381023407], [-72.61413303416651, 42.10849314515469], [-72.62153400082603, 42.118392818642945], [-72.62133403187083, 42.123393101270544], [-72.6130329485044, 42.12679312620007], [-72.61163302501481, 42.12759287822172], [-72.60913311263752, 42.128592906925064], [-72.6084129859658, 42.12378895432004], [-72.60803299157112, 42.12289280305613], [-72.60563299624124, 42.12109324954678], [-72.60473298174301, 42.119092927339715], [-72.6025329999257, 42.11689296570582], [-72.60063298434623, 42.11829277367183], [-72.5997330142168, 42.117592923749655], [-72.59813301105594, 42.118693246365176], [-72.596533003339, 42.11749304126452], [-72.59613299378807, 42.11759309441787], [-72.59573299376927, 42.118093262809964], [-72.59513303689603, 42.11849292164514], [-72.59443297000998, 42.118693196238254], [-72.59423300981686, 42.1189928032447], [-72.59073295736229, 42.12059286312173], [-72.58873303766781, 42.12169291476272], [-72.58803296529156, 42.12149304263134], [-72.58783297990809, 42.12109314192517], [-72.5871010105047, 42.120989224648056], [-72.58569297493081, 42.12006110939468], [-72.58493296273932, 42.11819324384925], [-72.58373296602645, 42.11859289590923]]]}}