{"type": "Feature", "properties": {"district_name": "4th Norfolk District", "chamber": "house", "vintage": "2022-present"}, "geometry": {"type": "Polygon", "coordinates": [[[-70.967124, 42.244256], [-70.96541, 42.24679099999998], [-70.962194, 42.24645499999999], [-70.963479, 42.245967], [-70.961641, 42.245782], [-70.962086, 42.24642399999998], [-70.960909, 42.24609100000001], [-70.960191, 42.24679900000001], [-70.959491, 42.24779899999999], [-70.938091, 42.266399], [-70.937691, 42.277499], [-70.925491, 42.28959899999999], [-70.920791, 42.289398999999996], [-70.914091, 42.288799999999995], [-70.91349, 42.278698999999996], [-70.90209, 42.267499], [-70.90899, 42.264399], [-70.91739, 42.263899], [-70.91819100000001, 42.26009999999997], [-70.917081, 42.25560000000001], [-70.91932, 42.25470299999999], [-70.921181, 42.254264000000006], [-70.923308, 42.25388600000001], [-70.925091, 42.25390000000001], [-70.932203, 42.252781000000006], [-70.932435, 42.25264399999999], [-70.933491, 42.25], [-70.931191, 42.2486], [-70.931, 42.246814000000015], [-70.93119, 42.246098999999994], [-70.93129, 42.244299000000005], [-70.929591, 42.24270000000001], [-70.92579, 42.23680000000002], [-70.92239, 42.22930000000001], [-70.923751, 42.228055000000005], [-70.923708, 42.226487000000006], [-70.92349, 42.2259], [-70.92209, 42.22529999999999], [-70.91879, 42.2263], [-70.918091, 42.225500999999994], [-70.916874, 42.225866999999994], [-70.916443, 42.22569699999999], [-70.916226, 42.22584899999999], [-70.915619, 42.22583], [-70.915587, 42.225627], [-70.914896, 42.22546099999999], [-70.914732, 42.225196000000004], [-70.924877, 42.15758], [-70.948963, 42.14815600000001], [-70.955356, 42.15847], [-70.95812700000002, 42.16763900000001], [-70.959081, 42.169515], [-70.96279, 42.174448000000005], [-70.962799, 42.17500100000001], [-70.96376, 42.17629500000001], [-70.963699, 42.176837000000006], [-70.963222, 42.17725000000002], [-70.963069, 42.177716], [-70.963318, 42.178053], [-70.964451, 42.17827], [-70.96439, 42.178430000000006], [-70.95721, 42.176899999999996], [-70.95538, 42.17672999999999], [-70.95518, 42.18084], [-70.9556, 42.189031], [-70.95843000000002, 42.188460000000006], [-70.962281, 42.18793800000001], [-70.962074, 42.18882000000001], [-70.962437, 42.19048], [-70.962437, 42.19077], [-70.960308, 42.193341000000004], [-70.960739, 42.1934], [-70.959631, 42.195775], [-70.955659, 42.19449699999999], [-70.95612, 42.20482000000001], [-70.956726, 42.20682999999999], [-70.95718, 42.20775], [-70.95674, 42.207219999999985], [-70.955776, 42.206554], [-70.95613700000001, 42.217248], [-70.95208, 42.21709], [-70.948228, 42.21782900000001], [-70.947267, 42.21880200000002], [-70.94548, 42.21941000000001], [-70.94395, 42.22021999999999], [-70.94516, 42.2216], [-70.94307, 42.22281999999999], [-70.94523, 42.22494000000001], [-70.94535, 42.22612], [-70.94601, 42.226789999999994], [-70.9462, 42.227289999999996], [-70.94807, 42.226839999999996], [-70.95103, 42.22707], [-70.95189500000001, 42.228528999999995], [-70.951344, 42.229775000000004], [-70.951636, 42.230064000000034], [-70.950079, 42.230410000000006], [-70.948266, 42.23051600000001], [-70.948247, 42.230694], [-70.949724, 42.23059299999998], [-70.950956, 42.23109699999999], [-70.950979, 42.23132999999999], [-70.950534, 42.23163800000001], [-70.950694, 42.23215200000001], [-70.950517, 42.232460999999994], [-70.950763, 42.23268700000001], [-70.951763, 42.23249000000001], [-70.952125, 42.23255600000001], [-70.952177, 42.23286999999999], [-70.953939, 42.23571], [-70.954282, 42.23671500000001], [-70.953246, 42.236807], [-70.95198, 42.236174], [-70.952095, 42.236514], [-70.951703, 42.236539], [-70.950872, 42.236224], [-70.950064, 42.236324], [-70.949749, 42.236212], [-70.949279, 42.236607000000014], [-70.949249, 42.237053999999986], [-70.949934, 42.237978], [-70.94978, 42.23823800000001], [-70.949961, 42.237939999999995], [-70.949966, 42.23721900000001], [-70.95056, 42.236941], [-70.951198, 42.23713800000001], [-70.951491, 42.237379999999995], [-70.951319, 42.23759], [-70.95218, 42.238218999999994], [-70.953135, 42.238415], [-70.954858, 42.23933599999999], [-70.957251, 42.24012800000001], [-70.95779, 42.24013200000001], [-70.958813, 42.239817], [-70.959759, 42.239989999999985], [-70.960398, 42.240326000000024], [-70.96336, 42.240514000000005], [-70.963629, 42.23893300000002], [-70.966999, 42.23973600000001], [-70.966669, 42.24041199999998], [-70.966877, 42.241494], [-70.966723, 42.24151499999999], [-70.966493, 42.24294999999999], [-70.966663, 42.24310499999999], [-70.966093, 42.243537999999994], [-70.965962, 42.243991], [-70.967124, 42.244256]]]}}