{"type": "Feature", "properties": {"district_name": "1st Suffolk", "chamber": "house", "vintage": "2001-2010"}, "geometry": {"type": "MultiPolygon", "coordinates": [[[[-70.9548382229049, 42.30972069202186], [-70.95545446012638, 42.309908743818866], [-70.95576269131072, 42.310452638531835], [-70.95656458275917, 42.31087113244738], [-70.95779710846362, 42.31033621254911], [-70.95801266966431, 42.31063883194513], [-70.95727330428944, 42.31128243741047], [-70.9556706525344, 42.31143578704559], [-70.95449884556035, 42.31182579809174], [-70.95292776128366, 42.31299660519751], [-70.95240418066854, 42.31320343267382], [-70.95114004338161, 42.31300046021755], [-70.94950708651368, 42.312055205779856], [-70.94947609619422, 42.31184855405557], [-70.94981483419656, 42.311689804721595], [-70.95154130597386, 42.3114887362066], [-70.95240333951682, 42.3109335318261], [-70.95302037673211, 42.311139039350905], [-70.9532670368512, 42.311810383046556], [-70.95375970627842, 42.31175701495099], [-70.95474565491095, 42.311028514922576], [-70.95443713612359, 42.31047504589755], [-70.95449887561034, 42.30999649305656], [-70.9548382229049, 42.30972069202186]]], [[[-71.01164125527178, 42.30877309839383], [-71.01271935438686, 42.30991599986247], [-71.01345872722057, 42.31028150446362], [-71.01419821994426, 42.31028631656656], [-71.01478336118154, 42.31007778482626], [-71.01429116986336, 42.309780289279225], [-71.01355141525524, 42.30971245545432], [-71.01358258553651, 42.309504392402005], [-71.01456884944784, 42.309505186737525], [-71.01549296887373, 42.309875960034404], [-71.01635537814114, 42.31083334621134], [-71.01712450584571, 42.31259442040721], [-71.0170620129267, 42.31320805563492], [-71.01669215680008, 42.31376356250474], [-71.0162602620852, 42.314104418196486], [-71.01197453642789, 42.315864394651996], [-71.01077170699214, 42.31655195470568], [-71.01000109969071, 42.31734937293875], [-71.0093220846354, 42.318604088933505], [-71.0080882909134, 42.31975175860943], [-71.0065774373891, 42.320642774458925], [-71.00565199249307, 42.32101073012727], [-71.00337117827442, 42.32128449241296], [-70.99956561199055, 42.3208752294885], [-70.99922621052009, 42.32048043652009], [-70.99926871876592, 42.31997138415505], [-70.99891715790038, 42.319125819134314], [-70.99952023062022, 42.319064300326886], [-71.00029024119961, 42.31953750023185], [-71.00170828952616, 42.31972877690084], [-71.00334206692551, 42.31926769173302], [-71.00476092021513, 42.318098920781786], [-71.00543958402656, 42.317069314176074], [-71.00605611455327, 42.316590304117696], [-71.00809363052801, 42.313113748785305], [-71.01083890970044, 42.3102821946018], [-71.01142583182713, 42.30891229683649], [-71.01164125527178, 42.30877309839383]]], [[[-70.9302750531212, 42.319058140091975], [-70.93076826380207, 42.31905833314122], [-70.93082985603745, 42.31929159242686], [-70.9306449896911, 42.31965530080725], [-70.93061405839644, 42.32155648586233], [-70.93049074407928, 42.32175675114568], [-70.92993516272266, 42.32196444340461], [-70.92860987403157, 42.32207715314977], [-70.92682229538306, 42.32157590227334], [-70.92632886124726, 42.32130503223016], [-70.92592898533016, 42.32068970201431], [-70.92571316594908, 42.31940568711937], [-70.92586796922012, 42.318555670721835], [-70.92651510655645, 42.31777957808517], [-70.92725473015943, 42.3177579407037], [-70.9284566012058, 42.31732334075354], [-70.92885742917514, 42.31741536405527], [-70.9302750531212, 42.319058140091975]]], [[[-70.9769964887409, 42.310400995787646], [-70.97687390808107, 42.310763377708405], [-70.97406901926715, 42.31216348640915], [-70.97311466943326, 42.31290074082684], [-70.97188319619447, 42.314318136595745], [-70.97077483863106, 42.31632802698779], [-70.9694804801102, 42.3182245187647], [-70.96886563690536, 42.321108835609884], [-70.96843462301479, 42.3221877741219], [-70.96791155300319, 42.32282737799951], [-70.96532255817739, 42.324862994821125], [-70.96532325427678, 42.32534071672792], [-70.96335110861109, 42.32623970655263], [-70.95999195519975, 42.328296921550645], [-70.95940602935131, 42.3288658595983], [-70.95869776329965, 42.33028332073663], [-70.95814347868318, 42.330608194269], [-70.9575875764775, 42.33078844195764], [-70.95629268246915, 42.33085604142839], [-70.9545360644288, 42.3304718433125], [-70.9542582103478, 42.33024207276769], [-70.95422763190247, 42.3297203102724], [-70.95441216947829, 42.329492176291005], [-70.9571250041177, 42.328067344789424], [-70.95943568052382, 42.32608181284478], [-70.96029864200722, 42.324634696417135], [-70.96072901570247, 42.3235822361606], [-70.9634409678215, 42.32020246718314], [-70.9663045092019, 42.314297424755], [-70.96679662645109, 42.313928900521], [-70.96889297286914, 42.31360436961535], [-70.97009408269238, 42.312944246892116], [-70.97077140009549, 42.311752213337165], [-70.97104885758822, 42.31154923857079], [-70.97403779377665, 42.31047021221683], [-70.97644137397123, 42.31023978929561], [-70.9769964887409, 42.310400995787646]]], [[[-70.98658839877825, 42.31911642208745], [-70.98779036029642, 42.31988816747198], [-70.98803814240392, 42.321946461810164], [-70.9877621380179, 42.32309536767899], [-70.98853357814073, 42.32366768565749], [-70.98834912056118, 42.32425599501334], [-70.99115536293944, 42.32599084549939], [-70.99115621248606, 42.32652202679416], [-70.99063260275067, 42.327135288377136], [-70.98958400628223, 42.327729895139996], [-70.98856823614908, 42.32803598399454], [-70.98588598042426, 42.32823558949204], [-70.98397417588457, 42.327827514415254], [-70.98354226055457, 42.327556051509866], [-70.98357316746437, 42.32727597163232], [-70.98443565343283, 42.32677454926376], [-70.98455885855108, 42.32652019951118], [-70.98480573358624, 42.3258854684768], [-70.98511233957882, 42.32394331634464], [-70.98498813465112, 42.323341808444034], [-70.98418541863884, 42.32156348845286], [-70.98591021834787, 42.31929907801509], [-70.98658839877825, 42.31911642208745]]], [[[-70.94026198078664, 42.32486973166988], [-70.94192622806534, 42.326264850807036], [-70.9421113699621, 42.326702964223216], [-70.94192672511792, 42.32711113904798], [-70.94121798823217, 42.32757360322818], [-70.94017019657919, 42.327573573661134], [-70.93693221923691, 42.326655761238264], [-70.93452872802594, 42.32647177926162], [-70.93388107677467, 42.32626602278557], [-70.93348036096438, 42.32585891136569], [-70.93708725565814, 42.325806858217845], [-70.93795030262142, 42.325602886114154], [-70.9391827241283, 42.3248520917505], [-70.93967591036734, 42.324753212730165], [-70.94026198078664, 42.32486973166988]]], [[[-70.92608229921267, 42.32566915904562], [-70.92632835687675, 42.32661064816778], [-70.92700693412229, 42.32729263774659], [-70.93018197074085, 42.32885131797852], [-70.93135315684371, 42.32887680734294], [-70.93156874044108, 42.329422557724655], [-70.93101388939526, 42.33063916664679], [-70.93107507940442, 42.3312775599676], [-70.93209294114914, 42.332422602626394], [-70.9320618137285, 42.33276512241104], [-70.93147586717829, 42.33319831514348], [-70.9306124393528, 42.33353728256533], [-70.93008877406052, 42.33347447536902], [-70.93005763667422, 42.33301516614619], [-70.92814640716537, 42.33067838873824], [-70.92639063440697, 42.32894274878717], [-70.92521910320228, 42.3273681154038], [-70.92355446271704, 42.326198385614504], [-70.92352370054712, 42.32576608469962], [-70.92401624127402, 42.32532571157226], [-70.92450978231108, 42.325190887053715], [-70.92546590100721, 42.32528289170133], [-70.92608229921267, 42.32566915904562]]], [[[-70.96518397517926, 42.3563402068529], [-70.96388796867558, 42.35565050501204], [-70.96213034302069, 42.35556408897757], [-70.96105072473863, 42.35586175927051], [-70.96009444911358, 42.355950112334014], [-70.9594780883194, 42.35583467983372], [-70.9563935453369, 42.35403192450902], [-70.95574470307685, 42.35343972760961], [-70.95522069166968, 42.352205521580856], [-70.95364739247273, 42.350025529018815], [-70.95355502148225, 42.34952317353162], [-70.95423332475642, 42.348934448466245], [-70.95432467597308, 42.3479963203281], [-70.95373890178925, 42.34625877030479], [-70.9533992999762, 42.34570629013958], [-70.95336833573695, 42.34472481628079], [-70.95318306316831, 42.344286722705], [-70.95330623817931, 42.34387879735115], [-70.95392294969243, 42.34389523251791], [-70.95457088076232, 42.34446999835704], [-70.95509507664973, 42.344704310974784], [-70.95719210299134, 42.34524428128783], [-70.95765447309128, 42.3455700127306], [-70.9579012347017, 42.34600725435252], [-70.95802457910106, 42.346617788488544], [-70.95854991348165, 42.34769837146081], [-70.96009203410493, 42.34878879906865], [-70.96200416763216, 42.349548943277775], [-70.96354659122152, 42.35050428034794], [-70.96444037021166, 42.35068681355642], [-70.96527421340886, 42.35187965422727], [-70.9652741621003, 42.35222176705163], [-70.96502699370221, 42.35267639303342], [-70.96567516209105, 42.35313348956625], [-70.96795768667633, 42.35398641760249], [-70.9689146588584, 42.354465180545034], [-70.9690066579998, 42.354643981184424], [-70.96863738381651, 42.354938248059526], [-70.96808144874234, 42.35501107781126], [-70.96826689495809, 42.35528708411479], [-70.96894459008857, 42.355531044994166], [-70.9689930000181, 42.35579685602338], [-70.96799298232474, 42.356397125384895], [-70.96880510042234, 42.3575515661897], [-70.9676458933531, 42.356757888522004], [-70.96650934141809, 42.35645214772611], [-70.96518397517926, 42.3563402068529]]], [[[-70.99489406743203, 42.393196839692564], [-70.99434031419892, 42.39312576070936], [-70.99454595207487, 42.39261350042185], [-70.99436052551951, 42.39247258303606], [-70.98911506206696, 42.39275269337844], [-70.98769488152882, 42.39234519298895], [-70.98747855406498, 42.39213322017736], [-70.98744788343087, 42.3915388935079], [-70.98778631083087, 42.391154969190026], [-70.98806347452772, 42.38985303547847], [-70.98784685744796, 42.389280388362494], [-70.98648712194185, 42.38753902144461], [-70.98658001669112, 42.38710504657719], [-70.9869200261322, 42.38706267420292], [-70.98756783682094, 42.38767325617809], [-70.98793722600527, 42.3874239452047], [-70.99037483229976, 42.387354300042695], [-70.9916397643656, 42.38680959436086], [-70.99191672026534, 42.38641750855171], [-70.99503240685371, 42.38557032398121], [-70.99555655012998, 42.38499418764311], [-70.99558675834655, 42.38456105603911], [-70.99524745703111, 42.38442283208841], [-70.99487693722426, 42.38398794184819], [-70.99490760125553, 42.383735437327545], [-70.99527774236904, 42.38357556782916], [-70.99515404638377, 42.38307368104021], [-70.99462895723005, 42.382821545430765], [-70.99493666247633, 42.38206890423785], [-70.99555400449583, 42.38176944854152], [-70.99793023095386, 42.381539015513304], [-70.9995040453254, 42.381907681170354], [-70.9996437782892, 42.382184002547056], [-71.00109334617507, 42.38296004482704], [-71.00377594721137, 42.383876994766126], [-71.00522646495831, 42.38405879802369], [-71.00695402263322, 42.38467728496958], [-71.00787890091483, 42.3848410458424], [-71.00945312056733, 42.38458837750121], [-71.01062638013255, 42.383748228406425], [-71.01102837460371, 42.38321876752651], [-71.01090594072475, 42.3814103507762], [-71.01109319656342, 42.380822024755524], [-71.01167769177425, 42.38068552059032], [-71.01217097824508, 42.380911001969075], [-71.01309656376839, 42.381002701125944], [-71.01331317188139, 42.380864072917554], [-71.01334426825794, 42.379584669032965], [-71.01423888448227, 42.380199520949795], [-71.0146094300822, 42.38027366620092], [-71.01439378922852, 42.379421983272195], [-71.01516485230553, 42.37939935208361], [-71.01538030305889, 42.37995393746181], [-71.01609047404703, 42.38020282266278], [-71.01951728637333, 42.37727886836982], [-71.01908585488994, 42.37675489793999], [-71.01840616252545, 42.376343548272864], [-71.01652506512664, 42.37567394514351], [-71.01609415701563, 42.375357590148276], [-71.01603196954196, 42.37507936410726], [-71.01634173584726, 42.37436662911713], [-71.01372087627207, 42.37233217778642], [-71.01248678125509, 42.371966270791106], [-71.0108829441404, 42.37216597098512], [-71.00998782289618, 42.37281205414287], [-71.00998708964997, 42.37319974310379], [-71.01048070567595, 42.373496689838596], [-71.01048082540962, 42.37367730659203], [-71.00865838728518, 42.37507398966117], [-71.00862671423884, 42.37624535674582], [-71.0082563189697, 42.37676481679584], [-71.00760822984955, 42.37722681926284], [-71.00686682867101, 42.37850937420781], [-71.00646535761359, 42.378849762599415], [-71.00529208220509, 42.3792121494074], [-71.00439770099031, 42.37928201563111], [-71.00356522849356, 42.37908036265407], [-71.00279439318626, 42.37861676064538], [-70.99949372543274, 42.377936791566114], [-70.99846564933961, 42.37733193760169], [-70.99939396765413, 42.3775970651639], [-71.00669394192785, 42.37469703049847], [-71.01069402090388, 42.36529707027694], [-71.00169235235668, 42.364854416995875], [-71.00185186817652, 42.36372354804419], [-71.00148235246004, 42.36331568983689], [-70.99855838178652, 42.3614253092052], [-70.9982482564145, 42.36075492146196], [-70.99794030389474, 42.36062528568966], [-70.99747728849557, 42.36057937419268], [-70.9938358989419, 42.36119530407482], [-70.99356112207775, 42.36154126575495], [-70.99199264077907, 42.361426880313154], [-70.98887386973469, 42.361882898722754], [-70.98834970554208, 42.36177535070106], [-70.9877318958196, 42.36138040543981], [-70.98742278846572, 42.36092663035464], [-70.98711290649076, 42.359049260120415], [-70.98649579012955, 42.3576369866387], [-70.99185829908576, 42.35394877223876], [-70.9924128623015, 42.35387582163704], [-70.99293802540409, 42.35406494976137], [-70.99444828412021, 42.35396638159934], [-70.9955287059416, 42.35442520817257], [-70.99704010805036, 42.35439863457889], [-70.99744016698604, 42.35458044260029], [-70.99744078744578, 42.35478807133188], [-70.99673206846948, 42.35499823380988], [-70.99667051982595, 42.35529674530692], [-70.9968250614502, 42.355564133946544], [-70.99833666171317, 42.35659201413509], [-70.99950941368098, 42.35689534648882], [-71.00337024707406, 42.356482751775985], [-71.00509729962717, 42.35551562854391], [-71.0058377334594, 42.35556551989383], [-71.00642456888882, 42.355221984967386], [-71.00645519799278, 42.35501449055122], [-71.00513017373784, 42.35402860061638], [-71.00488361502613, 42.354078180900125], [-71.00411177669542, 42.355037603173], [-71.00358665879554, 42.355055594229995], [-71.00346391153482, 42.35455371727845], [-71.00398902966373, 42.35368832445551], [-71.00488579621017, 42.35144820390779], [-71.0051663203729, 42.347129118172106], [-71.0076335469515, 42.34685161472209], [-71.01715825618038, 42.35279906416461], [-71.02804129051677, 42.35810926617583], [-71.02804151373809, 42.358586989229934], [-71.02612734425834, 42.36284480948613], [-71.02587949442032, 42.36382229685172], [-71.02600285199127, 42.36414409226977], [-71.02661935855883, 42.364646292967535], [-71.02742172235737, 42.36490224119796], [-71.02782286564513, 42.364832423597676], [-71.02834691172036, 42.36428258728448], [-71.02822309820125, 42.36412283598487], [-71.02828521135557, 42.363806305275446], [-71.02853219184139, 42.36354960958476], [-71.0292415641497, 42.3632762338695], [-71.0295504851033, 42.36277502728331], [-71.02985897707707, 42.36284211802855], [-71.02985824043945, 42.36373340336965], [-71.030321047623, 42.36376117760649], [-71.03053718676196, 42.3636219567284], [-71.0307226296564, 42.362889534348135], [-71.03112319012736, 42.362819144714265], [-71.03137045761395, 42.36295913945303], [-71.03140064225755, 42.36321077679531], [-71.0320493321037, 42.36316277653344], [-71.03214180935187, 42.362611724385204], [-71.03365307323891, 42.36275628185745], [-71.03371476442814, 42.3633676045572], [-71.03399165969866, 42.36357861163705], [-71.03454725418513, 42.363578043503], [-71.03500961287676, 42.36307406721139], [-71.03528738319248, 42.36316802788301], [-71.0349787902938, 42.363939347245356], [-71.03562620079867, 42.36414396122565], [-71.03593450958584, 42.364057427255254], [-71.03713838358722, 42.362612810108885], [-71.03778574003073, 42.36277240626088], [-71.03778560975263, 42.363024487185484], [-71.03692186850058, 42.364517178962565], [-71.03753823569183, 42.36474023010818], [-71.03781625416916, 42.36467214230171], [-71.038803419362, 42.36336674025063], [-71.03951299600654, 42.36355245944216], [-71.0395126783783, 42.36380453954686], [-71.0388646073881, 42.36462683425599], [-71.03886549925069, 42.3648158988275], [-71.04000587660829, 42.364975765344695], [-71.04040787129486, 42.364265575769124], [-71.04074605731006, 42.36400753493958], [-71.04173358086098, 42.36444924005946], [-71.04108471515677, 42.36577570639685], [-71.04216469937178, 42.36636913313695], [-71.0420096995369, 42.367209728894636], [-71.04302799396295, 42.3668671674611], [-71.04339803442647, 42.36737335743696], [-71.04259593654794, 42.36840550359185], [-71.0433971907596, 42.369409133614695], [-71.04423031122454, 42.36954748111353], [-71.04441544521049, 42.36973334098234], [-71.04441531561419, 42.37012046477486], [-71.044909012709, 42.37037280746711], [-71.0449699256556, 42.37102913397703], [-71.04549472916044, 42.37130804759608], [-71.04546382016214, 42.37162359369401], [-71.04460021897387, 42.37163030620376], [-71.04401430781418, 42.37203704928516], [-71.04410679011363, 42.37231482179133], [-71.04379843605946, 42.37279750441355], [-71.0426871575085, 42.372817282606874], [-71.04244026978985, 42.37329908056866], [-71.04271774555316, 42.37378071289094], [-71.042563653417, 42.373918519578694], [-71.04179268318858, 42.37394077631483], [-71.04123700232634, 42.37446466308826], [-71.04126824072975, 42.3747613246251], [-71.04185282962203, 42.37509113416656], [-71.04191524490132, 42.375432366857744], [-71.04172933983018, 42.375795675906126], [-71.04120482705945, 42.376047916594054], [-71.04108118998234, 42.376825047143434], [-71.04188342428473, 42.37689183197946], [-71.04182143145525, 42.37751446716896], [-71.04203741633525, 42.37758229057834], [-71.04206833415431, 42.377923955765496], [-71.04256210028275, 42.37804127402799], [-71.0425617338226, 42.37890610668677], [-71.04175947846404, 42.379046401733575], [-71.04169806876502, 42.37929992110238], [-71.04185090067178, 42.38208861069615], [-71.04049381644968, 42.38217603606752], [-71.04043209758832, 42.3828887085907], [-71.04009187018607, 42.38304770810845], [-71.04006140086038, 42.38348029104684], [-71.0394135530081, 42.38361836911081], [-71.03935157478129, 42.3840513838585], [-71.03765424482977, 42.38416273815786], [-71.03658154372071, 42.384534850262256], [-71.0365126057383, 42.385008348326906], [-71.03598830034359, 42.38483180450238], [-71.03574118016343, 42.3841426555504], [-71.0351904467517, 42.38410329509425], [-71.03508990322867, 42.38469370196085], [-71.03333899951811, 42.38434843886773], [-71.0333297946291, 42.38343517756854], [-71.0331814425921, 42.38325170043754], [-71.03231860389882, 42.382979235479766], [-71.03018831071122, 42.38311516922356], [-71.02972477677474, 42.383546538639315], [-71.02867582303047, 42.383502291492896], [-71.02855259052797, 42.38295486207941], [-71.02827490412902, 42.38278886323671], [-71.02697917594048, 42.382812235392585], [-71.02697895168528, 42.383298389658115], [-71.02463340790018, 42.38450130129573], [-71.02241154847236, 42.38597250502556], [-71.02108390996213, 42.38649140365769], [-71.01938750901311, 42.386566481201804], [-71.0149696826144, 42.39225463516301], [-71.0154314823821, 42.39328178153356], [-71.01543181094478, 42.393858533054846], [-71.01503060707049, 42.39440601718734], [-71.01367186760645, 42.39538440305218], [-71.01212864114746, 42.39554667420982], [-71.01122068089653, 42.396560143926145], [-71.00949402936998, 42.39599687067808], [-71.0070940558306, 42.39599674394884], [-71.00319397955195, 42.39829708312643], [-71.00109400873666, 42.398797226774164], [-70.99899399349671, 42.39819672362416], [-70.99669394191201, 42.39459679501206], [-70.99489406743203, 42.393196839692564]]]]}}