{"type": "Feature", "properties": {"district_name": "13th Suffolk District", "chamber": "house", "vintage": "2022-present"}, "geometry": {"type": "Polygon", "coordinates": [[[-71.069648, 42.28995199999999], [-71.067218, 42.290757], [-71.067578, 42.291425999999994], [-71.06459, 42.29234699999999], [-71.065203, 42.294210000000014], [-71.063069, 42.29470299999998], [-71.063142, 42.29561499999999], [-71.062471, 42.295809000000006], [-71.062623, 42.29657500000001], [-71.064512, 42.29607100000001], [-71.065103, 42.297360999999995], [-71.066413, 42.297022], [-71.065538, 42.29831300000002], [-71.06432000000001, 42.299204999999986], [-71.067367, 42.301007000000006], [-71.062293, 42.302308], [-71.061916, 42.301665], [-71.060149, 42.30215], [-71.059796, 42.301537999999994], [-71.057896, 42.30995899999997], [-71.059574, 42.31055100000001], [-71.05981, 42.31019], [-71.060224, 42.31007200000002], [-71.061724, 42.310556000000005], [-71.064413, 42.31256900000001], [-71.064151, 42.31295800000001], [-71.064431, 42.313741], [-71.064213, 42.314105], [-71.064602, 42.314769000000005], [-71.063382, 42.31452400000001], [-71.061674, 42.31838], [-71.059881, 42.31797200000001], [-71.059596, 42.31886899999999], [-71.058834, 42.3186], [-71.058717, 42.31873799999999], [-71.059217, 42.31932499999999], [-71.058344, 42.319393999999996], [-71.056764, 42.31985199999999], [-71.056769, 42.32072200000001], [-71.054977, 42.32131999999999], [-71.051071, 42.321447000000006], [-71.050244, 42.32201700000002], [-71.050283, 42.321864000000026], [-71.047841, 42.32259200000001], [-71.046227, 42.323285], [-71.045109, 42.32399199999999], [-71.044999, 42.324596], [-71.037194, 42.324797999999994], [-71.028195, 42.324599], [-71.028395, 42.30879899999999], [-71.041694, 42.305298], [-71.041294, 42.300097999999984], [-71.03529400000001, 42.288798], [-71.03789400000001, 42.284898], [-71.039293, 42.28379899999999], [-71.04049400000001, 42.281898000000005], [-71.041594, 42.27809799999999], [-71.042433, 42.277328999999995], [-71.043042, 42.276893], [-71.044421, 42.276313], [-71.04488, 42.276266], [-71.047116, 42.277083], [-71.048583, 42.27791399999999], [-71.04923800000002, 42.278064], [-71.051271, 42.27792599999999], [-71.053284, 42.277502000000005], [-71.053865, 42.27819999999999], [-71.055731, 42.282622], [-71.057275, 42.28244900000001], [-71.06592, 42.279928], [-71.064303, 42.285699], [-71.065104, 42.28745199999999], [-71.066081, 42.28848200000001], [-71.067715, 42.289381999999996], [-71.069648, 42.28995199999999]]]}}