{"type": "Feature", "properties": {"district_name": "11th Suffolk District", "chamber": "house", "vintage": "2022-present"}, "geometry": {"type": "Polygon", "coordinates": [[[-71.055295, 42.38709700000002], [-71.050695, 42.391996000000006], [-71.050002, 42.39347099999999], [-71.050229, 42.393776], [-71.050131, 42.393980000000006], [-71.05069, 42.394576000000015], [-71.052521, 42.39487500000001], [-71.053301, 42.395392], [-71.053297, 42.396178], [-71.052858, 42.396945], [-71.051945, 42.397619], [-71.051076, 42.397781], [-71.050018, 42.39757], [-71.048145, 42.396633999999985], [-71.040568, 42.401982], [-71.039487, 42.40362600000001], [-71.04144400000001, 42.403898000000005], [-71.041159, 42.40453100000001], [-71.044384, 42.405421], [-71.043095, 42.408233], [-71.043795, 42.40827899999998], [-71.043259, 42.40935400000001], [-71.04339100000001, 42.41107599999999], [-71.038589, 42.411739], [-71.035629, 42.40964100000001], [-71.033442, 42.41338000000001], [-71.033181, 42.41420599999999], [-71.029036, 42.410354000000005], [-71.02797, 42.40872699999999], [-71.027115, 42.40778199999998], [-71.026898, 42.40733199999999], [-71.026826, 42.406432999999986], [-71.026004, 42.40579300000002], [-71.024901, 42.40590000000002], [-71.023847, 42.40532400000001], [-71.023278, 42.40554399999999], [-71.022855, 42.40512499999999], [-71.022442, 42.405474], [-71.02148, 42.405164000000006], [-71.020619, 42.40519199999999], [-71.02036, 42.405051999999976], [-71.020305, 42.404829], [-71.021191, 42.40423299999999], [-71.021169, 42.40392400000001], [-71.020828, 42.403513000000004], [-71.019981, 42.40372300000001], [-71.018715, 42.403709000000006], [-71.018088, 42.40335699999999], [-71.017826, 42.402883], [-71.017035, 42.40271499999999], [-71.01563, 42.402704000000014], [-71.013772, 42.402964], [-71.013007, 42.402864], [-71.010861, 42.401689000000005], [-71.009396, 42.401183], [-71.009445, 42.400475], [-71.009629, 42.40016700000001], [-71.013395, 42.39739799999999], [-71.016094, 42.395897], [-71.017794, 42.390697], [-71.020512, 42.38764099999999], [-71.022428, 42.386373], [-71.027712, 42.384041], [-71.031995, 42.38459700000001], [-71.033234, 42.384910000000005], [-71.034975, 42.385876], [-71.039427, 42.386858999999994], [-71.043264, 42.383594000000016], [-71.044298, 42.383209], [-71.047284, 42.38528399999999], [-71.048186, 42.385685999999986], [-71.055295, 42.38709700000002]]]}}