{"type": "Feature", "properties": {"district_name": "33rd Middlesex", "chamber": "house", "vintage": "2001-2010"}, "geometry": {"type": "Polygon", "coordinates": [[[-71.02529496286658, 42.444895989923744], [-71.0246950923175, 42.443795739263294], [-71.02329505744687, 42.44209575255825], [-71.02299496104486, 42.441495827069616], [-71.02009509179966, 42.438296236212324], [-71.02089497435776, 42.43719617073892], [-71.02179507032982, 42.43509607458999], [-71.02239493653947, 42.43449594616116], [-71.02269493834655, 42.43359578808511], [-71.02519496543135, 42.42969610388582], [-71.02619598328877, 42.427297053240046], [-71.02679496896238, 42.42659617448276], [-71.02809603602147, 42.42409704851579], [-71.03662595682782, 42.42368380834134], [-71.04099490941636, 42.42329618512979], [-71.04019498567364, 42.42439583350495], [-71.04249591598209, 42.42479718812478], [-71.04559509380208, 42.42419614813959], [-71.04829505316079, 42.42559600903018], [-71.05169498669576, 42.42809575432223], [-71.051594933826, 42.428896043399945], [-71.05169505779163, 42.42939608654402], [-71.05429605586392, 42.4293960565342], [-71.05449608485387, 42.42989592561983], [-71.05509593325044, 42.429895994378214], [-71.05699598812645, 42.429395790302166], [-71.0599959300699, 42.42789595598297], [-71.06079608630007, 42.42939627771559], [-71.06129599369697, 42.429295777253884], [-71.06269695821055, 42.42849705271479], [-71.06649601842737, 42.42689598298749], [-71.06559598828919, 42.42579594642796], [-71.06539600216297, 42.4251959408441], [-71.06572301589223, 42.42510377117897], [-71.07099600036119, 42.42519612993709], [-71.07269595086002, 42.42549616689787], [-71.07379606874586, 42.42549574336929], [-71.07449607946172, 42.42589613745253], [-71.0755959944888, 42.423296149498526], [-71.07609599760335, 42.42169606708433], [-71.07649598413468, 42.42099588173271], [-71.07679593574481, 42.419495773376106], [-71.07679691002345, 42.41339696380636], [-71.07749607357849, 42.413396156191915], [-71.07829592829563, 42.41369618107773], [-71.07949594379691, 42.41519615770949], [-71.08199604146375, 42.41549616122428], [-71.08429593339667, 42.41659607603873], [-71.08589603337215, 42.41779583556446], [-71.086195985385, 42.41959578380421], [-71.08709603590187, 42.42099612718359], [-71.08859602854196, 42.4247961587719], [-71.08919592803313, 42.42679578576747], [-71.08899591045848, 42.428996242840526], [-71.0880959058352, 42.429196155411425], [-71.08749592753081, 42.43119599166685], [-71.08699693182328, 42.434097017618775], [-71.08582607625299, 42.4329612854973], [-71.08539596987198, 42.43229578584139], [-71.08449607804073, 42.432295918010674], [-71.08434294143295, 42.43167473458001], [-71.08179592159667, 42.43179605140563], [-71.08159595703427, 42.431196084561265], [-71.07659706606346, 42.43149684087999], [-71.07479603685765, 42.43199605003207], [-71.07299607941295, 42.43199614097525], [-71.07299597190884, 42.43459624006303], [-71.07359607434556, 42.434395902306235], [-71.07319595844977, 42.43529581895179], [-71.07269607065977, 42.43589602292767], [-71.07249606608961, 42.43699586476142], [-71.07269591858362, 42.43799590973135], [-71.07259607027007, 42.43849575784488], [-71.07119597888706, 42.43839602407584], [-71.07149597458208, 42.44019599387933], [-71.05859591023757, 42.44149599558965], [-71.05683009620655, 42.4415437882317], [-71.05339607978975, 42.4420960103933], [-71.05009701382936, 42.442196828462954], [-71.04859603166511, 42.442495922299145], [-71.02869592662944, 42.444297204852305], [-71.02529496286658, 42.444895989923744]]]}}