{"type": "Feature", "properties": {"district_name": "2nd Hampden", "chamber": "house", "vintage": "2001-2010"}, "geometry": {"type": "Polygon", "coordinates": [[[-72.58283211316109, 42.08149393358851], [-72.58073185909788, 42.081794025935096], [-72.58033196376795, 42.08199419427478], [-72.58006003259796, 42.083445271373854], [-72.57973990004425, 42.08355015251852], [-72.57433198448398, 42.084293759725675], [-72.57413202114023, 42.08389383465038], [-72.56943195128484, 42.084793772339964], [-72.56963213626129, 42.085494209739636], [-72.56433209220701, 42.08659424033764], [-72.56428391230297, 42.08723003253158], [-72.56164404976367, 42.086766075900854], [-72.56163201169981, 42.086593987401436], [-72.56013200518852, 42.086293873237885], [-72.55783197765382, 42.08599381320238], [-72.55773204499762, 42.08579384085637], [-72.55593202574117, 42.085593793441106], [-72.5529319362776, 42.08239408319173], [-72.55383200934594, 42.082193901703775], [-72.5521320117114, 42.08049373085188], [-72.55293201193484, 42.07999396977649], [-72.54873103916368, 42.07579393148218], [-72.54903101722773, 42.075594222266616], [-72.54823111140053, 42.07519412161812], [-72.5481308775908, 42.07399414085871], [-72.5515309208486, 42.07369396855225], [-72.55243097643678, 42.071294027978304], [-72.55463201777461, 42.0700942555407], [-72.55523204190148, 42.06899418898031], [-72.55553209540918, 42.06649507941556], [-72.552090981293, 42.06606305644306], [-72.5434310250641, 42.06469494360818], [-72.54133098866551, 42.06419521662567], [-72.53683100619402, 42.06359509587668], [-72.53562696346083, 42.05777482886474], [-72.53053097534976, 42.05929521951956], [-72.52983096233541, 42.06059527537695], [-72.52893103603016, 42.06289486561656], [-72.52893099627671, 42.06529496703141], [-72.52855491876818, 42.0663349222008], [-72.52623104505192, 42.0676951111715], [-72.52503103121747, 42.0686951670531], [-72.52313110164275, 42.07099521983241], [-72.52203104343324, 42.071694969928885], [-72.52143086566316, 42.07179486757331], [-72.51893002332723, 42.0693951073121], [-72.51703003822554, 42.06559491082866], [-72.51673006521867, 42.06289472277639], [-72.51360989261251, 42.064031000704624], [-72.51285792444342, 42.064127128902555], [-72.5121299819176, 42.06089498451969], [-72.51122997788043, 42.053595150270866], [-72.50423001922977, 42.05429493931474], [-72.49993011807801, 42.05569498554588], [-72.49332995039855, 42.05319480099598], [-72.49498593257336, 42.065230978529236], [-72.49833002781774, 42.072694763565366], [-72.49732996671705, 42.07359486281146], [-72.4897300204302, 42.07749477644411], [-72.48683004488728, 42.07939486004909], [-72.4904299950951, 42.08409416845739], [-72.49082998243875, 42.08699387864597], [-72.48753007519488, 42.0871940259787], [-72.48623011321298, 42.087493910784886], [-72.47542898972632, 42.088894235463435], [-72.4732291009892, 42.08899398828933], [-72.47112906376188, 42.089293754031765], [-72.47002894949436, 42.084493917544435], [-72.46509702202006, 42.085182175508415], [-72.41877587795638, 42.09030202263526], [-72.4183440305231, 42.09041408993842], [-72.4177521100981, 42.09156625478003], [-72.4146320780833, 42.09921400584656], [-72.37946295722327, 42.10302172672129], [-72.38050297841086, 42.108238124527944], [-72.3806470093392, 42.10979015224629], [-72.38888698860843, 42.15202907822962], [-72.38160698304748, 42.152173087537555], [-72.37552704304794, 42.152620916998856], [-72.37224697210215, 42.153532779558645], [-72.37079105660779, 42.15410882547172], [-72.36936702177358, 42.15436498285163], [-72.36658295327116, 42.154172786733895], [-72.36491895699163, 42.15457307650059], [-72.36243798567945, 42.156252933235386], [-72.3590620290189, 42.15895685082145], [-72.35530196284702, 42.16047674296175], [-72.35408601847197, 42.160796999189415], [-72.351045853846, 42.160765019896445], [-72.34869396383662, 42.16151681387108], [-72.34826203007395, 42.16105295030786], [-72.34778200479411, 42.16084491719017], [-72.34650195769755, 42.16162924157969], [-72.3458940872146, 42.16172488957408], [-72.34496603533397, 42.161212902826236], [-72.34453402563729, 42.16017279744406], [-72.34387800875389, 42.1606210542105], [-72.34363796188862, 42.16100491444834], [-72.34261403602218, 42.16124484502747], [-72.34192601779662, 42.160828983153536], [-72.34160600656143, 42.16031700410056], [-72.34125396230583, 42.15914912415078], [-72.3408059181121, 42.15894082733847], [-72.33949393714161, 42.15930890161983], [-72.33829403448395, 42.15937282911411], [-72.3352700427197, 42.15892502441057], [-72.33379808722596, 42.158092781441404], [-72.33343008537982, 42.15775726567897], [-72.33312601246259, 42.15700486032509], [-72.33202199902217, 42.15582103196763], [-72.33067805681017, 42.15297327226646], [-72.32987795116449, 42.15177315693611], [-72.32902995257577, 42.15140507804741], [-72.32611705271046, 42.15116500567041], [-72.32550903198872, 42.15098875671656], [-72.32506101299916, 42.15054123701147], [-72.32443693919129, 42.149405092817155], [-72.32362096081505, 42.14905306737237], [-72.32333303480186, 42.149052885081005], [-72.32272490853859, 42.14942077069407], [-72.32206892491367, 42.149276918588235], [-72.3213490685434, 42.148637199026645], [-72.3201969500546, 42.1467012376372], [-72.31843690448109, 42.14612521123477], [-72.31821298430044, 42.146205032961355], [-72.31722102536789, 42.14758120982813], [-72.31555708444824, 42.147980782034125], [-72.31501304815428, 42.14764476749341], [-72.31370099620413, 42.146061018033905], [-72.3137009354504, 42.143932801634584], [-72.31232499435015, 42.14319695925205], [-72.31114105815494, 42.14316482866313], [-72.30824499785645, 42.14449305571853], [-72.307557026123, 42.144621136965185], [-72.30555708163627, 42.14425312745549], [-72.30382891484074, 42.144237125034024], [-72.30184508149529, 42.143885252402356], [-72.29886891833948, 42.14434889345117], [-72.29621299364119, 42.143853047738716], [-72.29003608200793, 42.141644908096005], [-72.28761994272108, 42.14134078720257], [-72.28593991843238, 42.140396820147764], [-72.28565203883645, 42.140397110378], [-72.28270806210357, 42.14049321755057], [-72.2825959208037, 42.14076521493608], [-72.28203607530824, 42.14086076460803], [-72.28150798219589, 42.14130891654223], [-72.28096394498316, 42.14281283885069], [-72.28062806276218, 42.14324504577096], [-72.28010003756731, 42.14351705432175], [-72.27918802861143, 42.14367688561031], [-72.27731595580902, 42.14346901144457], [-72.27509202878038, 42.144045100932516], [-72.2743399907738, 42.1438532323012], [-72.2735239912269, 42.134302062336346], [-72.27253098525532, 42.125094193574114], [-72.26979593535441, 42.09247016632723], [-72.2705998421912, 42.03163569480841], [-72.37452915946311, 42.03272746673248], [-72.45837321558274, 42.03421619084592], [-72.50924336264693, 42.034286915758074], [-72.53162461565645, 42.03448459099004], [-72.57276987467256, 42.03020519617161], [-72.58212395977515, 42.0247169333424], [-72.60688344815667, 42.02515926908511], [-72.6079585174247, 42.03079722463557], [-72.60753299078948, 42.04329502043719], [-72.60583296110224, 42.04899526034578], [-72.58923299477779, 42.071994231785006], [-72.5834360223556, 42.07830194237064], [-72.58283211316109, 42.08149393358851]]]}}