{"type": "Feature", "properties": {"district_name": "10th Essex District", "chamber": "house", "vintage": "2012-2020"}, "geometry": {"type": "Polygon", "coordinates": [[[-70.987471, 42.488042000000014], [-70.98707399999999, 42.48847800000001], [-70.985905, 42.48917300000001], [-70.985541, 42.49051400000002], [-70.984281, 42.49222800000002], [-70.98304999999999, 42.492435], [-70.980316, 42.49250299999998], [-70.979643, 42.492791999999994], [-70.978438, 42.49287300000001], [-70.977997, 42.49311999999998], [-70.976709, 42.492796], [-70.974674, 42.491658], [-70.975064, 42.49118], [-70.974594, 42.48989499999999], [-70.97435399999999, 42.489852], [-70.971734, 42.491240000000005], [-70.96575299999999, 42.48826999999999], [-70.964147, 42.48727299999999], [-70.962701, 42.48684599999999], [-70.962132, 42.487615999999996], [-70.961675, 42.487255], [-70.960601, 42.486954000000004], [-70.96060899999999, 42.487336000000006], [-70.96115, 42.48775500000001], [-70.961544, 42.488653000000006], [-70.962563, 42.48901599999999], [-70.96184699999999, 42.49031], [-70.962051, 42.490429000000006], [-70.961745, 42.49087999999999], [-70.962139, 42.491009], [-70.963427, 42.49067799999998], [-70.965076, 42.490881999999985], [-70.96341699999999, 42.49446399999999], [-70.96321499999999, 42.494500999999985], [-70.963281, 42.49475699999999], [-70.96279299999999, 42.495811999999994], [-70.960315, 42.497459], [-70.960079, 42.49726099999998], [-70.959531, 42.497834], [-70.95714, 42.496528000000005], [-70.933987, 42.49080999999999], [-70.922974, 42.468751000000005], [-70.92415299999999, 42.46792399999999], [-70.92510899999999, 42.46695599999999], [-70.926088, 42.466821], [-70.926238, 42.467314], [-70.92738299999999, 42.469163], [-70.930493, 42.467495], [-70.93213899999999, 42.469209000000006], [-70.934472, 42.468199], [-70.935037, 42.468696], [-70.93657999999999, 42.46842899999999], [-70.936926, 42.469041999999995], [-70.939004, 42.46800099999999], [-70.937838, 42.46661099999999], [-70.939825, 42.465680000000006], [-70.94028, 42.46602699999998], [-70.94092599999999, 42.46555000000001], [-70.94114900000001, 42.465531], [-70.94139899999999, 42.46584199999999], [-70.942173, 42.46498399999999], [-70.94312699999999, 42.465404000000014], [-70.9452, 42.465620000000015], [-70.946268, 42.46415100000002], [-70.948505, 42.464410999999984], [-70.950437, 42.464382], [-70.95255999999999, 42.46427999999999], [-70.955332, 42.46379699999999], [-70.960307, 42.463572], [-70.96102599999999, 42.464797], [-70.962204, 42.464428], [-70.962671, 42.46499699999999], [-70.96165599999999, 42.465846], [-70.962773, 42.467505], [-70.960034, 42.469975], [-70.959035, 42.47111100000001], [-70.955242, 42.46877400000001], [-70.95434, 42.47032300000002], [-70.955203, 42.47117000000001], [-70.952319, 42.473653000000006], [-70.95227299999999, 42.47489100000001], [-70.952086, 42.47541299999999], [-70.95716399999999, 42.47710999999999], [-70.956364, 42.478468], [-70.957101, 42.478247], [-70.95615699999999, 42.479637999999994], [-70.956963, 42.480245000000004], [-70.95716399999999, 42.480046999999985], [-70.961388, 42.482173], [-70.96218499999999, 42.482738], [-70.963394, 42.48229499999999], [-70.963602, 42.48265600000001], [-70.96403, 42.482779999999984], [-70.965103, 42.481498], [-70.967328, 42.480253], [-70.969334, 42.48240699999998], [-70.969548, 42.48283], [-70.969165, 42.48351999999999], [-70.969383, 42.483739000000014], [-70.97045299999999, 42.48399800000001], [-70.971938, 42.483996000000005], [-70.973642, 42.483594], [-70.974823, 42.483036000000006], [-70.975184, 42.482796], [-70.975319, 42.48235199999999], [-70.97621, 42.481173000000005], [-70.977503, 42.48002100000001], [-70.978794, 42.479434999999974], [-70.97971, 42.47936500000001], [-70.980479, 42.480186], [-70.980987, 42.48111900000001], [-70.981236, 42.48265200000001], [-70.982176, 42.482244], [-70.982188, 42.48208899999999], [-70.98254399999999, 42.481924], [-70.981849, 42.483379999999975], [-70.981799, 42.483823], [-70.981928, 42.483956000000006], [-70.982959, 42.483992], [-70.983488, 42.48350999999999], [-70.98610099999999, 42.48350399999999], [-70.985837, 42.484542999999995], [-70.986601, 42.48529799999999], [-70.986981, 42.48605099999999], [-70.98700699999999, 42.48675599999999], [-70.987456, 42.48741499999999], [-70.987471, 42.488042000000014]]]}}