{"type": "Feature", "properties": {"district_name": "1st Plymouth District", "chamber": "house", "vintage": "2022-present"}, "geometry": {"type": "Polygon", "coordinates": [[[-70.751154, 41.92714100000001], [-70.748164, 41.92745899999999], [-70.745348, 41.92829], [-70.741992, 41.928568], [-70.737347, 41.930930999999994], [-70.736242, 41.931281], [-70.734869, 41.931335000000026], [-70.732102, 41.93095099999999], [-70.729212, 41.931465], [-70.726928, 41.93291399999999], [-70.7213, 41.93579900000002], [-70.716422, 41.93910899999999], [-70.711233, 41.942265000000006], [-70.706672, 41.931414999999994], [-70.7051, 41.93322500000001], [-70.702794, 41.934516], [-70.702835, 41.931381], [-70.702327, 41.93098199999998], [-70.697288, 41.930602], [-70.695781, 41.930845000000005], [-70.693353, 41.930646], [-70.689155, 41.93107499999999], [-70.688258, 41.930824], [-70.687435, 41.931844000000005], [-70.687312, 41.932263], [-70.687031, 41.93229899999999], [-70.68682, 41.93266200000001], [-70.685792, 41.93227900000001], [-70.685504, 41.93193000000001], [-70.685177, 41.93182900000001], [-70.687099, 41.93571299999999], [-70.686965, 41.935922999999995], [-70.687096, 41.93689599999999], [-70.686817, 41.937475000000006], [-70.686208, 41.93770599999999], [-70.68528, 41.93848500000001], [-70.681621, 41.93874400000001], [-70.680973, 41.939096999999975], [-70.680126, 41.93992099999999], [-70.680053, 41.94042699999999], [-70.679658, 41.941170000000014], [-70.678779, 41.94207399999999], [-70.678248, 41.942239], [-70.677959, 41.94195799999999], [-70.67777800000002, 41.941458000000004], [-70.677431, 41.941229], [-70.674783, 41.941308], [-70.674362, 41.942685], [-70.675176, 41.943796000000006], [-70.675136, 41.94450200000001], [-70.669164, 41.94037200000001], [-70.666841, 41.93901000000002], [-70.666086, 41.93921799999999], [-70.666531, 41.940392], [-70.665831, 41.940996000000005], [-70.665701, 41.94137099999999], [-70.665786, 41.941677], [-70.664869, 41.94206299999998], [-70.664952, 41.942572], [-70.664315, 41.943318999999995], [-70.661533, 41.94493600000003], [-70.661231, 41.94523999999999], [-70.661224, 41.945626000000004], [-70.660165, 41.944255], [-70.65841100000002, 41.942816999999984], [-70.657776, 41.942032], [-70.656758, 41.94237000000001], [-70.656087, 41.94276100000001], [-70.653904, 41.94525699999999], [-70.653423, 41.94646000000001], [-70.653766, 41.947552], [-70.653621, 41.948346], [-70.652764, 41.94942700000001], [-70.650954, 41.948746000000014], [-70.645804, 41.947969999999984], [-70.645307, 41.94957699999999], [-70.647127, 41.949690000000004], [-70.649866, 41.950192], [-70.650115, 41.950449], [-70.649563, 41.950734], [-70.649646, 41.95097999999998], [-70.650329, 41.95148000000001], [-70.64684400000002, 41.95440000000001], [-70.643284, 41.956824], [-70.643708, 41.956816999999994], [-70.646982, 41.96251699999999], [-70.648822, 41.966165000000004], [-70.652911, 41.969204999999995], [-70.654522, 41.97608699999999], [-70.652197, 41.977166999999994], [-70.652723, 41.978635], [-70.652671, 41.979115000000014], [-70.652069, 41.979240999999995], [-70.651268, 41.97897499999999], [-70.650131, 41.977739], [-70.62011, 41.990193], [-70.603552, 42.001124], [-70.59563400000002, 42.003145], [-70.594365, 42.003261], [-70.59129, 41.999761000000014], [-70.579026, 41.993208], [-70.569636, 41.985088], [-70.559478, 41.97582800000001], [-70.552005, 41.966852999999986], [-70.53964, 41.94796500000001], [-70.534267, 41.94105800000002], [-70.528504, 41.93211200000002], [-70.522863, 41.92248500000001], [-70.520588, 41.917275000000004], [-70.518871, 41.91177799999999], [-70.517669, 41.90366099999999], [-70.517068, 41.89611900000001], [-70.516638, 41.88736200000001], [-70.516381, 41.87510499999999], [-70.516363, 41.85803699999999], [-70.520343, 41.837859], [-70.525164, 41.821523], [-70.537401, 41.810761], [-70.565281, 41.786705000000005], [-70.602939, 41.774696000000006], [-70.632568, 41.762898000000014], [-70.632629, 41.763504000000005], [-70.632877, 41.763859], [-70.633791, 41.76463899999999], [-70.633968, 41.76506899999997], [-70.634572, 41.765375], [-70.634641, 41.766262], [-70.635543, 41.76705299999998], [-70.635886, 41.76853], [-70.63631, 41.768958999999995], [-70.636007, 41.769823], [-70.635371, 41.77018499999999], [-70.634439, 41.770424], [-70.633483, 41.77104600000002], [-70.633016, 41.77174900000001], [-70.633054, 41.77244699999999], [-70.630433, 41.77378800000002], [-70.63008, 41.774486], [-70.630279, 41.774686], [-70.630194, 41.775338], [-70.630908, 41.77662699999998], [-70.63075, 41.777143], [-70.629457, 41.77779100000001], [-70.629058, 41.779397999999986], [-70.629408, 41.77996999999998], [-70.630424, 41.780273999999984], [-70.630453, 41.780617], [-70.630804, 41.781155000000005], [-70.63075, 41.781612999999986], [-70.630971, 41.78203599999999], [-70.630534, 41.783111], [-70.630718, 41.78389200000001], [-70.630578, 41.78429400000001], [-70.629828, 41.78503200000001], [-70.630042, 41.785598], [-70.630515, 41.785867], [-70.630735, 41.786588], [-70.630636, 41.78688], [-70.63018, 41.78717499999999], [-70.629093, 41.786998000000004], [-70.628123, 41.787048], [-70.627395, 41.787342], [-70.627312, 41.787843], [-70.616634, 41.805410000000016], [-70.631892, 41.80633], [-70.717536, 41.80150999999999], [-70.717837, 41.802133], [-70.717641, 41.80242499999999], [-70.717788, 41.80290499999998], [-70.717666, 41.80313900000001], [-70.717849, 41.80356799999999], [-70.71777300000001, 41.80381400000001], [-70.716925, 41.804083000000006], [-70.716849, 41.804317000000005], [-70.717608, 41.805408], [-70.71778, 41.80587899999999], [-70.71777300000001, 41.80652500000001], [-70.71742100000002, 41.807846000000005], [-70.71658, 41.808486000000016], [-70.717192, 41.809399000000006], [-70.717225, 41.80985799999999], [-70.71633, 41.811251000000006], [-70.715912, 41.812231], [-70.715252, 41.81286599999998], [-70.715834, 41.81388599999999], [-70.715518, 41.814457], [-70.71586, 41.81476299999999], [-70.715898, 41.81503199999999], [-70.71538400000001, 41.81530799999999], [-70.71512600000001, 41.816095999999995], [-70.714509, 41.816525], [-70.71476, 41.816697], [-70.714855, 41.817139], [-70.715094, 41.81739699999999], [-70.714664, 41.81767500000001], [-70.714455, 41.818296000000004], [-70.714155, 41.81832200000001], [-70.713733, 41.818697999999976], [-70.713677, 41.81896199999999], [-70.71308500000002, 41.81907599999999], [-70.713056, 41.819292999999995], [-70.712796, 41.819413000000004], [-70.712788, 41.819662000000015], [-70.71247, 41.819872999999994], [-70.712629, 41.82017000000001], [-70.711873, 41.82074000000002], [-70.711309, 41.82156899999999], [-70.710205, 41.822376], [-70.709785, 41.822965], [-70.709319, 41.823183], [-70.708555, 41.82392599999999], [-70.708229, 41.824752000000004], [-70.708284, 41.82524200000002], [-70.707867, 41.825784], [-70.708287, 41.82683200000001], [-70.707499, 41.827357], [-70.706869, 41.82850400000001], [-70.706359, 41.82906400000001], [-70.705433, 41.829412999999995], [-70.703912, 41.829288000000005], [-70.701758, 41.828751], [-70.700711, 41.828714], [-70.699869, 41.829003000000014], [-70.699986, 41.829517], [-70.699726, 41.829722], [-70.699068, 41.829544000000006], [-70.69840400000001, 41.829676], [-70.69757, 41.82940099999998], [-70.697318, 41.829481], [-70.697287, 41.829840999999995], [-70.697547, 41.830324999999995], [-70.697274, 41.830908], [-70.696503, 41.83130000000001], [-70.696093, 41.831888000000006], [-70.695682, 41.83201499999999], [-70.695643, 41.832349000000015], [-70.695261, 41.83262400000002], [-70.694834, 41.833869000000014], [-70.694818, 41.83450200000001], [-70.694542, 41.83469899999998], [-70.694192, 41.835607], [-70.693733, 41.836261000000015], [-70.692503, 41.836706], [-70.690928, 41.83806499999999], [-70.689827, 41.838232999999995], [-70.689703, 41.839690000000004], [-70.689502, 41.840091], [-70.687926, 41.841232999999995], [-70.685402, 41.843579], [-70.683788, 41.844801999999994], [-70.682837, 41.84537100000001], [-70.682197, 41.845550999999986], [-70.680699, 41.845587], [-70.750718, 41.92601900000002], [-70.751154, 41.92714100000001]]]}}