{"type": "Feature", "properties": {"district_name": "10th Hampden District", "chamber": "house", "vintage": "2012-2020"}, "geometry": {"type": "Polygon", "coordinates": [[[-72.62213100000001, 42.121424000000005], [-72.621481, 42.123788000000005], [-72.608279, 42.12921599999999], [-72.608148, 42.126947], [-72.60752099999999, 42.12296099999999], [-72.60540499999999, 42.12138499999999], [-72.605302, 42.12084199999999], [-72.60458899999999, 42.119445000000006], [-72.603055, 42.117991], [-72.601263, 42.11929499999998], [-72.599637, 42.117898000000004], [-72.59802599999999, 42.119049000000004], [-72.59646699999999, 42.117776000000006], [-72.595061, 42.118897], [-72.59455899999999, 42.118930999999996], [-72.5939, 42.11954800000001], [-72.58859700000001, 42.12199499999999], [-72.585786, 42.120118000000005], [-72.58427, 42.120777000000004], [-72.584249, 42.122358], [-72.583849, 42.12239400000001], [-72.58353, 42.122626], [-72.5796, 42.120001], [-72.583636, 42.11849000000001], [-72.58279300000001, 42.117549999999994], [-72.582187, 42.115821], [-72.57853899999999, 42.11263100000001], [-72.578431, 42.112111000000006], [-72.578816, 42.110461], [-72.577035, 42.108074], [-72.582199, 42.104905], [-72.58151699999999, 42.10426000000001], [-72.58402699999999, 42.10225199999999], [-72.58239499999999, 42.10199899999999], [-72.58161299999999, 42.10149299999999], [-72.578623, 42.104109], [-72.577789, 42.103663], [-72.57692999999999, 42.10411], [-72.576576, 42.103570000000005], [-72.576814, 42.10330000000001], [-72.580235, 42.100522], [-72.57849399999999, 42.099501], [-72.57568100000002, 42.099754000000004], [-72.574934, 42.09962500000001], [-72.57334, 42.100069999999995], [-72.571213, 42.101566], [-72.57164999999999, 42.10225499999999], [-72.571884, 42.103261], [-72.57109299999999, 42.10391800000001], [-72.564819, 42.099650999999994], [-72.564273, 42.099033999999996], [-72.563617, 42.09711399999998], [-72.56324, 42.096692], [-72.561238, 42.096509999999995], [-72.555475, 42.094483], [-72.552669, 42.09359199999999], [-72.551186, 42.09328899999999], [-72.551316, 42.09311899999999], [-72.551084, 42.09162400000002], [-72.552629, 42.091315000000016], [-72.555302, 42.089382], [-72.556378, 42.089164999999994], [-72.555998, 42.08805599999997], [-72.557099, 42.087832], [-72.556604, 42.08643800000001], [-72.557763, 42.086267], [-72.547879, 42.08433200000001], [-72.54745, 42.08213799999999], [-72.546171, 42.082244], [-72.545827, 42.08047699999999], [-72.54753699999999, 42.08027899999998], [-72.546942, 42.079683999999986], [-72.546799, 42.07884], [-72.547337, 42.078435], [-72.546036, 42.07714199999999], [-72.548305, 42.07597399999998], [-72.552533, 42.080188], [-72.551808, 42.080602], [-72.553568, 42.08233399999999], [-72.552602, 42.082522000000004], [-72.55548999999999, 42.085388], [-72.556394, 42.084898], [-72.555272, 42.08377899999999], [-72.55605299999999, 42.08341899999999], [-72.55788000000001, 42.08299], [-72.55827599999999, 42.082702], [-72.559167, 42.07811799999999], [-72.55892899999999, 42.077023000000004], [-72.558432, 42.076695], [-72.55736, 42.076867], [-72.556854, 42.07675499999999], [-72.556454, 42.076557], [-72.556065, 42.075830999999994], [-72.555782, 42.075613000000004], [-72.55480299999999, 42.075601], [-72.551779, 42.074418000000016], [-72.551046, 42.07360200000001], [-72.55086299999999, 42.07296199999998], [-72.551006, 42.072370000000014], [-72.551429, 42.071850000000005], [-72.554115, 42.07040100000001], [-72.554903, 42.069711000000005], [-72.555253, 42.068971000000005], [-72.55552899999999, 42.066734999999994], [-72.58720199999999, 42.07174200000001], [-72.589401, 42.07226799999999], [-72.588681, 42.073383], [-72.58690299999999, 42.07525999999999], [-72.584115, 42.077563999999995], [-72.583437, 42.07830199999999], [-72.58267099999999, 42.079518], [-72.58253500000001, 42.080686], [-72.58269299999999, 42.081557999999994], [-72.58411199999999, 42.08699699999999], [-72.585732, 42.08989599999999], [-72.588531, 42.09324399999999], [-72.592636, 42.097436999999985], [-72.596321, 42.100039], [-72.598417, 42.101253], [-72.6018, 42.102823], [-72.608736, 42.105467000000004], [-72.610597, 42.10638900000001], [-72.61486599999999, 42.109246999999996], [-72.6157, 42.11001000000001], [-72.620554, 42.11571], [-72.620946, 42.116381], [-72.62198699999999, 42.119718], [-72.62213100000001, 42.121424000000005]]]}}