{"type": "Feature", "properties": {"district_name": "5th Norfolk District", "chamber": "house", "vintage": "2012-2020"}, "geometry": {"type": "Polygon", "coordinates": [[[-71.049509, 42.206778], [-71.04793699999999, 42.20635999999999], [-71.046815, 42.20645299999999], [-71.04592199999999, 42.206342], [-71.044883, 42.206583], [-71.044938, 42.215384], [-71.033068, 42.227813000000005], [-71.01079, 42.228667999999985], [-71.00216999999999, 42.232208], [-70.981105, 42.235749000000006], [-70.98061400000002, 42.23558200000001], [-70.980404, 42.23532], [-70.980156, 42.23543799999998], [-70.979737, 42.23647599999999], [-70.97896, 42.23711699999999], [-70.97838899999999, 42.237925], [-70.977817, 42.23827099999999], [-70.97713, 42.238415], [-70.976226, 42.23815799999999], [-70.97567699999999, 42.23775399999999], [-70.975668, 42.237258], [-70.973018, 42.237098999999986], [-70.967991, 42.237998999999995], [-70.96049099999999, 42.23509899999997], [-70.960191, 42.23129899999999], [-70.96038399999999, 42.22871499999999], [-70.960596, 42.228539000000005], [-70.960891, 42.226899], [-70.962891, 42.225499], [-70.963728, 42.224694000000014], [-70.964283, 42.224585], [-70.96614400000001, 42.223576], [-70.96665899999999, 42.223566999999996], [-70.967022, 42.223353], [-70.968066, 42.22169], [-70.96801599999999, 42.221201], [-70.96768399999999, 42.22066199999997], [-70.9687, 42.219877999999994], [-70.976565, 42.16833099999999], [-71.007024, 42.16840499999999], [-71.00679, 42.167500000000004], [-71.006841, 42.163689999999974], [-71.00626, 42.160759999999996], [-71.0046, 42.16074000000001], [-71.00470899999999, 42.156113999999995], [-71.003221, 42.156008], [-71.00352, 42.15477], [-71.00855, 42.15479], [-71.00826, 42.150999999999975], [-71.00868, 42.14866999999999], [-71.0087, 42.145739999999996], [-71.00935, 42.14573], [-71.01133999999999, 42.145269999999975], [-71.01301, 42.145330000000016], [-71.01274, 42.146739999999994], [-71.01281999999999, 42.14693], [-71.016896, 42.147336], [-71.016864, 42.14763500000001], [-71.01718, 42.14771], [-71.01714, 42.14812], [-71.01804, 42.148249999999976], [-71.01841999999999, 42.14861000000001], [-71.01832, 42.14901], [-71.01788, 42.14927999999999], [-71.01848, 42.14930999999999], [-71.01890999999999, 42.14912], [-71.019767, 42.147983], [-71.020237, 42.14903], [-71.020869, 42.149352], [-71.02357599999999, 42.149758999999996], [-71.02508399999999, 42.150209], [-71.025578, 42.150597000000005], [-71.025781, 42.15112500000001], [-71.026522, 42.151967000000006], [-71.02651, 42.152508000000005], [-71.026726, 42.152950000000004], [-71.026544, 42.153475], [-71.025548, 42.15420000000001], [-71.026461, 42.155431], [-71.02611499999999, 42.15735099999999], [-71.026286, 42.15758199999999], [-71.026911, 42.15778399999999], [-71.027875, 42.155431], [-71.02884999999999, 42.155609999999996], [-71.03050999999999, 42.156650000000006], [-71.032596, 42.157502], [-71.033442, 42.155758], [-71.033903, 42.155483999999994], [-71.033932, 42.155245], [-71.03425399999999, 42.15514], [-71.03464, 42.15534499999999], [-71.035377, 42.15527600000001], [-71.0374, 42.15739000000001], [-71.03878999999999, 42.15854999999999], [-71.04030999999999, 42.161970000000004], [-71.04146999999999, 42.16269], [-71.044356, 42.167336], [-71.042669, 42.168837999999994], [-71.04063, 42.16903], [-71.04025, 42.16904], [-71.04023, 42.16811], [-71.04044, 42.167739999999995], [-71.03815000000002, 42.16789000000001], [-71.03743, 42.16866999999999], [-71.03651, 42.16846], [-71.035962, 42.16917800000001], [-71.035747, 42.168703], [-71.035207, 42.16828100000001], [-71.034375, 42.168012000000004], [-71.032636, 42.167786], [-71.031283, 42.16785499999999], [-71.030057, 42.16878599999998], [-71.026799, 42.169158999999986], [-71.026063, 42.169549999999994], [-71.024541, 42.169654], [-71.023404, 42.17003400000002], [-71.02282199999999, 42.170643000000005], [-71.022346, 42.17065600000001], [-71.02122, 42.173477], [-71.02153899999999, 42.17409699999999], [-71.020859, 42.17502699999999], [-71.02116099999999, 42.17617500000001], [-71.020574, 42.176565], [-71.020637, 42.17743299999999], [-71.019993, 42.17782599999999], [-71.01999599999999, 42.178398], [-71.01970399999999, 42.178546999999995], [-71.019753, 42.17903700000002], [-71.020124, 42.17953000000001], [-71.019987, 42.18003200000001], [-71.02019899999999, 42.18095199999998], [-71.01983899999999, 42.18125500000001], [-71.019964, 42.181721], [-71.019796, 42.18207600000001], [-71.019845, 42.18257899999998], [-71.019279, 42.183313999999996], [-71.019224, 42.18353199999999], [-71.01938299999999, 42.183671999999994], [-71.018985, 42.183997999999995], [-71.019423, 42.184626], [-71.019594, 42.18519099999999], [-71.019582, 42.185802999999986], [-71.01912999999999, 42.186851000000004], [-71.02964, 42.19151], [-71.047271, 42.194592], [-71.049509, 42.206778]]]}}