{"type": "Feature", "properties": {"district_name": "12th Hampden", "chamber": "house", "vintage": "2001-2010"}, "geometry": {"type": "Polygon", "coordinates": [[[-72.39528798949772, 42.18476479414227], [-72.3806470093392, 42.10979015224629], [-72.38050297841086, 42.108238124527944], [-72.37946295722327, 42.10302172672129], [-72.4146320780833, 42.09921400584656], [-72.4177521100981, 42.09156625478003], [-72.4183440305231, 42.09041408993842], [-72.41877587795638, 42.09030202263526], [-72.46509702202006, 42.085182175508415], [-72.47002894949436, 42.084493917544435], [-72.47112906376188, 42.089293754031765], [-72.4732291009892, 42.08899398828933], [-72.47542898972632, 42.088894235463435], [-72.48623011321298, 42.087493910784886], [-72.48753007519488, 42.0871940259787], [-72.49082998243875, 42.08699387864597], [-72.4904299950951, 42.08409416845739], [-72.48683004488728, 42.07939486004909], [-72.4897300204302, 42.07749477644411], [-72.49732996671705, 42.07359486281146], [-72.49833002781774, 42.072694763565366], [-72.49498593257336, 42.065230978529236], [-72.49332995039855, 42.05319480099598], [-72.49993011807801, 42.05569498554588], [-72.50423001922977, 42.05429493931474], [-72.51122997788043, 42.053595150270866], [-72.5121299819176, 42.06089498451969], [-72.51285792444342, 42.064127128902555], [-72.51360989261251, 42.064031000704624], [-72.51673006521867, 42.06289472277639], [-72.51703003822554, 42.06559491082866], [-72.51893002332723, 42.0693951073121], [-72.52143086566316, 42.07179486757331], [-72.52203104343324, 42.071694969928885], [-72.52313110164275, 42.07099521983241], [-72.52503103121747, 42.0686951670531], [-72.52623104505192, 42.0676951111715], [-72.52855491876818, 42.0663349222008], [-72.52893099627671, 42.06529496703141], [-72.52893103603016, 42.06289486561656], [-72.52983096233541, 42.06059527537695], [-72.53053097534976, 42.05929521951956], [-72.53562696346083, 42.05777482886474], [-72.53683100619402, 42.06359509587668], [-72.54133098866551, 42.06419521662567], [-72.5434310250641, 42.06469494360818], [-72.552090981293, 42.06606305644306], [-72.55553209540918, 42.06649507941556], [-72.55523204190148, 42.06899418898031], [-72.55463201777461, 42.0700942555407], [-72.55243097643678, 42.071294027978304], [-72.5515309208486, 42.07369396855225], [-72.5481308775908, 42.07399414085871], [-72.54823111140053, 42.07519412161812], [-72.54903101722773, 42.075594222266616], [-72.54873103916368, 42.07579393148218], [-72.55293201193484, 42.07999396977649], [-72.5521320117114, 42.08049373085188], [-72.55383200934594, 42.082193901703775], [-72.5529319362776, 42.08239408319173], [-72.55593202574117, 42.085593793441106], [-72.54843101039265, 42.084294127649144], [-72.54783102364166, 42.081994059780754], [-72.54543093586297, 42.08219382701413], [-72.5446990245034, 42.08370978804548], [-72.54203101230043, 42.08229403361419], [-72.54233102710322, 42.08049389742684], [-72.54223111631583, 42.08019374322486], [-72.540130860997, 42.08029387806142], [-72.54033098143165, 42.08129374450525], [-72.53963100079856, 42.08099396986612], [-72.53743102529, 42.08119400326961], [-72.53793100328033, 42.08349390353851], [-72.5441310679593, 42.087694127941965], [-72.54483100056416, 42.08859376116688], [-72.54233103147975, 42.08909375187123], [-72.54263099565009, 42.091793883101936], [-72.5457309952192, 42.09209425809643], [-72.54383107725293, 42.09379419549313], [-72.54193103468559, 42.09489421692967], [-72.54113097976804, 42.095194119785724], [-72.54173097378263, 42.09899393171982], [-72.54043096543195, 42.09939404179], [-72.53843100518064, 42.09969412278602], [-72.53763097040809, 42.10169404934305], [-72.53743096672571, 42.10259399782352], [-72.5377309846339, 42.1039941916487], [-72.53893111374371, 42.104694059595005], [-72.54213096438629, 42.104894021368665], [-72.54553094160995, 42.10469421269692], [-72.5464308935815, 42.105194155231636], [-72.54643100142845, 42.10569386977768], [-72.54383095239105, 42.105794127634496], [-72.54253103706257, 42.107893740803306], [-72.53393109869906, 42.10769425641229], [-72.53258701113947, 42.10562986506308], [-72.52949901623428, 42.10369426220408], [-72.52493096934428, 42.103994092242814], [-72.5221310086683, 42.10459423503222], [-72.52163099945001, 42.10369380881105], [-72.51913113103981, 42.103694128646744], [-72.51162999844892, 42.104493883167734], [-72.50922995811173, 42.10499394329634], [-72.5076299833123, 42.10689377502256], [-72.50203006217659, 42.114893832796625], [-72.49912999372845, 42.115293947079444], [-72.49862993387151, 42.1149938705795], [-72.49833011655004, 42.11319402889694], [-72.49892995777643, 42.11169416651647], [-72.49913000632672, 42.110094244404316], [-72.4984301137895, 42.108593900364255], [-72.49292998280549, 42.10929391985423], [-72.4931299821782, 42.11059380380553], [-72.49093003464046, 42.11069389060727], [-72.48983003096755, 42.110293728128994], [-72.48942995827598, 42.109894264277806], [-72.48872998869098, 42.10749404108703], [-72.48822996737728, 42.10659403173949], [-72.48708204112394, 42.10604626126145], [-72.48599394991683, 42.105165939926046], [-72.48501613876002, 42.10533923994413], [-72.48421796772554, 42.104877903485196], [-72.4814290496595, 42.101193950821596], [-72.48004098502871, 42.09366176915001], [-72.47930497831805, 42.09371027547314], [-72.47831302772201, 42.09342218637896], [-72.47644107991081, 42.09329410218741], [-72.4756250373341, 42.093518274352114], [-72.47439299501077, 42.09348599606099], [-72.47383298114295, 42.09331012532444], [-72.47287296178767, 42.0934702244683], [-72.47183300675844, 42.0931340918719], [-72.47362903282928, 42.10299375577941], [-72.47648903413457, 42.11654206314919], [-72.4815298900161, 42.141693216500464], [-72.48232995287432, 42.14636493523653], [-72.48273001958259, 42.14769293461337], [-72.4845300079409, 42.15659288358295], [-72.48440804991363, 42.15665413895087], [-72.47832997689183, 42.1537929092849], [-72.47481191669193, 42.153923048307526], [-72.47323008145972, 42.15379298836448], [-72.47075411070928, 42.153270951282686], [-72.4660069634649, 42.15315292401912], [-72.46385602877379, 42.153293148318745], [-72.45896197234464, 42.154681934781586], [-72.45421502681116, 42.15523588523806], [-72.45261907866484, 42.155178822523375], [-72.44941497487868, 42.15356616544006], [-72.44474299843884, 42.154120228252225], [-72.44160397314529, 42.15555795182188], [-72.43651104439095, 42.15657600549056], [-72.43609100438417, 42.15662614742217], [-72.43092002487892, 42.155596820457035], [-72.42833296708291, 42.15654686261978], [-72.4231330118605, 42.15702497540845], [-72.42064098405113, 42.1574147248022], [-72.41329400753233, 42.1534117214146], [-72.4127329788261, 42.1532749497561], [-72.40949600988942, 42.15400014578737], [-72.40926899179279, 42.15736875291852], [-72.4103699705047, 42.16064296850372], [-72.41040196403223, 42.161153103865175], [-72.41012202732863, 42.16224814343024], [-72.41190198213746, 42.16767219583161], [-72.4108010194916, 42.16915585901758], [-72.40993302120015, 42.17404327408864], [-72.41200994261429, 42.17549323857546], [-72.41138396792473, 42.17668726070562], [-72.40951194266376, 42.17828506798429], [-72.40789611409161, 42.17862087708765], [-72.4054318565964, 42.17956492353367], [-72.40248807803191, 42.18106922180665], [-72.39999200580651, 42.18210905418349], [-72.39759204289874, 42.18270128484558], [-72.39528798949772, 42.18476479414227]]]}}