{"type": "Feature", "properties": {"district_name": "12th Norfolk District", "chamber": "house", "vintage": "2022-present"}, "geometry": {"type": "Polygon", "coordinates": [[[-71.303566, 42.148693], [-71.303751, 42.14949999999999], [-71.275025, 42.148622999999986], [-71.275584, 42.177198000000004], [-71.274618, 42.17659900000002], [-71.27422, 42.176533], [-71.26776, 42.176550000000006], [-71.26545, 42.176899999999996], [-71.263358, 42.17675799999999], [-71.265401, 42.176798000000005], [-71.26495, 42.175889999999995], [-71.26444, 42.175459999999994], [-71.25871, 42.17544000000001], [-71.257743, 42.174073], [-71.257794, 42.17357700000001], [-71.257466, 42.171918], [-71.256874, 42.171182], [-71.256338, 42.170936000000005], [-71.255286, 42.17006000000001], [-71.254296, 42.170421999999995], [-71.253422, 42.170336000000006], [-71.252531, 42.16998800000001], [-71.252281, 42.170097], [-71.252215, 42.169738], [-71.251992, 42.16966399999999], [-71.25225, 42.16703], [-71.246473, 42.164749], [-71.23963, 42.160880000000006], [-71.23867, 42.16162000000002], [-71.23658, 42.162659999999995], [-71.233281, 42.165088999999995], [-71.231199, 42.166169], [-71.229013, 42.16790500000002], [-71.226106, 42.17180100000002], [-71.233561, 42.181328000000015], [-71.234189, 42.181398], [-71.234508, 42.181174000000006], [-71.235367, 42.18104], [-71.236152, 42.18140699999999], [-71.236768, 42.18128999999999], [-71.237272, 42.18234200000001], [-71.238343, 42.182791000000016], [-71.210778, 42.208806], [-71.19816, 42.21347999999999], [-71.19624, 42.21390099999999], [-71.19185, 42.21375], [-71.18996000000001, 42.2136], [-71.185202, 42.212810000000005], [-71.178675, 42.21230099999999], [-71.163233, 42.202142], [-71.16216, 42.20124], [-71.154831, 42.19694200000001], [-71.15546, 42.19686200000001], [-71.156353, 42.19561], [-71.157626, 42.195292], [-71.158194, 42.19475299999999], [-71.158316, 42.19373499999998], [-71.159298, 42.19203300000001], [-71.160149, 42.19003799999998], [-71.16024, 42.188583], [-71.160415, 42.18829100000003], [-71.162311, 42.187236000000006], [-71.162692, 42.18721600000001], [-71.163269, 42.18771300000002], [-71.163602, 42.18766200000001], [-71.163871, 42.187377], [-71.163872, 42.18677899999999], [-71.16289, 42.18634400000001], [-71.162813, 42.185370999999996], [-71.162937, 42.184961], [-71.16374900000001, 42.184483], [-71.164547, 42.18362900000001], [-71.165347, 42.182415999999996], [-71.165271, 42.18207499999999], [-71.164317, 42.18180700000001], [-71.164045, 42.181586], [-71.164023, 42.181302], [-71.164283, 42.180886], [-71.164937, 42.18055800000001], [-71.165266, 42.18001600000001], [-71.166474, 42.17966], [-71.167368, 42.17973800000001], [-71.167852, 42.17940999999999], [-71.168001, 42.179097999999996], [-71.167708, 42.178817], [-71.166033, 42.178610000000006], [-71.166139, 42.178293], [-71.167136, 42.177763], [-71.166974, 42.17747700000002], [-71.163432, 42.176227999999995], [-71.163404, 42.175987], [-71.163642, 42.17580700000001], [-71.165191, 42.17549499999999], [-71.165462, 42.175143], [-71.165293, 42.17485200000001], [-71.163492, 42.174034000000006], [-71.163448, 42.173791000000016], [-71.163908, 42.17283200000001], [-71.167091, 42.172693], [-71.168313, 42.17293900000001], [-71.168749, 42.172315000000005], [-71.168812, 42.171933], [-71.167702, 42.170192], [-71.16714, 42.169681000000004], [-71.16726200000001, 42.16917699999999], [-71.168516, 42.16912299999998], [-71.169711, 42.16945700000001], [-71.170115, 42.168815999999985], [-71.170388, 42.168654], [-71.171758, 42.168411], [-71.171819, 42.168126], [-71.171573, 42.167470000000016], [-71.172089, 42.16724500000001], [-71.17267700000001, 42.167231], [-71.172995, 42.167703], [-71.173486, 42.16777200000001], [-71.173778, 42.16751599999999], [-71.173924, 42.16705499999998], [-71.173343, 42.166280000000015], [-71.173416, 42.166023], [-71.176251, 42.16594300000001], [-71.176345, 42.16571], [-71.17587, 42.165319], [-71.175724, 42.16497400000001], [-71.177044, 42.16513300000001], [-71.177159, 42.164948], [-71.177092, 42.16421399999999], [-71.177381, 42.16395000000001], [-71.177676, 42.163952], [-71.177889, 42.16419900000001], [-71.178135, 42.165045000000006], [-71.177899, 42.165567], [-71.178247, 42.16581299999998], [-71.179188, 42.16590299999999], [-71.17902, 42.16528299999999], [-71.179796, 42.164978000000005], [-71.180005, 42.165084], [-71.180182, 42.165496000000005], [-71.181313, 42.16552300000001], [-71.181753, 42.165141999999996], [-71.181712, 42.16475], [-71.182014, 42.16457199999999], [-71.182066, 42.164221999999995], [-71.182219, 42.164145999999995], [-71.182179, 42.163883], [-71.18253, 42.163722000000014], [-71.18280300000002, 42.16328699999999], [-71.183387, 42.16323800000002], [-71.183467, 42.163041], [-71.184323, 42.16249200000001], [-71.185032, 42.16245900000002], [-71.185833, 42.16216099999999], [-71.186607, 42.161486], [-71.187881, 42.161308000000005], [-71.188108, 42.16132499999998], [-71.188146, 42.16148900000001], [-71.188691, 42.161127000000015], [-71.186885, 42.153264000000014], [-71.215306, 42.14032599999999], [-71.21791, 42.140180000000015], [-71.218864, 42.140363], [-71.2213, 42.14184000000001], [-71.22333, 42.14274000000001], [-71.226038, 42.14445799999999], [-71.23510000000002, 42.14747999999999], [-71.23656, 42.14792], [-71.23987000000001, 42.14734000000001], [-71.24029, 42.14885], [-71.23991, 42.14872999999999], [-71.239639, 42.14884599999999], [-71.239271, 42.14940699999999], [-71.23906, 42.15049], [-71.24027, 42.15126999999997], [-71.23957, 42.153011], [-71.240018, 42.15375699999999], [-71.24123, 42.154259999999994], [-71.241633, 42.154711000000006], [-71.25607, 42.14646299999997], [-71.25437, 42.14534999999999], [-71.2538, 42.14476], [-71.25864, 42.13773], [-71.258388, 42.137525000000004], [-71.258094, 42.13604800000001], [-71.25704, 42.13428700000001], [-71.25429, 42.132110000000004], [-71.255549, 42.12934400000001], [-71.255601, 42.129181], [-71.255424, 42.12910399999999], [-71.255876, 42.12840800000001], [-71.257863, 42.126732999999994], [-71.262465, 42.123255], [-71.269585, 42.11929499999998], [-71.271429, 42.12098399999999], [-71.27328, 42.12205900000002], [-71.282526, 42.12923000000001], [-71.28394, 42.129250000000006], [-71.288352, 42.12986199999999], [-71.29266, 42.130010999999996], [-71.295013, 42.12822700000001], [-71.29894, 42.1265], [-71.29991200000002, 42.129408999999995], [-71.30176, 42.136634], [-71.302191, 42.136813], [-71.3017, 42.13720599999999], [-71.301379, 42.137194], [-71.301348, 42.13777300000002], [-71.300584, 42.138083], [-71.300665, 42.13830399999998], [-71.300347, 42.13847399999999], [-71.300323, 42.138658], [-71.299748, 42.138501000000005], [-71.299597, 42.13881700000001], [-71.299194, 42.138795], [-71.299031, 42.138948], [-71.299215, 42.139785], [-71.298947, 42.140420000000006], [-71.299768, 42.140936], [-71.299724, 42.141226], [-71.299416, 42.14141399999998], [-71.299406, 42.141771000000006], [-71.300005, 42.14198699999999], [-71.300263, 42.14234799999999], [-71.300228, 42.14269500000001], [-71.300506, 42.142874], [-71.300443, 42.143138], [-71.29985, 42.14376199999999], [-71.299878, 42.144072999999985], [-71.300386, 42.14433799999999], [-71.300351, 42.14472099999999], [-71.300696, 42.14506799999997], [-71.300118, 42.14573100000001], [-71.300275, 42.146039], [-71.300678, 42.14625100000001], [-71.300302, 42.146582], [-71.300441, 42.14692900000001], [-71.300118, 42.147176], [-71.300562, 42.147506], [-71.300873, 42.14750299999999], [-71.300817, 42.14809099999997], [-71.301282, 42.148253000000004], [-71.301965, 42.148165999999996], [-71.301967, 42.148572], [-71.302202, 42.14865099999999], [-71.30234000000002, 42.149026], [-71.302603, 42.14897799999999], [-71.302813, 42.14848700000002], [-71.303139, 42.14842399999999], [-71.303227, 42.148669000000005], [-71.303566, 42.148693]]]}}