{"type": "Feature", "properties": {"district_name": "6th Hampden District", "chamber": "house", "vintage": "2022-present"}, "geometry": {"type": "Polygon", "coordinates": [[[-72.740782, 42.128978000000004], [-72.739803, 42.131301], [-72.737993, 42.131190999999994], [-72.735611, 42.133356], [-72.739367, 42.135742], [-72.73917, 42.136644], [-72.73859, 42.13655500000001], [-72.73763, 42.13674400000001], [-72.735901, 42.13569900000001], [-72.735371, 42.136053000000004], [-72.734235, 42.136386], [-72.73332, 42.13578], [-72.73183, 42.13515699999998], [-72.729617, 42.133426], [-72.728803, 42.13301500000002], [-72.727903, 42.131746000000014], [-72.72761800000002, 42.13049399999999], [-72.725567, 42.128837000000004], [-72.72529, 42.128014], [-72.724929, 42.12784799999999], [-72.72489, 42.127614], [-72.723485, 42.127146], [-72.722908, 42.12661399999999], [-72.722862, 42.126237], [-72.723299, 42.12524899999999], [-72.721698, 42.12454999999999], [-72.721239, 42.125094999999995], [-72.720383, 42.125446], [-72.72017, 42.12569799999999], [-72.720231, 42.12598400000001], [-72.720942, 42.12684500000002], [-72.720925, 42.127086], [-72.720646, 42.127275000000004], [-72.719153, 42.127401], [-72.716593, 42.12815], [-72.714167, 42.127739999999996], [-72.70911700000002, 42.128974], [-72.709543, 42.129726999999995], [-72.709675, 42.13219599999999], [-72.709071, 42.13305300000001], [-72.708754, 42.133261000000005], [-72.708209, 42.133290999999986], [-72.705188, 42.13255899999999], [-72.704567, 42.133223], [-72.703392, 42.13311000000001], [-72.703336, 42.132955], [-72.704152, 42.131443000000004], [-72.703846, 42.130675000000004], [-72.702967, 42.130919], [-72.700299, 42.13253000000002], [-72.698998, 42.133118], [-72.699217, 42.134031], [-72.699437, 42.13915600000001], [-72.695215, 42.13889800000001], [-72.692603, 42.138917000000006], [-72.68919, 42.13935899999999], [-72.686872, 42.13996199999999], [-72.687192, 42.142315999999994], [-72.686691, 42.143885], [-72.689152, 42.146324], [-72.687974, 42.149374], [-72.686653, 42.15070299999999], [-72.685538, 42.15457100000001], [-72.684891, 42.16293700000001], [-72.627342, 42.16203200000001], [-72.627505, 42.162586], [-72.626402, 42.162353999999986], [-72.625601, 42.162362999999985], [-72.625594, 42.161660999999995], [-72.622244, 42.16185599999999], [-72.621937, 42.161178], [-72.618132, 42.161429], [-72.617183, 42.162251999999995], [-72.61899, 42.16336000000001], [-72.621296, 42.16508699999999], [-72.622734, 42.166321], [-72.623349, 42.167108999999996], [-72.614288, 42.167997], [-72.614561, 42.17150499999999], [-72.610863, 42.171253], [-72.610093, 42.171527], [-72.610369, 42.168687], [-72.611425, 42.162345000000016], [-72.611258, 42.160896], [-72.610444, 42.158887], [-72.610099, 42.157427000000006], [-72.610211, 42.15547399999997], [-72.61076, 42.15388900000001], [-72.613445, 42.149114], [-72.614363, 42.148891], [-72.619034, 42.149993], [-72.621234, 42.148793000000005], [-72.622419, 42.14697000000003], [-72.620208, 42.14536900000001], [-72.618363, 42.143706], [-72.615534, 42.142796000000004], [-72.616107, 42.14377300000001], [-72.616096, 42.144578], [-72.615819, 42.145111999999976], [-72.613631, 42.14527699999999], [-72.612693, 42.145876], [-72.611883, 42.14524800000001], [-72.611255, 42.145721999999985], [-72.610209, 42.14494299999999], [-72.609256, 42.145649000000006], [-72.608851, 42.145737000000004], [-72.608816, 42.14707799999999], [-72.608055, 42.14705599999998], [-72.607331, 42.14678800000001], [-72.607077, 42.147145999999985], [-72.606983, 42.14829699999999], [-72.607237, 42.14861200000001], [-72.607812, 42.148910000000015], [-72.604183, 42.148306000000005], [-72.604177, 42.149035], [-72.603587, 42.149188], [-72.603548, 42.148183], [-72.599922, 42.148109000000005], [-72.599865, 42.14487199999999], [-72.593446, 42.14442100000001], [-72.593129, 42.141563000000005], [-72.591604, 42.136237000000015], [-72.621481, 42.123788000000005], [-72.62213100000001, 42.121424000000005], [-72.621987, 42.119718], [-72.62112600000002, 42.116814], [-72.62072, 42.115925000000004], [-72.615209, 42.10948], [-72.61316, 42.107967], [-72.609845, 42.106016], [-72.601077, 42.10246600000001], [-72.596765, 42.100344], [-72.592636, 42.097436999999985], [-72.588523, 42.09323499999999], [-72.591763, 42.092022000000036], [-72.592489, 42.092375000000004], [-72.593858, 42.09340100000001], [-72.59492, 42.09378800000002], [-72.597113, 42.09376599999999], [-72.598523, 42.093428], [-72.598843, 42.09317300000001], [-72.600739, 42.086253], [-72.601081, 42.085996], [-72.602144, 42.086266], [-72.605721, 42.087824], [-72.607158, 42.088266], [-72.609561, 42.08861000000001], [-72.61048, 42.088494], [-72.613494, 42.087547], [-72.615431, 42.08764], [-72.619477, 42.08749499999998], [-72.620914, 42.087654], [-72.624455, 42.088868], [-72.626819, 42.089864], [-72.627071, 42.08941], [-72.63215, 42.08959599999999], [-72.636164, 42.089491], [-72.638748, 42.08879699999999], [-72.639363, 42.08849], [-72.641156, 42.08685100000001], [-72.654804, 42.076184], [-72.66218, 42.077540000000006], [-72.662788, 42.077758], [-72.662228, 42.078785999999994], [-72.661552, 42.079271999999996], [-72.661468, 42.07950600000001], [-72.66222, 42.080441], [-72.66274, 42.08273100000001], [-72.663737, 42.08344600000001], [-72.663891, 42.084672999999995], [-72.665869, 42.086168], [-72.666658, 42.087048], [-72.667178, 42.088942], [-72.668392, 42.091313], [-72.670284, 42.09333500000002], [-72.673246, 42.09486300000001], [-72.673969, 42.096383999999986], [-72.675717, 42.098412999999994], [-72.675983, 42.099954000000004], [-72.676309, 42.10032500000001], [-72.676712, 42.100512], [-72.678359, 42.10054800000002], [-72.680178, 42.100963000000014], [-72.681442, 42.10069500000001], [-72.681936, 42.10108100000001], [-72.682209, 42.101551], [-72.68252, 42.102846], [-72.682661, 42.10631200000002], [-72.682884, 42.106713000000006], [-72.683258, 42.106972], [-72.684458, 42.10713499999999], [-72.688686, 42.106233999999986], [-72.69107, 42.106225], [-72.693919, 42.105744], [-72.694869, 42.105883999999996], [-72.69468, 42.10622299999999], [-72.703842, 42.107687], [-72.705884, 42.10837099999998], [-72.707825, 42.109311999999996], [-72.712399, 42.112071000000014], [-72.713976, 42.11250600000002], [-72.714482, 42.114487], [-72.714164, 42.11486299999999], [-72.723956, 42.12352700000001], [-72.726428, 42.125047999999985], [-72.727268, 42.12546999999999], [-72.730231, 42.126389999999994], [-72.740782, 42.128978000000004]]]}}