{"type": "Feature", "properties": {"district_name": "7th Worcester District", "chamber": "house", "vintage": "2012-2020"}, "geometry": {"type": "Polygon", "coordinates": [[[-71.992009, 42.151309], [-71.987368, 42.152238000000004], [-71.984023, 42.15269000000001], [-71.971228, 42.15342300000001], [-71.96661, 42.15442], [-71.963139, 42.15575000000002], [-71.957701, 42.15860800000002], [-71.954613, 42.159953], [-71.954561, 42.160163999999995], [-71.944131, 42.16433500000003], [-71.93718299999999, 42.16788899999999], [-71.938656, 42.17045700000002], [-71.93853, 42.17115499999999], [-71.93621399999999, 42.17382], [-71.935093, 42.175884], [-71.934259, 42.176623], [-71.93435199999999, 42.17687499999999], [-71.933875, 42.177659], [-71.9329, 42.177895], [-71.933424, 42.178933], [-71.93234199999999, 42.182044000000005], [-71.930391, 42.18467599999999], [-71.92965099999999, 42.185367], [-71.929133, 42.18621499999998], [-71.92819899999999, 42.18687099999999], [-71.926757, 42.187345], [-71.926313, 42.188069], [-71.92591999999999, 42.189201000000004], [-71.925799, 42.19022400000001], [-71.895135, 42.192425], [-71.87621800000001, 42.214982000000006], [-71.86601, 42.225983000000014], [-71.856543, 42.226648], [-71.810034, 42.231261999999994], [-71.80675099999999, 42.22389800000001], [-71.803834, 42.220926000000006], [-71.797049, 42.209978], [-71.742541, 42.23391], [-71.733458, 42.23808000000001], [-71.723535, 42.191484], [-71.733961, 42.18677499999999], [-71.73377099999999, 42.183504000000006], [-71.740533, 42.179206], [-71.744114, 42.18250499999999], [-71.831942, 42.14377500000001], [-71.83027299999999, 42.133303000000005], [-71.829512, 42.129411000000005], [-71.817992, 42.13332199999999], [-71.813082, 42.125274000000005], [-71.81508, 42.122527999999996], [-71.817227, 42.121317999999995], [-71.818772, 42.120797999999986], [-71.819755, 42.12073], [-71.82040599999999, 42.12095999999999], [-71.82187499999999, 42.120975], [-71.822994, 42.121241], [-71.824023, 42.121038], [-71.825104, 42.12137699999998], [-71.82810599999999, 42.12084199999999], [-71.83121799999999, 42.11980299999998], [-71.83393, 42.11934600000001], [-71.835962, 42.11882200000001], [-71.8371, 42.118767999999996], [-71.839958, 42.11923000000001], [-71.844379, 42.11727899999999], [-71.84654499999999, 42.11595200000003], [-71.848158, 42.115277], [-71.848331, 42.11504499999998], [-71.851877, 42.116119000000005], [-71.853365, 42.11636], [-71.864723, 42.11703199999998], [-71.867355, 42.11619299999999], [-71.868056, 42.112570000000005], [-71.86951499999999, 42.11267100000001], [-71.869383, 42.114312], [-71.869554, 42.115409], [-71.87715299999999, 42.11299299999998], [-71.878303, 42.112791], [-71.879494, 42.112839], [-71.880506, 42.11316899999999], [-71.881638, 42.11429500000001], [-71.883301, 42.115215], [-71.88445999999999, 42.11554999999999], [-71.886487, 42.115791000000016], [-71.887772, 42.116232999999994], [-71.890241, 42.117952999999986], [-71.893315, 42.11964899999999], [-71.895157, 42.11986499999999], [-71.90001, 42.119375], [-71.90154799999999, 42.11977299999999], [-71.902779, 42.120638000000014], [-71.906909, 42.14104599999999], [-71.907837, 42.13958699999999], [-71.910967, 42.138788000000005], [-71.911723, 42.13835400000001], [-71.912399, 42.138759], [-71.91393, 42.138704000000004], [-71.916919, 42.13740499999999], [-71.919602, 42.13712900000001], [-71.920867, 42.137600000000006], [-71.922584, 42.137305000000005], [-71.92195699999999, 42.134992], [-71.92211, 42.13458300000001], [-71.924284, 42.133708000000006], [-71.928797, 42.131358], [-71.930363, 42.131046000000005], [-71.932084, 42.131015], [-71.93624299999999, 42.132374], [-71.94126299999999, 42.134353], [-71.94259699999999, 42.13463599999999], [-71.943885, 42.13452], [-71.945884, 42.13395], [-71.948234, 42.134084], [-71.950784, 42.13258699999999], [-71.95456399999999, 42.13205200000001], [-71.957611, 42.131091999999995], [-71.959351, 42.13206900000001], [-71.96224699999999, 42.133015], [-71.96540399999999, 42.132661000000006], [-71.96797699999999, 42.131440000000005], [-71.96922099999999, 42.13184299999999], [-71.969556, 42.13287200000001], [-71.969422, 42.13333299999999], [-71.969424, 42.134724000000006], [-71.969563, 42.135447], [-71.96983, 42.13575800000001], [-71.969973, 42.136785], [-71.97088, 42.13707700000001], [-71.97379, 42.138507000000004], [-71.975061, 42.139258999999974], [-71.97601999999999, 42.14018499999999], [-71.97676799999999, 42.14063400000001], [-71.98462599999999, 42.144186000000005], [-71.985513, 42.14512099999998], [-71.98724899999999, 42.14605899999998], [-71.989634, 42.14901900000001], [-71.990259, 42.15001999999999], [-71.992009, 42.151309]]]}}