{"type": "Feature", "properties": {"district_name": "15th Norfolk", "chamber": "house", "vintage": "2001-2010"}, "geometry": {"type": "Polygon", "coordinates": [[[-71.11059608834704, 42.340197127225586], [-71.11159594306079, 42.33719691078484], [-71.11129605339907, 42.335797068153795], [-71.11079607607921, 42.33539699718399], [-71.11089598477963, 42.33499726338593], [-71.11279592331161, 42.333297065528605], [-71.11329594396541, 42.331796942968104], [-71.11339604760735, 42.33089698651312], [-71.11479599590699, 42.32839718691158], [-71.11859594799026, 42.32939680454741], [-71.11789600000517, 42.331596822032346], [-71.1212769152114, 42.330963175466415], [-71.12349599231418, 42.33029692881117], [-71.12539604499646, 42.33009719430445], [-71.12629607231607, 42.32979684210128], [-71.13166202980354, 42.32894425342249], [-71.13219699835597, 42.329796742934874], [-71.13279703512465, 42.329796968695575], [-71.13321792414372, 42.329497839763356], [-71.13339705310166, 42.32989679062453], [-71.13489698863766, 42.330297134835064], [-71.14009707715016, 42.332596898463265], [-71.14209709840424, 42.33329692524759], [-71.14329708395707, 42.334396759547474], [-71.14179702876567, 42.335596801957024], [-71.14159702517772, 42.336396870375005], [-71.13899702405152, 42.33579679411969], [-71.13649705859594, 42.333996778641264], [-71.1354969373365, 42.33409714546337], [-71.13859692923587, 42.337296772272694], [-71.13719707438686, 42.33759677859205], [-71.13699709521454, 42.33639706781795], [-71.13629700532036, 42.337797058337294], [-71.1359970419008, 42.3378968335431], [-71.13739706150994, 42.33869688955844], [-71.13879695323207, 42.3382967235867], [-71.1399969689868, 42.3381969540631], [-71.14579695439578, 42.33699676836921], [-71.1446969631939, 42.335797112792946], [-71.14449691068067, 42.33529683288982], [-71.14659797324008, 42.334697865212526], [-71.14539698144551, 42.33369709456684], [-71.14729701553807, 42.33299676924043], [-71.14879690710212, 42.33189682083006], [-71.1502970559585, 42.329197143160265], [-71.15329706450434, 42.329596732079175], [-71.15439708404692, 42.329097006555685], [-71.15439701320881, 42.32789680027647], [-71.15419699275913, 42.32699703203813], [-71.15309696246844, 42.32729700792281], [-71.14889695513156, 42.327396792509575], [-71.14799692557972, 42.3264971235795], [-71.15329698610047, 42.32649690952495], [-71.15799694173383, 42.32479705810707], [-71.16409704539274, 42.32339708611502], [-71.16939803923324, 42.32189715540411], [-71.1693979422311, 42.32209690301373], [-71.16729808097192, 42.32269685780868], [-71.16479692443016, 42.324396770197296], [-71.1621970068767, 42.32649696765487], [-71.15699706878424, 42.33009679824092], [-71.14979701218647, 42.33449721180963], [-71.14999703124201, 42.334497253762635], [-71.15049707532349, 42.33499675292176], [-71.14839700764313, 42.33579723482631], [-71.14869690526332, 42.33679690699502], [-71.14619705286817, 42.33739693708182], [-71.14659704544347, 42.338497088745704], [-71.14479697771057, 42.33959720584405], [-71.1425969373891, 42.33999721088397], [-71.14189709592887, 42.34039678767877], [-71.14159694441761, 42.341096953264476], [-71.13609707100238, 42.3452969676518], [-71.13539709081275, 42.346097133027094], [-71.13469693439751, 42.34659682199289], [-71.1249970774822, 42.351197026058664], [-71.12259696363185, 42.35169726994021], [-71.11609595637252, 42.35089700003691], [-71.11409592142552, 42.350496996052094], [-71.11439594235539, 42.349096926997596], [-71.1163960051266, 42.34929717889649], [-71.11749596680376, 42.34329703395281], [-71.11459597970317, 42.34399688689857], [-71.11279609303499, 42.34039699477221], [-71.11109601069388, 42.3403968834841], [-71.11059608834704, 42.340197127225586]]]}}