{"type": "Feature", "properties": {"district_name": "12th Bristol District", "chamber": "house", "vintage": "2022-present"}, "geometry": {"type": "Polygon", "coordinates": [[[-71.11961, 41.790968000000014], [-71.119442, 41.79542600000001], [-71.118618, 41.797612999999984], [-71.117916, 41.79849599999999], [-71.117551, 41.79975300000001], [-71.117917, 41.80107999999999], [-71.119092, 41.803723000000005], [-71.119214, 41.805004000000004], [-71.118863, 41.80719100000001], [-71.118329, 41.808219000000015], [-71.116498, 41.809826], [-71.114911, 41.810762999999994], [-71.11236300000002, 41.813575], [-71.112699, 41.814915], [-71.114499, 41.816553], [-71.114972, 41.817445], [-71.115385, 41.818442999999995], [-71.116101, 41.822390000000006], [-71.117765, 41.824668], [-71.117643, 41.82520199999998], [-71.117292, 41.825956000000005], [-71.116468, 41.826718], [-71.115294, 41.827303], [-71.114743, 41.82808899999999], [-71.114926, 41.828859], [-71.114577, 41.82975], [-71.109516, 41.83169600000001], [-71.108839, 41.832719000000004], [-71.108259, 41.83568599999999], [-71.10838100000001, 41.83693200000002], [-71.109708, 41.839667], [-71.110685, 41.840643], [-71.110913, 41.841670000000015], [-71.110528, 41.843563000000024], [-71.110891, 41.84452699999999], [-71.112845, 41.84729400000002], [-71.112845, 41.84868000000001], [-71.112554, 41.848569], [-71.112389, 41.849207000000014], [-71.1117, 41.85053700000001], [-71.111264, 41.851043999999995], [-71.107918, 41.852693], [-71.107819, 41.85323899999999], [-71.10807400000002, 41.853672], [-71.108685, 41.85407000000001], [-71.108281, 41.855966], [-71.107388, 41.857609999999994], [-71.10729000000002, 41.859052000000005], [-71.106838, 41.859776999999994], [-71.104427, 41.860441], [-71.104275, 41.86060899999999], [-71.104916, 41.86362199999999], [-71.10487, 41.864178999999986], [-71.104397, 41.866804], [-71.104397, 41.86790299999999], [-71.10342, 41.86961200000001], [-71.103405, 41.870786], [-71.103115, 41.871275], [-71.102871, 41.871519], [-71.101971, 41.871855000000004], [-71.099743, 41.87242700000001], [-71.09457, 41.87277799999998], [-71.093594, 41.87300700000001], [-71.092963, 41.872901], [-71.093235, 41.872695000000014], [-71.09419, 41.87256599999999], [-71.07644600000002, 41.87297], [-71.072191, 41.86967799999999], [-71.05829500000002, 41.862675], [-71.055612, 41.872092], [-71.06453, 41.879737], [-71.066808, 41.884674], [-71.072672, 41.89355799999999], [-71.075981, 41.89551399999999], [-71.07913000000002, 41.896646999999966], [-71.080069, 41.89681999999998], [-71.082015, 41.896695000000015], [-71.082658, 41.896821], [-71.083663, 41.897474], [-71.085165, 41.898109], [-71.089024, 41.90113199999999], [-71.089851, 41.901614], [-71.089275, 41.901592], [-71.088891, 41.903546000000006], [-71.089818, 41.903654], [-71.089474, 41.90543499999999], [-71.088656, 41.90676500000001], [-71.090464, 41.90716099999999], [-71.090325, 41.907552000000024], [-71.089129, 41.90886400000001], [-71.08651, 41.91092600000001], [-71.090029, 41.91357300000001], [-71.089234, 41.91698999999999], [-71.089685, 41.919110000000025], [-71.083706, 41.919143], [-71.081053, 41.91846700000001], [-71.079592, 41.918497], [-71.077339, 41.918157], [-71.076211, 41.91814099999999], [-71.075715, 41.91829300000001], [-71.063346, 41.90326599999999], [-71.060236, 41.90286100000001], [-71.05808400000001, 41.90236599999999], [-71.05631, 41.901346999999994], [-71.055504, 41.901146], [-71.054709, 41.901738000000016], [-71.054316, 41.90254099999999], [-71.054305, 41.904147], [-71.053763, 41.904686999999996], [-71.053102, 41.904946999999986], [-71.05119, 41.90498300000003], [-71.048406, 41.904762000000005], [-71.04772500000001, 41.90441100000001], [-71.0468, 41.90280700000001], [-71.045114, 41.901521], [-71.045453, 41.899740999999985], [-71.045253, 41.898961], [-71.044866, 41.89826300000001], [-71.04394, 41.89726299999999], [-71.04234, 41.89595], [-71.04174900000001, 41.89520999999999], [-71.041701, 41.894836], [-71.042034, 41.89457300000001], [-71.04347, 41.894042999999996], [-71.043719, 41.894411999999996], [-71.043629, 41.895014], [-71.044205, 41.89523800000002], [-71.044984, 41.89490400000001], [-71.046047, 41.89408400000001], [-71.047241, 41.89347699999999], [-71.047221, 41.893254999999996], [-71.047002, 41.893128], [-71.045642, 41.89281000000001], [-71.04488, 41.89188199999999], [-71.044768, 41.89149200000001], [-71.046861, 41.891033], [-71.047321, 41.89053900000002], [-71.047319, 41.89003400000001], [-71.048541, 41.88924900000001], [-71.048713, 41.888749], [-71.048155, 41.88730199999999], [-71.047681, 41.886681000000024], [-71.046502, 41.88591900000001], [-71.044876, 41.885353], [-71.043791, 41.885465999999994], [-71.04338900000002, 41.88625000000002], [-71.042802, 41.886478], [-71.04253, 41.886255000000006], [-71.0426, 41.885944], [-71.043245, 41.88480899999999], [-71.043323, 41.88438399999999], [-71.042681, 41.883892], [-71.041983, 41.884085999999996], [-71.040857, 41.88543800000001], [-71.039989, 41.88568200000001], [-71.038729, 41.885771], [-71.037788, 41.885245000000005], [-71.038124, 41.883738999999984], [-71.037615, 41.88341], [-71.037012, 41.883583], [-71.035811, 41.88503499999999], [-71.035203, 41.885505], [-71.033778, 41.886363999999986], [-71.0326, 41.886770000000006], [-71.03208200000002, 41.886736000000006], [-71.030025, 41.88602600000001], [-71.029259, 41.88597400000001], [-71.0274, 41.88629799999999], [-71.025457, 41.886293000000016], [-71.024058, 41.886814], [-71.022651, 41.88778000000001], [-71.021762, 41.88885499999999], [-71.020921, 41.889302000000015], [-71.020508, 41.88941100000001], [-71.017782, 41.889357999999994], [-71.016825, 41.88971699999999], [-71.015773, 41.890622], [-71.015478, 41.89138299999999], [-71.014853, 41.89213299999997], [-71.013971, 41.892446], [-71.013107, 41.892399999999995], [-71.011875, 41.89004400000001], [-71.00862, 41.89051099999999], [-71.005519, 41.884583000000006], [-71.003344, 41.885068], [-71.003514, 41.88490100000001], [-71.003356, 41.884784999999994], [-71.003477, 41.88461800000001], [-71.003418, 41.88425100000002], [-71.003663, 41.88393600000001], [-71.00357200000002, 41.88368099999999], [-71.003709, 41.883684999999986], [-71.003512, 41.88345700000001], [-71.003597, 41.883019000000004], [-71.000322, 41.883939], [-70.997727, 41.884238], [-70.994983, 41.885107], [-70.992113, 41.889737999999994], [-70.993725, 41.891119], [-70.993793, 41.892573000000006], [-70.99363, 41.894349000000005], [-70.994453, 41.89703600000001], [-70.999705, 41.89690800000001], [-70.998959, 41.897708], [-70.996966, 41.900801], [-70.996071, 41.902798], [-70.995366, 41.903938000000004], [-70.993912, 41.90529099999999], [-70.993502, 41.90623500000002], [-70.992547, 41.90685400000001], [-70.991926, 41.907506999999995], [-70.99115, 41.909133], [-70.990984, 41.910059], [-70.992128, 41.91590800000001], [-70.993155, 41.91643100000001], [-70.993776, 41.91643], [-70.99431, 41.916002], [-70.994422, 41.91499499999999], [-70.995082, 41.91496800000001], [-70.995822, 41.91524000000001], [-70.996347, 41.915627000000015], [-70.996912, 41.916310000000024], [-70.997327, 41.917139999999996], [-70.997326, 41.919188], [-70.996814, 41.92117500000001], [-70.99720900000001, 41.922467], [-70.997223, 41.923111], [-70.996448, 41.92378600000001], [-70.994834, 41.922535], [-70.989878, 41.919261000000006], [-70.990088, 41.92009800000001], [-70.989387, 41.920101], [-70.985144, 41.91749400000001], [-70.984087, 41.91783999999999], [-70.98295, 41.918845000000005], [-70.97836, 41.92143399999999], [-70.976275, 41.920948], [-70.971987, 41.920462000000015], [-70.962845, 41.919928999999996], [-70.9623, 41.919064000000006], [-70.960144, 41.916531], [-70.956261, 41.913269000000014], [-70.946764, 41.909836], [-70.943986, 41.908380000000015], [-70.939098, 41.90613499999998], [-70.938423, 41.905614999999976], [-70.937692, 41.904596999999995], [-70.935652, 41.90476999999999], [-70.933986, 41.905288], [-70.930984, 41.90815200000001], [-70.929907, 41.90895699999999], [-70.929309, 41.910405], [-70.92799, 41.910565], [-70.926846, 41.912354000000015], [-70.926253, 41.91286], [-70.925939, 41.91287899999998], [-70.926911, 41.915192], [-70.927585, 41.916264], [-70.924398, 41.91761199999999], [-70.924007, 41.91793199999999], [-70.923327, 41.91952600000001], [-70.922246, 41.918490999999996], [-70.922069, 41.918125000000025], [-70.923186, 41.91726899999999], [-70.923891, 41.91642400000001], [-70.924949, 41.91587499999999], [-70.925066, 41.91550400000001], [-70.92468300000002, 41.91506400000001], [-70.923874, 41.914712999999985], [-70.921932, 41.914165000000004], [-70.921313, 41.913486000000006], [-70.92081, 41.91126999999999], [-70.922015, 41.910192], [-70.922191, 41.90984199999999], [-70.922161, 41.90955399999999], [-70.921588, 41.90924900000001], [-70.919778, 41.909085000000005], [-70.918499, 41.90864700000001], [-70.918043, 41.90892100000001], [-70.918147, 41.90952699999998], [-70.918044, 41.909712999999996], [-70.917, 41.909712], [-70.915086, 41.90833099999999], [-70.915023, 41.907545], [-70.905022, 41.908356999999995], [-70.896241, 41.908777999999984], [-70.887197, 41.91033100000002], [-70.881306, 41.911898], [-70.880728, 41.912198999999994], [-70.879395, 41.913374999999995], [-70.876049, 41.91541], [-70.875492, 41.91568899999999], [-70.874284, 41.91596200000001], [-70.874035, 41.91632899999998], [-70.874567, 41.918936], [-70.871549, 41.92238700000002], [-70.871119, 41.922696], [-70.870316, 41.92294299999999], [-70.866218, 41.923311000000005], [-70.864468, 41.924621999999985], [-70.862283, 41.926836], [-70.861934, 41.927566000000006], [-70.861496, 41.92996099999999], [-70.861164, 41.93090200000001], [-70.858589, 41.935558999999984], [-70.858151, 41.93684799999999], [-70.856752, 41.938074], [-70.855874, 41.9384], [-70.850577, 41.93842000000001], [-70.84512, 41.93887100000001], [-70.844418, 41.93908700000001], [-70.844204, 41.93937900000001], [-70.84395, 41.94048000000001], [-70.843563, 41.940756000000015], [-70.829827, 41.92769900000002], [-70.815504, 41.913627999999996], [-70.806889, 41.888270000000034], [-70.809312, 41.887392000000006], [-70.810854, 41.886553000000006], [-70.811554, 41.88640699999999], [-70.814198, 41.886427999999974], [-70.815707, 41.88604200000001], [-70.816716, 41.887076000000015], [-70.817532, 41.888802999999996], [-70.818388, 41.88979199999999], [-70.821131, 41.89148100000001], [-70.823171, 41.893513999999996], [-70.829168, 41.897314], [-70.83207, 41.89987899999999], [-70.833207, 41.90056700000001], [-70.834793, 41.90090200000001], [-70.83714, 41.901778], [-70.838844, 41.9029], [-70.839534, 41.90387299999999], [-70.840247, 41.90449399999999], [-70.843611, 41.90466699999999], [-70.845691, 41.904421], [-70.846144, 41.90369500000002], [-70.847252, 41.90294000000001], [-70.847812, 41.90272300000001], [-70.849131, 41.902591999999984], [-70.850632, 41.90194], [-70.851849, 41.90102499999999], [-70.853897, 41.89864000000001], [-70.856207, 41.898849999999996], [-70.855849, 41.898000000000025], [-70.855641, 41.89681100000001], [-70.855031, 41.89547600000001], [-70.851092, 41.89559399999998], [-70.84951200000002, 41.892926], [-70.848311, 41.892769], [-70.847234, 41.892205], [-70.846132, 41.89245100000001], [-70.845676, 41.891749999999995], [-70.845468, 41.890892], [-70.846096, 41.888013], [-70.846146, 41.88584100000002], [-70.846548, 41.885177000000006], [-70.847209, 41.884833], [-70.846941, 41.884461], [-70.848618, 41.883186], [-70.849645, 41.88198599999999], [-70.849971, 41.88188299999999], [-70.855311, 41.882221000000015], [-70.857856, 41.883407999999996], [-70.85906, 41.88360699999999], [-70.865881, 41.882821], [-70.86972, 41.882609], [-70.87242, 41.882145], [-70.875547, 41.88197999999999], [-70.877157, 41.88163100000001], [-70.87951, 41.88075599999998], [-70.881261, 41.883347], [-70.881449, 41.88435599999999], [-70.882126, 41.88561900000002], [-70.883509, 41.886181], [-70.88944, 41.89159999999999], [-70.891324, 41.89292699999999], [-70.893633, 41.894109], [-70.894418, 41.89556400000001], [-70.895903, 41.896546], [-70.897559, 41.896228], [-70.897731, 41.895677], [-70.898346, 41.89482399999999], [-70.90073000000001, 41.89397400000001], [-70.901984, 41.893922], [-70.90241700000001, 41.893609], [-70.902588, 41.893138000000015], [-70.901496, 41.89202999999999], [-70.901405, 41.891135000000006], [-70.902379, 41.890498], [-70.903202, 41.890407], [-70.904143, 41.89051799999999], [-70.90479, 41.890048], [-70.904718, 41.88974699999999], [-70.905557, 41.887922999999994], [-70.905521, 41.887028], [-70.90572, 41.886461], [-70.905136, 41.885692], [-70.905138, 41.885422000000005], [-70.906152, 41.88399499999999], [-70.908029, 41.88319899999998], [-70.90917, 41.882518], [-70.909318, 41.881592], [-70.909574, 41.881169], [-70.909329, 41.88015600000001], [-70.909401, 41.87984800000001], [-70.91073, 41.879713], [-70.910665, 41.87896699999999], [-70.911787, 41.878219000000016], [-70.913072, 41.87860299999999], [-70.914084, 41.87863500000001], [-70.914262, 41.87845699999998], [-70.91409, 41.87802700000001], [-70.914222, 41.877777000000016], [-70.914559, 41.877583000000016], [-70.915476, 41.87767500000001], [-70.91653900000001, 41.876806], [-70.916611, 41.87652900000001], [-70.916096, 41.874833], [-70.916327, 41.87257], [-70.91605800000002, 41.872350999999995], [-70.915066, 41.872316], [-70.914616, 41.872081], [-70.913035, 41.870596000000006], [-70.912968, 41.87024399999999], [-70.913182, 41.86993699999999], [-70.914624, 41.86904500000001], [-70.91492, 41.868431], [-70.916472, 41.86768299999998], [-70.916738, 41.86716700000001], [-70.915509, 41.86667299999999], [-70.915041, 41.866310999999996], [-70.915093, 41.866055999999986], [-70.915988, 41.865806000000006], [-70.915936, 41.86566900000002], [-70.914928, 41.86545599999999], [-70.914689, 41.86527500000001], [-70.915349, 41.86441399999999], [-70.913827, 41.86409999999999], [-70.913508, 41.86385900000001], [-70.91361, 41.86364900000001], [-70.914595, 41.86352], [-70.914447, 41.862132], [-70.914098, 41.861943000000004], [-70.913065, 41.86192999999999], [-70.912876, 41.861726999999995], [-70.913448, 41.860685], [-70.914321, 41.860587], [-70.914382, 41.86048300000001], [-70.914116, 41.86029399999999], [-70.914541, 41.859591], [-70.916262, 41.85992999999999], [-70.917748, 41.858715999999994], [-70.917709, 41.85852100000001], [-70.917181, 41.85814499999999], [-70.917264, 41.85780599999998], [-70.916899, 41.857502], [-70.916815, 41.85720000000001], [-70.917189, 41.856527000000014], [-70.917131, 41.85577700000002], [-70.918897, 41.852728000000006], [-70.91870500000002, 41.851943], [-70.893973, 41.828881], [-70.893454, 41.82790100000001], [-70.893777, 41.82659100000002], [-70.89864400000002, 41.81487700000002], [-70.8964, 41.794320000000006], [-71.026288, 41.778888], [-71.014591, 41.79956800000001], [-71.03657, 41.816525], [-71.088462, 41.817786999999996], [-71.093149, 41.81285], [-71.093197, 41.81173499999999], [-71.092887, 41.811676999999996], [-71.093115, 41.81159099999999], [-71.093014, 41.81142599999998], [-71.093348, 41.811413], [-71.093231, 41.81119], [-71.092844, 41.811074], [-71.092973, 41.81092000000001], [-71.092617, 41.810857], [-71.092902, 41.81075300000001], [-71.093349, 41.810927000000014], [-71.093385, 41.81075300000001], [-71.093078, 41.810383], [-71.0934, 41.81026500000001], [-71.093317, 41.81003400000001], [-71.092932, 41.809901999999994], [-71.093056, 41.809554999999996], [-71.09269900000001, 41.80942100000001], [-71.093161, 41.809025999999996], [-71.092829, 41.808467000000014], [-71.091933, 41.80839699999999], [-71.091723, 41.80822400000001], [-71.091531, 41.808374], [-71.091251, 41.80830999999999], [-71.090664, 41.808848], [-71.090699, 41.80905700000001], [-71.090047, 41.809377000000005], [-71.088713, 41.80911600000001], [-71.08767300000001, 41.807959], [-71.086697, 41.80575199999999], [-71.086465, 41.80479000000001], [-71.087722, 41.802492000000036], [-71.089091, 41.801786], [-71.091044, 41.801504000000016], [-71.092814, 41.800748999999996], [-71.094111, 41.79981800000002], [-71.095443, 41.79916999999998], [-71.095943, 41.79704100000001], [-71.101604, 41.79356199999999], [-71.102031, 41.79289800000001], [-71.102611, 41.790700999999984], [-71.103084, 41.789587], [-71.104686, 41.78798499999999], [-71.10898900000001, 41.784506], [-71.111583, 41.781560999999996], [-71.114489, 41.778800999999966], [-71.11961, 41.790968000000014]]]}}