{"type": "Feature", "properties": {"district_name": "11th Plymouth", "chamber": "house", "vintage": "2001-2010"}, "geometry": {"type": "Polygon", "coordinates": [[[-71.02569000180597, 42.11729878409973], [-71.02359009329844, 42.108499996506914], [-71.02175206975969, 42.10588924514492], [-71.02229001421043, 42.105600006605826], [-71.02169000054155, 42.10489974316527], [-71.020190034765, 42.10250027101075], [-71.0220900127255, 42.10170016374183], [-71.0204899935233, 42.099200105263975], [-71.01978995874391, 42.09720011940605], [-71.01969003216092, 42.0962999225846], [-71.01939009254367, 42.095500183169904], [-71.01958994567404, 42.094399793443955], [-71.01969007251743, 42.08980006065537], [-71.01958904245042, 42.08859993784538], [-71.01978904625469, 42.08809996426016], [-71.01988896047831, 42.08690011673335], [-71.02529007093197, 42.08630027729892], [-71.02768992386397, 42.08670016408424], [-71.02819004844203, 42.08689973273386], [-71.0277899457783, 42.087699950379694], [-71.0287900061115, 42.08800005568236], [-71.02868995589569, 42.0897001544492], [-71.0291899412433, 42.09139990318687], [-71.03068993889586, 42.0913002708137], [-71.03139004276572, 42.09099984164555], [-71.03218991217054, 42.090999735746024], [-71.03409001990076, 42.09049991778509], [-71.03318992274663, 42.08889983918281], [-71.03369004363836, 42.08810001939486], [-71.03419003340915, 42.086699780517996], [-71.03399005500808, 42.08509974406173], [-71.0324899580768, 42.084900056760574], [-71.03218996310083, 42.084400270013106], [-71.02729004452081, 42.08449999916523], [-71.02698997868336, 42.082900103214385], [-71.02699004638552, 42.081799999238726], [-71.03429000248833, 42.081100092397996], [-71.0334899557947, 42.077900070588655], [-71.0345900548933, 42.077699721003654], [-71.03718998195461, 42.07670019868082], [-71.03789004266251, 42.07900001204899], [-71.03849003212032, 42.080499800665486], [-71.03869001269064, 42.08050004835984], [-71.0390900846892, 42.08209975743129], [-71.03868997234697, 42.0823001546584], [-71.03899003804449, 42.08479979713274], [-71.03988997128165, 42.0880001773614], [-71.0405899307004, 42.088099773820055], [-71.04079000194997, 42.08890018257381], [-71.0405900338986, 42.08959995874475], [-71.04138998901946, 42.089900276016294], [-71.04508998061561, 42.08959879135195], [-71.04669003013817, 42.08909925602553], [-71.04729004914682, 42.089098820655074], [-71.04768994348355, 42.08879878854025], [-71.04808998058033, 42.08929892864688], [-71.05999101262924, 42.09419920372767], [-71.06159100177616, 42.08839874185547], [-71.06539105914146, 42.08939909363579], [-71.07109096143856, 42.089798724840584], [-71.07229093791295, 42.089699116443114], [-71.07849201049731, 42.08849878124363], [-71.07629102883148, 42.078499196149856], [-71.07569091470494, 42.077198798317205], [-71.0738910805332, 42.06949874360639], [-71.07359101300355, 42.06809872849758], [-71.07379094713997, 42.06719913646506], [-71.07089109655965, 42.05529991309582], [-71.06999107647009, 42.05100022769932], [-71.0694900646676, 42.04970017247091], [-71.06902590587544, 42.04705986454238], [-71.06779008465709, 42.04250005241582], [-71.06789000409573, 42.04009989822798], [-71.07188990276326, 42.0407997501399], [-71.07749107617114, 42.04240010694548], [-71.07899103614027, 42.04460021226489], [-71.08029102768612, 42.04519976964334], [-71.08119093584683, 42.046199066541554], [-71.0822910115234, 42.04669884081177], [-71.08379103854172, 42.04569873615433], [-71.08549093287402, 42.04399876445711], [-71.08758706517035, 42.04267496230054], [-71.08979097535679, 42.04159910145063], [-71.09009100387668, 42.040199024224634], [-71.09379106115274, 42.03859892919712], [-71.09569095228251, 42.037099274170274], [-71.09609100501196, 42.036298827118614], [-71.09829103694352, 42.03559923907896], [-71.10659203369383, 42.034099199291624], [-71.11079192344587, 42.032099055584375], [-71.1137919219595, 42.030399136416435], [-71.11549205651444, 42.029798826956664], [-71.12049208700934, 42.03169891373284], [-71.11929194923496, 42.03009907625058], [-71.12049202616326, 42.028799264990326], [-71.11979201719015, 42.026399221077696], [-71.11999195545482, 42.02359927223926], [-71.12689202017029, 42.02339915180021], [-71.12999200630372, 42.02359885018047], [-71.13409198069762, 42.0235991002809], [-71.13609208714398, 42.023199202675144], [-71.13949301612384, 42.022998949852806], [-71.14169299532647, 42.020098893664446], [-71.14339292164888, 42.014998725802236], [-71.14352997154045, 42.013905240786876], [-71.14527706192085, 42.01300976598909], [-71.14969308373469, 42.01019912928723], [-71.15229300170299, 42.01039894346003], [-71.15479304131033, 42.01179923338161], [-71.15581307410221, 42.011922727917636], [-71.1554449104638, 42.01261093693404], [-71.15536503340716, 42.01342719563357], [-71.1549330158743, 42.01454681491438], [-71.15563703136257, 42.01475488919207], [-71.15638902423102, 42.014707064945064], [-71.15960890994936, 42.015071768261244], [-71.16859498234645, 42.06170177727028], [-71.14721298173735, 42.069823027683334], [-71.14439296271998, 42.07059927567501], [-71.1438839548575, 42.07110019616249], [-71.14174100343627, 42.07196401475872], [-71.1274929098727, 42.07709883159536], [-71.11749302926641, 42.08109879290866], [-71.115393044298, 42.081799077624126], [-71.11289305480467, 42.08289918755764], [-71.09899191452762, 42.08819876692965], [-71.0758919302532, 42.0972989427702], [-71.06769104065278, 42.10119879182188], [-71.04609100861802, 42.10949902183747], [-71.04389105048769, 42.110198728159126], [-71.04139095432413, 42.11129897367788], [-71.03949106695384, 42.1118990764553], [-71.02569000180597, 42.11729878409973]]]}}