{"type": "Feature", "properties": {"district_name": "5th Norfolk", "chamber": "house", "vintage": "2001-2010"}, "geometry": {"type": "Polygon", "coordinates": [[[-70.97470771830082, 42.237404548184074], [-70.97409445140987, 42.23702867521048], [-70.97370088297181, 42.237119712086105], [-70.9723325575657, 42.23687203656729], [-70.97190167438619, 42.23651048582866], [-70.9707933308672, 42.23600739696549], [-70.96805265723854, 42.23586530722841], [-70.96685248668224, 42.235435463543], [-70.96531308348531, 42.23433609874131], [-70.96488187491848, 42.23428964039491], [-70.96414334813392, 42.234500578808806], [-70.96325073119448, 42.23421843444966], [-70.96223477305142, 42.234172606286876], [-70.96189566233038, 42.23364713911392], [-70.96177253789503, 42.2321632853721], [-70.96248022185404, 42.23154707391415], [-70.96291122897078, 42.231459059708335], [-70.96281875645937, 42.231046163452255], [-70.96232571416138, 42.2308384737644], [-70.96223326707648, 42.229263606076394], [-70.96263185761089, 42.227860406357934], [-70.96263141787443, 42.2273106506833], [-70.96238560914486, 42.22685596301985], [-70.96740048760833, 42.22390491241954], [-70.9681698475634, 42.22383758025432], [-70.96955425452666, 42.22319181355987], [-70.9703851460498, 42.222601439629834], [-70.97247769301313, 42.22236686605619], [-70.97232379924641, 42.22223448662573], [-70.97035377233911, 42.22205209919797], [-70.9681385416408, 42.22317119787652], [-70.96780015676666, 42.2231679364613], [-70.96795369866297, 42.222598070140684], [-70.96710737982144, 42.22317654272367], [-70.96809103308212, 42.22129886846196], [-70.96919107329654, 42.2164990641872], [-70.96919102524619, 42.21419874146076], [-70.96989094268943, 42.211898835936935], [-70.97158994415032, 42.1998991787215], [-70.9736900674079, 42.186899135638484], [-70.9738899554796, 42.184098912507714], [-70.97468999906621, 42.17809908284561], [-70.97659109166081, 42.16820079148384], [-71.00265806243698, 42.16813282513135], [-71.00669198153697, 42.168299931404285], [-71.00657200470357, 42.16784925170076], [-71.00681296016882, 42.16409704949348], [-71.00616199459566, 42.1606859396396], [-71.0044339527331, 42.16064472052545], [-71.00451699949208, 42.1560140150592], [-71.00325407427722, 42.15598604112274], [-71.00345502546668, 42.154684811000784], [-71.00851696315243, 42.154655982376745], [-71.00806295732652, 42.15110392956945], [-71.00854901577861, 42.148489990357994], [-71.00860804941418, 42.145603002763586], [-71.00957894903426, 42.14554976518659], [-71.0109190022971, 42.14515822068336], [-71.01262993466467, 42.145280859064044], [-71.01236592785077, 42.14694422071656], [-71.01667099573513, 42.147350722601985], [-71.01690191166952, 42.14728811485727], [-71.01699603919772, 42.146768004163704], [-71.01932291565664, 42.147140168663164], [-71.0194430932026, 42.147420900037744], [-71.0198930325665, 42.14756683825743], [-71.02008298325383, 42.14819673865185], [-71.02051992206721, 42.14876409089262], [-71.02123901686943, 42.14919306030401], [-71.02366592588902, 42.14954979804682], [-71.02486697193446, 42.150074722613425], [-71.02605907900488, 42.151318176469864], [-71.02598490415205, 42.15211128390568], [-71.02639200509356, 42.15291313315158], [-71.02631093868757, 42.15311087032149], [-71.02556796359931, 42.153438100958475], [-71.0255049692282, 42.15382217217663], [-71.02562508608732, 42.154168170116755], [-71.02617692516802, 42.15447374586255], [-71.02639707118766, 42.15486911617485], [-71.0262139315961, 42.15640510144092], [-71.02597203524509, 42.15705008632679], [-71.02616098416287, 42.157292830455134], [-71.02673593337164, 42.157523105352226], [-71.02757809557097, 42.15533203114139], [-71.02899208105241, 42.15545995211353], [-71.03021292099591, 42.156293830134885], [-71.03229997319833, 42.15732591891803], [-71.03330497371012, 42.1567459276863], [-71.03323190745813, 42.15611484309151], [-71.03347596310542, 42.15565610256559], [-71.03551404254395, 42.155166948156136], [-71.03851795676601, 42.15829927962471], [-71.03974103378287, 42.160804852629546], [-71.0400150232536, 42.1615329654817], [-71.03992598897956, 42.16173911595943], [-71.04118805795895, 42.162529149749986], [-71.0461770657654, 42.170509003708524], [-71.04788899563934, 42.17364889375523], [-71.04604993167412, 42.1738999037265], [-71.04593790824339, 42.17324785087008], [-71.0417920720336, 42.17375298859643], [-71.04041399954683, 42.17372384001653], [-71.03975004942349, 42.17392600068627], [-71.03975007891711, 42.17467777133876], [-71.03581400678021, 42.17495225986741], [-71.03499999850212, 42.17493208073825], [-71.03498090453857, 42.174672034697345], [-71.03298690299313, 42.175972210122445], [-71.03085696979957, 42.177024214770576], [-71.02764801264745, 42.17807117324787], [-71.01999200685648, 42.18009999948981], [-71.01879207796213, 42.182399800516436], [-71.01859193088148, 42.18399984441391], [-71.0195919461253, 42.185299945552195], [-71.01889205967746, 42.18660022987432], [-71.02922394109437, 42.191566743153025], [-71.04709199861897, 42.19479881554688], [-71.04949305125507, 42.20659907854969], [-71.04500696277577, 42.20638780636961], [-71.04459408628558, 42.21149997640741], [-71.04449402124389, 42.21549979841963], [-71.03849405546103, 42.221799992500266], [-71.03619302954192, 42.22469873774593], [-71.03419304066888, 42.22649914749873], [-71.0337940807895, 42.22670009860195], [-71.03309305321733, 42.22779901039949], [-71.03109299980727, 42.22809921425697], [-71.0263930043518, 42.228000011807545], [-71.02009191599582, 42.22849882851733], [-71.01889205818557, 42.228399271657985], [-71.01080893317224, 42.22870778966797], [-71.00819296135346, 42.22959973550328], [-71.00639204654406, 42.23079899622124], [-71.00369203905255, 42.23159876301389], [-71.00209195954243, 42.232299139766404], [-70.98909201582109, 42.234098912557315], [-70.98499104307582, 42.23449923227335], [-70.98369104380272, 42.23529917617495], [-70.98109093507033, 42.23569878786068], [-70.97999096803359, 42.235298795236915], [-70.97979105792452, 42.23619876543695], [-70.97739096981145, 42.238299107822975], [-70.97470771830082, 42.237404548184074]]]}}