{"type": "Feature", "properties": {"district_name": "8th Hampden", "chamber": "house", "vintage": "2001-2010"}, "geometry": {"type": "Polygon", "coordinates": [[[-72.52423102534121, 42.218891906428475], [-72.52283098590024, 42.213391885146116], [-72.52213101070967, 42.20929186971583], [-72.5209310155959, 42.20539213839693], [-72.51923103982595, 42.197992132507494], [-72.51755397056218, 42.192084268370195], [-72.52283086847953, 42.18819217059876], [-72.52613098490149, 42.19039224202467], [-72.53173100020739, 42.189792216386714], [-72.5343308880924, 42.186691767572654], [-72.53443103667597, 42.186192281507665], [-72.53623103656251, 42.18509220461192], [-72.53903099405542, 42.18219185249654], [-72.54063203352955, 42.180292171102494], [-72.54503196524324, 42.17589320403505], [-72.5485319979809, 42.173393088667666], [-72.54893197443842, 42.171692782722516], [-72.55013200469249, 42.17219276348348], [-72.55143204304018, 42.17199289513036], [-72.55403195780883, 42.17099323721919], [-72.55493196244885, 42.170292792635756], [-72.55543199142453, 42.16959320515298], [-72.55573207194072, 42.16969286069674], [-72.5577320210349, 42.16879318000083], [-72.56033199548911, 42.165593068521886], [-72.56113202908601, 42.16389294832939], [-72.56281804760467, 42.16389308695571], [-72.5628789598552, 42.16307092330404], [-72.56513186084214, 42.16389299717071], [-72.56803200249642, 42.16579283515142], [-72.57193200557346, 42.16739288336108], [-72.57293201126376, 42.16659288482052], [-72.5753320584186, 42.1654927477325], [-72.57603199462821, 42.16449294899108], [-72.57893304717868, 42.16239310636868], [-72.57963298540304, 42.160092786141185], [-72.58203300189831, 42.16029300330949], [-72.5820329791953, 42.15979273136131], [-72.58823302166925, 42.160093071265926], [-72.58873295633643, 42.155193029902925], [-72.58693300957742, 42.150393040404694], [-72.5913330140955, 42.14939288433853], [-72.59573295989655, 42.14989282240885], [-72.60013301679587, 42.14959293735031], [-72.60043305440294, 42.149292928569004], [-72.6036130267217, 42.14919707524105], [-72.6035330570001, 42.148093183735696], [-72.60373304283773, 42.1472927200154], [-72.60553300036354, 42.14679310492884], [-72.60353301023123, 42.14469308520806], [-72.60293298883043, 42.14339272751058], [-72.6021329529236, 42.140892835827856], [-72.60463300569965, 42.140192913507875], [-72.60573297421159, 42.14019299322447], [-72.6074329723625, 42.138792792718434], [-72.60993294381045, 42.14099313327001], [-72.61103289846703, 42.142492882342644], [-72.61103309002834, 42.142693217682556], [-72.61333395585986, 42.14519311195243], [-72.61575799291478, 42.14500521713179], [-72.61863403075017, 42.14379316529256], [-72.62253395953091, 42.14679273421316], [-72.62603400273255, 42.14999306287372], [-72.62773399902123, 42.153992101208345], [-72.62763404403016, 42.16199194184217], [-72.62853404453577, 42.1682920176766], [-72.62683396551296, 42.178991861379735], [-72.62243398437971, 42.185391751123106], [-72.60983312354018, 42.189791775049], [-72.6058329795219, 42.191691957814015], [-72.60133298163458, 42.19509200167793], [-72.5975329507832, 42.19719198470364], [-72.5905331379074, 42.202291875367564], [-72.59053290205351, 42.207092027312754], [-72.59343304835002, 42.21169124702536], [-72.59183299616907, 42.21169072844733], [-72.5871330340725, 42.21209213418799], [-72.57963301049364, 42.21299186935121], [-72.5278310214619, 42.218392081868025], [-72.52423102534121, 42.218891906428475]]]}}