{"type": "Feature", "properties": {"district_name": "3rd Barnstable", "chamber": "house", "vintage": "2001-2010"}, "geometry": {"type": "MultiPolygon", "coordinates": [[[[-70.53216182452474, 41.54928825605353], [-70.53575625847944, 41.55072572806], [-70.53995800289499, 41.55141582203583], [-70.54513577954731, 41.55161818031341], [-70.54760233164421, 41.55237778888842], [-70.54781512841394, 41.55262718570591], [-70.54775437909235, 41.552807883305356], [-70.5473889569652, 41.552947757870506], [-70.54556115490657, 41.552558181048425], [-70.54446524865342, 41.55212239549851], [-70.54361303916845, 41.552125350150156], [-70.54312564699939, 41.55232946322147], [-70.5413892531242, 41.55482132905872], [-70.54114473523516, 41.55549119440192], [-70.54111469784732, 41.55644649934223], [-70.54084026269466, 41.55661188267051], [-70.54007831442895, 41.556586310400185], [-70.53974394213456, 41.55672585591494], [-70.53919531969206, 41.557363881982276], [-70.53846365570672, 41.55923841800611], [-70.5376723885969, 41.55949227564768], [-70.53724545817096, 41.55983137060525], [-70.53684872070177, 41.56095351779168], [-70.53620916393805, 41.56143037786324], [-70.53565976407207, 41.56243754877126], [-70.53450216863968, 41.56397529174907], [-70.5323698297279, 41.565526107324615], [-70.53145578245075, 41.56598877992227], [-70.53057179821248, 41.56676627814146], [-70.53057104236689, 41.56696436189038], [-70.53105906565537, 41.56687680178409], [-70.53285689791754, 41.56579868635204], [-70.5331911283717, 41.56582123309574], [-70.53480534193253, 41.56685410982919], [-70.53373932924782, 41.56767904963066], [-70.5318496616443, 41.569848143573495], [-70.5305390555347, 41.570811090734324], [-70.53002087072456, 41.571403755483324], [-70.52907626243154, 41.571749653760484], [-70.52858860122365, 41.57287324791848], [-70.52609080878425, 41.572824845660705], [-70.52612165724402, 41.572644469788656], [-70.52810281407447, 41.57083473198299], [-70.52883351329709, 41.56994225579351], [-70.52886451246687, 41.56925708355428], [-70.52825594618204, 41.567607504002055], [-70.52807454823969, 41.56504315898327], [-70.52798384766052, 41.56477395240762], [-70.5270702549145, 41.564020472489], [-70.52716150727446, 41.56378489649828], [-70.52810558633144, 41.563763158268195], [-70.52895911309098, 41.56353578565244], [-70.53032934494317, 41.563031450616364], [-70.53130481576493, 41.56236952842167], [-70.53185296116635, 41.56152444106777], [-70.53218936826103, 41.56038491371685], [-70.5323732395392, 41.55855414693631], [-70.53596814715767, 41.55548844053388], [-70.53599862988295, 41.55495633240888], [-70.53663907842176, 41.554092314790495], [-70.53843524880392, 41.553843044442196], [-70.5394709713839, 41.55327047970282], [-70.53977509326903, 41.5534733928855], [-70.53986649738904, 41.554247391764726], [-70.54001881682315, 41.55440737665587], [-70.5402922218828, 41.55438549380339], [-70.5415725641827, 41.55303499838674], [-70.54163314722477, 41.5527912739507], [-70.54132916575664, 41.552578804617205], [-70.53989732583511, 41.55249017178507], [-70.53913649087157, 41.552743728901554], [-70.5374005318692, 41.55290178685105], [-70.53755230021343, 41.553521546269444], [-70.53548089205617, 41.55386469169156], [-70.53331955812769, 41.55276751338485], [-70.53024367216207, 41.55166416978722], [-70.52981724875488, 41.55122888853035], [-70.52927025351755, 41.55017298482142], [-70.52839048589284, 41.54747435955456], [-70.52921157835918, 41.54667889297887], [-70.53067013291941, 41.54823499933324], [-70.53216182452474, 41.54928825605353]]], [[[-70.45991182772747, 41.581404939076215], [-70.4599418500237, 41.58167927448213], [-70.4595765879239, 41.58217903879027], [-70.46030777471834, 41.58222344282388], [-70.46070399478144, 41.58242571892188], [-70.46091760044939, 41.58265727978983], [-70.46091768612216, 41.583044460687134], [-70.46070444655972, 41.583182642191595], [-70.46070402371899, 41.583462893706205], [-70.46201527881094, 41.58471520930706], [-70.46305080357837, 41.58506175592962], [-70.46353821289381, 41.58560532950411], [-70.46317402746793, 41.5866633747145], [-70.46225977630549, 41.587458650795284], [-70.46219940671027, 41.587783942872015], [-70.46280890011398, 41.58817274514226], [-70.4635398424567, 41.58835218828747], [-70.46290012433752, 41.588441452496376], [-70.46216876826739, 41.58817140131295], [-70.4617418482148, 41.58782590862848], [-70.46098032428644, 41.58636757928591], [-70.45994348444538, 41.58515547405139], [-70.45899706257573, 41.5844928760179], [-70.45787076049434, 41.583416678094494], [-70.45695615602159, 41.58135645344915], [-70.45677317261972, 41.580557334720986], [-70.45677312442186, 41.57934120986831], [-70.45695399129274, 41.57884313806536], [-70.45732097746856, 41.578767153346774], [-70.45899702760296, 41.580276663210675], [-70.45927092228952, 41.58078678415946], [-70.45991182772747, 41.581404939076215]]], [[[-70.42724945175156, 41.60482339624784], [-70.43102876612552, 41.60585735456271], [-70.43194300728348, 41.60658460536728], [-70.43261375855832, 41.60763877445553], [-70.43261359970933, 41.60809798856356], [-70.43230948290685, 41.60828196948419], [-70.43206512719169, 41.60823127574971], [-70.43121167508949, 41.60743143852246], [-70.43032799229258, 41.60711810584766], [-70.42907810841017, 41.606935253775596], [-70.42679217789163, 41.608305968645325], [-70.42438314150388, 41.60869682972146], [-70.42401701888674, 41.608574615955966], [-70.42401854091526, 41.6083056287302], [-70.42548007318182, 41.60702679093988], [-70.42800923978403, 41.60617444805027], [-70.42798122675683, 41.60583202291981], [-70.42721961221223, 41.60541851955918], [-70.42645780187377, 41.60546366690019], [-70.424262719502, 41.60620264135176], [-70.42359242439836, 41.60695827797165], [-70.42362093359353, 41.60780494650725], [-70.4234993854245, 41.60798781482674], [-70.4217937574284, 41.60928683174808], [-70.42136698515421, 41.60942684982852], [-70.42075745484594, 41.60944357361319], [-70.42042528298093, 41.60919786231237], [-70.42078762314031, 41.609010530900306], [-70.42081878587643, 41.60883017469882], [-70.42051371562094, 41.60868996258613], [-70.41792308392318, 41.60835299473291], [-70.40856614833207, 41.608161650389036], [-70.40241003354843, 41.60767860102492], [-70.40186090279832, 41.607541041322875], [-70.40170913993867, 41.607317844591165], [-70.40170870295267, 41.60699368668959], [-70.40347679782477, 41.606926913112616], [-70.40649384430168, 41.607313336810186], [-70.40853586850865, 41.60734253921907], [-70.41353511493509, 41.60700156858466], [-70.42203713708152, 41.605654236316504], [-70.42539070663152, 41.60480133211869], [-70.42724945175156, 41.60482339624784]]], [[[-70.61255168547494, 41.69801539802935], [-70.61382562765995, 41.697764767295865], [-70.61523808359004, 41.69822032954138], [-70.61593175615552, 41.698175072788764], [-70.61712970035529, 41.697419032644255], [-70.61758619912621, 41.69611530983326], [-70.61782784598553, 41.69593372686039], [-70.61837118457225, 41.69584452099062], [-70.61938681343807, 41.69597281308151], [-70.62030245513911, 41.69643740574337], [-70.62082328147089, 41.6974391901128], [-70.6226254367985, 41.69885490255531], [-70.62320692470782, 41.69998150628189], [-70.62094865934644, 41.70066189538145], [-70.6200623947085, 41.70048566340498], [-70.61975776108274, 41.70085022042093], [-70.61936085265401, 41.700963634588526], [-70.61902562441962, 41.70085130848548], [-70.61896437637719, 41.70052781604868], [-70.61875005748422, 41.70041416504313], [-70.61835377072678, 41.70048256953278], [-70.61771341595389, 41.70085183118636], [-70.61695079669757, 41.70183579800333], [-70.61689079823702, 41.70289048383351], [-70.61710487447677, 41.70315776259805], [-70.61843915119674, 41.70297621208363], [-70.61844756795499, 41.70331898732919], [-70.61796014623066, 41.70362303953844], [-70.61716663206988, 41.703661339944546], [-70.61679977782475, 41.70439626322225], [-70.61686154246858, 41.70503490072602], [-70.61783832777635, 41.704696380096095], [-70.61811297319859, 41.704764912925356], [-70.6181435345349, 41.70497168335267], [-70.61719808141754, 41.70554341903014], [-70.61689329275968, 41.70599800740481], [-70.61707758611712, 41.70768881182492], [-70.6170508298114, 41.71128344925753], [-70.61699029818914, 41.71223965412103], [-70.6165332659404, 41.712975560961006], [-70.61690013714268, 41.71354678485601], [-70.61686961169941, 41.71377221514441], [-70.61583211501065, 41.714417509286214], [-70.6153437331512, 41.71492018964909], [-70.6150694580277, 41.71574361617773], [-70.61553636413738, 41.718394419263], [-70.61490999411632, 41.71844525881705], [-70.61491288649523, 41.719700213095585], [-70.6139971153872, 41.71949500175814], [-70.61405707077412, 41.71812292622883], [-70.61143097012432, 41.71773497861272], [-70.61091312960934, 41.71864991067675], [-70.60883606297547, 41.718101866775825], [-70.60749184577205, 41.717141980964854], [-70.60599599050057, 41.716502214114165], [-70.6019051578761, 41.71618413667584], [-70.59931107931119, 41.71657275699617], [-70.59732499368576, 41.71600327875953], [-70.59442484074816, 41.71556887829812], [-70.59454611141962, 41.71472289796145], [-70.59645186204537, 41.71302784467467], [-70.59563583250376, 41.712817081280846], [-70.5939578360802, 41.71261690417072], [-70.5933369702406, 41.7127059446252], [-70.59266415798398, 41.71304104373399], [-70.58836886651831, 41.71320313028507], [-70.58846801393324, 41.71304410281425], [-70.58835201477996, 41.71272578194767], [-70.58717011094518, 41.71150019921444], [-70.58309508120058, 41.711706054094], [-70.5829438881786, 41.709053148477025], [-70.58367494968586, 41.70415803303434], [-70.58178298065985, 41.704547966721016], [-70.57992088337517, 41.70523411835317], [-70.57915800461858, 41.705280280294026], [-70.57747917655853, 41.70411416817402], [-70.57686891748045, 41.703862176259264], [-70.57619695517627, 41.70393100746385], [-70.5733888901124, 41.70475511906793], [-70.57320588136753, 41.70486899782693], [-70.57247413382599, 41.70667622666548], [-70.5714060414575, 41.70795678012356], [-70.57052106640299, 41.70859784821747], [-70.57000210063238, 41.70878101041971], [-70.56823187090832, 41.70891790904843], [-70.56704083826887, 41.708734824972886], [-70.56572903924008, 41.707179870104746], [-70.56188190314211, 41.70660798329478], [-70.56133204908929, 41.70631081809074], [-70.5600808587223, 41.704733227915334], [-70.55928687858692, 41.70416109618843], [-70.55776109223284, 41.703336983738645], [-70.55663216272912, 41.702948903017194], [-70.55528890162782, 41.7021251441495], [-70.55248095280038, 41.70125597737475], [-70.55095485849637, 41.700615227722174], [-70.54909402624614, 41.6993340644676], [-70.54759788055867, 41.699081820124945], [-70.54192187092238, 41.699837225219895], [-70.54134295629412, 41.69693190974798], [-70.54076290446203, 41.69560623979219], [-70.5408860284312, 41.691854257814995], [-70.5410998503973, 41.69068777975254], [-70.54308502765572, 41.686066829946476], [-70.54485499900015, 41.68284304136314], [-70.5452828639569, 41.68178977831103], [-70.54537513370444, 41.680738200446136], [-70.54632116447661, 41.67886315579168], [-70.54635108679174, 41.67829108919721], [-70.54702309983651, 41.67641486738061], [-70.55086793513871, 41.67076599514338], [-70.55574189442277, 41.66721675078546], [-70.55617511771443, 41.666593996024254], [-70.55761501453169, 41.66580119569571], [-70.55845007860277, 41.664873938929595], [-70.55952788062436, 41.66325874682803], [-70.56463193942369, 41.659246197649175], [-70.56627897074975, 41.657276019445234], [-70.56682303671553, 41.65647687248416], [-70.5669430749248, 41.65557801861325], [-70.56700411506317, 41.65427405619236], [-70.56654595571895, 41.65217009944585], [-70.56666811246987, 41.65125493889077], [-70.5675830104397, 41.649538724778814], [-70.5682228636863, 41.64563395668631], [-70.53977206448918, 41.63732791297582], [-70.53347906037116, 41.6264201474428], [-70.5327398354843, 41.62342224709419], [-70.53015204764995, 41.6168339540408], [-70.5254281249946, 41.61603213242742], [-70.52512311716413, 41.6158708192489], [-70.52049095590134, 41.615573250593485], [-70.50062006129097, 41.6177441588311], [-70.50043189066221, 41.61819608775982], [-70.50055087225412, 41.6212382826206], [-70.50122085034563, 41.622519941198426], [-70.50100485508439, 41.6245861860842], [-70.49947191508174, 41.6245079820081], [-70.4985541816604, 41.62472894798081], [-70.4950770248313, 41.627337035040924], [-70.49550497005309, 41.62788388443291], [-70.49831196691285, 41.63028517973893], [-70.49886088549805, 41.63108519792754], [-70.49843614603073, 41.6333499336223], [-70.49892787483513, 41.63687207503584], [-70.49887084549077, 41.64135619414463], [-70.49527393738, 41.64300486615365], [-70.49435987050462, 41.6431419774931], [-70.4932630828713, 41.64380589940113], [-70.49128005993752, 41.64421883138276], [-70.48990696395386, 41.64401417836478], [-70.48878083556701, 41.64591304992374], [-70.48762288188925, 41.64735410838876], [-70.48677100078159, 41.64950526767232], [-70.48408711497653, 41.648773928511275], [-70.48240892662871, 41.64852313155218], [-70.4812500734473, 41.64850093309376], [-70.47713414628731, 41.649097095095776], [-70.47213211422604, 41.648847147361465], [-70.4670999222109, 41.647795891370166], [-70.46560484318151, 41.647315776480326], [-70.46523896395212, 41.64683578413873], [-70.46453808836787, 41.64637919486403], [-70.46334792249816, 41.64523607440665], [-70.46307293173568, 41.64519079718097], [-70.45895515021431, 41.642629747092805], [-70.45806985128048, 41.64242411312021], [-70.45681987367941, 41.64157807118634], [-70.4559960575798, 41.6406402684264], [-70.45426784803635, 41.639131940875295], [-70.45258782711409, 41.63880920823512], [-70.45297716773582, 41.63972615337963], [-70.45298709873819, 41.64157210596706], [-70.45149181564265, 41.642172863890494], [-70.44652997741639, 41.65024992232058], [-70.44793583539095, 41.65229507868608], [-70.44785682146966, 41.65285598506828], [-70.44770411333174, 41.65297105955915], [-70.44587410469052, 41.65164399904973], [-70.44538601426446, 41.65155280815832], [-70.44550785655294, 41.652718857651564], [-70.44499005912947, 41.653222234813406], [-70.44395311913608, 41.65269599376787], [-70.44126886187134, 41.65175879153383], [-70.44056792081138, 41.65251424545611], [-70.43922589049065, 41.652673940880085], [-70.43867703977725, 41.65251406450616], [-70.43828017206293, 41.652147940185], [-70.43837192129668, 41.65107279255672], [-70.4369988920237, 41.65075213004913], [-70.43416284272575, 41.64855613346938], [-70.43336987541694, 41.64816714424213], [-70.43254680773612, 41.64807613185838], [-70.43209003002326, 41.64755015615338], [-70.43313907003349, 41.64752005137059], [-70.43352386753514, 41.64734582744661], [-70.43390998120267, 41.64689079080243], [-70.434001127846, 41.6459681539562], [-70.43334301753937, 41.644828008247515], [-70.43043301290903, 41.64591213742973], [-70.43035087141938, 41.64635988347623], [-70.43004596096132, 41.64606325183912], [-70.42739302499326, 41.64702309627781], [-70.41815105610732, 41.64910388387768], [-70.41440013583703, 41.65061292447067], [-70.41324106486049, 41.650932759902325], [-70.40439599778844, 41.652165886853886], [-70.3970449551258, 41.65337625354831], [-70.39213394691417, 41.65325985993348], [-70.37911080944406, 41.652477182402585], [-70.37134803182181, 41.65217697995496], [-70.36927383177279, 41.65233815413494], [-70.36695686366511, 41.65279625656813], [-70.36750517906971, 41.65208700075444], [-70.36893791956749, 41.65096615805196], [-70.36945607877692, 41.65034776191564], [-70.36985096420801, 41.649294805925706], [-70.37003214594853, 41.64751205985541], [-70.37042787063709, 41.64696279362544], [-70.37051896252125, 41.64643582071025], [-70.37070210392412, 41.64636785628664], [-70.37115300741407, 41.64562497569879], [-70.37015592904487, 41.645580181116564], [-70.36861588386259, 41.644461272604325], [-70.36818994200893, 41.644661881845906], [-70.36738497521455, 41.644509797530006], [-70.3671068908683, 41.64428304487325], [-70.36639740003393, 41.643252299961375], [-70.36633799069955, 41.642709755792026], [-70.36587997517593, 41.64213791626919], [-70.36395854378408, 41.640620640961096], [-70.36420183673988, 41.63957294268518], [-70.36231007223576, 41.63833451045317], [-70.36093744526876, 41.63790037313917], [-70.36063239044854, 41.637084676118036], [-70.35980792691369, 41.63639152375152], [-70.35944201541992, 41.63572941208395], [-70.35852699146182, 41.63555139766028], [-70.35825226989232, 41.63469885551673], [-70.35934855357259, 41.633650158546736], [-70.36385696011804, 41.630815045603335], [-70.36589894546896, 41.62925912082211], [-70.36754592030208, 41.628572077341595], [-70.37025966339552, 41.628404360682644], [-70.370808477889, 41.62822690891218], [-70.37211830551854, 41.62689601893752], [-70.37278743693409, 41.62593356728049], [-70.37327499069144, 41.62561256200113], [-70.37327492937777, 41.62536044076052], [-70.37245388550244, 41.624388271238765], [-70.3699225688156, 41.62311266004694], [-70.3691296093725, 41.62233828157697], [-70.36818438643265, 41.62222364026169], [-70.3671174445473, 41.62258724885906], [-70.3666604841003, 41.62304303934004], [-70.36608375840405, 41.62437499616378], [-70.36431332761748, 41.62329649555515], [-70.36644521914461, 41.62130756163721], [-70.36766343494263, 41.619662909835824], [-70.36805888138143, 41.61837923154918], [-70.36863587634852, 41.617535761418246], [-70.36869712942033, 41.61714693450562], [-70.36985489870276, 41.61588096559005], [-70.3704931887269, 41.615407831040514], [-70.37265735228165, 41.61407304383063], [-70.37567579230317, 41.61293801219539], [-70.3791515059044, 41.61135607164435], [-70.38433422062343, 41.60985270158509], [-70.38704781638347, 41.60884719207894], [-70.3922289196795, 41.607522968416355], [-70.40058181428735, 41.60637669473891], [-70.40039885104602, 41.60731587077414], [-70.39988035011005, 41.608232097551465], [-70.39990979679837, 41.608853119064044], [-70.40018409915983, 41.60962451365445], [-70.39987906378008, 41.60979039132116], [-70.39786738177767, 41.610084923952044], [-70.39719683719292, 41.61039919638148], [-70.39707402870587, 41.61097708756085], [-70.39725652728042, 41.6112000305297], [-70.39722610533808, 41.61166007890213], [-70.39646346563711, 41.61296617498311], [-70.3961584834552, 41.6139964539862], [-70.3961881050831, 41.6145184224519], [-70.39655334339005, 41.615343051001446], [-70.39786209023117, 41.617795908037245], [-70.3973448059104, 41.617719982188056], [-70.39682696795714, 41.61728500310234], [-70.3965838323201, 41.61657636556037], [-70.39621777292366, 41.616211514580336], [-70.39438991503287, 41.61557639722671], [-70.39250005961283, 41.61414938575893], [-70.39246992169483, 41.613897539457426], [-70.39140364836734, 41.61287472019909], [-70.39054891014237, 41.61232612248221], [-70.39048998567279, 41.611615334319374], [-70.38988111584331, 41.610100612498044], [-70.38948563864383, 41.60966397572574], [-70.38911997171388, 41.609713869381764], [-70.38881370786899, 41.6108341600036], [-70.3889691300688, 41.6117299132279], [-70.38978817170745, 41.61282180805729], [-70.39219473634914, 41.61467541168477], [-70.39268239450173, 41.614858565742274], [-70.39262140179564, 41.61511121690141], [-70.39161435544291, 41.61623143795854], [-70.3911871489395, 41.61719128762911], [-70.39121757115919, 41.61790236454123], [-70.39200875444745, 41.620676078479676], [-70.39231251810877, 41.62119453426709], [-70.39298202044068, 41.62172893265363], [-70.39441637593991, 41.6214035487339], [-70.39511720765789, 41.621449189713616], [-70.39545275353913, 41.62156219499616], [-70.39618352899656, 41.62243708107584], [-70.39612193718806, 41.62298574383309], [-70.39584966999162, 41.62353010926778], [-70.39520736683089, 41.624176678506714], [-70.39395747005514, 41.62458828305475], [-70.39368238363356, 41.62492495940422], [-70.39358623077065, 41.62573665984824], [-70.39422615698304, 41.62642270968247], [-70.39632975270085, 41.628027338304875], [-70.39681598139936, 41.62862578186872], [-70.39706245641428, 41.629426177397626], [-70.39772852648001, 41.630362887319684], [-70.39727256502437, 41.63072708238334], [-70.39721035622686, 41.631159809683524], [-70.3996801949235, 41.63283208156052], [-70.39998552222914, 41.63276525316775], [-70.40001642164904, 41.632080669254364], [-70.39974198425469, 41.63109317132985], [-70.39998673502558, 41.63077476265655], [-70.40059548636424, 41.63120891251243], [-70.40196690113086, 41.63296618561315], [-70.4019661309762, 41.63342652141086], [-70.40172210617968, 41.633636890131], [-70.40147879644557, 41.633630037254605], [-70.40120442607977, 41.6333358725632], [-70.4007164294798, 41.63335985161438], [-70.40041143704477, 41.63351672793672], [-70.40037992691936, 41.6338878493379], [-70.40077700374012, 41.63417870037286], [-70.40205759694912, 41.63447865313411], [-70.40236294578507, 41.634366797172554], [-70.40242335744513, 41.633818678327756], [-70.4029420863784, 41.63377416161392], [-70.40336842098489, 41.63406585308534], [-70.40373399091875, 41.635124003432], [-70.40343060357037, 41.63562419100403], [-70.40205752346081, 41.63553215183878], [-70.40166101667482, 41.63518559250499], [-70.40108129693948, 41.63537302403397], [-70.40092863921741, 41.63677114508427], [-70.40108016382597, 41.63742654485571], [-70.40223923106755, 41.63781761400282], [-70.40254345140325, 41.6377507678499], [-70.40272712350404, 41.6363360522796], [-70.40321350953025, 41.636013782508876], [-70.40443550305555, 41.63612461139342], [-70.40519710838744, 41.63637618849296], [-70.40580707643676, 41.63681032129744], [-70.40580587923388, 41.63729653999589], [-70.40541044129566, 41.63800407046805], [-70.40467775030085, 41.63766160537183], [-70.4042820923511, 41.63765779297692], [-70.40480033140035, 41.638344859281105], [-70.40476898992362, 41.6386422653783], [-70.40455577482298, 41.638870378321315], [-70.40364077682847, 41.63909736260012], [-70.40336589914897, 41.63944362702076], [-70.40364018724829, 41.64031349111165], [-70.40473840734562, 41.64036291086324], [-70.40516473211476, 41.64074519589882], [-70.4060792608146, 41.64234606001183], [-70.40601774493535, 41.642806378366785], [-70.40479699471786, 41.64498266287499], [-70.40415569741933, 41.64573847022818], [-70.40229546718872, 41.64527481631447], [-70.40196006715463, 41.64534191932834], [-70.40138030324435, 41.64605160042218], [-70.40095393891568, 41.6462815912753], [-70.40113621530064, 41.64687425804976], [-70.4018681444403, 41.64667591439615], [-70.40238639015307, 41.6469938163097], [-70.40265985593965, 41.64697281943265], [-70.40284404727366, 41.64614170207909], [-70.40391155266722, 41.64628143341433], [-70.40494883658693, 41.6462148911108], [-70.40513095117625, 41.646401799435445], [-70.40507008443394, 41.64658298243572], [-70.40403333431354, 41.64694667179902], [-70.40415516029297, 41.647521867802645], [-70.40458156544184, 41.64785857576922], [-70.40488630238288, 41.648684275559546], [-70.40485560546746, 41.64905315475673], [-70.4054657719816, 41.649307204866375], [-70.40592357359702, 41.649213130738325], [-70.40632010726902, 41.6475674724019], [-70.40592260369974, 41.647383005038144], [-70.40589390504702, 41.64706476138416], [-70.40598520235294, 41.646859667278946], [-70.40668584900425, 41.64658164623693], [-70.40665641895905, 41.6462842226317], [-70.40622981820732, 41.64589293672576], [-70.40622991862934, 41.64560199196739], [-70.40680916480652, 41.6446339764738], [-70.40726762512016, 41.64436712984498], [-70.40790727539962, 41.644935474107996], [-70.40952386701389, 41.64541133159737], [-70.40967603074373, 41.644869158694476], [-70.41110949157697, 41.64484237566729], [-70.41187149038836, 41.64457166379341], [-70.41306208638115, 41.64208043586642], [-70.41397754278407, 41.64069971026379], [-70.41400771561818, 41.64020420632749], [-70.41379401078657, 41.63999900200022], [-70.41291049088753, 41.63967710195583], [-70.41147727794556, 41.63973992596803], [-70.41123295394236, 41.63996832067308], [-70.41117173750068, 41.64118499280563], [-70.41074477618795, 41.64198284943415], [-70.41050060512825, 41.642994614471405], [-70.40979848025253, 41.64356133882359], [-70.40870106961776, 41.64379111731487], [-70.40806054670365, 41.64353790918605], [-70.40742015490048, 41.6424647526553], [-70.40674946190754, 41.64187077790502], [-70.40659746146626, 41.640997595701414], [-70.4055004892964, 41.63966904233925], [-70.40552986707799, 41.63931083838769], [-70.40647651163131, 41.639053762936086], [-70.40641637219727, 41.63803007518924], [-70.4071456606418, 41.6367714214945], [-70.40748300173975, 41.63656588180491], [-70.41120235966872, 41.635925116753484], [-70.41187554072, 41.63551117095266], [-70.41224192716243, 41.635029014505065], [-70.41260757543671, 41.63386251754075], [-70.41248629981872, 41.63285513208216], [-70.41032162001916, 41.63136896152303], [-70.41016989246482, 41.63102872189897], [-70.41022997740018, 41.6302532479431], [-70.41300585087875, 41.63059722382646], [-70.41337098036084, 41.630430759195384], [-70.41358339893655, 41.630024779671686], [-70.41373780912467, 41.6284623335444], [-70.41614654023724, 41.62720784677923], [-70.41709212555268, 41.626844866030225], [-70.41791535306677, 41.626753658600336], [-70.41940896937174, 41.626915311068096], [-70.42187583550181, 41.62627298733157], [-70.42355551501504, 41.62549540678923], [-70.42450421606551, 41.62447452685746], [-70.42462589475619, 41.62399563508315], [-70.42419995854928, 41.62283118347181], [-70.42441114693418, 41.622649162403185], [-70.42572385126385, 41.62210106251315], [-70.42968732273184, 41.62173494557409], [-70.43194348604206, 41.621094356839556], [-70.43288755243157, 41.62040708894899], [-70.43291816452279, 41.61983053852196], [-70.43243015299032, 41.619097739061864], [-70.43215686148204, 41.61740800457413], [-70.43230804461228, 41.61699973247476], [-70.43297980590978, 41.61660535278817], [-70.43313140580177, 41.61630625982645], [-70.43419854884023, 41.6159234624095], [-70.43447307797692, 41.615649723774276], [-70.43468592188728, 41.61471190300329], [-70.43465562582935, 41.61333284708087], [-70.43432087917444, 41.612877804707146], [-70.43352764442069, 41.61232898488458], [-70.43264403450395, 41.611916625134484], [-70.42987007773871, 41.611276000550426], [-70.42950462058249, 41.61100130629388], [-70.42950459224366, 41.610778451293015], [-70.4309371179464, 41.610289950002404], [-70.43273549244824, 41.610321484727756], [-70.43368089606315, 41.60994937230825], [-70.43505030222764, 41.608879454923375], [-70.43645021605359, 41.607414746731806], [-70.43697163065679, 41.60640439934809], [-70.43733739381587, 41.60496770311355], [-70.43895126542303, 41.60313916967346], [-70.43962319451884, 41.60272336903543], [-70.44029520242013, 41.601940643396574], [-70.44102474861837, 41.59874306924424], [-70.44145121231472, 41.597413293603154], [-70.44178517370496, 41.59691611218929], [-70.44230403436697, 41.596889428590174], [-70.44260881104276, 41.59713763010847], [-70.44260800581338, 41.597344719530604], [-70.44187730366302, 41.59823664590672], [-70.44154236655059, 41.599790130068875], [-70.44184737218598, 41.6006601937617], [-70.4426400974608, 41.60075817346509], [-70.44291428957295, 41.600385365917376], [-70.44315771993998, 41.5988782990373], [-70.44398033334626, 41.59739068072394], [-70.44398035256697, 41.596526276559196], [-70.44468040890261, 41.59462558087253], [-70.44489352219881, 41.5925881064424], [-70.44528945106862, 41.591807849074875], [-70.4468435689503, 41.59036527685534], [-70.44818454782872, 41.58970913723568], [-70.44900500523117, 41.58902396462199], [-70.45019469253111, 41.58883687165887], [-70.4529973908942, 41.58760327302445], [-70.45354652221286, 41.58766855257692], [-70.45415559023608, 41.58805739784222], [-70.45503976585188, 41.58943304629703], [-70.45543605380689, 41.59064382016096], [-70.45476636982578, 41.59284143837546], [-70.45458390543794, 41.594329387096856], [-70.45437066072482, 41.594854737676265], [-70.45391387367523, 41.5953739020606], [-70.45303064102981, 41.59535788818406], [-70.45275665002684, 41.59563167503298], [-70.4526651678046, 41.59588520047161], [-70.45306146679911, 41.59642967202887], [-70.452421921532, 41.59746432081296], [-70.45239124413997, 41.59823952478684], [-70.45275678472889, 41.59919846520434], [-70.4526965264793, 41.60061326212971], [-70.45385495935521, 41.60177872181569], [-70.45437292421099, 41.6017626625265], [-70.45418991458287, 41.60096354848487], [-70.4547083345203, 41.60009266035297], [-70.45434205375723, 41.59901609786596], [-70.45461608267858, 41.59837313533925], [-70.45339661029655, 41.59801017833405], [-70.45327478040574, 41.597849798810486], [-70.45431121103958, 41.597278570974126], [-70.45427971489411, 41.59652192843421], [-70.45504138536803, 41.59597180114954], [-70.45641336968211, 41.596864570880044], [-70.45830273735183, 41.597525140831564], [-70.4586685733496, 41.59745702790602], [-70.45921656441001, 41.59688296213418], [-70.4599789345099, 41.59649488394933], [-70.46089234770352, 41.59633891453618], [-70.46189812074155, 41.59633516912183], [-70.46302648937538, 41.597185671473696], [-70.46281263575385, 41.59768345197704], [-70.46104569814895, 41.59850807556112], [-70.46064956175545, 41.59891808725614], [-70.46071102005901, 41.59956582558325], [-70.46147321961622, 41.60032182591216], [-70.46211345793292, 41.60145770129541], [-70.46208348987383, 41.60187218751618], [-70.46153523119139, 41.60276196973591], [-70.46150562681915, 41.60350060099192], [-70.46117017273374, 41.6040276565236], [-70.46101788482812, 41.604957072417854], [-70.46053070983011, 41.60621545494938], [-70.46016510458811, 41.606589160674964], [-70.45867224307074, 41.60647306818854], [-70.457178627829, 41.60672612113364], [-70.45690459555219, 41.606954905935325], [-70.456752520203, 41.60786631031794], [-70.45623434876498, 41.60830556724061], [-70.45605200583249, 41.60999217927178], [-70.45577828936611, 41.61029243074103], [-70.45538168280036, 41.61054090345746], [-70.4538576099291, 41.610632125459944], [-70.45282126843217, 41.61102382628945], [-70.452517532498, 41.61162205765477], [-70.45270097833864, 41.61441167412461], [-70.45257841762809, 41.61468348905201], [-70.45169431993776, 41.61470403433901], [-70.45126795172784, 41.61514130685811], [-70.45057720765595, 41.61631279803778], [-70.4514501334853, 41.61651782150263], [-70.45309815685839, 41.61727079054125], [-70.45373790242495, 41.61724460838283], [-70.45407348550867, 41.616970250602726], [-70.45425445984819, 41.616037171893375], [-70.45446891513433, 41.61574031350331], [-70.4566934762852, 41.61464030032865], [-70.45672639741535, 41.61388593383383], [-70.45724230066033, 41.61358846954358], [-70.45864422703164, 41.61321977074696], [-70.45849185459167, 41.612375915123174], [-70.45876410921922, 41.61195803098354], [-70.45885656612577, 41.61088400243447], [-70.45964828904515, 41.60994637079864], [-70.45964842936586, 41.60899136944481], [-70.46120002496987, 41.607640302439044], [-70.46144397480148, 41.60695483710785], [-70.46272534109235, 41.6062411357368], [-70.46308964147866, 41.60583139327325], [-70.46305983178068, 41.604940273950874], [-70.46269336648714, 41.603494566495094], [-70.4628158890492, 41.60326777085834], [-70.46333310553713, 41.60292808033189], [-70.4652519913307, 41.602217914631986], [-70.46577041586265, 41.60166324931651], [-70.46558671383524, 41.60043419883155], [-70.46613588653304, 41.59994734329883], [-70.46665279665768, 41.59871790497817], [-70.46631722600281, 41.59802603272029], [-70.46631705179502, 41.59738673413709], [-70.46653013359112, 41.59688894027666], [-70.46713971208771, 41.596790935006204], [-70.46954713679688, 41.59736374118718], [-70.4711645875189, 41.5985787630634], [-70.47149842101206, 41.599031994104884], [-70.47207873431813, 41.60164507978768], [-70.47186589416987, 41.60187332798309], [-70.47101202465034, 41.60221676197244], [-70.47101155639575, 41.60299224250953], [-70.47140946090127, 41.60347306631473], [-70.47311594305071, 41.60459488800913], [-70.47366604791328, 41.605732132601], [-70.47391074586565, 41.60753967919431], [-70.47384906798665, 41.608206556681935], [-70.47357667300719, 41.60868750386377], [-70.47357769075595, 41.60925477604411], [-70.47430832601204, 41.609938936691655], [-70.47507251631997, 41.61229817122629], [-70.47565164778706, 41.6128222578802], [-70.47595710536014, 41.61355659950509], [-70.47744996766463, 41.61422396856694], [-70.47772545922562, 41.61394844310562], [-70.4777858611469, 41.61375821504861], [-70.47677998029991, 41.613095793960426], [-70.47598698051942, 41.61232217166846], [-70.47555999738252, 41.61166158639058], [-70.47555918519566, 41.610400427730575], [-70.47537487456222, 41.610016088853186], [-70.47433969571874, 41.60894032381532], [-70.47470386989124, 41.60804262538875], [-70.4747948594405, 41.60699671117462], [-70.47461137934698, 41.60557802405609], [-70.47427408599397, 41.60486927800013], [-70.47415279529325, 41.60408651282337], [-70.47290275233877, 41.602787624215274], [-70.47305458630585, 41.60164208972529], [-70.47256683549936, 41.600523413953155], [-70.47229074318395, 41.59852649232525], [-70.47180236940316, 41.59765879873406], [-70.46591960056836, 41.59400542336986], [-70.46588865788011, 41.593252166915164], [-70.46613071809713, 41.59297805845933], [-70.46866145083665, 41.59256491454437], [-70.46936115916196, 41.59215088583582], [-70.46993968142945, 41.59144085842688], [-70.47015314967517, 41.59091604920389], [-70.47115787166078, 41.59055204602272], [-70.47204215805088, 41.590522340947246], [-70.47332228195536, 41.590793911734345], [-70.47359571712516, 41.590664696305474], [-70.47374696664839, 41.59023105302252], [-70.47368758466462, 41.58974991887314], [-70.47329003717466, 41.58883071050888], [-70.47329017125426, 41.588308469660596], [-70.47435424288203, 41.58727697358777], [-70.47447548772521, 41.58686782005166], [-70.4750865665753, 41.58617776243214], [-70.47511595357022, 41.58441208455023], [-70.47499401178895, 41.584233710241044], [-70.47444534676477, 41.58406950161473], [-70.47325764624405, 41.58428275200833], [-70.47283091022993, 41.584531569434056], [-70.47243513634812, 41.58541940346254], [-70.4720090249593, 41.58583931187703], [-70.47167334849769, 41.585924622847116], [-70.4710033109123, 41.58526687855539], [-70.47042424582784, 41.58517496680446], [-70.47011970473079, 41.58542207227443], [-70.46999761387534, 41.585765942430335], [-70.47030179689509, 41.58766238642169], [-70.47115700329843, 41.58780688993475], [-70.47121805326086, 41.58885923860824], [-70.46923764031771, 41.588810898744654], [-70.4681716939233, 41.588950917039355], [-70.46728756360048, 41.588763925617904], [-70.4666480198663, 41.588330411694606], [-70.46661706528403, 41.587694209788694], [-70.46640339290067, 41.58732478732129], [-70.46606791180068, 41.587258138066304], [-70.46576399629109, 41.58744108299876], [-70.46579339202057, 41.58775593874608], [-70.46677005467562, 41.589176230930676], [-70.46673982398161, 41.589563135812845], [-70.46613082853933, 41.58981421472282], [-70.4659782944293, 41.59018537461551], [-70.46597892767802, 41.5911673945812], [-70.46524763185093, 41.59112246875796], [-70.46448582246683, 41.59043908850696], [-70.46448535687226, 41.589772216326814], [-70.46485029480186, 41.58903832440379], [-70.46494200858521, 41.58844263281572], [-70.46356958837727, 41.587162781611866], [-70.46353920750045, 41.5867938910869], [-70.46384372325973, 41.586411739951835], [-70.46557967677106, 41.58569596991851], [-70.46561062270524, 41.585381672553275], [-70.46603474786158, 41.584971341154215], [-70.46594511643534, 41.584720092001795], [-70.4653358082218, 41.58448325372334], [-70.46509258006799, 41.58506293354182], [-70.46427009948403, 41.585469630345955], [-70.46350771379389, 41.58480367872209], [-70.46219768516515, 41.5840280554925], [-70.46195362030316, 41.58340959698837], [-70.46110001368213, 41.58217779135974], [-70.46103955599854, 41.581908238300905], [-70.4612823707828, 41.581355575740645], [-70.4604597725073, 41.58103290433226], [-70.45957628482984, 41.57972933801888], [-70.45908796503774, 41.57933880966615], [-70.45863128327214, 41.578155633127906], [-70.45826482231406, 41.577899597285686], [-70.45774727502348, 41.57787909232968], [-70.45744267320755, 41.57799053321223], [-70.45528054860617, 41.579981980277076], [-70.45244822846311, 41.58323286645234], [-70.45208284526652, 41.583850219041], [-70.45199108873895, 41.58441888825919], [-70.45229567624034, 41.584974897810525], [-70.45223468991936, 41.585289482348905], [-70.45104766272571, 41.586439502889355], [-70.4508952947848, 41.58729856448307], [-70.45062123870274, 41.58741759009884], [-70.45025507876956, 41.587187976707824], [-70.45004179178169, 41.58693839010354], [-70.45004173402658, 41.586301900458224], [-70.45040692636545, 41.58549264577345], [-70.45400071927651, 41.580421537861206], [-70.45750325398113, 41.576800852033614], [-70.45887332171976, 41.57442393105497], [-70.46127702014965, 41.57181952500473], [-70.46215969619166, 41.57108699970409], [-70.46526759123881, 41.5678305227739], [-70.46898120654168, 41.56451361700079], [-70.47068632522668, 41.56343788644013], [-70.47625722134539, 41.55850275302763], [-70.4778707498722, 41.5574913716862], [-70.48000183952914, 41.556391767240726], [-70.48362444650093, 41.555156356879955], [-70.48557266561123, 41.55423903036404], [-70.48633334964003, 41.55398639605251], [-70.48782642863426, 41.553967075245076], [-70.48928759405737, 41.553713901147134], [-70.49324524863222, 41.552041091285275], [-70.49421908037581, 41.551974870271216], [-70.49708116581422, 41.552317024309275], [-70.49948732230934, 41.55189648199896], [-70.5066121660868, 41.55120213521805], [-70.52232773506117, 41.54895920757194], [-70.52470332139569, 41.54838705150526], [-70.52674402695926, 41.547567181460266], [-70.52720039896597, 41.548074764022765], [-70.5273524849047, 41.549973113981444], [-70.52604163247291, 41.55136876806112], [-70.52479212538161, 41.55168275812595], [-70.52205214511896, 41.55108855658323], [-70.51915899019133, 41.55118121261901], [-70.51745339177926, 41.551752858887006], [-70.51638738608197, 41.55250560247328], [-70.51574672662846, 41.5531714246792], [-70.51550329014897, 41.55319295004821], [-70.51577703743426, 41.55385600020698], [-70.51574574115494, 41.554820294838756], [-70.51531865701504, 41.556212788369166], [-70.51525520723494, 41.558610151548166], [-70.51498188111488, 41.55889253618898], [-70.51318488747759, 41.55927705048978], [-70.51184431767518, 41.55994295315424], [-70.51093038744662, 41.56012633431199], [-70.51001596653963, 41.56007503840666], [-70.50958912647339, 41.560810212953555], [-70.50806479267155, 41.56199220607807], [-70.50751614530503, 41.562729127450936], [-70.50690683186235, 41.563052451419644], [-70.50654089443117, 41.56401213430005], [-70.50587090494489, 41.56423700215791], [-70.50587018954131, 41.56481381845133], [-70.50461931703641, 41.56625309424139], [-70.5033704987771, 41.56652182849391], [-70.50321831535665, 41.56691104719476], [-70.50349171243545, 41.56730400067066], [-70.50343091314684, 41.56757528395556], [-70.50306432310475, 41.56785006924326], [-70.50135906168006, 41.56816992450345], [-70.50099270127495, 41.568669808642404], [-70.50090153421195, 41.56908544800336], [-70.50157077229846, 41.569706990994895], [-70.50153990616754, 41.57043718017237], [-70.50105173429858, 41.570938812010034], [-70.50099054486601, 41.57135414787751], [-70.50022853053062, 41.571418350417495], [-70.49946775725716, 41.571211876376736], [-70.49866424098886, 41.57091046790228], [-70.49799524066115, 41.570370514256474], [-70.4980513319693, 41.56965911476034], [-70.49869709539232, 41.56880885827471], [-70.49872029177118, 41.56802063334561], [-70.49978335142592, 41.56717404917857], [-70.50006134668673, 41.56671896990458], [-70.50010232903733, 41.56625336663377], [-70.49949324807989, 41.565501784568845], [-70.49765643345528, 41.56462963630745], [-70.49639357732552, 41.564550952213985], [-70.49586021669516, 41.5647325062527], [-70.49488709010153, 41.566317072986266], [-70.49417286799151, 41.567946685753874], [-70.49400546060123, 41.569301452368514], [-70.49502620867796, 41.56970048557907], [-70.49522128245427, 41.56877816128666], [-70.49556289404957, 41.568569585616075], [-70.49590011641573, 41.56864009855465], [-70.49646017207607, 41.568933181138576], [-70.4965932488732, 41.569790308659776], [-70.4962722178132, 41.570143702882525], [-70.49619742473342, 41.57054147518326], [-70.49707256107303, 41.57165108814494], [-70.4974417993063, 41.57183217978303], [-70.49778233893423, 41.57171643858412], [-70.49802455593692, 41.57137079071252], [-70.49905645150305, 41.57180365106669], [-70.4989182868151, 41.57198926926794], [-70.49807912011535, 41.572218786771124], [-70.49628491135367, 41.57220294540262], [-70.49594125573438, 41.57177671325062], [-70.49560135771591, 41.571875004605836], [-70.49543671492783, 41.57231475157051], [-70.49636444533446, 41.572890781357565], [-70.49632793415041, 41.573068290547724], [-70.49565848573963, 41.57327397032143], [-70.49565290056894, 41.57363014286492], [-70.49617940553523, 41.57391449292484], [-70.49750855510952, 41.574078734994146], [-70.49709329276133, 41.57463445143409], [-70.49643543607836, 41.57484023826417], [-70.496700610498, 41.57520724864334], [-70.4970145742377, 41.5753540877236], [-70.49749197070368, 41.57513826802264], [-70.49886810890837, 41.575870736720304], [-70.49968407030116, 41.57569108964074], [-70.49954141220458, 41.575443903159474], [-70.4981615236002, 41.57485547578207], [-70.4981669541032, 41.574508306007516], [-70.49886129144892, 41.574149760403635], [-70.49946389113545, 41.57412130466588], [-70.50001380647137, 41.57333996911187], [-70.50153692942882, 41.57274333835665], [-70.50178179459232, 41.57201052804903], [-70.5033361340211, 41.570873341668346], [-70.50403701259174, 41.57016141023405], [-70.50400733641074, 41.569612456153266], [-70.50498285968693, 41.569067819912746], [-70.50540929799338, 41.568557752377146], [-70.50510578768021, 41.56771490057532], [-70.50507540045975, 41.56728299434117], [-70.50525905018712, 41.5668934905952], [-70.50720994962289, 41.56474225018769], [-70.50785076716951, 41.56357168621968], [-70.50824680935914, 41.5632059763235], [-70.5114463867829, 41.561380716584196], [-70.51214694765585, 41.561308026768266], [-70.51263379490855, 41.56156325061876], [-70.51266475216296, 41.5618150678995], [-70.51245089924852, 41.56190775168017], [-70.51232905605976, 41.56259382356807], [-70.51089636124844, 41.56444126396831], [-70.51019481862576, 41.56510821003994], [-70.50961532461055, 41.56607054315948], [-70.50988973659068, 41.566157349516175], [-70.51043816682193, 41.56579858794053], [-70.51281584138738, 41.56346132623887], [-70.51610859989971, 41.55946336851753], [-70.51671770703955, 41.558977920035964], [-70.51726601887029, 41.55896184899706], [-70.51729672885641, 41.559231670945564], [-70.51467397168727, 41.56303119205868], [-70.51403287910257, 41.564471914583876], [-70.51403263124054, 41.56529185458785], [-70.51439671875586, 41.566782378397896], [-70.51503535252942, 41.5681340346499], [-70.51510457946962, 41.56872440479333], [-70.51607061207515, 41.569912884660006], [-70.5163747781039, 41.57067467446298], [-70.51786619200877, 41.57254693084687], [-70.51783532020991, 41.572727313478644], [-70.51707386004657, 41.573097773803525], [-70.51634136586168, 41.57414322156678], [-70.51570106624138, 41.574673986980414], [-70.5155794705265, 41.57519798139917], [-70.51451187897949, 41.57639246669903], [-70.51390245277945, 41.57664379514064], [-70.51387037175657, 41.57785119444942], [-70.5145108824923, 41.5782838816988], [-70.51496688313212, 41.57821467845746], [-70.51591265692417, 41.577535753690015], [-70.51618698009779, 41.57721679096922], [-70.51643169074322, 41.5757276030617], [-70.51755910342979, 41.574514492826296], [-70.51759029567135, 41.574289092438335], [-70.51719491261947, 41.57385291612578], [-70.51740780698046, 41.5735075322831], [-70.5182922683567, 41.573252935353985], [-70.51932744145822, 41.57348247859569], [-70.51990576937666, 41.57406035715338], [-70.51996616664859, 41.57471705309521], [-70.51892860226536, 41.57689271951292], [-70.5188377487431, 41.577515469776536], [-70.51901935091806, 41.578674634371616], [-70.51941478846202, 41.579182837390306], [-70.52020659919178, 41.57982108341958], [-70.52066392248479, 41.579958963290615], [-70.52209552930881, 41.57973325496133], [-70.52508135530786, 41.57996376352518], [-70.52599589978611, 41.57978027161501], [-70.52715410725607, 41.578999519149264], [-70.52724557664361, 41.578133657322326], [-70.52809989539452, 41.574879233408936], [-70.52880075480918, 41.57410412224616], [-70.52916703006444, 41.574018337980135], [-70.52971552012984, 41.57357844722255], [-70.53133157748461, 41.57117914215246], [-70.53236750525946, 41.57051660886448], [-70.5333728965194, 41.56946718851042], [-70.5341652845303, 41.56902428310352], [-70.53443916679596, 41.56907445061415], [-70.53401204492764, 41.57198082554104], [-70.53343233888445, 41.57315092843107], [-70.53105492522866, 41.57648807610386], [-70.53019982078557, 41.579481395541855], [-70.53026019475638, 41.579849953641435], [-70.53108376994152, 41.57946080097746], [-70.53154108365632, 41.57774266658816], [-70.53266914945429, 41.576097217327614], [-70.53346192221643, 41.574294142311544], [-70.53498591648787, 41.572003735704726], [-70.53523019085193, 41.57081164276157], [-70.5355958905623, 41.57023905375417], [-70.53593229468486, 41.56855026556774], [-70.53620695076998, 41.56795213165285], [-70.5358106591706, 41.56747099275671], [-70.53559728030966, 41.56676235965785], [-70.5359638540219, 41.56553246932529], [-70.53648174849076, 41.56477771126498], [-70.537365102721, 41.56413521494455], [-70.53742617441007, 41.563611811532624], [-70.53974237075327, 41.560455227715664], [-70.54254547186736, 41.55736404107499], [-70.54294153404108, 41.556656057247935], [-70.54373371736068, 41.55631213927207], [-70.54428165949356, 41.55626891368109], [-70.54461698253328, 41.55651653841563], [-70.54482995793471, 41.557684358642554], [-70.54406800745733, 41.55823563277634], [-70.54388510479036, 41.558643220438164], [-70.54501195891784, 41.558366823057725], [-70.5452862551412, 41.558714093869305], [-70.5452857414329, 41.55932693433166], [-70.54501159079523, 41.55992508432884], [-70.54501090413522, 41.561051156038175], [-70.54473704075093, 41.561253128270046], [-70.54473635524663, 41.56202747358419], [-70.54370056130416, 41.56423038407065], [-70.54403505699393, 41.56493776978165], [-70.54269550940671, 41.56692821138219], [-70.54248141157674, 41.56761577735034], [-70.54056131790232, 41.57056023432074], [-70.54028677223198, 41.571203390914796], [-70.54028689358033, 41.5717706495539], [-70.54056142224064, 41.571704312724584], [-70.54159763093779, 41.57001466513651], [-70.5427556985456, 41.569143156527375], [-70.5435166104841, 41.569097235421694], [-70.54382087205937, 41.569372170940724], [-70.54385144840134, 41.57033586541274], [-70.54345529484856, 41.57177318335594], [-70.54345490563283, 41.57260211419252], [-70.54378978478181, 41.572759696157945], [-70.54479534267472, 41.571413042585036], [-70.54455179539052, 41.56910144656875], [-70.54418724135986, 41.56832233518126], [-70.54415673598024, 41.5674042291398], [-70.5451319486913, 41.56512089349546], [-70.54680737975845, 41.56386426713852], [-70.54680816233575, 41.56260313522949], [-70.54653390804668, 41.562075787023836], [-70.54653406864661, 41.561435931419005], [-70.54705271578692, 41.56026694520677], [-70.54772261251918, 41.559834741425426], [-70.54787495444411, 41.559490487323025], [-70.54729624255172, 41.558804700188084], [-70.54729617433308, 41.55850699775832], [-70.54827078573645, 41.55771043083955], [-70.54814978728027, 41.55743254127406], [-70.54747981937678, 41.557342510176206], [-70.5480581512199, 41.55626293579485], [-70.54885018199293, 41.55388349262163], [-70.54885088054665, 41.55343272741308], [-70.54839364212685, 41.552970255711664], [-70.54836358901848, 41.55267342756876], [-70.5487288199652, 41.55221840563833], [-70.54888118661785, 41.55169406912973], [-70.54808920011465, 41.551047017246766], [-70.54811969316651, 41.550658972092656], [-70.550495555917, 41.54987919543422], [-70.55146702595506, 41.549839476702175], [-70.55344963863315, 41.549406944337925], [-70.55393664298407, 41.54914820152756], [-70.5586267320128, 41.548652568205746], [-70.55968921134041, 41.54833103140573], [-70.56148935258506, 41.54810000677142], [-70.56301117485455, 41.548330924434055], [-70.57004565619324, 41.54784851626543], [-70.57016741302076, 41.54823386936365], [-70.56995422266951, 41.54844428566395], [-70.56812748267835, 41.549063525797905], [-70.56708459428418, 41.55002233911046], [-70.56885806125885, 41.54956699350094], [-70.56925393509178, 41.55029168898479], [-70.5690105493407, 41.5517809897275], [-70.56931556035225, 41.552082874927144], [-70.5701677664345, 41.55246802705984], [-70.57013714436539, 41.552900537998525], [-70.56992462063077, 41.553038360185006], [-70.56913273186565, 41.553013295614775], [-70.56904156017804, 41.553203884259105], [-70.56925519187865, 41.55590347481729], [-70.56858560698831, 41.561326303532276], [-70.56797633621753, 41.56223521635756], [-70.56791602842922, 41.563109807528896], [-70.56767171616293, 41.563473591837386], [-70.56764198187213, 41.56402315338885], [-70.56730686478667, 41.56455051546705], [-70.56718439926443, 41.565164603749444], [-70.56654526827688, 41.56583071285774], [-70.56608812377092, 41.56701718299565], [-70.56621045043715, 41.56731250448248], [-70.56611881434166, 41.56827800352298], [-70.56517502424164, 41.56956062890376], [-70.56508298089554, 41.570039337458155], [-70.5652049476679, 41.571361687144176], [-70.56480923944818, 41.57264657754266], [-70.56499197393244, 41.57337346707682], [-70.56477825155345, 41.574358219428646], [-70.56517426252434, 41.574362037625555], [-70.56633299992552, 41.57378799730143], [-70.56611958720345, 41.57261964992481], [-70.56645416909711, 41.57220990647052], [-70.566363076154, 41.57136445997191], [-70.56685025763372, 41.569970583636575], [-70.56764133411986, 41.56857244752535], [-70.56770266333481, 41.567499784491126], [-70.56791564672092, 41.566767134805545], [-70.56834231247291, 41.56571603566949], [-70.5704131422171, 41.56232834722952], [-70.57065651444452, 41.56166685753016], [-70.57041236109961, 41.55987811310537], [-70.57065638918128, 41.55914515471929], [-70.57065619363557, 41.558280205913704], [-70.57169149832322, 41.554437749990036], [-70.57169121774997, 41.553500768291016], [-70.57111276741473, 41.55324785906792], [-70.57108159281512, 41.55299549063333], [-70.57141725778008, 41.55263076291269], [-70.57287807370001, 41.552376513420946], [-70.57309148743538, 41.551761478522224], [-70.57290866576952, 41.55093499006514], [-70.57363905446442, 41.54935736471518], [-70.57327366315701, 41.54830878802093], [-70.57275585127628, 41.548009677802], [-70.57211667961398, 41.54791891755133], [-70.57196375958043, 41.54820974102825], [-70.57098996787279, 41.54784442460136], [-70.57099033787446, 41.54725016038764], [-70.57303035096739, 41.54715878582624], [-70.57393967881349, 41.54693154295839], [-70.57440049517537, 41.546223413873015], [-70.57637452122376, 41.54595192795377], [-70.57927174747284, 41.544848262839196], [-70.5798795269414, 41.544802542478024], [-70.58015498010897, 41.54604339705087], [-70.5806124383701, 41.54645115860283], [-70.57921116469075, 41.547317696566374], [-70.5789985859848, 41.54764461980265], [-70.57899794017185, 41.5481848569649], [-70.57975957000558, 41.549399824885775], [-70.58006507471381, 41.55081874399532], [-70.57994356101351, 41.55205468936216], [-70.5801258107432, 41.55274554226907], [-70.57985238478123, 41.55383956871605], [-70.5798831674337, 41.554460529682004], [-70.58024892920987, 41.555049881040624], [-70.58040114547299, 41.55584966416698], [-70.58052272888766, 41.55599189511569], [-70.58104124895222, 41.556038861779086], [-70.58104179024888, 41.55647162730012], [-70.5801280656691, 41.55900617777606], [-70.57875770884345, 41.561141974845825], [-70.57863637398003, 41.56246739405872], [-70.57818036723103, 41.564086114109905], [-70.57744973259372, 41.56557372713515], [-70.57604891576695, 41.56749370733308], [-70.57489259601965, 41.5713644720221], [-70.57343099819357, 41.574933919006455], [-70.57321733572356, 41.576026735342076], [-70.57330884831661, 41.57633192695192], [-70.5736138427134, 41.57625562934537], [-70.57513687425025, 41.57388366025669], [-70.57574523153684, 41.57238887096428], [-70.57656819836919, 41.571756277453154], [-70.57717689568561, 41.57070269099968], [-70.57711565831744, 41.568685845388345], [-70.57879029426945, 41.566717425653906], [-70.57863775447244, 41.56630482050991], [-70.5783026253527, 41.56603028713423], [-70.57915537555505, 41.565090654556116], [-70.58019020541775, 41.56441023134711], [-70.58326703572104, 41.56392638155225], [-70.58341912207656, 41.56432041028031], [-70.58317571419893, 41.56452216187968], [-70.58317547473351, 41.56477427301851], [-70.58393712137307, 41.565457414751506], [-70.58399796647308, 41.56570889306511], [-70.5839072435482, 41.567493770033494], [-70.58466904338026, 41.56793323154514], [-70.58524769535151, 41.568708864269645], [-70.58576596404637, 41.56872879438069], [-70.58539989711333, 41.56676128343673], [-70.58552112531989, 41.565093136491654], [-70.58427138403894, 41.56427270307654], [-70.58424094801059, 41.563885842316274], [-70.5835707812942, 41.56314717453121], [-70.58405730446538, 41.56197832374688], [-70.58515372283674, 41.561017535049025], [-70.58591514603012, 41.5600343482114], [-70.58579342597413, 41.558982147348644], [-70.58481792288102, 41.55793263993159], [-70.58484855407175, 41.557571599880184], [-70.58533543749834, 41.55715964432593], [-70.58551830117298, 41.556788016949085], [-70.58542668797017, 41.55635676922839], [-70.58426871855119, 41.55484151191622], [-70.58417774789974, 41.554365257123685], [-70.58506017906177, 41.55413714046351], [-70.5853043106941, 41.553908378959406], [-70.58536387057626, 41.55333090780292], [-70.58472421766648, 41.55182658180643], [-70.58487610959656, 41.54995103227229], [-70.58387039728245, 41.54866772554324], [-70.58384027855573, 41.54844293990045], [-70.58454020647551, 41.548162707475186], [-70.58472314446956, 41.54789012658717], [-70.58475348506789, 41.546997846362544], [-70.58426607441803, 41.54622069477174], [-70.58396146261992, 41.546017897713234], [-70.5833831259784, 41.5461522252934], [-70.58085535301984, 41.54560111836931], [-70.58079364530431, 41.54439351051921], [-70.58125165929344, 41.54437077303632], [-70.58618441528014, 41.54546461378935], [-70.58876530240539, 41.54528558524507], [-70.58927581647264, 41.54944784984954], [-70.5890708920988, 41.55068876194721], [-70.58975812535071, 41.55214674023476], [-70.59128401746734, 41.55432273812154], [-70.59155888616844, 41.55654724849205], [-70.59190688668116, 41.55784323540994], [-70.59220802290929, 41.55826995793885], [-70.59208791780482, 41.55915814542149], [-70.5926698174521, 41.56047288219653], [-70.59326505909281, 41.56381025183686], [-70.59611299584536, 41.56440414285365], [-70.59495783596294, 41.567514837744056], [-70.59434911923643, 41.568407011462355], [-70.59444086496245, 41.56888777466131], [-70.59416902289642, 41.57298187183324], [-70.59316511808596, 41.57632223424135], [-70.59234394407355, 41.57794597204329], [-70.58564615234573, 41.586571022498056], [-70.58369587507553, 41.588424773010715], [-70.58314789878462, 41.589316812424045], [-70.58549482319788, 41.5908951195121], [-70.5855261183327, 41.59151214807106], [-70.58567805928469, 41.59158090121236], [-70.58747586968641, 41.591329168566574], [-70.58863383838158, 41.59157988835414], [-70.58963911619236, 41.591603137551246], [-70.59052308354153, 41.592014273027516], [-70.59220105616079, 41.59418697630621], [-70.59293291042094, 41.59562783871267], [-70.59323706474879, 41.59569610388857], [-70.59460897322553, 41.59670198928903], [-70.59616307763696, 41.59736490316065], [-70.59716987009439, 41.59832508301943], [-70.59723088342093, 41.59862326790614], [-70.59790204922815, 41.59951492756856], [-70.59838897679545, 41.59967523714809], [-70.59884715422076, 41.600201105117314], [-70.60019084264525, 41.60101480415099], [-70.60111298808737, 41.60120274120907], [-70.60219407627473, 41.60179317283249], [-70.60277209613442, 41.60190185171584], [-70.60315196173408, 41.60221492184931], [-70.6052471493181, 41.601890978678384], [-70.6060999619209, 41.60111321558087], [-70.6075011150539, 41.60106626139107], [-70.60948205661043, 41.60127088723128], [-70.61137102329593, 41.60097278562064], [-70.61152389019374, 41.60078996600651], [-70.61399196240876, 41.60136073227731], [-70.615607876132, 41.60202216692247], [-70.61768087196738, 41.602432774149406], [-70.62255605503009, 41.602544805941], [-70.6244741142161, 41.60192706946256], [-70.62578587328939, 41.601838124764214], [-70.62602992009961, 41.601699872844314], [-70.62624415511488, 41.60121980664145], [-70.62676488438568, 41.597286254933046], [-70.62676717872142, 41.59607410991833], [-70.62591403510588, 41.59511425212731], [-70.62561017576026, 41.59447318877093], [-70.62622013370354, 41.59383297009993], [-70.62798707460959, 41.594381724107095], [-70.62672987140678, 41.60337099300041], [-70.6258741661955, 41.60616127987307], [-70.62447400226957, 41.60914377192512], [-70.60673305058079, 41.639510752392276], [-70.60557585731107, 41.6419822620155], [-70.60475511347728, 41.6444761107174], [-70.6020491564867, 41.655315874211176], [-70.61079112483228, 41.657650194961754], [-70.6134009924616, 41.6584888091615], [-70.6152350654347, 41.658238598937785], [-70.61590715548458, 41.65880094809429], [-70.61612095458533, 41.65910424395818], [-70.61612123653798, 41.65946440632393], [-70.61764828969729, 41.661316456293484], [-70.6178630397942, 41.662123980245234], [-70.61816744602031, 41.662579350050066], [-70.61908302371803, 41.663449145101154], [-70.62094620172866, 41.6646115695614], [-70.6216474029585, 41.66459278371663], [-70.62179938123545, 41.66442850874931], [-70.62176867044114, 41.66404166698547], [-70.62076025911573, 41.66356116653744], [-70.62219530297294, 41.66346813717784], [-70.62335359371286, 41.6626228161569], [-70.62733849863663, 41.66058648492148], [-70.62718606576881, 41.66031857200293], [-70.62569127779638, 41.6602046708803], [-70.62538656652396, 41.660290117079434], [-70.62480598132052, 41.66082082148838], [-70.62429775575568, 41.66086192964685], [-70.62402300246951, 41.66067692476445], [-70.62377897664237, 41.66019388956075], [-70.62267954479174, 41.65962379002953], [-70.62200854429771, 41.65889491587289], [-70.62017705676709, 41.65783967525755], [-70.61883418467808, 41.657543402037334], [-70.61862088611008, 41.65733915922696], [-70.61859006192051, 41.65690729551029], [-70.61895553728402, 41.65663212877615], [-70.61962688616238, 41.65651408078714], [-70.61999241198096, 41.65667110318208], [-70.62041965029827, 41.657196640174334], [-70.62219073118882, 41.6584146082553], [-70.62307515721851, 41.658573373318504], [-70.62596650271121, 41.6596963678311], [-70.62736984502976, 41.65985627656896], [-70.62794908604815, 41.66008244252255], [-70.63118002201934, 41.66290065616687], [-70.63172905350929, 41.663226173895275], [-70.63331499404252, 41.663680590077774], [-70.63441373149314, 41.663592731152654], [-70.635329455181, 41.66283210652948], [-70.6370997989367, 41.6623295057346], [-70.63771028184003, 41.66171736284421], [-70.63938772177674, 41.66114368335816], [-70.6402738473711, 41.65931132224901], [-70.64082331121583, 41.659132018245934], [-70.64390399896469, 41.65944844488705], [-70.64561252219181, 41.65988278609926], [-70.64951650560425, 41.66208762943607], [-70.65207740362249, 41.66327558112173], [-70.65320694687634, 41.6642592332884], [-70.65424325981192, 41.66588315490841], [-70.65408974599129, 41.66682236925797], [-70.65268495111171, 41.66766222106833], [-70.65146500317034, 41.668878233872015], [-70.65018303074285, 41.669590106692375], [-70.64914543984818, 41.67040677180281], [-70.64713102599795, 41.67029151769767], [-70.64554514986031, 41.670936348410244], [-70.64441545369877, 41.671141701734626], [-70.64270686810778, 41.67113896785695], [-70.63837468449887, 41.67049902697284], [-70.63840597550198, 41.66990387586196], [-70.63715525120774, 41.668759894306525], [-70.63614934616112, 41.66741404303136], [-70.63608940970424, 41.666406267364025], [-70.63572399025082, 41.66579009514975], [-70.63462634858737, 41.66485096295203], [-70.63108810885355, 41.663865631733536], [-70.62840365079305, 41.663841149254296], [-70.62773209364317, 41.66427382034989], [-70.62718181386765, 41.66500229895469], [-70.62687633446363, 41.6662138096556], [-70.62803529125449, 41.66603474151063], [-70.62864541291309, 41.66644965671126], [-70.629164246352, 41.666514406898635], [-70.62995679979164, 41.66692621848252], [-70.63010892436057, 41.667797950560924], [-70.62992532772489, 41.6679985778838], [-70.62934557487773, 41.66805210060914], [-70.62885827780322, 41.66713108835342], [-70.62672239322876, 41.666990347722425], [-70.62653987528115, 41.66711050024633], [-70.62629414648987, 41.66864491927921], [-70.62571383117792, 41.668436745201596], [-70.62528696065766, 41.66850605372008], [-70.6251344008427, 41.668823396760594], [-70.62534798993038, 41.66898260913973], [-70.62699525679302, 41.669625542492525], [-70.62708623283586, 41.67024583229796], [-70.62592639048951, 41.67012718556286], [-70.625926934407, 41.670334281568564], [-70.6264446466739, 41.670813786197215], [-70.62644443580112, 41.67102087638934], [-70.62604809659291, 41.671134316799844], [-70.62607881197887, 41.67141311827936], [-70.62635250590934, 41.671706724787285], [-70.626351223771, 41.672625122097884], [-70.62570999351364, 41.67267027599412], [-70.6251014022061, 41.67203081558528], [-70.6248265139157, 41.67138604110151], [-70.62281130739302, 41.67009814696209], [-70.62009649937369, 41.67054201158106], [-70.6188149265384, 41.670353136879875], [-70.61796045456663, 41.669806832855144], [-70.61738158456379, 41.670012811436685], [-70.61735107334833, 41.670265812248076], [-70.61814409337175, 41.67069571796086], [-70.61835882331766, 41.67101702439897], [-70.61826827796313, 41.672738895970234], [-70.61714052919535, 41.67374591783978], [-70.61585894592345, 41.674178286398046], [-70.61497443923419, 41.67392942612748], [-70.6145775500369, 41.673971357806764], [-70.61436385716037, 41.674199296526105], [-70.61387731350716, 41.67591752370335], [-70.6135723816576, 41.676282619628054], [-70.61387807804289, 41.676674424305176], [-70.61390874704612, 41.67706127713046], [-70.6136346166263, 41.67772261980973], [-70.61430580277859, 41.677632179458946], [-70.61470181511484, 41.677383716896486], [-70.61470155392003, 41.6769419514297], [-70.61439596747249, 41.67648712184293], [-70.61445690480974, 41.67626081233601], [-70.61521965156602, 41.675844684262174], [-70.61573906350284, 41.67600854371546], [-70.615982316373, 41.676302497003064], [-70.6160134090179, 41.67731118686458], [-70.61671682106373, 41.678066800630106], [-70.61751044031976, 41.67859574964336], [-70.61839537036592, 41.678846285633746], [-70.61906732577634, 41.67872824386859], [-70.62111020732269, 41.67771646258134], [-70.62150649825587, 41.67774653531818], [-70.62233151577144, 41.67875291362127], [-70.62217920300439, 41.679322366722964], [-70.62250962896718, 41.680378941328684], [-70.62226988589516, 41.680644960881715], [-70.62187544599338, 41.68053386927499], [-70.62166192151216, 41.68025759919126], [-70.6210823120575, 41.6803471068004], [-70.62062537209067, 41.68074087730552], [-70.62044255083828, 41.68169838977192], [-70.61964856650586, 41.681790725734125], [-70.61937403773794, 41.68201989591077], [-70.61843101052443, 41.68453708913064], [-70.61846209895998, 41.68511358589529], [-70.61864534438918, 41.685435205642925], [-70.61998839090568, 41.686388769538716], [-70.6209962362393, 41.686662744905675], [-70.62206417518323, 41.686278748882366], [-70.62267443949085, 41.68581919201081], [-70.6231922767747, 41.68506459719522], [-70.6232520490928, 41.68409993776197], [-70.62502913857591, 41.683209841837844], [-70.62505986421984, 41.682939400124745], [-70.62457190792321, 41.68280227061722], [-70.62454106775121, 41.68250546883378], [-70.62469407226162, 41.68232318968592], [-70.62431281105165, 41.68179689887586], [-70.62448157100202, 41.68161474128186], [-70.62616034975315, 41.68129337415579], [-70.62686199283124, 41.68131001588371], [-70.62777719807929, 41.68163048256404], [-70.62884448391893, 41.682552006027954], [-70.62945412838799, 41.68337209128776], [-70.62951431349796, 41.68424481296045], [-70.62975832110415, 41.684628790663574], [-70.629696155557, 41.68561143341806], [-70.62862686537268, 41.68687000253546], [-70.6279854783387, 41.68732935256052], [-70.62810731637784, 41.6881113821276], [-70.62798398223562, 41.68881556628349], [-70.62770956266324, 41.689476939779574], [-70.62728165038216, 41.68994243330712], [-70.62715853395811, 41.69060158936542], [-70.627432560747, 41.69087718708578], [-70.62727856929895, 41.692203536091974], [-70.62804141673485, 41.6927513069591], [-70.6277358515181, 41.69305284971317], [-70.62773541108643, 41.693277946007946], [-70.6281323288099, 41.69343405550729], [-70.62874359397777, 41.69337177450322], [-70.62956787234843, 41.692801260118046], [-70.63045263140344, 41.69330211788572], [-70.63179543587687, 41.69358023913138], [-70.6322833727032, 41.693393193390015], [-70.63316832151577, 41.69357832467846], [-70.63466463888903, 41.69330496195477], [-70.63466454038497, 41.69300782988619], [-70.63265147780048, 41.691081976347775], [-70.63243951710884, 41.690490599712334], [-70.63243994733294, 41.68985075299648], [-70.63280625414541, 41.68944048752351], [-70.63369150053902, 41.689211443304345], [-70.63625522090727, 41.689165653858296], [-70.63695776503701, 41.68898415198114], [-70.63778182574991, 41.68761222343299], [-70.63796654006484, 41.68607844487794], [-70.63863871678255, 41.685528665296744], [-70.63964570665405, 41.68511759911726], [-70.64172021472216, 41.68509669228956], [-70.644315207266, 41.6843840973493], [-70.64404067482516, 41.683946465309354], [-70.64312506803512, 41.684067880180784], [-70.64306485717498, 41.68351930991767], [-70.64349254693511, 41.68291870593053], [-70.64535461137551, 41.68145943348585], [-70.64584317275887, 41.68127232624311], [-70.65112288115901, 41.68079974015145], [-70.6528622672349, 41.680792445580984], [-70.65524146563038, 41.68116354105933], [-70.65814106198938, 41.68109443522615], [-70.65850789463866, 41.680999230923675], [-70.65893450926782, 41.680524608500434], [-70.66027719742334, 41.6798564204571], [-70.6614064710353, 41.68009209949681], [-70.66192540205158, 41.680732952882444], [-70.66189396699818, 41.68118404445868], [-70.66106991437675, 41.68308736761444], [-70.65783432017082, 41.68452154714954], [-70.65762020303733, 41.68470510149033], [-70.65713253179646, 41.685964294953834], [-70.65673464468655, 41.68641999043723], [-70.655117269234, 41.68718233292457], [-70.65227839065247, 41.687745908540805], [-70.65157618437333, 41.688161610122684], [-70.64998891948828, 41.69026513733806], [-70.64907247099885, 41.69058468157761], [-70.64641780880999, 41.690100527671255], [-70.64602071550385, 41.69012400191494], [-70.64556258714725, 41.69047284309158], [-70.64501318445673, 41.69124643422325], [-70.64501310593637, 41.691589142689686], [-70.64601891791979, 41.69261921295574], [-70.64614098662918, 41.693401223112105], [-70.64562154550147, 41.69406642721506], [-70.64467496381585, 41.69458436490486], [-70.64345368448834, 41.69495334581842], [-70.6399435789688, 41.69545416253271], [-70.63859985705506, 41.69582441724558], [-70.63853846388567, 41.696005724764426], [-70.63759237147995, 41.69637053128565], [-70.63673828964625, 41.696508686610514], [-70.6310607488296, 41.69650880445455], [-70.62916760338815, 41.696941723553756], [-70.62580846218464, 41.69849335113925], [-70.62501332233664, 41.69945066733155], [-70.62448814880187, 41.69974713656128], [-70.62366409347158, 41.6995246984584], [-70.62296040980809, 41.69821932663169], [-70.62250209140878, 41.697802735570136], [-70.6225622109656, 41.69730629582765], [-70.62143301697904, 41.69689015334725], [-70.62106605777583, 41.6962463435217], [-70.61960024461754, 41.69519561886402], [-70.61917293569861, 41.69520131623094], [-70.61871487264516, 41.69547801921851], [-70.61783032186473, 41.69545484145575], [-70.61627219593005, 41.695953729270116], [-70.61603084584229, 41.697416697367146], [-70.61544985044465, 41.69751291075267], [-70.61523739503836, 41.697238888240804], [-70.6144739968807, 41.697033178899915], [-70.61291766311939, 41.69710040136266], [-70.61227693594812, 41.69684779508758], [-70.61062643636329, 41.69682984807725], [-70.61047615297473, 41.69724285773104], [-70.61078118046726, 41.69758064068046], [-70.61168925461594, 41.697425093066144], [-70.6123684425186, 41.69769320136224], [-70.61255168547494, 41.69801539802935]]], [[[-70.62081837079752, 41.65944284442705], [-70.6205445730777, 41.6596270023815], [-70.61938556906253, 41.65962534585196], [-70.61859306137664, 41.660474587185604], [-70.61825768587858, 41.66047030396794], [-70.61679287660503, 41.65962606842241], [-70.61670117057054, 41.65941994791678], [-70.61679297503983, 41.65926590904225], [-70.61770750998735, 41.65903665204509], [-70.61819558253242, 41.65855197005925], [-70.6192931161933, 41.65843779462045], [-70.62020870827007, 41.658757769856], [-70.6208800048855, 41.659190083365566], [-70.62081837079752, 41.65944284442705]]], [[[-70.63134715966774, 41.68609620058243], [-70.63149715795254, 41.68536070265364], [-70.63262736429954, 41.683534204108476], [-70.63281131552887, 41.682369590453085], [-70.63357602437047, 41.680836293581145], [-70.6334858810478, 41.67884685234564], [-70.63327264086695, 41.67804837551293], [-70.63199349583161, 41.67548149169487], [-70.63208823485378, 41.6723724630702], [-70.63269945570988, 41.670859394941424], [-70.6331268899507, 41.670222802809946], [-70.63337109807895, 41.670174016121535], [-70.63367579095348, 41.67031421497941], [-70.63297264040719, 41.672576169248714], [-70.63297212071963, 41.6741096608909], [-70.63318430662584, 41.675067951149266], [-70.6337013423982, 41.67624071456699], [-70.63437233778407, 41.677131588808805], [-70.63681200664772, 41.67951086081217], [-70.63766575846344, 41.67971429704663], [-70.63958834597314, 41.6795341419903], [-70.64230384632339, 41.68003523286878], [-70.64300588118023, 41.680610582622826], [-70.64300504319938, 41.68120540575449], [-70.641478915395, 41.682101050574616], [-70.64047100777786, 41.682277455017115], [-70.6398303081717, 41.682277682284784], [-70.63772564217062, 41.68145195147753], [-70.63604748886249, 41.681593413983386], [-70.63546695405616, 41.68186306739076], [-70.63378756997797, 41.68392233552456], [-70.6326561072639, 41.68570438313977], [-70.63231938990931, 41.68661852945196], [-70.63207576964311, 41.686757358671734], [-70.63155722976492, 41.68657557351094], [-70.63134715966774, 41.68609620058243]]], [[[-70.62424863397688, 41.704623771914925], [-70.62427953556903, 41.70519126093254], [-70.6233654610986, 41.70736599885794], [-70.62348867526401, 41.70821107167255], [-70.62397814331487, 41.70942925266239], [-70.62576562825687, 41.711645037098215], [-70.62588708261833, 41.71226499378225], [-70.6230981321174, 41.71491828552897], [-70.62209114023345, 41.71498649960093], [-70.62056433819409, 41.714323608985524], [-70.61912902631126, 41.714326017281394], [-70.61818248396229, 41.714096407240675], [-70.61809042509795, 41.713638174180595], [-70.619463597081, 41.71356495926179], [-70.61876091107675, 41.71283582569113], [-70.62025630292786, 41.71113944360589], [-70.62168947691426, 41.70997493224173], [-70.62205602143787, 41.709888845600965], [-70.62233073331385, 41.71009186113423], [-70.62303419568259, 41.71153229367715], [-70.623370020847, 41.71182470080911], [-70.62472683012683, 41.71203828978086], [-70.62472759190226, 41.71146148228321], [-70.6239792495887, 41.71063636272383], [-70.6231838503662, 41.70894479997551], [-70.6223601770709, 41.7087133523144], [-70.6219018021074, 41.70835078299517], [-70.62171783327481, 41.70793855655419], [-70.62199212907346, 41.70718715584184], [-70.62290620626366, 41.70624653342022], [-70.62287598038182, 41.7059047071458], [-70.62232555183607, 41.70519196707419], [-70.62232527335418, 41.7042549826843], [-70.62198944879167, 41.70366488212845], [-70.62284341088753, 41.7035448525926], [-70.62354559544363, 41.70384119897467], [-70.62424863397688, 41.704623771914925]]]]}}