{"type": "Feature", "properties": {"district_name": "9th Middlesex District", "chamber": "house", "vintage": "2012-2020"}, "geometry": {"type": "Polygon", "coordinates": [[[-71.366326, 42.41271499999999], [-71.36554, 42.41303999999999], [-71.365212, 42.413352999999994], [-71.365038, 42.414553999999995], [-71.36381500000002, 42.41612000000001], [-71.364288, 42.417082000000015], [-71.36456299999999, 42.418238], [-71.364573, 42.420079], [-71.36441599999999, 42.42044099999999], [-71.36286299999999, 42.420943], [-71.360791, 42.42085900000002], [-71.357186, 42.41979], [-71.35640800000002, 42.420002000000004], [-71.35589000000002, 42.42082699999998], [-71.35528699999999, 42.421154999999985], [-71.354475, 42.421991999999996], [-71.35446100000001, 42.422816000000005], [-71.353107, 42.42615199999997], [-71.35256, 42.42692300000001], [-71.335379, 42.437775999999985], [-71.313592, 42.455011999999996], [-71.310931, 42.453594], [-71.309929, 42.453247999999995], [-71.30480899999999, 42.452759999999984], [-71.303207, 42.46134300000001], [-71.30208499999999, 42.46111700000001], [-71.30228199999999, 42.46201000000001], [-71.29518999999999, 42.46344600000001], [-71.29521, 42.463235000000005], [-71.28930199999999, 42.46455700000003], [-71.289676, 42.466182], [-71.28294, 42.461170999999986], [-71.28184, 42.45964], [-71.280851, 42.46016799999999], [-71.280711, 42.45999], [-71.28012100000001, 42.460059], [-71.279501, 42.459675999999995], [-71.277982, 42.46023499999999], [-71.277889, 42.460710000000006], [-71.272695, 42.459704], [-71.269018, 42.44049399999999], [-71.26615, 42.429916000000006], [-71.26723, 42.42443800000002], [-71.211261, 42.406074], [-71.202679, 42.40371400000001], [-71.20254, 42.40308799999999], [-71.201807, 42.402346], [-71.201799, 42.401238], [-71.201397, 42.400187999999986], [-71.200433, 42.399396], [-71.200279, 42.39877699999998], [-71.199747, 42.39841399999999], [-71.199592, 42.39757499999998], [-71.199191, 42.396957000000015], [-71.19849599999999, 42.396277000000005], [-71.19697699999999, 42.39551800000001], [-71.196406, 42.394330999999994], [-71.196676, 42.393776999999986], [-71.197771, 42.39312100000001], [-71.197879, 42.392497], [-71.197617, 42.392264000000004], [-71.19753899999999, 42.391765], [-71.196876, 42.391286999999984], [-71.196606, 42.39074299999999], [-71.19672200000001, 42.390083], [-71.196621, 42.38967600000001], [-71.195757, 42.389111], [-71.195194, 42.388271], [-71.19510199999999, 42.387908], [-71.19530999999999, 42.387570999999994], [-71.19511700000001, 42.386991], [-71.194177, 42.386030999999996], [-71.197018, 42.38375399999998], [-71.20163699999999, 42.379632], [-71.20851499999999, 42.37385], [-71.209374, 42.374074], [-71.21293, 42.37572], [-71.220789, 42.377726], [-71.221873, 42.377646999999996], [-71.22189399999999, 42.37785799999998], [-71.222049, 42.37786200000001], [-71.225562, 42.377711], [-71.224881, 42.37816600000001], [-71.219825, 42.38056900000001], [-71.218651, 42.38129699999999], [-71.217122, 42.38116599999999], [-71.212079, 42.382461000000006], [-71.205392, 42.386381], [-71.203817, 42.38698600000001], [-71.20339899999999, 42.38771499999999], [-71.202105, 42.38859800000001], [-71.200739, 42.38887999999999], [-71.199286, 42.389739999999996], [-71.198701, 42.38958000000001], [-71.197713, 42.39102099999999], [-71.20060000000001, 42.391773], [-71.205154, 42.394459], [-71.208942, 42.39643400000001], [-71.21406999999999, 42.40058900000001], [-71.214728, 42.401453999999994], [-71.215908, 42.39921400000001], [-71.216472, 42.39923999999999], [-71.216888, 42.399078], [-71.21779099999999, 42.397918999999995], [-71.21820199999999, 42.397841], [-71.218611, 42.398118999999994], [-71.21833699999999, 42.398890000000016], [-71.21898999999999, 42.398610000000005], [-71.219363, 42.397463], [-71.217224, 42.396705000000004], [-71.218645, 42.39494099999998], [-71.221932, 42.39137900000001], [-71.22309, 42.389860000000006], [-71.224062, 42.387983000000006], [-71.225531, 42.386385999999995], [-71.225972, 42.385613], [-71.227232, 42.38557800000001], [-71.22816399999999, 42.385326000000006], [-71.230465, 42.383845], [-71.23313399999999, 42.385659], [-71.236575, 42.386324], [-71.23629799999999, 42.385614000000004], [-71.235692, 42.384924], [-71.235372, 42.38383100000001], [-71.234942, 42.38312], [-71.23702899999999, 42.38347800000001], [-71.236064, 42.380054000000015], [-71.23406899999999, 42.380199], [-71.234239, 42.37944699999999], [-71.23465999999999, 42.37941299999999], [-71.23460899999999, 42.37884699999999], [-71.233903, 42.37870800000001], [-71.234421, 42.377924], [-71.230516, 42.378100999999994], [-71.230406, 42.377118], [-71.231894, 42.376946], [-71.23171099999999, 42.375390999999986], [-71.228749, 42.37575600000002], [-71.228319, 42.374081999999994], [-71.22879499999999, 42.372465999999996], [-71.230032, 42.373201999999985], [-71.231122, 42.373476000000004], [-71.233657, 42.372681], [-71.235466, 42.372477000000025], [-71.236609, 42.373007999999984], [-71.23648299999999, 42.373662], [-71.23661299999999, 42.374522999999996], [-71.242012, 42.37336], [-71.24321499999999, 42.372862000000005], [-71.243685, 42.374007000000006], [-71.246517, 42.37310299999999], [-71.24652, 42.374379000000005], [-71.250995, 42.374367], [-71.251071, 42.373264999999996], [-71.25247999999999, 42.37330499999998], [-71.25276099999999, 42.37285], [-71.25197399999999, 42.372628999999996], [-71.24986799999999, 42.37244200000001], [-71.250104, 42.371677], [-71.253198, 42.371965], [-71.25376, 42.37108799999999], [-71.25541, 42.371584999999996], [-71.255741, 42.371011], [-71.25483, 42.37062299999999], [-71.255258, 42.36989400000001], [-71.25471999999999, 42.36961899999999], [-71.25553099999999, 42.36869], [-71.256174, 42.36846899999999], [-71.255929, 42.36816799999999], [-71.256214, 42.367418], [-71.256879, 42.36766300000002], [-71.257667, 42.367719000000015], [-71.259372, 42.367293000000004], [-71.260008, 42.36760100000001], [-71.261568, 42.36792799999999], [-71.261847, 42.367687999999994], [-71.261961, 42.367363999999995], [-71.26186299999999, 42.367031], [-71.262299, 42.366796], [-71.263812, 42.364039000000005], [-71.26348300000001, 42.36394], [-71.26302199999999, 42.362481], [-71.260367, 42.36236600000001], [-71.26217, 42.35998500000001], [-71.26227899999999, 42.359179000000005], [-71.261819, 42.357935], [-71.261792, 42.35726799999999], [-71.263381, 42.35438799999999], [-71.26428899999999, 42.35502000000001], [-71.26565, 42.35557800000001], [-71.26647299999999, 42.356705], [-71.267214, 42.35813299999999], [-71.268703, 42.359716999999996], [-71.269181, 42.36057400000001], [-71.269093, 42.361427], [-71.269286, 42.362237], [-71.269131, 42.362918], [-71.271413, 42.36308399999999], [-71.272373, 42.36418200000001], [-71.27248, 42.364528], [-71.273558, 42.365403], [-71.272851, 42.366801], [-71.271455, 42.36712999999999], [-71.271298, 42.367352999999994], [-71.270692, 42.367621999999976], [-71.27019, 42.36805500000002], [-71.27017099999999, 42.368637], [-71.270816, 42.369871], [-71.271759, 42.370915], [-71.27172999999999, 42.37134300000001], [-71.272308, 42.371534000000004], [-71.272077, 42.371958], [-71.272914, 42.372563], [-71.272789, 42.372948], [-71.273088, 42.373053999999996], [-71.273713, 42.373833999999995], [-71.27515799999999, 42.374621000000005], [-71.275842, 42.374593999999995], [-71.276545, 42.37497099999999], [-71.26773299999999, 42.39013300000002], [-71.27617200000002, 42.39291599999999], [-71.279583, 42.39875200000001], [-71.282825, 42.399727999999996], [-71.283233, 42.398982999999994], [-71.293482, 42.40221999999999], [-71.309799, 42.399588], [-71.312223, 42.395824], [-71.313524, 42.39627999999998], [-71.31524399999999, 42.39348], [-71.314613, 42.39321700000003], [-71.317685, 42.392121], [-71.31856599999999, 42.39257499999999], [-71.319859, 42.392873999999985], [-71.321524, 42.392683], [-71.334549, 42.396107], [-71.332599, 42.399440999999996], [-71.366326, 42.41271499999999]]]}}