{"type": "Feature", "properties": {"district_name": "3rd Norfolk", "chamber": "house", "vintage": "2001-2010"}, "geometry": {"type": "MultiPolygon", "coordinates": [[[[-70.96809103308212, 42.22129886846196], [-70.96687466047157, 42.223527145110914], [-70.9662711221023, 42.223837201134245], [-70.96260028967767, 42.22461797905489], [-70.9620152234254, 42.22502432557045], [-70.96072292863226, 42.226398001726636], [-70.9606005706623, 42.22674235754181], [-70.96066295308846, 42.228731800751966], [-70.96004747870552, 42.229256152293964], [-70.9593702709096, 42.2290065015124], [-70.95912435273893, 42.229100443646935], [-70.95912420128279, 42.229605180498545], [-70.95952555801779, 42.23017484021625], [-70.95952512483821, 42.23120176123176], [-70.95918721216108, 42.23260354304885], [-70.95844847030494, 42.23323816134472], [-70.95666333850002, 42.2339533565248], [-70.95650998962937, 42.23483888712923], [-70.95626365699745, 42.23493281219442], [-70.95450925203961, 42.23422448905221], [-70.95358501480945, 42.23331246223285], [-70.95318533529979, 42.23250870666247], [-70.95290788835966, 42.232305937839534], [-70.95238476014467, 42.23209862017106], [-70.9512763051178, 42.23207306883042], [-70.95127643872378, 42.23168537349494], [-70.95152238721394, 42.231437835587265], [-70.95139932858541, 42.23113394747038], [-70.9507842841359, 42.23111750112177], [-70.95050670885257, 42.23141046928316], [-70.95063062592098, 42.2320300328259], [-70.95036762919231, 42.23232193600087], [-70.94979104631976, 42.23229891616485], [-70.94989190810654, 42.231300043868536], [-70.95069104901809, 42.23099888784667], [-70.94949093345348, 42.23050021204739], [-70.94788998874962, 42.23029895272916], [-70.95129208727572, 42.22989999554282], [-70.95179102012042, 42.228698767985], [-70.95088999442943, 42.226999038806], [-70.94929006875351, 42.2267989287634], [-70.94728999082821, 42.2267988840229], [-70.94568999938039, 42.22699879931151], [-70.9449900158505, 42.22589927452033], [-70.94478998622111, 42.22459903435192], [-70.94269009189412, 42.22269873697897], [-70.94468990803742, 42.22169894512262], [-70.94378994451534, 42.22029908632696], [-70.94779001832319, 42.21819927078822], [-70.94809091640512, 42.217699913818464], [-70.95219101405277, 42.21680010670909], [-70.9550900640465, 42.21719879852071], [-70.95639104700639, 42.21709974864827], [-70.95479109204494, 42.20601423533337], [-70.95669095542628, 42.20710026113062], [-70.95599099726996, 42.204900152939196], [-70.95558996195562, 42.19420013468467], [-70.95788995354684, 42.19520026108709], [-70.95948995552081, 42.19570018185992], [-70.96018993566473, 42.19349993070791], [-70.96118992542027, 42.19350013086675], [-70.96218996884271, 42.19240023230938], [-70.9608910096958, 42.192700812413925], [-70.96199100232847, 42.19110114597508], [-70.96229107503353, 42.18980101439784], [-70.96189095349395, 42.18840082269989], [-70.96219000046541, 42.18780013189382], [-70.9555899548115, 42.18879986767191], [-70.95489002070137, 42.182199951114], [-70.95488990642147, 42.17899985060135], [-70.95509000765087, 42.176599732922966], [-70.95889002090635, 42.17709997040445], [-70.96288992665839, 42.17810013302167], [-70.96328992271637, 42.17579997437757], [-70.96248995824854, 42.17410023323883], [-70.95888997397647, 42.16950006672224], [-70.95808905756562, 42.16800004389996], [-70.9550890170991, 42.16759980857388], [-70.95488898362916, 42.165900051294145], [-70.95496293123227, 42.15775296442403], [-70.94886093104627, 42.1479501189931], [-70.96030797625261, 42.14338700657551], [-70.96778896124337, 42.14070016573768], [-70.97238899413026, 42.138600025270776], [-70.97728898631865, 42.13690003413403], [-70.99148891697814, 42.131099939410774], [-71.00227896553324, 42.12706993278267], [-71.00198998096495, 42.126400179810574], [-71.01248997719787, 42.122400032834925], [-71.01635693520863, 42.12063994773749], [-71.02228991356856, 42.11859914298735], [-71.02719003797341, 42.12369902838256], [-71.02779108932741, 42.12949908404938], [-71.02719103612883, 42.13259880802276], [-71.03049094235776, 42.13409904674138], [-71.03505406138059, 42.13547602455572], [-71.02920609383942, 42.150568117209595], [-71.02673593337164, 42.157523105352226], [-71.02616098416287, 42.157292830455134], [-71.02597203524509, 42.15705008632679], [-71.0262139315961, 42.15640510144092], [-71.02639707118766, 42.15486911617485], [-71.02617692516802, 42.15447374586255], [-71.02562508608732, 42.154168170116755], [-71.0255049692282, 42.15382217217663], [-71.02556796359931, 42.153438100958475], [-71.02631093868757, 42.15311087032149], [-71.02639200509356, 42.15291313315158], [-71.02598490415205, 42.15211128390568], [-71.02605907900488, 42.151318176469864], [-71.02486697193446, 42.150074722613425], [-71.02366592588902, 42.14954979804682], [-71.02123901686943, 42.14919306030401], [-71.02051992206721, 42.14876409089262], [-71.02008298325383, 42.14819673865185], [-71.0198930325665, 42.14756683825743], [-71.0194430932026, 42.147420900037744], [-71.01932291565664, 42.147140168663164], [-71.01699603919772, 42.146768004163704], [-71.01690191166952, 42.14728811485727], [-71.01667099573513, 42.147350722601985], [-71.01236592785077, 42.14694422071656], [-71.01262993466467, 42.145280859064044], [-71.0109190022971, 42.14515822068336], [-71.00957894903426, 42.14554976518659], [-71.00860804941418, 42.145603002763586], [-71.00854901577861, 42.148489990357994], [-71.00806295732652, 42.15110392956945], [-71.00851696315243, 42.154655982376745], [-71.00345502546668, 42.154684811000784], [-71.00325407427722, 42.15598604112274], [-71.00451699949208, 42.1560140150592], [-71.0044339527331, 42.16064472052545], [-71.00616199459566, 42.1606859396396], [-71.00681296016882, 42.16409704949348], [-71.00657200470357, 42.16784925170076], [-71.00669198153697, 42.168299931404285], [-71.00265806243698, 42.16813282513135], [-70.97659109166081, 42.16820079148384], [-70.97468999906621, 42.17809908284561], [-70.9738899554796, 42.184098912507714], [-70.9736900674079, 42.186899135638484], [-70.97158994415032, 42.1998991787215], [-70.96989094268943, 42.211898835936935], [-70.96919102524619, 42.21419874146076], [-70.96919107329654, 42.2164990641872], [-70.96809103308212, 42.22129886846196]]], [[[-70.98930702274625, 42.252452811103474], [-70.98915405473656, 42.25259055392127], [-70.98906218759856, 42.25343925860587], [-70.9883843412534, 42.25350488900905], [-70.98564365792836, 42.252985649367396], [-70.98511996986753, 42.25309359057678], [-70.98317980785872, 42.25286598885445], [-70.98293397385933, 42.25266343653622], [-70.98259441592658, 42.25185837573512], [-70.98219445625848, 42.25191059145354], [-70.98170201908799, 42.252342204214195], [-70.98013174574868, 42.252685102090254], [-70.9789011268398, 42.25314768699651], [-70.97763799406898, 42.25318752996625], [-70.97674586696621, 42.252807018778796], [-70.97674475584591, 42.251473988878296], [-70.97461898650181, 42.24982232994904], [-70.97443363972046, 42.24856441545125], [-70.97403269089803, 42.248030825494794], [-70.97372461666339, 42.247919124897564], [-70.97320129372764, 42.248009007096016], [-70.97307763493528, 42.24766913739491], [-70.96922919926055, 42.24682592677116], [-70.96861382221786, 42.24725973355482], [-70.96849085872395, 42.24794678113076], [-70.9675365713544, 42.24815224981228], [-70.96642858415575, 42.2477205804783], [-70.96664355292353, 42.24719489410101], [-70.96658193566344, 42.24688962548639], [-70.96688962159227, 42.24646058623131], [-70.96741256773709, 42.24632571520303], [-70.96768943989755, 42.24606872545567], [-70.96833647459654, 42.245156776769505], [-70.96848916487224, 42.24437926774021], [-70.96876583899872, 42.24421230616304], [-70.97175233247664, 42.24375510501534], [-70.97261359359257, 42.242614536945084], [-70.97282834861397, 42.24210628596408], [-70.96968840997658, 42.242133462700956], [-70.96965760845931, 42.241629700793354], [-70.97045739939888, 42.24059802790362], [-70.97322837556288, 42.24094614581034], [-70.9733817225297, 42.24071839387392], [-70.97334999162821, 42.24002557100699], [-70.97085654654461, 42.23945590683317], [-70.97110284404911, 42.238866208353855], [-70.97479692798757, 42.23918083322058], [-70.97504157554738, 42.23759796032068], [-70.97470771830082, 42.237404548184074], [-70.97739096981145, 42.238299107822975], [-70.97979105792452, 42.23619876543695], [-70.97999096803359, 42.235298795236915], [-70.98109093507033, 42.23569878786068], [-70.98369104380272, 42.23529917617495], [-70.98499104307582, 42.23449923227335], [-70.98909201582109, 42.234098912557315], [-71.00209195954243, 42.232299139766404], [-71.00369203905255, 42.23159876301389], [-71.00639204654406, 42.23079899622124], [-71.00819296135346, 42.22959973550328], [-71.01599194037479, 42.233899264640506], [-71.0179329163973, 42.23537776584212], [-71.01719197206853, 42.2363987604326], [-71.01509207664785, 42.237999222182076], [-71.01689194339362, 42.23979899680685], [-71.0155920154849, 42.24119913496436], [-71.01499206303198, 42.241198852405674], [-71.01489198533963, 42.240299240053105], [-71.01339201725287, 42.24049883825977], [-71.01309198336361, 42.241899248213095], [-71.00689198244193, 42.2406989962424], [-71.00499204112921, 42.24129908986709], [-71.00489193753336, 42.24189906042608], [-71.00385107651141, 42.24373514367334], [-71.00349193581407, 42.243999183810175], [-70.99789291848485, 42.24629989435757], [-70.99719307338096, 42.24700020228824], [-70.99869292496068, 42.2489002403014], [-70.99809308153847, 42.24999993737681], [-70.99679202804478, 42.24969883089626], [-70.99679205303069, 42.249098996473975], [-70.99559208163795, 42.24889903745652], [-70.99479208791765, 42.2484988140861], [-70.99429204752637, 42.247999188538635], [-70.99299197162422, 42.249499230857296], [-70.9917930872163, 42.2493999641497], [-70.98889198484943, 42.25129912875436], [-70.98869202573773, 42.25209895119589], [-70.98969207842367, 42.25229921900562], [-70.98957833987542, 42.25252716818964], [-70.98930702274625, 42.252452811103474]]]]}}