{"type": "Feature", "properties": {"district_name": "8th Suffolk District", "chamber": "house", "vintage": "2022-present"}, "geometry": {"type": "Polygon", "coordinates": [[[-71.099554, 42.34311000000001], [-71.094768, 42.344443000000005], [-71.094303, 42.345577], [-71.093295, 42.346511], [-71.09227, 42.34711100000002], [-71.09204400000002, 42.34685000000002], [-71.091768, 42.34885700000002], [-71.091939, 42.348856000000005], [-71.091933, 42.349180000000004], [-71.091618, 42.34919300000001], [-71.09165, 42.350801], [-71.089757, 42.35136299999999], [-71.091235, 42.354338], [-71.077952, 42.35873500000001], [-71.077334, 42.35908399999999], [-71.076092, 42.36038], [-71.074792, 42.363773000000016], [-71.073721, 42.365056], [-71.070644, 42.367949], [-71.067492, 42.36630899999999], [-71.064806, 42.36559599999998], [-71.063388, 42.364193000000014], [-71.063718, 42.363281], [-71.063721, 42.36124100000001], [-71.062911, 42.361229], [-71.062846, 42.358889], [-71.062642, 42.357977000000005], [-71.063169, 42.357748], [-71.061956, 42.356534], [-71.063419, 42.35505999999999], [-71.064562, 42.35238300000001], [-71.067533, 42.352513], [-71.0684, 42.352356], [-71.071057, 42.35180299999998], [-71.079508, 42.349508], [-71.078718, 42.347834000000006], [-71.07891900000001, 42.34769299999999], [-71.078699, 42.347697], [-71.0849, 42.34273300000001], [-71.083151, 42.34162199999999], [-71.090518, 42.335665000000006], [-71.090654, 42.33574399999999], [-71.089523, 42.33712599999998], [-71.091188, 42.340949], [-71.09181, 42.33987100000002], [-71.092543, 42.33951299999999], [-71.093277, 42.340596], [-71.09321700000001, 42.34088899999999], [-71.095718, 42.340101], [-71.096336, 42.339715], [-71.096885, 42.339026], [-71.09854, 42.34091], [-71.099554, 42.34311000000001]]]}}