{"type": "Feature", "properties": {"district_name": "13th Essex", "chamber": "house", "vintage": "2001-2010"}, "geometry": {"type": "MultiPolygon", "coordinates": [[[[-70.92261373702074, 42.54329792237668], [-70.92242779403227, 42.543972184447526], [-70.92211739028558, 42.54417543829387], [-70.92100427436066, 42.54447369316642], [-70.92060179974743, 42.54504783682431], [-70.9200145158923, 42.54550795066397], [-70.91936394188834, 42.54575337374686], [-70.9179717196501, 42.54580374881398], [-70.91760107991928, 42.545666281357036], [-70.91627103481088, 42.54582328818938], [-70.91234245943373, 42.54419638101542], [-70.91113673734188, 42.54401805767028], [-70.9105807203633, 42.5436494879522], [-70.91076649390935, 42.54168281433159], [-70.91102880594508, 42.541010643502325], [-70.9095423049173, 42.540658136233134], [-70.90953893553468, 42.540530390236306], [-70.91389398090503, 42.541595218952295], [-70.92261373702074, 42.54329792237668]]], [[[-70.92209596682962, 42.591295035214564], [-70.91009390939841, 42.57509400385635], [-70.90829394419214, 42.572893804350855], [-70.90819503714658, 42.56899520875311], [-70.90839400693416, 42.565394094393724], [-70.90839397071234, 42.559293750938615], [-70.90869396418992, 42.55739406816597], [-70.91139409443016, 42.550094982309005], [-70.91141276901136, 42.54954086165614], [-70.91249574750653, 42.549571139245515], [-70.91212429816999, 42.54909098558217], [-70.91209392001441, 42.548614252853405], [-70.91261965767343, 42.54776731360959], [-70.9129602445129, 42.547698719275665], [-70.91342443304502, 42.54786200151101], [-70.91376469955753, 42.54819850975118], [-70.91401167318513, 42.5487258566091], [-70.9139183101624, 42.54982650404134], [-70.91469130272752, 42.550029610341014], [-70.91493985227969, 42.55028631885739], [-70.91534052393423, 42.55149581855666], [-70.91530975176917, 42.552271007854934], [-70.91558853924927, 42.55316704939003], [-70.91537104758476, 42.55362114354125], [-70.91574235350899, 42.55410128514998], [-70.91571157214433, 42.554425779255205], [-70.91490697046473, 42.55483581881503], [-70.91422627794748, 42.55595543268274], [-70.91589621821362, 42.55593633363011], [-70.91602039357313, 42.55660089999247], [-70.91567979836377, 42.5568495542677], [-70.91567975502187, 42.55726423823089], [-70.91614373803982, 42.557355487307795], [-70.91697995507674, 42.556945031901805], [-70.91734984143643, 42.5569654727303], [-70.91762973063007, 42.55715031268305], [-70.91775194239843, 42.5575352210093], [-70.9174734327233, 42.558107727106645], [-70.91747335825663, 42.55862987401113], [-70.91639116912108, 42.558909110301144], [-70.91617422503865, 42.55913814461835], [-70.91700938948505, 42.55927740574178], [-70.91728791216721, 42.55957026988891], [-70.91728798785674, 42.55984934888782], [-70.91676125641212, 42.560533688907846], [-70.91654495007512, 42.561536944888005], [-70.91697797805669, 42.56158414645685], [-70.91725662375853, 42.561308726275044], [-70.91809200635298, 42.56002501307697], [-70.91809169118335, 42.559502306282596], [-70.91837073981252, 42.558912354716654], [-70.91905161802524, 42.55803635420398], [-70.91942267079057, 42.55778670904401], [-70.9199492184584, 42.55769652331797], [-70.92081541310014, 42.55799739153008], [-70.92016514357636, 42.55883698786546], [-70.91997990052978, 42.55982183434553], [-70.92041247269124, 42.55968841197362], [-70.92078478971395, 42.559114677633225], [-70.92109276832436, 42.559226504392576], [-70.92115509490583, 42.5597118286136], [-70.92134106176611, 42.559870872937935], [-70.92171238783388, 42.5597562598998], [-70.92186729690683, 42.55859177521359], [-70.9220217246518, 42.55824707661327], [-70.9223934870392, 42.558042438205106], [-70.92282584517109, 42.55803559940103], [-70.92437335941311, 42.55913545502781], [-70.92486816229368, 42.559730397185085], [-70.92483655982461, 42.55998287765551], [-70.92418721921881, 42.56012030337852], [-70.9239713972506, 42.56037579818558], [-70.92415664529203, 42.56075988852258], [-70.9249608488102, 42.560854491825616], [-70.92616698836116, 42.55943809727237], [-70.92570297162233, 42.55895020999681], [-70.92520804616763, 42.55801317438418], [-70.92489898763124, 42.55781132784198], [-70.92205288012238, 42.55657106804952], [-70.91998072340627, 42.55602951907756], [-70.91954737964893, 42.55573082285568], [-70.91815541113075, 42.554493270991216], [-70.9177852298439, 42.55337340370158], [-70.91741275824133, 42.55295628061207], [-70.91744435534851, 42.55246073255339], [-70.91806344683157, 42.55188263419343], [-70.91861985655939, 42.55174702531728], [-70.9186829621798, 42.551340535833106], [-70.91899179894428, 42.5510652630585], [-70.91985774809491, 42.55096946764961], [-70.923878744861, 42.55318961716262], [-70.92437360394878, 42.553189836732116], [-70.9246528784056, 42.55294197632171], [-70.92474570577177, 42.5525260713653], [-70.92425055364087, 42.552183755011306], [-70.92257960806054, 42.551680263290706], [-70.92146722735801, 42.550744051076066], [-70.92016711994654, 42.54920764690228], [-70.91933205183042, 42.5491139880582], [-70.91886861729135, 42.54967093848341], [-70.91843581171732, 42.54987637442152], [-70.91747626238109, 42.54989235594624], [-70.91664074817473, 42.54939355110777], [-70.91654847358392, 42.54918771797528], [-70.91651774497582, 42.54845835484584], [-70.91701271718297, 42.54749533217961], [-70.91890000424075, 42.546553958680065], [-70.91970415693582, 42.54632394009105], [-70.92239538844974, 42.54609887925804], [-70.92251981609688, 42.545618990200424], [-70.92270484830557, 42.545480934727216], [-70.9252112342694, 42.5449521718053], [-70.92666485481811, 42.54553106897281], [-70.9283972233476, 42.545708464505566], [-70.92870587309908, 42.54681168208057], [-70.92892190833985, 42.546924725649156], [-70.92929351668954, 42.54681065679809], [-70.92917057774385, 42.54610109680014], [-70.92932425550403, 42.54593643510287], [-70.92972759575478, 42.54591142213907], [-70.93019100121997, 42.54616465857854], [-70.93121116598722, 42.54625577588306], [-70.9317687582866, 42.546507219661166], [-70.93266501867879, 42.546437927226954], [-70.93597557544334, 42.547237942365534], [-70.93610280622735, 42.54705007790285], [-70.93759392617186, 42.54749398129404], [-70.9395939097279, 42.54599521993653], [-70.94549608296252, 42.54779499445368], [-70.97949704535749, 42.55659527678258], [-70.99939591944032, 42.56259402176728], [-71.00259594166792, 42.55839414367628], [-71.003896072499, 42.55389399653837], [-71.00199699585929, 42.54899520609013], [-71.00609598582278, 42.54979379582834], [-71.00694199825402, 42.54979403893197], [-71.0069969729147, 42.54889514892776], [-71.00629603358603, 42.54669384701088], [-71.00379608348199, 42.540294149336894], [-71.00209599929042, 42.53739419238084], [-71.00189594604923, 42.53659379527595], [-71.00569606885637, 42.535694136379995], [-71.00599601146166, 42.536593982679754], [-71.00701194341895, 42.53605199278694], [-71.00685597197572, 42.536198175358855], [-71.00699297357815, 42.53655717900489], [-71.00609700851243, 42.53739508262479], [-71.00599598733137, 42.53839393104684], [-71.0076959652875, 42.53899424127339], [-71.0170969933414, 42.535295117981846], [-71.03149707843033, 42.55089395965712], [-71.03449806205697, 42.56429502474599], [-71.03459802759359, 42.565394851802075], [-71.02999694084815, 42.56519390274354], [-71.02969792154211, 42.568494898036626], [-71.02939798929317, 42.56969493366941], [-71.02449704873861, 42.56919377952882], [-71.02349704985912, 42.56999424773595], [-71.02209697016688, 42.56979378019074], [-71.02169691142092, 42.56869382466062], [-71.01849702170857, 42.567793775912065], [-71.01539705182724, 42.56769415038545], [-71.01379694045626, 42.5665941795822], [-71.00879690977943, 42.56449512760719], [-71.00849598785052, 42.56389405703116], [-71.00789604903596, 42.56469384454221], [-71.00369608347272, 42.56499375113343], [-71.00289596850912, 42.56339406143522], [-71.0020960366757, 42.56529406708074], [-70.99809601308473, 42.567194262588984], [-70.998096085329, 42.568093950889505], [-70.99679603595455, 42.56889400917791], [-70.99629607761545, 42.569994061856576], [-70.99739597931517, 42.57069373912577], [-70.99559600758914, 42.57129410934344], [-70.99589600882793, 42.57209382972686], [-70.99479591745211, 42.572293824752144], [-70.99509696754572, 42.57329497238874], [-70.99494693222375, 42.573494062195174], [-70.99369703621828, 42.57369507454168], [-70.99341600066175, 42.57404212794952], [-70.99350405307166, 42.57483191197269], [-70.99397299998557, 42.57528296607138], [-70.99319107656999, 42.57604981099472], [-70.9928959918989, 42.57679402498652], [-70.99349901855726, 42.577897788405366], [-70.99207696176735, 42.578406928317214], [-70.99019701133014, 42.58069481866134], [-70.98996009987411, 42.58167672943233], [-70.99115797628085, 42.58133879904173], [-70.99203698526746, 42.586462231787905], [-70.98849700465948, 42.588095166578185], [-70.9876420392412, 42.58868778475826], [-70.98539691957969, 42.58959491854903], [-70.98599696445271, 42.59169515325336], [-70.97449707859816, 42.59419500058502], [-70.96449691452251, 42.599494782748295], [-70.96588004998667, 42.59997719166619], [-70.96642097576247, 42.60071788933614], [-70.96871096342603, 42.60102777950489], [-70.96953899785484, 42.60200216163865], [-70.97079903253798, 42.60282491059083], [-70.97275206974265, 42.60286478698385], [-70.97347493372669, 42.60333227564006], [-70.97487506384525, 42.60478691004592], [-70.98038304471795, 42.606432256210084], [-70.98090691120325, 42.60709797010344], [-70.9819639819778, 42.6076000982275], [-70.98204893307006, 42.609358757995636], [-70.98490791033305, 42.611462902235445], [-70.98521395522924, 42.61201903699093], [-70.98382704127356, 42.613598952048356], [-70.98264508547419, 42.61548808970852], [-70.98251907814034, 42.616269045572295], [-70.97844100930644, 42.619126947736014], [-70.97641007091295, 42.62088277398018], [-70.97590590845564, 42.6210228411342], [-70.97577805151873, 42.62155620723712], [-70.9761500260077, 42.62203726917244], [-70.97615403685695, 42.62247109165064], [-70.97681097248451, 42.623086785888816], [-70.97654697049548, 42.62341024060272], [-70.97541607486723, 42.62376295213027], [-70.9736759263206, 42.62342475792771], [-70.9728170602979, 42.62429575908927], [-70.97191199958463, 42.62401592817873], [-70.9718190904049, 42.62464791682809], [-70.97040501994746, 42.625237845712626], [-70.96953193872595, 42.62473420998083], [-70.9693660001857, 42.62478408582746], [-70.96774703249979, 42.62651521079581], [-70.96801898364504, 42.62697220627925], [-70.97034607769511, 42.62760406097178], [-70.97131892138376, 42.628095201231226], [-70.97266401063553, 42.6290167774437], [-70.97393202765726, 42.630572082250524], [-70.97396704257996, 42.6307821035289], [-70.97338795810745, 42.63130497465534], [-70.97337405845293, 42.63157779821109], [-70.97470595209856, 42.634618763541084], [-70.97467906050467, 42.635262863576564], [-70.9743829973698, 42.635698128156825], [-70.97357093930046, 42.63625989151841], [-70.97358493254531, 42.6377087570368], [-70.9739759307805, 42.63833901481082], [-70.97609791673995, 42.640211004820756], [-70.97581791342822, 42.64175925193309], [-70.96312006746234, 42.64782079758639], [-70.96012090800902, 42.64906995799254], [-70.96892496969714, 42.67316189073423], [-70.93604907363829, 42.66349588013435], [-70.92041802333205, 42.67004025713777], [-70.91620501480512, 42.660809194035714], [-70.90540796782021, 42.661982957108904], [-70.9033530758737, 42.659830950875005], [-70.90417792662326, 42.65972773738452], [-70.90529900695897, 42.65915286519523], [-70.90538899907222, 42.65741307973527], [-70.90513105879589, 42.652079021234], [-70.90171303975906, 42.65282319365464], [-70.89838699769399, 42.64818211517678], [-70.89991505915224, 42.64727182557041], [-70.89780300660274, 42.64469292535564], [-70.89618993695625, 42.643661050081796], [-70.89625502527862, 42.641840110983686], [-70.8956820859075, 42.64124802079881], [-70.89586297146025, 42.639314031645675], [-70.90463099460501, 42.63811778682907], [-70.90637993996718, 42.63605287352542], [-70.90691904901736, 42.634923039975824], [-70.90646593875802, 42.63469002770944], [-70.90506291281002, 42.63291272376524], [-70.90415692808214, 42.63244724171493], [-70.90513593594251, 42.631796808240935], [-70.90587502155235, 42.630629180685766], [-70.90679105368154, 42.630451023823575], [-70.90896690572914, 42.62938696327847], [-70.90926804061843, 42.6293491184336], [-70.91002100543129, 42.629616843874224], [-70.91061791063366, 42.629218161019516], [-70.91091909007841, 42.62921576338302], [-70.91167593281789, 42.629844159112764], [-70.91197703051319, 42.62982993819665], [-70.91215801297496, 42.62964406055138], [-70.91183599185301, 42.62912478587124], [-70.91208500825897, 42.62903715533871], [-70.91238700289226, 42.62917203494344], [-70.91294706917375, 42.628351167228125], [-70.91384597394678, 42.62812392170054], [-70.91483293068801, 42.628404064992765], [-70.9150110418849, 42.627807993952125], [-70.91514397139953, 42.627769848952994], [-70.91571402296822, 42.628002852225876], [-70.91668195108359, 42.62797286034397], [-70.91625797738598, 42.627269101771844], [-70.91692605813866, 42.62730285919934], [-70.91749006819623, 42.62695292063691], [-70.91814794318248, 42.626008738380825], [-70.91936297493189, 42.62568008213708], [-70.91956096581598, 42.6253817488286], [-70.91950598674978, 42.62496117029612], [-70.91909995325635, 42.62441786183115], [-70.91798099318468, 42.6243492120362], [-70.91779098226331, 42.62374284531519], [-70.91825304988724, 42.62320784938346], [-70.91855297398266, 42.6231322724262], [-70.91915898813234, 42.62361301427651], [-70.91965392993411, 42.62300277428295], [-70.91988698544151, 42.62298988341608], [-70.92087904904179, 42.62364078179472], [-70.92307801337684, 42.623246113360864], [-70.9241680038139, 42.62371124051916], [-70.92534604091531, 42.62302392599146], [-70.92640203025934, 42.620132096944445], [-70.92744804403638, 42.616212252165774], [-70.930729058504, 42.61239683341087], [-70.93081496472381, 42.61262681775469], [-70.93099791438381, 42.61238015372393], [-70.92989593526931, 42.60999527839383], [-70.92939608565827, 42.608394883940726], [-70.93379608041232, 42.599294852863686], [-70.92739491909266, 42.592093968335675], [-70.92209596682962, 42.591295035214564]]]]}}