{"type": "Feature", "properties": {"district_name": "15th Worcester District", "chamber": "house", "vintage": "2022-present"}, "geometry": {"type": "Polygon", "coordinates": [[[-71.820765, 42.256441999999986], [-71.818441, 42.26089199999999], [-71.820675, 42.26149300000001], [-71.817673, 42.267466000000006], [-71.816994, 42.26956], [-71.816409, 42.27031600000002], [-71.814618, 42.270444], [-71.81527, 42.266093999999995], [-71.814574, 42.263732], [-71.812204, 42.26403799999999], [-71.809317, 42.26398600000001], [-71.80868, 42.267981000000006], [-71.806885, 42.26779400000001], [-71.806729, 42.27108299999999], [-71.802258, 42.271443], [-71.798628, 42.271413000000024], [-71.798673, 42.270027999999996], [-71.798439, 42.26873799999999], [-71.79627700000002, 42.26865500000001], [-71.795489, 42.269088], [-71.795039, 42.269163000000006], [-71.793474, 42.268764], [-71.79424800000001, 42.27067], [-71.797207, 42.27649099999999], [-71.79758, 42.27750400000001], [-71.797829, 42.279016], [-71.797935, 42.283941], [-71.79662, 42.283953000000004], [-71.79204, 42.283318], [-71.791945, 42.283566999999984], [-71.788751, 42.282866000000006], [-71.789697, 42.280501], [-71.788695, 42.280729], [-71.790186, 42.27797799999999], [-71.786387, 42.277877000000004], [-71.786212, 42.27749100000001], [-71.785426, 42.277511], [-71.785444, 42.277133000000006], [-71.78696, 42.27715799999998], [-71.787642, 42.27615299999998], [-71.783581, 42.27485400000001], [-71.783674, 42.273711000000006], [-71.783385, 42.273349999999986], [-71.773983, 42.273637], [-71.769701, 42.27360600000001], [-71.75474, 42.274387000000004], [-71.752269, 42.260189], [-71.758869, 42.25971800000001], [-71.761686, 42.25887699999999], [-71.763474, 42.259433], [-71.764375, 42.25943500000001], [-71.765181, 42.25914099999998], [-71.767338, 42.25790000000001], [-71.772096, 42.25644199999998], [-71.785057, 42.25586700000001], [-71.785063, 42.25543600000001], [-71.784566, 42.25507999999999], [-71.784658, 42.25487800000001], [-71.784237, 42.25214999999999], [-71.789142, 42.251863000000014], [-71.789061, 42.251207], [-71.789983, 42.251161], [-71.790743, 42.25090800000001], [-71.792579, 42.250862], [-71.792451, 42.24866600000001], [-71.794709, 42.250055], [-71.795537, 42.251654], [-71.796856, 42.253494], [-71.797242, 42.253539], [-71.799093, 42.249279], [-71.801252, 42.24976499999999], [-71.800463, 42.251398], [-71.80532, 42.25136500000001], [-71.805938, 42.252651], [-71.806709, 42.25261999999999], [-71.807628, 42.252855], [-71.808866, 42.251003], [-71.810966, 42.25185900000002], [-71.814699, 42.25439200000001], [-71.806548, 42.25863799999999], [-71.805165, 42.259619], [-71.805693, 42.259944999999995], [-71.807001, 42.259481000000015], [-71.807969, 42.25889300000001], [-71.809171, 42.260118000000006], [-71.812132, 42.259635], [-71.811963, 42.25834300000001], [-71.813343, 42.258267], [-71.814739, 42.25793699999999], [-71.816164, 42.256942], [-71.817142, 42.257264], [-71.818262, 42.255827999999994], [-71.820765, 42.256441999999986]]]}}