{"type": "Feature", "properties": {"district_name": "6th Plymouth District", "chamber": "house", "vintage": "2012-2020"}, "geometry": {"type": "Polygon", "coordinates": [[[-70.912962, 42.084417], [-70.874945, 42.089667000000006], [-70.874653, 42.08873299999998], [-70.87433, 42.08847899999999], [-70.87001099999999, 42.087303], [-70.86768599999999, 42.08826900000002], [-70.867077, 42.08905399999999], [-70.86539499999999, 42.090348999999996], [-70.86220399999999, 42.08865399999999], [-70.856786, 42.091801], [-70.853651, 42.095514000000016], [-70.849024, 42.095725], [-70.84734, 42.096318000000004], [-70.842486, 42.094800999999975], [-70.839416, 42.09462500000001], [-70.836061, 42.09696], [-70.831214, 42.098701999999996], [-70.82379, 42.10046200000001], [-70.821322, 42.100609000000006], [-70.819619, 42.09932799999999], [-70.814785, 42.099001000000015], [-70.811185, 42.09810100000001], [-70.809585, 42.099201], [-70.81080299999999, 42.100187], [-70.810012, 42.10047999999999], [-70.811863, 42.10403999999999], [-70.806793, 42.10843399999999], [-70.803502, 42.111706000000005], [-70.800685, 42.10970100000001], [-70.798885, 42.112300999999995], [-70.792185, 42.106201000000006], [-70.789481, 42.106804], [-70.792074, 42.10910800000002], [-70.790071, 42.10880999999999], [-70.790167, 42.110713], [-70.788164, 42.11031500000001], [-70.788361, 42.111616999999995], [-70.78635799999999, 42.11151899999999], [-70.783253, 42.111922], [-70.78204699999999, 42.11462600000001], [-70.78254299999999, 42.11652900000001], [-70.778384, 42.115916999999996], [-70.77688599999999, 42.11700200000001], [-70.776664, 42.116828000000005], [-70.77696399999999, 42.11662800000001], [-70.775089, 42.115333], [-70.775617, 42.11461399999999], [-70.777281, 42.113406], [-70.776169, 42.11343900000001], [-70.775978, 42.112854999999996], [-70.766549, 42.114028000000005], [-70.765923, 42.109902000000005], [-70.759468, 42.109598000000005], [-70.762328, 42.10331399999999], [-70.74971599999999, 42.096977], [-70.69844499999999, 42.07050299999999], [-70.698482, 42.06902100000001], [-70.697446, 42.06742099999999], [-70.696884, 42.06702399999999], [-70.695532, 42.06649700000001], [-70.68276100000001, 42.057469], [-70.65130599999999, 42.07122799999999], [-70.648001, 42.07244199999999], [-70.647932, 42.072948000000004], [-70.629803, 42.077186000000005], [-70.62872399999999, 42.073549], [-70.62603299999999, 42.06655999999999], [-70.622529, 42.06013200000001], [-70.614905, 42.04911099999999], [-70.608105, 42.037786000000004], [-70.602953, 42.025846999999985], [-70.598554, 42.01367700000001], [-70.64150000000001, 42.013155000000005], [-70.64202, 42.012396999999986], [-70.64358299999999, 42.007777], [-70.645899, 42.002459], [-70.64838999999999, 41.997844], [-70.649808, 41.996042], [-70.652348, 41.990216999999994], [-70.653511, 41.987113], [-70.662497, 41.988123000000016], [-70.66525299999999, 41.988588], [-70.666271, 41.988901999999996], [-70.66705499999999, 41.989205], [-70.66873799999999, 41.99033900000002], [-70.6701, 41.992642999999994], [-70.671066, 41.99651000000001], [-70.67173799999999, 41.998325000000015], [-70.672635, 41.999658], [-70.67326899999999, 42.00023000000001], [-70.666322, 42.002871000000006], [-70.665947, 42.00329400000002], [-70.66438099999999, 42.006443], [-70.66367799999999, 42.008475], [-70.663477, 42.00953999999999], [-70.663473, 42.011629], [-70.664031, 42.01368899999999], [-70.66605799999999, 42.017556999999975], [-70.66873, 42.02133500000001], [-70.672771, 42.02578300000001], [-70.673181, 42.02536900000001], [-70.673776, 42.025102], [-70.67460799999999, 42.02542599999999], [-70.674554, 42.024915], [-70.674979, 42.024563], [-70.67536199999999, 42.02450900000001], [-70.675572, 42.02400900000001], [-70.676114, 42.023842], [-70.676549, 42.023241000000006], [-70.680125, 42.02381], [-70.68036, 42.023981999999975], [-70.680377, 42.024345000000004], [-70.681378, 42.02413599999999], [-70.68345599999999, 42.023102000000016], [-70.683224, 42.02341200000001], [-70.68796999999999, 42.024929], [-70.693592, 42.025175000000004], [-70.695417, 42.02544100000001], [-70.696445, 42.025351], [-70.697254, 42.025138000000005], [-70.698936, 42.02293400000001], [-70.69985199999999, 42.022115], [-70.71173399999999, 42.01638199999999], [-70.72025, 42.01439999999999], [-70.72809099999999, 42.013828], [-70.73124000000001, 42.017707], [-70.769492, 42.02206299999998], [-70.775527, 42.023167000000015], [-70.796764, 42.02054399999999], [-70.800525, 42.01644199999999], [-70.799329, 42.01361299999999], [-70.807307, 42.012871], [-70.807284, 42.01300199999998], [-70.80798399999999, 42.013602], [-70.809484, 42.01540200000001], [-70.809484, 42.01670200000001], [-70.811184, 42.017502], [-70.812184, 42.01860200000001], [-70.81318399999999, 42.019202], [-70.812884, 42.022701999999995], [-70.814392, 42.024122], [-70.849003, 42.015722], [-70.850737, 42.01572900000001], [-70.860164, 42.01615899999999], [-70.864434, 42.02096999999999], [-70.894463, 42.026432000000014], [-70.896943, 42.019149], [-70.896618, 42.02328499999998], [-70.89764900000002, 42.024224000000004], [-70.897418, 42.024941], [-70.899729, 42.02529899999999], [-70.90845999999999, 42.062885000000016], [-70.909395, 42.068182], [-70.912962, 42.084417]]]}}