{"type": "Feature", "properties": {"district_name": "3rd Worcester", "chamber": "house", "vintage": "2001-2010"}, "geometry": {"type": "Polygon", "coordinates": [[[-71.77531703070335, 42.6365877694741], [-71.77441698577654, 42.62558924370999], [-71.77411702271712, 42.62388909831415], [-71.77381699597376, 42.6202889270972], [-71.773917084718, 42.61868911329285], [-71.7708170352031, 42.60648883062349], [-71.77061699736393, 42.600389145473926], [-71.77271707793258, 42.57258903742314], [-71.7726159905944, 42.57068921513012], [-71.77271594606336, 42.56968916051815], [-71.77161595883977, 42.568488816169804], [-71.76461606273327, 42.562790268774144], [-71.76281598192871, 42.563790268944075], [-71.7614159587381, 42.5634901868455], [-71.75671605642258, 42.56178972372705], [-71.75431607390577, 42.56009021604951], [-71.74871602976587, 42.5511900727377], [-71.74801601348305, 42.55038980924061], [-71.74991604224225, 42.549590122562265], [-71.74901592596719, 42.54899003417406], [-71.74961593529312, 42.54518972606337], [-71.75311605615772, 42.545690167424496], [-71.75541604856019, 42.54848991193038], [-71.76021598152091, 42.54738989433147], [-71.76181609096304, 42.54968976204166], [-71.7617160008256, 42.55239013913183], [-71.76291592061152, 42.55398983536375], [-71.77021595339554, 42.55979019701658], [-71.7762160904758, 42.5562898181131], [-71.78331704478745, 42.55238975147278], [-71.78451697877884, 42.551889983211424], [-71.7854169249415, 42.55119007443019], [-71.79141699054928, 42.55149015776757], [-71.79501697925936, 42.55228897313199], [-71.80001705277998, 42.552389166501996], [-71.80271697048302, 42.54958911743037], [-71.80591704531838, 42.547789195735504], [-71.8134169736384, 42.54748886243895], [-71.820216962536, 42.546589074742045], [-71.82991791768114, 42.54898901600776], [-71.83161804343818, 42.54908879438615], [-71.83691796569562, 42.54858899871592], [-71.83751794341777, 42.543889101339026], [-71.85071803174746, 42.54408884475313], [-71.86291803172816, 42.54478874815598], [-71.86261797730846, 42.55238887274577], [-71.85551802022074, 42.551988982424746], [-71.85521789922458, 42.553289064447064], [-71.85491804823928, 42.55828914477303], [-71.85641795493439, 42.558089276797], [-71.85951798732803, 42.558489268174164], [-71.86221808721363, 42.55798906624939], [-71.86201791666218, 42.563388886611584], [-71.86031902595931, 42.591487762186134], [-71.86041897923342, 42.59198820436648], [-71.85841907653072, 42.63368785555147], [-71.84471909810665, 42.63778785803215], [-71.79421804424452, 42.63688776135559], [-71.78071702469505, 42.636488127921346], [-71.77531703070335, 42.6365877694741]]]}}