{"type": "Feature", "properties": {"district_name": "14th Suffolk District", "chamber": "house", "vintage": "2022-present"}, "geometry": {"type": "Polygon", "coordinates": [[[-71.160424, 42.26682300000002], [-71.160005, 42.26702300000001], [-71.158643, 42.26956600000001], [-71.154676, 42.269296999999995], [-71.154063, 42.269009], [-71.151124, 42.26666600000001], [-71.146811, 42.27039], [-71.140308, 42.275428999999995], [-71.135535, 42.279548999999996], [-71.127373, 42.28710000000001], [-71.125965, 42.28848200000001], [-71.127139, 42.28916099999999], [-71.126229, 42.29002899999999], [-71.124217, 42.29258099999999], [-71.122498, 42.294287], [-71.121294, 42.295199000000004], [-71.119786, 42.294287], [-71.119916, 42.294166999999995], [-71.118415, 42.29340899999999], [-71.119079, 42.29171499999999], [-71.119385, 42.28942899999999], [-71.119712, 42.28028799999999], [-71.121776, 42.27067600000001], [-71.12144, 42.270385999999995], [-71.121185, 42.270683999999996], [-71.120607, 42.27028399999999], [-71.118391, 42.266842999999994], [-71.11788, 42.26402399999999], [-71.115, 42.26472700000001], [-71.110828, 42.266065000000005], [-71.10842, 42.262590999999986], [-71.107743, 42.262975000000004], [-71.10690300000002, 42.261928000000005], [-71.108405, 42.261116000000015], [-71.10868200000002, 42.26126300000001], [-71.10961, 42.26126699999998], [-71.11146000000001, 42.26076900000001], [-71.113326, 42.25899], [-71.109544, 42.255411999999986], [-71.109347, 42.24798999999999], [-71.126377, 42.23916200000001], [-71.125681, 42.237900999999994], [-71.124763, 42.237429], [-71.124084, 42.23638800000001], [-71.122638, 42.23537999999999], [-71.12246400000001, 42.234931], [-71.122604, 42.23443700000001], [-71.122938, 42.23424900000003], [-71.124053, 42.23432200000001], [-71.124462, 42.234161000000014], [-71.124719, 42.233745000000006], [-71.124524, 42.232904000000005], [-71.12523000000002, 42.23205700000002], [-71.125952, 42.231817], [-71.126609, 42.23126400000001], [-71.12753, 42.231115], [-71.128252, 42.230184], [-71.128803, 42.229803000000004], [-71.129202, 42.22896699999999], [-71.130101, 42.228667999999985], [-71.130749, 42.227911], [-71.142681, 42.235998000000016], [-71.146642, 42.25575500000001], [-71.152312, 42.258336], [-71.155958, 42.256484999999984], [-71.157609, 42.263433000000006], [-71.158567, 42.26545800000001], [-71.160424, 42.26682300000002]]]}}