{"type": "Feature", "properties": {"district_name": "2nd Berkshire", "chamber": "house", "vintage": "2001-2010"}, "geometry": {"type": "Polygon", "coordinates": [[[-72.79102306588459, 42.73607701405652], [-72.68634053812976, 42.73340252358971], [-72.62451613536498, 42.731515517789006], [-72.45831489140969, 42.72692478222464], [-72.41197159775793, 42.72532787029727], [-72.3770389956438, 42.63932903955239], [-72.440269037308, 42.62508516437293], [-72.46342996875289, 42.62007107146387], [-72.46166200496857, 42.60645619995047], [-72.49048698984048, 42.604405207401605], [-72.48883297950123, 42.60693904650971], [-72.48661597365377, 42.608625780988156], [-72.48333103485994, 42.61018821214956], [-72.48155000220065, 42.6120112423465], [-72.47992801936401, 42.61600987250632], [-72.4804369896883, 42.61963704361478], [-72.48234703049998, 42.62312176045901], [-72.48401293636674, 42.62508480865379], [-72.48595097110909, 42.6279311551401], [-72.48783603150198, 42.63158479172875], [-72.48911701684226, 42.63337718591291], [-72.4894621406883, 42.63471226142647], [-72.48872097811956, 42.63637005018263], [-72.48709205027177, 42.63819183539443], [-72.48401289913886, 42.64049410756146], [-72.48382801186523, 42.6409098068217], [-72.48302399894922, 42.64163179901182], [-72.48198587036667, 42.64212509026475], [-72.48058609229388, 42.64314528215649], [-72.47623598567687, 42.6456848702031], [-72.47218907969953, 42.64789089040307], [-72.46703501545409, 42.65186999065258], [-72.46527897945322, 42.653528783370604], [-72.46485903767994, 42.65533619611329], [-72.46515396425693, 42.656928893349416], [-72.47080897051501, 42.66303988570375], [-72.47149687826307, 42.66417913134154], [-72.47185100882903, 42.6651912000312], [-72.47198202546353, 42.668021980685616], [-72.47238600937447, 42.669181045296256], [-72.47201299810831, 42.67010189120444], [-72.47502103816606, 42.67089579276385], [-72.47569098312822, 42.67073596957586], [-72.47662500159173, 42.67246726887674], [-72.4785830400445, 42.675026021201965], [-72.48052203826094, 42.67711675689728], [-72.48261099983162, 42.678083119872184], [-72.48494612354654, 42.67756810346084], [-72.48533094922333, 42.67584082436582], [-72.48646799080726, 42.67328619487411], [-72.48941397546783, 42.67397278921178], [-72.48976097468814, 42.67751572394176], [-72.48939697387917, 42.679633885734155], [-72.48915001359497, 42.68022904569318], [-72.49623401161737, 42.67854099038976], [-72.48958299323482, 42.66238382209218], [-72.5408029613586, 42.65619519450395], [-72.54097307657999, 42.65547626099185], [-72.54451501725718, 42.65523498474024], [-72.54406396471735, 42.65585180573256], [-72.62321003006586, 42.64659006389956], [-72.63296211609459, 42.64526482431848], [-72.64998596599709, 42.576906145711746], [-72.63653793528478, 42.57817319914627], [-72.63871897023105, 42.570042723380546], [-72.65172204784174, 42.56868024465407], [-72.65506597156383, 42.5553570515719], [-72.67625298329632, 42.55283422097715], [-72.6768300129364, 42.55343323385943], [-72.67689199421115, 42.5539812384457], [-72.6773240335018, 42.554553034699836], [-72.6791500277065, 42.556040169952105], [-72.67964394821793, 42.556907863254935], [-72.67983004550001, 42.55777701917834], [-72.6798299751414, 42.55930925483153], [-72.67961298862281, 42.56061299222506], [-72.67942696159913, 42.56093282350143], [-72.67955097548361, 42.5617789802491], [-72.6802620113453, 42.56237322932445], [-72.68258199755472, 42.56280807759329], [-72.68610799766162, 42.56278482097999], [-72.68944799924925, 42.5634937672313], [-72.69182998656638, 42.564202946910996], [-72.69476795251613, 42.56447697761429], [-72.69962399713546, 42.56365400794379], [-72.7007679803239, 42.56365279480749], [-72.7037690248486, 42.56461300205125], [-72.70469694920202, 42.56523073300899], [-72.70574896092606, 42.566260173160885], [-72.70639900515187, 42.5670827990232], [-72.70698703273482, 42.568432199265814], [-72.70738894713105, 42.57032879567666], [-72.70757602005914, 42.57293607276818], [-72.70729802555499, 42.57540473032313], [-72.70732896614707, 42.57631992261431], [-72.70751503090523, 42.57677713828954], [-72.70844295099845, 42.57764579399763], [-72.71228002411618, 42.57865104612295], [-72.71364096838137, 42.57954325509414], [-72.71627200867898, 42.580707912216134], [-72.71738595561641, 42.58185082608277], [-72.71834598301061, 42.58413820013579], [-72.71933700567581, 42.58491494578652], [-72.72052900056929, 42.585569149432565], [-72.74213901394778, 42.58300114585182], [-72.74524103880809, 42.564274155034894], [-72.73293602360273, 42.562777278993636], [-72.76176698987638, 42.463279890133656], [-72.77354502581346, 42.465494019639365], [-72.77326095884656, 42.46679873194014], [-72.83147001594286, 42.477019859747394], [-72.83147501502835, 42.476391799065176], [-72.85579901561381, 42.48101005856924], [-72.84793999682034, 42.43656886778948], [-72.88076998751902, 42.43312418332584], [-72.99290596193245, 42.449015217628116], [-72.9998480044445, 42.42200581997389], [-73.00919202325605, 42.38776603680352], [-72.99554800433577, 42.389173835980124], [-72.97628798903209, 42.391513211114514], [-72.97634400272432, 42.389689735797845], [-72.97763699441897, 42.38548173909932], [-72.97748196494943, 42.38504815774974], [-72.97590803403064, 42.383103778138924], [-72.9751349794247, 42.380292038385164], [-72.97467206077933, 42.37933172694906], [-72.97426996275291, 42.37789115732147], [-72.9736839323296, 42.37674783568354], [-72.97161687932282, 42.375948173852876], [-72.97099994757556, 42.37554975546444], [-72.96948299741337, 42.37358880341092], [-72.96898904728229, 42.37317811539802], [-72.96753998160278, 42.37258376749103], [-72.96562704593285, 42.371211966665825], [-72.965195000272, 42.370617006532434], [-72.96522601824056, 42.36979386264146], [-72.96710604074725, 42.367254944656686], [-72.96901698016325, 42.36521981869051], [-72.96904705022989, 42.36464824099746], [-72.9666418679931, 42.36437392465612], [-72.96620998623774, 42.3640997370346], [-72.96673396617732, 42.36297879740376], [-72.96673398366879, 42.36259106227713], [-72.96367904931913, 42.35742279126498], [-72.96364791974077, 42.35602811697048], [-72.96340096913612, 42.354655881119086], [-72.96303097509563, 42.35381025832003], [-72.96250599517145, 42.35307804067365], [-72.96096402680524, 42.35163785003118], [-72.96028597281645, 42.350471983964106], [-72.95818900621178, 42.34802528231044], [-72.9568940258122, 42.34708782013521], [-72.95405800602916, 42.34576184889231], [-72.95356398428356, 42.34496222710526], [-72.9533840401106, 42.343845181742395], [-72.9538140264585, 42.343867883103165], [-72.9984509725941, 42.31401299654922], [-72.9995450377985, 42.31326487728822], [-73.00037802580194, 42.31235188457437], [-73.00184603169816, 42.25108977776069], [-73.00425995578236, 42.25134012625468], [-73.00565997793815, 42.24695182411381], [-73.00796700385489, 42.2385018617235], [-73.03639803423745, 42.2363239010654], [-73.03685395292027, 42.24036080325226], [-73.09103299819881, 42.234367259820495], [-73.09267604179621, 42.24559511774291], [-73.12093198815694, 42.24322981882713], [-73.1205229871778, 42.24389687552769], [-73.12055399944563, 42.24421722736045], [-73.12092303509569, 42.2446048432112], [-73.12169395267354, 42.24629695325024], [-73.12228004640704, 42.246800242029785], [-73.12308110107688, 42.24856114454177], [-73.12292786449333, 42.24865223174753], [-73.12289703592373, 42.2494298742538], [-73.12271296373886, 42.24971499633769], [-73.12133287852683, 42.25068392542669], [-73.12096496425958, 42.25127779766194], [-73.12102701118405, 42.25205582032041], [-73.12133398064238, 42.252624961841384], [-73.12454785686708, 42.25239380585544], [-73.1266550468117, 42.25200715866075], [-73.16157404924604, 42.24754498021337], [-73.1615330197928, 42.25987918890699], [-73.16087500754925, 42.28674227052835], [-73.16000298259092, 42.30443374771858], [-73.18073199057596, 42.32459818433072], [-73.1922169488939, 42.318556950598406], [-73.23641492570638, 42.36472478277882], [-73.23839500509645, 42.37155527569101], [-73.22878103914243, 42.37666116251473], [-73.22184895132497, 42.400484831419234], [-73.20626795604659, 42.398196790183086], [-73.20174801355607, 42.41388481381993], [-73.20114805412759, 42.416485274219895], [-73.19744806334099, 42.4296852471278], [-73.19124702463876, 42.45078373574241], [-73.18924701643816, 42.45848423428497], [-73.1889470049002, 42.45918421896371], [-73.18614696183215, 42.47088413984542], [-73.19074696957394, 42.47068390499682], [-73.19284695319978, 42.47038406088681], [-73.20044700633404, 42.468983948465876], [-73.20254700842116, 42.468084011349426], [-73.20734805199598, 42.4682842086244], [-73.20994796595522, 42.4693841284894], [-73.21184805558524, 42.47098401313941], [-73.21484800007384, 42.473084116506094], [-73.2187479979874, 42.475484188158994], [-73.22444805052835, 42.47518402995314], [-73.22804803204224, 42.47548407718522], [-73.23664801022919, 42.473884224958276], [-73.23684798968465, 42.472783798495946], [-73.23594803320692, 42.47258407593371], [-73.23594806795437, 42.47198415698845], [-73.2364480170424, 42.47028379352572], [-73.2442480179742, 42.47118401278426], [-73.24454799281146, 42.4703842715354], [-73.24664792854928, 42.47058374776683], [-73.2454480180233, 42.474083837654575], [-73.24434802069882, 42.47568415005477], [-73.24614794133498, 42.48118389941563], [-73.24584799849522, 42.4836837895618], [-73.24624794498052, 42.483784097828924], [-73.24644794810688, 42.4845841418326], [-73.24820402489935, 42.48587497232987], [-73.2482520348185, 42.48683489609046], [-73.24334796046654, 42.492182954064724], [-73.2395480367034, 42.493883106645804], [-73.25644798001196, 42.49598310619647], [-73.27594897050788, 42.49868327367321], [-73.30745007179573, 42.50268285227334], [-73.31204998061767, 42.503382760174745], [-73.31515005692953, 42.49278293641952], [-73.31977402150328, 42.49336283885427], [-73.32295096618495, 42.48018284995789], [-73.3299509723785, 42.45248283437265], [-73.33879999256186, 42.41849991083564], [-73.33535205276505, 42.4177839112751], [-73.33255095083567, 42.417484112152884], [-73.31285102812498, 42.41438385868878], [-73.29030201910071, 42.411061240502455], [-73.29051003896149, 42.40418124782621], [-73.30105497621075, 42.40424518291286], [-73.30886296387433, 42.404069251615844], [-73.31087892446567, 42.39202072801309], [-73.32310298913056, 42.391892958506844], [-73.32086295828448, 42.37800478648708], [-73.329535984418, 42.37813280600643], [-73.32940396026721, 42.369068171727235], [-73.33365203734658, 42.3688570010495], [-73.33081602436314, 42.35195898800572], [-73.35005300399516, 42.351778812849496], [-73.41083642650813, 42.35163003060569], [-73.30690577158941, 42.632916973450314], [-73.24954996843229, 42.630896786960236], [-73.22514301119111, 42.630420929069594], [-73.17133300450878, 42.628712998829045], [-73.1742199593056, 42.59838594689259], [-73.08411812797108, 42.59473190678274], [-73.08035705000263, 42.573408987537704], [-73.09564300542957, 42.56111597253254], [-73.00375503126654, 42.54557177790084], [-72.99954301252194, 42.54507626056108], [-72.97913999825879, 42.54165719374748], [-72.97537901549622, 42.555932905862676], [-72.87694712905622, 42.54115218161106], [-72.87713302406273, 42.5554509415597], [-72.87453897752887, 42.55565576366918], [-72.87287202593112, 42.55607682745194], [-72.84843894602135, 42.55928775158645], [-72.83331599888467, 42.61126884549936], [-72.83227501756758, 42.616511209550175], [-72.82451203632195, 42.61823403634189], [-72.82319698645252, 42.61880393760157], [-72.8222920291914, 42.61881205242916], [-72.82011499957193, 42.61832489992158], [-72.81732300066423, 42.61698716429055], [-72.81610103972434, 42.61680415152653], [-72.81503801161944, 42.61670203791535], [-72.81002301858388, 42.61695316716224], [-72.80695802733457, 42.616700919086774], [-72.80369603587148, 42.61665113598757], [-72.80092998648757, 42.61696875024204], [-72.79630002937603, 42.61797796664092], [-72.78898899489468, 42.62007877140629], [-72.78371795599384, 42.62121393258892], [-72.77681796954847, 42.62058986174259], [-72.7732409884867, 42.620098734424744], [-72.7680499835107, 42.61969724714286], [-72.76475897076898, 42.619108742897055], [-72.76258000376853, 42.61961875679991], [-72.75978602269537, 42.61965096237859], [-72.7536859884739, 42.6208410453801], [-72.75080499903929, 42.618662015276364], [-72.74953601560117, 42.61801514780927], [-72.74803200166208, 42.61822779741312], [-72.74548403538932, 42.61951011714275], [-72.7460709954235, 42.62128302807677], [-72.74703196191707, 42.62283694807682], [-72.74697100055063, 42.62359217579323], [-72.74656900979465, 42.624392165939305], [-72.74471895758653, 42.62624087663171], [-72.74400696049184, 42.626721778070944], [-72.74289301312217, 42.62701905234555], [-72.73713402091687, 42.62702180456069], [-72.73691702032541, 42.62713722560411], [-72.73722795350467, 42.6288512349963], [-72.73682697443147, 42.63036073761211], [-72.73654900864706, 42.63125220103374], [-72.73614701687627, 42.63191597952875], [-72.73525001206646, 42.63292210834212], [-72.74798396580366, 42.63148821513409], [-72.7495369719529, 42.631141128311334], [-72.76606000799137, 42.62919320848546], [-72.77271698767827, 42.658216950652715], [-72.79102306588459, 42.73607701405652]]]}}