{"type": "Feature", "properties": {"district_name": "18th Middlesex District", "chamber": "house", "vintage": "2022-present"}, "geometry": {"type": "Polygon", "coordinates": [[[-71.364749, 42.63762400000001], [-71.361954, 42.637843], [-71.355489, 42.63892699999998], [-71.351003, 42.639229], [-71.343544, 42.64029], [-71.34354100000002, 42.640629], [-71.339705, 42.64209300000001], [-71.337374, 42.643917], [-71.334338, 42.64668900000001], [-71.330541, 42.649613999999985], [-71.331612, 42.65022199999998], [-71.329981, 42.65149900000001], [-71.329334, 42.651783], [-71.327285, 42.651733000000014], [-71.325955, 42.65206200000001], [-71.327614, 42.653316999999994], [-71.327006, 42.653806], [-71.324397, 42.65188800000001], [-71.322451, 42.653929], [-71.319537, 42.655851], [-71.315392, 42.65473299999999], [-71.311882, 42.65199400000001], [-71.309151, 42.65001399999999], [-71.307923, 42.649301999999985], [-71.308866, 42.648184000000015], [-71.310408, 42.648272000000006], [-71.310609, 42.64796900000002], [-71.3095, 42.647555000000004], [-71.311019, 42.645756000000006], [-71.311908, 42.645822], [-71.312893, 42.644675000000014], [-71.31362, 42.644876999999994], [-71.316611, 42.64155600000001], [-71.31678, 42.640632], [-71.317841, 42.640015000000005], [-71.317184, 42.639717], [-71.316283, 42.63899100000001], [-71.315812, 42.63838100000002], [-71.316078, 42.63790800000002], [-71.325139, 42.635408], [-71.325299, 42.631223], [-71.325137, 42.62954599999999], [-71.323917, 42.62961599999999], [-71.323674, 42.62888499999999], [-71.321809, 42.62884300000001], [-71.323617, 42.624523999999994], [-71.322455, 42.624185], [-71.32148800000002, 42.624183999999985], [-71.321356, 42.625603], [-71.319143, 42.62496], [-71.319332, 42.62428599999998], [-71.319529, 42.621766000000015], [-71.318696, 42.618128], [-71.320025, 42.616713], [-71.319947, 42.61596900000001], [-71.31854400000002, 42.614724], [-71.318317, 42.613875], [-71.316851, 42.61369], [-71.319309, 42.61357200000001], [-71.318882, 42.608544000000016], [-71.319897, 42.6069], [-71.323341, 42.60649], [-71.325408, 42.611250999999996], [-71.324975, 42.611601], [-71.325698, 42.613263999999994], [-71.327936, 42.613155000000006], [-71.329328, 42.61398499999998], [-71.359943, 42.625972], [-71.364749, 42.63762400000001]]]}}