{"type": "Feature", "properties": {"district_name": "31st Middlesex District", "chamber": "house", "vintage": "2022-present"}, "geometry": {"type": "Polygon", "coordinates": [[[-71.181968, 42.44376200000001], [-71.181147, 42.443609], [-71.179792, 42.443021000000016], [-71.178522, 42.443008000000006], [-71.177651, 42.443324000000004], [-71.176905, 42.442938], [-71.175965, 42.443025], [-71.175074, 42.44270099999999], [-71.173914, 42.44278400000002], [-71.171352, 42.44431700000001], [-71.169087, 42.44504000000001], [-71.168588, 42.4461], [-71.168557, 42.44663000000001], [-71.16509400000001, 42.44685799999999], [-71.164251, 42.44704399999999], [-71.163404, 42.44684], [-71.16275200000001, 42.447072000000006], [-71.162123, 42.446973000000035], [-71.1618, 42.44779900000002], [-71.160448, 42.44729199999999], [-71.159703, 42.44739899999999], [-71.159744, 42.44768799999999], [-71.159025, 42.44748100000001], [-71.158277, 42.447677999999996], [-71.15811300000001, 42.447901999999985], [-71.158159, 42.448283], [-71.159694, 42.449901999999994], [-71.160561, 42.450588], [-71.15703400000001, 42.451664], [-71.159036, 42.45426499999998], [-71.160047, 42.456858000000004], [-71.16140500000002, 42.45808400000001], [-71.164343, 42.459758], [-71.163003, 42.46019600000001], [-71.156237, 42.456917], [-71.15233, 42.46370699999999], [-71.123862, 42.473392000000004], [-71.112056, 42.47381999999999], [-71.116795, 42.49463900000001], [-71.121765, 42.49872000000001], [-71.11976, 42.500291999999995], [-71.100727, 42.502242], [-71.090115, 42.501260999999985], [-71.085502, 42.492258000000014], [-71.07524000000001, 42.488008], [-71.076599, 42.47749200000003], [-71.077707, 42.47739099999998], [-71.078152, 42.47402], [-71.079189, 42.46164799999998], [-71.082116, 42.44394], [-71.104867, 42.448879], [-71.119402, 42.453445], [-71.121346, 42.448670000000014], [-71.124153, 42.444115999999994], [-71.121976, 42.43978599999999], [-71.127146, 42.43888699999999], [-71.129041, 42.435599], [-71.153682, 42.435802999999986], [-71.182277, 42.43627900000001], [-71.177885, 42.440200999999995], [-71.182378, 42.443499], [-71.181968, 42.44376200000001]]]}}