{"type": "Feature", "properties": {"district_name": "25th Middlesex", "chamber": "house", "vintage": "2001-2010"}, "geometry": {"type": "Polygon", "coordinates": [[[-71.12329698400455, 42.39319592794875], [-71.1227969300666, 42.39249601443333], [-71.12179707915107, 42.392995764156936], [-71.12119706169027, 42.39349625492707], [-71.1204969197263, 42.39309614111922], [-71.11879696964564, 42.39129614575146], [-71.1168970816228, 42.38959618214049], [-71.1179969643232, 42.388996092323296], [-71.1173970065909, 42.388295813625], [-71.11799693281218, 42.38799621264734], [-71.11709704420109, 42.386596101262725], [-71.11159694937413, 42.38179603971929], [-71.11049598790454, 42.38159593883964], [-71.10789608180838, 42.379595797090175], [-71.10769606852654, 42.37929577084842], [-71.10839608459405, 42.37909615011188], [-71.10549606753708, 42.376295927931274], [-71.10269600263065, 42.373996191710035], [-71.10369598495599, 42.373996265023486], [-71.10599607385487, 42.37119695945518], [-71.10709597560711, 42.37159684725791], [-71.10749598824933, 42.370997272307406], [-71.10669598003714, 42.37069688728236], [-71.10709599430274, 42.37009674643248], [-71.10199609313102, 42.368396803561296], [-71.10439699797237, 42.365197815208234], [-71.10539603763522, 42.36459692947482], [-71.10579603774262, 42.36399680136362], [-71.10639603533508, 42.36359710311903], [-71.10769590292236, 42.36439717278232], [-71.10839604732286, 42.363997238532036], [-71.10909602904368, 42.36389721205289], [-71.11699605585275, 42.361197046901204], [-71.1171970217677, 42.36719699994788], [-71.11849696932939, 42.36839701536797], [-71.12329694378941, 42.368995770131725], [-71.12749704093625, 42.372996016891626], [-71.13099692050722, 42.37379617092198], [-71.13059691213435, 42.3756961782264], [-71.13069703417314, 42.375995843943286], [-71.13019703523264, 42.377795929629315], [-71.12929709517509, 42.37819590991393], [-71.12989706128297, 42.379095873855576], [-71.13009706778148, 42.38009583093732], [-71.12989700060186, 42.38059596967606], [-71.12889703127675, 42.3809961830496], [-71.12989705030381, 42.38149625226782], [-71.12909698110164, 42.38229605230498], [-71.13039698768603, 42.382896105694776], [-71.12959707332314, 42.383796065845516], [-71.13159703257827, 42.38479617309128], [-71.13169700090455, 42.384996247616236], [-71.13069696246487, 42.38549607433401], [-71.130997061781, 42.38609572432353], [-71.12769704766379, 42.387295971814616], [-71.12935993134043, 42.38987501847983], [-71.1279269593443, 42.38966388731419], [-71.12790306735762, 42.39011226687011], [-71.1269969981782, 42.3902961414706], [-71.12609695960802, 42.391096153560994], [-71.1255969572923, 42.39179618831924], [-71.12539699259484, 42.39239590745195], [-71.12469693917437, 42.39239587700962], [-71.12329698400455, 42.39319592794875]]]}}