{"type": "Feature", "properties": {"district_name": "24th Middlesex District", "chamber": "house", "vintage": "2022-present"}, "geometry": {"type": "Polygon", "coordinates": [[[-71.21122900000002, 42.406108], [-71.202642, 42.41482900000001], [-71.194257, 42.41339], [-71.195355, 42.41526499999999], [-71.194492, 42.41499000000001], [-71.194291, 42.415321000000006], [-71.187233, 42.41257399999999], [-71.183899, 42.411424000000004], [-71.181634, 42.410881999999994], [-71.182054, 42.413725], [-71.180445, 42.415384999999986], [-71.18008, 42.41640399999999], [-71.1802, 42.41702900000001], [-71.180801, 42.417869], [-71.178668, 42.418925], [-71.178401, 42.419357000000005], [-71.178325, 42.420174], [-71.17666, 42.41919300000001], [-71.168482, 42.415072], [-71.167115, 42.416159], [-71.16909, 42.41755], [-71.16857, 42.417941], [-71.167219, 42.41706300000001], [-71.166342, 42.417619], [-71.166885, 42.418063999999994], [-71.166289, 42.41852900000001], [-71.163121, 42.41718900000001], [-71.154917, 42.41601400000001], [-71.151788, 42.41487300000002], [-71.150787, 42.414200000000015], [-71.149061, 42.412650000000006], [-71.14707200000001, 42.409534], [-71.136969, 42.40148799999999], [-71.136253, 42.401071], [-71.134921, 42.402562], [-71.134579, 42.40346199999998], [-71.134514, 42.404167000000015], [-71.13130000000001, 42.401579999999996], [-71.12736100000001, 42.39709599999998], [-71.128824, 42.39620399999999], [-71.128654, 42.39605699999999], [-71.128744, 42.396010000000004], [-71.129463, 42.396626999999995], [-71.130854, 42.39578500000002], [-71.132153, 42.395762], [-71.13221300000001, 42.39727600000001], [-71.136932, 42.397572], [-71.13713, 42.39698300000001], [-71.13835, 42.3968], [-71.138359, 42.39564500000001], [-71.139396, 42.39596999999998], [-71.140745, 42.39588600000001], [-71.140607, 42.394679999999994], [-71.144297, 42.394676000000004], [-71.14428, 42.392638], [-71.146564, 42.39335100000002], [-71.14976, 42.39482], [-71.153851, 42.39573999999998], [-71.156362, 42.395852], [-71.158387, 42.39459300000001], [-71.157118, 42.39056000000001], [-71.157091, 42.389894999999996], [-71.157688, 42.38753100000001], [-71.15798400000001, 42.387042999999984], [-71.158381, 42.386776], [-71.160332, 42.386444], [-71.157971, 42.382805], [-71.157792, 42.38221100000001], [-71.15581400000002, 42.381598999999994], [-71.15520600000002, 42.38116699999999], [-71.155333, 42.380907999999984], [-71.155051, 42.38020000000001], [-71.156231, 42.38063600000001], [-71.154361, 42.37505699999999], [-71.155414, 42.375156999999994], [-71.160774, 42.376628000000004], [-71.164508, 42.37688899999999], [-71.16954900000002, 42.37768599999999], [-71.170803, 42.378319], [-71.171229, 42.37827899999999], [-71.174732, 42.37928000000001], [-71.179495, 42.38019500000001], [-71.185165, 42.38044100000001], [-71.186779, 42.380363], [-71.189159, 42.38071700000001], [-71.195531, 42.38739999999999], [-71.195406, 42.387721000000006], [-71.194876, 42.38817], [-71.196817, 42.389736], [-71.196724, 42.390655], [-71.196973, 42.39083799999999], [-71.197028, 42.39197299999999], [-71.197964, 42.39267799999999], [-71.197654, 42.39316699999999], [-71.19633, 42.394031000000005], [-71.196284, 42.394361], [-71.196484, 42.394919], [-71.196815, 42.395455999999996], [-71.19818800000002, 42.396066999999995], [-71.199429, 42.39732], [-71.199591, 42.39775699999999], [-71.199552, 42.39821400000001], [-71.20008, 42.398627000000005], [-71.200236, 42.39930400000001], [-71.200621, 42.399457999999996], [-71.201613, 42.400566000000005], [-71.201799, 42.401374000000004], [-71.20157400000001, 42.401695000000004], [-71.201849, 42.40207100000002], [-71.201702, 42.402425000000015], [-71.202543, 42.40322599999999], [-71.202628, 42.40370200000002], [-71.21122900000002, 42.406108]]]}}