{"type": "Feature", "properties": {"district_name": "17th Worcester", "chamber": "house", "vintage": "2001-2010"}, "geometry": {"type": "Polygon", "coordinates": [[[-71.82021505740317, 42.2612931976388], [-71.82291599625938, 42.256992878238194], [-71.81891500341978, 42.2559929025433], [-71.81971506479017, 42.25419288712231], [-71.81881506063894, 42.25389322063647], [-71.81831507176396, 42.254892820245175], [-71.8157149716329, 42.25359287473578], [-71.81941495487786, 42.25149280877828], [-71.81831500813983, 42.25039299029404], [-71.81701493446869, 42.25099303947023], [-71.81631503358807, 42.25029273219438], [-71.81551501089669, 42.25089306910922], [-71.81521498911175, 42.25049325762047], [-71.80941492930623, 42.253893054424324], [-71.80834498585054, 42.25282288749952], [-71.8075150679823, 42.25329327148302], [-71.81345307722607, 42.244584768866915], [-71.8148150594237, 42.2454931595934], [-71.81581496442878, 42.246493128502365], [-71.8193149890946, 42.24439305352413], [-71.81931499259083, 42.24409313457239], [-71.821114910372, 42.24409318254063], [-71.82061508469329, 42.24349305806103], [-71.82251494684773, 42.24349280484702], [-71.82511500016395, 42.24199321253423], [-71.82731603873944, 42.241593073413185], [-71.8263159498995, 42.2392928185412], [-71.82401493176259, 42.239192992545576], [-71.81761494321448, 42.23829312492995], [-71.81991504312501, 42.230792801464496], [-71.81891492004661, 42.23069317480027], [-71.81911494013993, 42.230192947713014], [-71.85371598962517, 42.226893173046115], [-71.85661607407977, 42.22649313012859], [-71.86121597423892, 42.22639321465596], [-71.8659159646235, 42.22599287506852], [-71.8798360149905, 42.210493217281595], [-71.89501699864003, 42.19229326059385], [-71.93890998031235, 42.1894850736278], [-71.94174206299544, 42.200284791074786], [-71.94284599679025, 42.20583718401703], [-71.94330990657274, 42.207292782208036], [-71.94329407478857, 42.207869046831725], [-71.95060591367873, 42.23767590338201], [-71.95135792239302, 42.24103618550424], [-71.95130999441153, 42.24148427957278], [-71.95153407976075, 42.24166008472036], [-71.95382209209389, 42.25108408179251], [-71.95788603006163, 42.2690038036211], [-71.95827004373363, 42.26972421112649], [-71.96058999617797, 42.280138798341696], [-71.96067006785371, 42.28156321218195], [-71.94262192967017, 42.28241181629593], [-71.9409259275937, 42.28220395849565], [-71.9023169803457, 42.283891945776716], [-71.88991705702293, 42.284292009111404], [-71.88931698192796, 42.284492110919665], [-71.88541707224212, 42.28459191638802], [-71.88461701623454, 42.28309221914568], [-71.88271704766944, 42.278191917061626], [-71.8767169011554, 42.26669181069144], [-71.8620159800407, 42.26599184305636], [-71.86121602394046, 42.267392083919184], [-71.86111605216419, 42.26869221174252], [-71.86131607648424, 42.26999195387476], [-71.85971599506212, 42.27209187407203], [-71.8582160579716, 42.27229181095404], [-71.85571594020412, 42.27369224177968], [-71.85431596183366, 42.27389181786868], [-71.85471593292839, 42.27019203183478], [-71.85301600727159, 42.26529174189021], [-71.85121601016525, 42.26289175717844], [-71.85021605969203, 42.26299216112731], [-71.84911599089527, 42.262692216488325], [-71.84821593704089, 42.26229206332045], [-71.84591591423256, 42.26059181330326], [-71.84531601379035, 42.26039217586808], [-71.84451591291904, 42.26039177028552], [-71.84381593258831, 42.26059193526516], [-71.8441160120581, 42.261692216348244], [-71.84141598170058, 42.2618921578267], [-71.84111596872908, 42.261392255404544], [-71.8386160779156, 42.2622920807029], [-71.83941594110595, 42.26309211485698], [-71.83621606793382, 42.26479184792313], [-71.83681590694923, 42.26519185039366], [-71.83641595819377, 42.26559196506411], [-71.83591600974516, 42.265492144515754], [-71.83351603486464, 42.264192016899], [-71.83631606592894, 42.26329198292467], [-71.8307160139374, 42.25919273518969], [-71.82951597264272, 42.258792741118796], [-71.829115967929, 42.26009313476738], [-71.82801599832106, 42.2598931557663], [-71.82761599259017, 42.26259295726946], [-71.82641604669796, 42.26229308039213], [-71.82251599780466, 42.2618927790858], [-71.82021505740317, 42.2612931976388]]]}}