{"type": "Feature", "properties": {"district_name": "9th Worcester District", "chamber": "house", "vintage": "2012-2020"}, "geometry": {"type": "Polygon", "coordinates": [[[-71.733458, 42.23808000000001], [-71.73266699999999, 42.239429999999984], [-71.73118, 42.241420999999995], [-71.717986, 42.245058], [-71.710961, 42.24514399999999], [-71.70505899999999, 42.248304999999995], [-71.684781, 42.25111000000001], [-71.681876, 42.251351000000014], [-71.67445500000001, 42.252365000000005], [-71.674172, 42.24859099999999], [-71.670932, 42.244701], [-71.649023, 42.247969], [-71.644438, 42.22662599999999], [-71.62107, 42.230869999999996], [-71.599318, 42.225958999999996], [-71.602221, 42.218101], [-71.58291000000001, 42.195558999999996], [-71.57154799999999, 42.19465299999999], [-71.572129, 42.19349], [-71.57233800000002, 42.192228000000014], [-71.556204, 42.191857000000006], [-71.556029, 42.191438999999995], [-71.556029, 42.190447999999996], [-71.555752, 42.190018], [-71.55582900000002, 42.18898500000001], [-71.55618199999999, 42.18871599999999], [-71.556067, 42.188497999999996], [-71.556167, 42.188329], [-71.556544, 42.18810400000001], [-71.556136, 42.187892999999995], [-71.556382, 42.187252], [-71.55635099999999, 42.186816000000015], [-71.556698, 42.18651600000001], [-71.556951, 42.185938000000014], [-71.55578299999999, 42.185748000000004], [-71.555475, 42.18543599999999], [-71.55561399999999, 42.184968999999995], [-71.555414, 42.184852], [-71.55512999999999, 42.184961], [-71.555522, 42.183453000000014], [-71.555898, 42.18280999999999], [-71.555491, 42.182381999999976], [-71.555798, 42.182159], [-71.554177, 42.18181700000001], [-71.553846, 42.18195999999999], [-71.55353099999999, 42.181502999999985], [-71.55284000000002, 42.18122100000001], [-71.552671, 42.18091400000001], [-71.552594, 42.17987999999999], [-71.55178699999999, 42.17949799999998], [-71.551626, 42.17930700000001], [-71.551626, 42.17884800000001], [-71.552125, 42.178193000000014], [-71.55233299999999, 42.177603000000005], [-71.552556, 42.177472000000016], [-71.553462, 42.178132000000005], [-71.553923, 42.178284], [-71.554853, 42.17806000000001], [-71.555376, 42.177391], [-71.55613699999999, 42.17745499999999], [-71.557244, 42.178475], [-71.558142, 42.178509000000005], [-71.55857999999999, 42.179089000000005], [-71.55964900000001, 42.178858000000005], [-71.561132, 42.178951], [-71.561893, 42.17859199999999], [-71.561992, 42.17826099999999], [-71.561593, 42.177135000000014], [-71.561914, 42.176466], [-71.561677, 42.17457599999998], [-71.56183899999999, 42.17436500000001], [-71.562384, 42.174164], [-71.562422, 42.172790000000006], [-71.563022, 42.17242999999999], [-71.563114, 42.172219999999996], [-71.56215399999999, 42.17104399999999], [-71.561362, 42.170499000000014], [-71.56082599999999, 42.16901599999999], [-71.560499, 42.168695], [-71.560937, 42.167888], [-71.56220400000001, 42.168133999999995], [-71.56268, 42.168051999999996], [-71.56363300000001, 42.167179000000004], [-71.564193, 42.166338], [-71.56440599999999, 42.16437500000001], [-71.564135, 42.164069999999995], [-71.563728, 42.16399399999999], [-71.56350499999999, 42.16329200000001], [-71.56349, 42.16277900000003], [-71.56388199999999, 42.16239600000001], [-71.56356699999999, 42.161588], [-71.56384299999999, 42.161303], [-71.563498, 42.16053199999999], [-71.563113, 42.16047299999999], [-71.562906, 42.160194], [-71.562322, 42.160081], [-71.562376, 42.159696999999994], [-71.561999, 42.15948], [-71.561877, 42.159015], [-71.56110799999999, 42.158640000000005], [-71.56103100000001, 42.15833999999996], [-71.57140199999999, 42.151844999999994], [-71.571591, 42.14236699999999], [-71.570005, 42.13918400000001], [-71.573414, 42.135790000000014], [-71.59275199999999, 42.12174400000001], [-71.59263399999999, 42.11423800000001], [-71.596043, 42.112646999999996], [-71.600552, 42.11143199999999], [-71.601817, 42.111301000000005], [-71.602746, 42.11147600000001], [-71.603115, 42.111628999999986], [-71.60360899999999, 42.112127], [-71.65087, 42.095496], [-71.679962, 42.10337399999999], [-71.685541, 42.107264], [-71.697617, 42.103139999999996], [-71.707805, 42.099921], [-71.69201, 42.120292], [-71.704661, 42.125233000000016], [-71.693713, 42.136159], [-71.691369, 42.14937800000001], [-71.693596, 42.161289999999994], [-71.69131399999999, 42.163129999999995], [-71.69520399999999, 42.175788000000004], [-71.718614, 42.17296700000001], [-71.723535, 42.191484], [-71.733458, 42.23808000000001]]]}}