{"type": "Feature", "properties": {"district_name": "37th Middlesex", "chamber": "house", "vintage": "2001-2010"}, "geometry": {"type": "Polygon", "coordinates": [[[-71.77551699034075, 42.643888042690584], [-71.77291694484258, 42.6432882521653], [-71.76491703132639, 42.640988261139626], [-71.75881702058076, 42.63908800496544], [-71.7093149261556, 42.624589044898435], [-71.69401509607135, 42.62028908435943], [-71.66461391476969, 42.61158910121703], [-71.66041404608062, 42.635088991704706], [-71.65925791715587, 42.63411498419894], [-71.6589530070413, 42.634069268172865], [-71.65829691062015, 42.634434755887895], [-71.65799192032223, 42.63443517341806], [-71.65774790522352, 42.63352685753019], [-71.65645096597135, 42.63258902235442], [-71.65413099144739, 42.63127613508895], [-71.65309401054678, 42.63050614677057], [-71.65170491186382, 42.63023904017205], [-71.65104906293301, 42.629834235634945], [-71.65048391573904, 42.629048977148514], [-71.65019491418835, 42.62894920431275], [-71.64993508659308, 42.62822486823932], [-71.64930996213404, 42.627515065586095], [-71.6492940531015, 42.62730916173886], [-71.64995008800928, 42.62700393086774], [-71.64996607335765, 42.626759726479975], [-71.6490499221013, 42.62628717354154], [-71.64900396702954, 42.62578311166303], [-71.64721406430913, 42.62478897516346], [-71.64697494823612, 42.62483710819903], [-71.64671402291172, 42.62508893345231], [-71.646868044049, 42.625386934440634], [-71.64670001078176, 42.625698847936654], [-71.64714295544643, 42.626148959824704], [-71.64691404796928, 42.62648908284872], [-71.6455859529822, 42.62569913226325], [-71.64558602342714, 42.62523383728688], [-71.64596809408978, 42.62473823593115], [-71.64566302654485, 42.624105093524605], [-71.64482304998609, 42.62426481302668], [-71.6447169741106, 42.62476906734565], [-71.64445690461305, 42.624898231911395], [-71.64418304932738, 42.62474610440819], [-71.64407607630001, 42.624279808614894], [-71.64445707968866, 42.623730767574166], [-71.64399900360714, 42.62331104629149], [-71.64416704845213, 42.62316624379282], [-71.64525106281377, 42.62369994760283], [-71.64552502608132, 42.623319261056444], [-71.64514403156137, 42.62279311345641], [-71.64404493340547, 42.6226549557896], [-71.6438469858659, 42.62229680800079], [-71.64479298988881, 42.621708792182844], [-71.64482304288205, 42.62152590232144], [-71.6440759279616, 42.62146494678598], [-71.64344997295444, 42.62116696174374], [-71.64328195270694, 42.62081721069921], [-71.64338903246184, 42.61966479894326], [-71.64383205852809, 42.61917587973487], [-71.64384702020845, 42.61881014745303], [-71.64413693393684, 42.61849696012756], [-71.6441139859846, 42.617289012548866], [-71.64299094977922, 42.617215015194866], [-71.64346399677852, 42.61662028413079], [-71.64325103624212, 42.61576589861234], [-71.64225898902008, 42.61473581581123], [-71.64061292876919, 42.614089106713344], [-71.63986293020137, 42.6141479736293], [-71.63856597559543, 42.61341585821607], [-71.63792502775848, 42.61361410669557], [-71.63707102298679, 42.612782987479605], [-71.63626195684746, 42.612912226309554], [-71.63551493483283, 42.61240110535932], [-71.6340500281011, 42.61261492495195], [-71.63351291571132, 42.61238880883859], [-71.6342330126894, 42.61117323516503], [-71.63528590762918, 42.61065382165513], [-71.63380592849714, 42.6085951662227], [-71.63293590609595, 42.6083277882686], [-71.63256997829764, 42.60780889849257], [-71.63195898698754, 42.60756484625167], [-71.63073907820815, 42.60761124499024], [-71.63028099682334, 42.607359142699664], [-71.63003701253912, 42.607053900666294], [-71.63028105283836, 42.60646679832258], [-71.6298990719367, 42.60581794395933], [-71.62976209207552, 42.6050399643997], [-71.63029599518359, 42.60375092051435], [-71.62910605228285, 42.60240024040361], [-71.62884606192367, 42.60235382729167], [-71.62800705162435, 42.60323922896396], [-71.62768695218209, 42.60331610228945], [-71.62735094093283, 42.602399939073074], [-71.62828197563962, 42.600515750565755], [-71.62631392613667, 42.598647148748476], [-71.62612997542553, 42.59625106234882], [-71.62686292709678, 42.59454208368493], [-71.62680205629843, 42.593900740542104], [-71.62639005415451, 42.59360299291459], [-71.62498609496228, 42.593625901814065], [-71.62451291041526, 42.59318980413478], [-71.62451294336162, 42.593305149904175], [-71.62409296675466, 42.593200950984134], [-71.62349307114656, 42.59269802648802], [-71.62346093056797, 42.5916470480862], [-71.62376991183693, 42.59116622197262], [-71.6237700570842, 42.59066322086519], [-71.62048700705176, 42.58767006749728], [-71.62005408353392, 42.58744208615963], [-71.61909395893484, 42.58735080755213], [-71.61872203054021, 42.58696184279506], [-71.61869094993122, 42.58673400944776], [-71.6192170572099, 42.58611624495838], [-71.619217024262, 42.58579610638849], [-71.61819508512268, 42.58582022115864], [-71.61729802394414, 42.586163222355054], [-71.61652391558921, 42.58598115238067], [-71.61519395912865, 42.58620979450695], [-71.61488501007295, 42.58609588167067], [-71.61426497463029, 42.585433147120334], [-71.61423406739613, 42.58497574547677], [-71.6146050482435, 42.584449870268344], [-71.61451206748951, 42.58408424531836], [-71.61327306362857, 42.5831019696675], [-71.61333403361648, 42.58218705367773], [-71.61311801018877, 42.581980780391056], [-71.61228196162656, 42.581936018208005], [-71.61126205477028, 42.58232522900429], [-71.61020993560103, 42.58237124978776], [-71.61002400481883, 42.58228027914113], [-71.60999303209461, 42.58198323357592], [-71.61079705495214, 42.58157117756231], [-71.61092091239317, 42.58131899483649], [-71.6105799887121, 42.58109088916896], [-71.60897200424336, 42.58118299945452], [-71.60958906053422, 42.57997105050516], [-71.60949500403646, 42.57853077452724], [-71.60989696778866, 42.57786815734401], [-71.61042303415661, 42.57754694874919], [-71.61215496506738, 42.57720375889502], [-71.6128660569935, 42.57690599014245], [-71.6134220906856, 42.576220145678754], [-71.61382309476753, 42.57537409354135], [-71.61586395373872, 42.57489325763841], [-71.61598790586272, 42.57461799597448], [-71.61583308089199, 42.57404707279171], [-71.61447098610975, 42.57320221586372], [-71.61388193339029, 42.572128149019804], [-71.61261400855369, 42.57176198231253], [-71.61199497447024, 42.57135072936259], [-71.61174701495871, 42.570824902078], [-71.61162204433701, 42.56956807595992], [-71.61109495266962, 42.56840221835011], [-71.60988890596437, 42.567786156643535], [-71.60778497781227, 42.56732902305445], [-71.6066400341638, 42.566575017709376], [-71.60663993775299, 42.56618679292821], [-71.60821703682399, 42.56538580182933], [-71.60858806984827, 42.56492802741813], [-71.60883406920533, 42.56412827252947], [-71.61016300090505, 42.563029853242234], [-71.61149202934457, 42.56147511714136], [-71.61223197213371, 42.55973694980798], [-71.61241696878136, 42.55827389018043], [-71.6121689705987, 42.55726812020256], [-71.61127096692643, 42.555781910932545], [-71.61086802243368, 42.55482186569016], [-71.61083600533075, 42.55425080558011], [-71.61096005544604, 42.55393110298689], [-71.61133096451864, 42.55376982867402], [-71.61253604525949, 42.55356385602593], [-71.61587602284347, 42.55360781201897], [-71.62003903460416, 42.55245012922204], [-71.60783000223965, 42.545367201332716], [-71.60217198240122, 42.54509777935063], [-71.59473802581785, 42.543294089668564], [-71.59121894091228, 42.54435976425108], [-71.58848397040232, 42.546192192968256], [-71.58032598898602, 42.55042420256434], [-71.5388720225762, 42.54290501695], [-71.5313869895116, 42.5202848390258], [-71.52979202728677, 42.519580822305244], [-71.51768800295493, 42.51552490118229], [-71.51484294592463, 42.51142525758375], [-71.51143904375108, 42.50889876601734], [-71.50898191955736, 42.50998490431931], [-71.50268590614614, 42.50686474742134], [-71.50015798462663, 42.50921892047433], [-71.49950796287193, 42.50949293614822], [-71.49557008818144, 42.508393985739204], [-71.47695399972068, 42.50170181265499], [-71.47516695959752, 42.5005812009668], [-71.47364793992821, 42.50008685297095], [-71.4699020182751, 42.49763501130633], [-71.4631689918975, 42.49283416422646], [-71.46332995971872, 42.49221416887459], [-71.46320890243163, 42.49185515585505], [-71.46273800810539, 42.4913851913789], [-71.46295702742313, 42.48997074463895], [-71.46254995374672, 42.48926616749153], [-71.46262492701051, 42.488472279244384], [-71.46252299165468, 42.48827419108652], [-71.46181902940656, 42.487941992711484], [-71.46768797862168, 42.481563258126265], [-71.46650297747426, 42.48143125792181], [-71.46534302745816, 42.48206728489055], [-71.46389700628285, 42.48244325416039], [-71.46327994630174, 42.482458255432924], [-71.459184091002, 42.48120608563762], [-71.45197991085901, 42.480883161078324], [-71.45116508383964, 42.481084250036666], [-71.44726106701579, 42.475790727187764], [-71.44574505760669, 42.47428379123067], [-71.44410206169074, 42.47335912043568], [-71.44064603527643, 42.47286225224991], [-71.44261101179451, 42.47109593170553], [-71.44304993007184, 42.46835374854401], [-71.44305597680376, 42.467325210012916], [-71.44238997716059, 42.46741377911043], [-71.44081793119192, 42.4668491973721], [-71.44025100536884, 42.46683877687221], [-71.43789397884308, 42.46778786687249], [-71.43766691394708, 42.46684697743438], [-71.43629395285448, 42.46616990944965], [-71.43418295047194, 42.46674713695993], [-71.43308101187098, 42.466551821902584], [-71.4323589500466, 42.4661080243427], [-71.43190907914392, 42.46608525293839], [-71.42902896745957, 42.466477934673435], [-71.42789498657909, 42.46641983922522], [-71.42708205352416, 42.4667079765064], [-71.42586002272054, 42.46785220443343], [-71.42580202369983, 42.46708414122045], [-71.4253390303517, 42.46578409804105], [-71.42622400520943, 42.464317809148646], [-71.4249070814269, 42.464273070770446], [-71.42293506390129, 42.463795199831424], [-71.4195949655339, 42.461561964261165], [-71.41487592896095, 42.459755250896826], [-71.43027603227411, 42.43674596055795], [-71.49856106744357, 42.46384684988299], [-71.52289692537731, 42.465441970174815], [-71.54335895792495, 42.46625476051966], [-71.54907694028815, 42.4474860293502], [-71.56405491355628, 42.45292580851908], [-71.57710408491599, 42.45741910351454], [-71.59543905500689, 42.46413310113471], [-71.60001407990735, 42.46546722599578], [-71.63915495147167, 42.4784667935031], [-71.6453800936245, 42.462558909376625], [-71.65314106277435, 42.441536784856794], [-71.65700901059816, 42.44204303332364], [-71.65876100385655, 42.44242493533207], [-71.66460504325586, 42.44411878424541], [-71.66579308403958, 42.44465105244518], [-71.66632003247804, 42.44512011231652], [-71.66873406664834, 42.44571189886831], [-71.67012992681117, 42.445528109455516], [-71.67181708053913, 42.44470017257343], [-71.67261705757926, 42.444844143554455], [-71.67797699014538, 42.44431608362673], [-71.67933691223958, 42.44460375037864], [-71.68162493909905, 42.44460409885305], [-71.68287290578714, 42.44498698607092], [-71.68577806281012, 42.446551043059486], [-71.68978499655847, 42.44761076201774], [-71.68964105111156, 42.449515052375446], [-71.68876101843017, 42.452363006361985], [-71.68834509187305, 42.45314691397324], [-71.68866499733882, 42.454810746709875], [-71.68812103428128, 42.4574510902011], [-71.68821694564791, 42.459290838516935], [-71.68741697845361, 42.465435281031525], [-71.68749701714086, 42.467051113010996], [-71.68783292299771, 42.467819160455804], [-71.68796103549714, 42.469178897731204], [-71.68744908209068, 42.469786846970365], [-71.68327300235029, 42.47258716894717], [-71.6832570546487, 42.47324325577292], [-71.68344901473377, 42.47385119006863], [-71.6842490469692, 42.47439512630334], [-71.69159399398536, 42.47693874696211], [-71.69258604452209, 42.47741872960332], [-71.69801000948321, 42.480603190335344], [-71.70027005051678, 42.482331148762896], [-71.70105193162098, 42.483542879450546], [-71.70238000761331, 42.48439016920009], [-71.70619406676771, 42.48515987669263], [-71.70767406890029, 42.48577108396292], [-71.71136693665791, 42.48776180699191], [-71.71277107312319, 42.48815926861837], [-71.71681401294485, 42.48883817643689], [-71.71731397409775, 42.48909099807842], [-71.71930200538675, 42.48920426513558], [-71.72232304583912, 42.49008072475106], [-71.72421493267758, 42.49099081621672], [-71.72341503233596, 42.494291226895626], [-71.71861509294429, 42.51109121338045], [-71.71741493293368, 42.515590217173525], [-71.71671495594772, 42.518889811739314], [-71.71231408505366, 42.52119024895077], [-71.70221402130464, 42.53378986998586], [-71.71121491980628, 42.53508977351799], [-71.72031497167575, 42.552090097031765], [-71.73801605197156, 42.56778993557619], [-71.74111603222686, 42.5702900837618], [-71.74271597857395, 42.57179011936004], [-71.74361601347474, 42.57288988301511], [-71.74511597504953, 42.5741892356122], [-71.74901599222889, 42.57198881898152], [-71.75901606282814, 42.56589022537638], [-71.76201603931463, 42.56439018680637], [-71.76461606273327, 42.562790268774144], [-71.77161595883977, 42.568488816169804], [-71.77271594606336, 42.56968916051815], [-71.7726159905944, 42.57068921513012], [-71.77271707793258, 42.57258903742314], [-71.77061699736393, 42.600389145473926], [-71.7708170352031, 42.60648883062349], [-71.773917084718, 42.61868911329285], [-71.77381699597376, 42.6202889270972], [-71.77411702271712, 42.62388909831415], [-71.77441698577654, 42.62558924370999], [-71.77551706836432, 42.63928794181038], [-71.77551699034075, 42.643888042690584]]]}}