{"type": "Feature", "properties": {"district_name": "3rd Bristol District", "chamber": "house", "vintage": "2012-2020"}, "geometry": {"type": "Polygon", "coordinates": [[[-71.193893, 41.910765], [-71.15567, 41.937999], [-71.12568499999999, 41.96708399999998], [-71.100854, 41.993151], [-71.15644999999999, 42.001042000000034], [-71.159263, 42.01543300000001], [-71.15867899999999, 42.0156], [-71.156391, 42.015417], [-71.15564599999999, 42.015218999999995], [-71.155397, 42.015081], [-71.15625, 42.01421999999999], [-71.15672900000001, 42.01266199999998], [-71.155098, 42.012105999999974], [-71.153171, 42.010954], [-71.15066900000001, 42.01083], [-71.145279, 42.014241999999996], [-71.144846, 42.014754999999994], [-71.144429, 42.01493799999999], [-71.14402, 42.01832700000001], [-71.142078, 42.022228999999996], [-71.141983, 42.02352600000001], [-71.133793, 42.024437999999996], [-71.120173, 42.023463], [-71.119973, 42.023953000000006], [-71.119764, 42.026323999999974], [-71.120514, 42.02886899999999], [-71.120419, 42.03158], [-71.11729799999999, 42.030795999999995], [-71.115241, 42.029742999999996], [-71.11342499999999, 42.030476000000014], [-71.109721, 42.03288000000001], [-71.10746, 42.033989999999996], [-71.10081199999999, 42.03512800000001], [-71.09665799999999, 42.036243000000006], [-71.09611699999999, 42.036591999999985], [-71.09534099999999, 42.037575999999994], [-71.094011, 42.03844499999999], [-71.078553, 41.98930399999999], [-71.08716, 41.99084599999999], [-71.08533100000001, 41.98234300000001], [-71.083182, 41.98028800000001], [-71.082438, 41.979891], [-71.08066, 41.977299000000016], [-71.080398, 41.975455000000004], [-71.08108299999999, 41.972235999999995], [-71.083106, 41.96888899999997], [-71.083764, 41.96561700000001], [-71.081206, 41.961228], [-71.08052400000001, 41.959537999999995], [-71.08367199999999, 41.954456000000015], [-71.085589, 41.949934], [-71.085905, 41.94758699999999], [-71.086275, 41.94625099999999], [-71.088841, 41.94347599999999], [-71.090205, 41.94154499999999], [-71.09127699999999, 41.94104], [-71.09187399999999, 41.940452], [-71.091957, 41.93986599999998], [-71.09269900000001, 41.938993], [-71.063654, 41.903611000000005], [-71.065113, 41.90403899999998], [-71.068186, 41.905573000000004], [-71.070056, 41.905783], [-71.07150899999999, 41.905562999999994], [-71.072975, 41.905032000000006], [-71.07396299999999, 41.903817000000004], [-71.074941, 41.90356000000001], [-71.077068, 41.903450000000014], [-71.078873, 41.903088], [-71.080162, 41.90350600000001], [-71.081649, 41.903709], [-71.08320800000001, 41.90340599999998], [-71.08371199999999, 41.903163], [-71.084092, 41.90280899999998], [-71.084166, 41.902339], [-71.083214, 41.899772], [-71.083546, 41.899049999999995], [-71.083832, 41.898941], [-71.085735, 41.89503699999998], [-71.08806000000001, 41.89644200000001], [-71.090818, 41.897783], [-71.090769, 41.897083999999985], [-71.091351, 41.896263999999995], [-71.090862, 41.894187999999986], [-71.08981399999999, 41.893228000000015], [-71.08879499999999, 41.891888], [-71.088379, 41.89089800000001], [-71.08855199999999, 41.889806], [-71.089134, 41.888749], [-71.090198, 41.887572], [-71.092649, 41.88837299999999], [-71.094292, 41.88723999999998], [-71.09502499999999, 41.885802000000005], [-71.0958, 41.882343], [-71.097133, 41.88112999999999], [-71.099186, 41.88066299999999], [-71.10179500000001, 41.881568999999985], [-71.104272, 41.883044], [-71.105311, 41.885291], [-71.105671, 41.885676], [-71.108211, 41.88593699999998], [-71.109143, 41.886446], [-71.110627, 41.886688], [-71.11266499999999, 41.88802300000001], [-71.11356099999999, 41.88720499999999], [-71.11442, 41.88570399999999], [-71.11640299999999, 41.88481800000001], [-71.11666199999999, 41.884523], [-71.11733, 41.882883], [-71.11659399999999, 41.880351000000005], [-71.11559299999999, 41.87827000000001], [-71.11484399999999, 41.876028], [-71.112748, 41.87570899999998], [-71.109167, 41.874658999999994], [-71.107002, 41.87326000000001], [-71.110137, 41.872123000000016], [-71.111592, 41.86996], [-71.11377499999999, 41.864815999999976], [-71.11357, 41.861568000000005], [-71.119007, 41.863907999999995], [-71.121381, 41.864386999999994], [-71.121278, 41.86458100000002], [-71.121483, 41.864999], [-71.122783, 41.866423], [-71.123791, 41.86685], [-71.124414, 41.866565000000016], [-71.12481199999999, 41.86659399999999], [-71.12588199999999, 41.867802999999995], [-71.128306, 41.867827], [-71.12971, 41.868027000000005], [-71.130557, 41.868331000000005], [-71.130828, 41.86919], [-71.130551, 41.87023], [-71.18678799999999, 41.879338], [-71.193893, 41.910765]]]}}