{"type": "Feature", "properties": {"district_name": "1st Franklin District", "chamber": "house", "vintage": "2012-2020"}, "geometry": {"type": "Polygon", "coordinates": [[[-73.068595, 42.38073], [-73.065913, 42.38903], [-73.011704, 42.37976700000001], [-73.009192, 42.38776599999999], [-73.003176, 42.40959], [-72.992643, 42.449094], [-72.988153, 42.466848], [-72.986473, 42.46670600000001], [-72.979383, 42.497751000000015], [-72.97854699999999, 42.500085000000006], [-72.96855099999999, 42.539953999999994], [-72.97914, 42.541657], [-72.975379, 42.555932999999996], [-72.876947, 42.541152000000004], [-72.876977, 42.555455999999985], [-72.8485, 42.559062000000004], [-72.83174799999999, 42.616626999999994], [-72.823252, 42.618698], [-72.82248, 42.61879799999999], [-72.82072099999999, 42.618604], [-72.816958, 42.617141], [-72.81504799999999, 42.61674999999999], [-72.808533, 42.616999], [-72.80330700000002, 42.616609], [-72.797902, 42.617608], [-72.788945, 42.620160000000006], [-72.783541, 42.62129600000001], [-72.778354, 42.621057000000015], [-72.772842, 42.620135], [-72.764282, 42.61942800000001], [-72.76198, 42.619767], [-72.75922899999999, 42.61987400000001], [-72.75534999999999, 42.620827], [-72.754099, 42.62097899999999], [-72.753057, 42.62062399999999], [-72.75218, 42.620059000000005], [-72.750142, 42.61823200000001], [-72.749595, 42.61805], [-72.748384, 42.618038000000006], [-72.746353, 42.618896], [-72.74528, 42.61967099999999], [-72.745573, 42.62089400000001], [-72.745531, 42.62134400000001], [-72.746892, 42.62272100000001], [-72.746996, 42.623577], [-72.746721, 42.624171], [-72.745912, 42.62478199999998], [-72.74490899999999, 42.626114], [-72.743361, 42.627112], [-72.741289, 42.62748100000001], [-72.739803, 42.627254], [-72.73834699999999, 42.627306], [-72.73817, 42.627125], [-72.73688899999999, 42.62702100000003], [-72.737034, 42.62892], [-72.736345, 42.630697999999995], [-72.73634799999999, 42.631325], [-72.736085, 42.632104999999996], [-72.735376, 42.63266199999999], [-72.73501, 42.633188], [-72.632942, 42.645362999999996], [-72.649929, 42.576874], [-72.63756599999999, 42.57789700000001], [-72.62981599999999, 42.578714000000005], [-72.623891, 42.57052300000001], [-72.622839, 42.570612999999994], [-72.622483, 42.571049], [-72.621937, 42.570937], [-72.62102999999999, 42.57042899999998], [-72.618324, 42.569833], [-72.617319, 42.56986599999999], [-72.615927, 42.57022], [-72.615207, 42.56990799999999], [-72.61370000000001, 42.569795], [-72.611128, 42.57005400000002], [-72.60927, 42.570009000000006], [-72.607703, 42.570431000000006], [-72.606258, 42.57139899999999], [-72.605392, 42.57176799999999], [-72.603337, 42.571901000000004], [-72.60253, 42.57165900000001], [-72.60176799999999, 42.57110300000001], [-72.601474, 42.570765999999985], [-72.600967, 42.56928399999998], [-72.600335, 42.568524000000004], [-72.599048, 42.56763399999999], [-72.597515, 42.567098], [-72.596474, 42.566475000000004], [-72.595849, 42.566302], [-72.594664, 42.56629199999999], [-72.593854, 42.566687], [-72.592647, 42.56904900000001], [-72.59158, 42.569791], [-72.585846, 42.57046799999999], [-72.58068, 42.57079000000001], [-72.579807, 42.571014999999996], [-72.57900599999999, 42.571555000000004], [-72.57808899999999, 42.57372399999999], [-72.577786, 42.57515000000001], [-72.577958, 42.577871], [-72.578138, 42.57848800000001], [-72.57940900000001, 42.58034800000001], [-72.579967, 42.581573], [-72.579821, 42.58466300000001], [-72.58021699999999, 42.58677099999999], [-72.58073999999999, 42.587697], [-72.58224899999999, 42.58906299999999], [-72.58317, 42.590297], [-72.583289, 42.59093800000001], [-72.583176, 42.592403999999995], [-72.582787, 42.593578], [-72.58219799999999, 42.59441100000001], [-72.58143, 42.594986], [-72.580911, 42.595234000000005], [-72.579183, 42.59552300000002], [-72.576663, 42.596759999999996], [-72.57533699999999, 42.597939000000004], [-72.57263999999999, 42.601121000000006], [-72.56948, 42.604124999999996], [-72.565963, 42.606711999999995], [-72.558014, 42.61134500000001], [-72.55479199999999, 42.61221499999999], [-72.552686, 42.612195000000014], [-72.55268199999999, 42.61085800000001], [-72.551928, 42.60980199999999], [-72.549421, 42.607472], [-72.54704, 42.606144], [-72.54613900000001, 42.605366000000004], [-72.54578099999999, 42.604763], [-72.54543, 42.60353500000001], [-72.545456, 42.599932], [-72.545279, 42.598548], [-72.545065, 42.598031999999996], [-72.54423, 42.597155000000015], [-72.543059, 42.596636], [-72.541794, 42.596404], [-72.540047, 42.59658099999999], [-72.538144, 42.597046999999996], [-72.531909, 42.59934600000002], [-72.528887, 42.600833999999985], [-72.523766, 42.603914999999986], [-72.522071, 42.604395000000004], [-72.52015399999999, 42.60450599999999], [-72.513382, 42.60430699999998], [-72.51327599999999, 42.60444800000001], [-72.506304, 42.60365599999998], [-72.50562800000002, 42.60302699999999], [-72.505506, 42.601952999999995], [-72.50445599999999, 42.599889999999995], [-72.502996, 42.59849], [-72.500306, 42.596771], [-72.498621, 42.596857000000014], [-72.49707099999999, 42.59756900000001], [-72.49637799999999, 42.59689600000001], [-72.496156, 42.596298], [-72.496152, 42.595141999999996], [-72.49645, 42.593959999999996], [-72.496116, 42.593474000000015], [-72.495077, 42.59272900000001], [-72.49642399999999, 42.59114799999999], [-72.49743699999999, 42.590298000000004], [-72.497856, 42.58968799999999], [-72.498225, 42.588809000000005], [-72.498228, 42.58851999999999], [-72.497849, 42.588048], [-72.49761099999999, 42.587188], [-72.497664, 42.586416], [-72.497928, 42.585944000000005], [-72.501513, 42.582666999999994], [-72.50371799999999, 42.580954], [-72.50350999999999, 42.580368], [-72.502248, 42.579613999999985], [-72.500941, 42.579480000000025], [-72.499544, 42.57961000000001], [-72.497608, 42.58010900000001], [-72.496164, 42.580295999999976], [-72.49569799999999, 42.58060799999999], [-72.493146, 42.580698999999996], [-72.491857, 42.580188], [-72.490045, 42.578800000000015], [-72.487833, 42.578354000000004], [-72.48415899999999, 42.578494000000006], [-72.482962, 42.579138000000015], [-72.481428, 42.579201999999995], [-72.480054, 42.57883199999999], [-72.479123, 42.57825800000002], [-72.47724699999999, 42.57667600000001], [-72.476346, 42.57534500000003], [-72.475512, 42.57463400000001], [-72.47474799999999, 42.574207], [-72.473554, 42.573955999999995], [-72.472932, 42.57394499999999], [-72.470432, 42.574512], [-72.466104, 42.57671800000001], [-72.465851, 42.57619], [-72.46396399999999, 42.574006000000004], [-72.464229, 42.57316100000001], [-72.46378299999999, 42.571905000000015], [-72.464274, 42.570733999999995], [-72.463371, 42.569780000000016], [-72.463141, 42.56904900000001], [-72.462525, 42.56820299999998], [-72.46243500000001, 42.56702699999999], [-72.461756, 42.566592], [-72.460954, 42.56559799999999], [-72.460912, 42.564833], [-72.459937, 42.564306], [-72.459182, 42.563163], [-72.45825599999999, 42.56262499999999], [-72.457717, 42.56203000000001], [-72.456203, 42.561377], [-72.455339, 42.56074799999999], [-72.45411, 42.55913599999999], [-72.453987, 42.557708999999996], [-72.45325, 42.555766000000006], [-72.452685, 42.55501599999999], [-72.45964099999999, 42.51642699999998], [-72.439607, 42.51858599999999], [-72.440929, 42.510410999999976], [-72.368415, 42.502509], [-72.368543, 42.49431399999998], [-72.36853099999999, 42.464483], [-72.38477499999999, 42.464635000000015], [-72.383049, 42.46398999999998], [-72.382291, 42.46315600000001], [-72.382037, 42.463059], [-72.38176, 42.461802000000006], [-72.38101999999999, 42.460544000000006], [-72.381151, 42.459492], [-72.38242799999999, 42.458248], [-72.382461, 42.45776099999999], [-72.3819, 42.45666200000001], [-72.38177, 42.454957000000014], [-72.382385, 42.45421300000001], [-72.38229299999999, 42.45364100000001], [-72.381121, 42.45204], [-72.38069, 42.45110300000001], [-72.379312, 42.44930199999998], [-72.379181, 42.448872], [-72.37941599999999, 42.44816499999998], [-72.379388, 42.44765800000001], [-72.378242, 42.44641100000001], [-72.378281, 42.44573499999998], [-72.378489, 42.44542099999998], [-72.37874099999999, 42.445195], [-72.379524, 42.444964000000006], [-72.379849, 42.443988000000004], [-72.37911199999999, 42.44095600000001], [-72.379265, 42.440304999999995], [-72.37951, 42.43981499999998], [-72.37992299999999, 42.439543], [-72.38022099999999, 42.439533999999995], [-72.380569, 42.43899200000002], [-72.379531, 42.437905999999984], [-72.37920799999999, 42.437807000000014], [-72.378826, 42.438108], [-72.378548, 42.438083], [-72.37610699999999, 42.43681900000001], [-72.37563999999999, 42.43638000000002], [-72.375937, 42.434667000000005], [-72.375965, 42.43287800000002], [-72.37629299999999, 42.432016000000004], [-72.376217, 42.430917], [-72.37509299999999, 42.43000899999999], [-72.374611, 42.428241], [-72.374572, 42.427583], [-72.374802, 42.42703], [-72.37631999999999, 42.425583], [-72.376639, 42.424659], [-72.37604700000001, 42.422706], [-72.375022, 42.42081900000001], [-72.483786, 42.40746999999999], [-72.489891, 42.43381599999999], [-72.499513, 42.43252400000001], [-72.530968, 42.42885299999999], [-72.581328, 42.422475999999996], [-72.585554, 42.423176], [-72.62244, 42.41518], [-72.629042, 42.414868], [-72.629014, 42.414322999999996], [-72.66919299999999, 42.40965799999999], [-72.67212599999999, 42.37135299999999], [-72.777142, 42.358244], [-72.82225799999999, 42.352816999999995], [-72.813416, 42.24500700000001], [-72.857641, 42.240491], [-72.864308, 42.23209099999999], [-72.87218, 42.216438999999994], [-72.912302, 42.23913299999999], [-73.001846, 42.25109], [-73.000377, 42.312351], [-73.000067, 42.312693], [-73.000888, 42.312513999999986], [-73.00172599999999, 42.312045000000005], [-73.001939, 42.311688999999994], [-73.002023, 42.31052600000001], [-73.003379, 42.30970199999999], [-73.00348699999999, 42.309501999999995], [-73.00369599999999, 42.30783300000001], [-73.00538399999999, 42.306936], [-73.00584599999999, 42.306422000000005], [-73.005847, 42.30606699999999], [-73.005208, 42.30570699999999], [-73.00527, 42.305254999999995], [-73.00677999999999, 42.30483299999998], [-73.007873, 42.304908], [-73.009198, 42.304438999999995], [-73.01010699999999, 42.30457100000001], [-73.010854, 42.304995], [-73.011346, 42.305887], [-73.01295499999999, 42.306899], [-73.013609, 42.308055], [-73.01424, 42.30848400000001], [-73.014616, 42.309444000000006], [-73.016795, 42.31121699999999], [-73.01735699999999, 42.311068999999996], [-73.017781, 42.31064600000001], [-73.01797499999999, 42.30953099999999], [-73.018298, 42.309023], [-73.018822, 42.30868], [-73.019624, 42.308434], [-73.020671, 42.30839999999999], [-73.021972, 42.309533], [-73.024599, 42.309197], [-73.0253, 42.30886500000001], [-73.025893, 42.308282000000005], [-73.02633999999999, 42.30807700000001], [-73.026941, 42.308020000000006], [-73.028189, 42.308254000000005], [-73.03123, 42.30929000000001], [-73.032439, 42.310262000000016], [-73.03504099999999, 42.31296100000001], [-73.03585, 42.313505000000006], [-73.038538, 42.314723], [-73.039123, 42.315432], [-73.039315, 42.316826999999996], [-73.0398, 42.31757100000001], [-73.039715, 42.318731], [-73.040723, 42.32018399999999], [-73.042017, 42.32018899999999], [-73.044822, 42.319178000000015], [-73.04579199999999, 42.31932099999999], [-73.04607, 42.31947000000002], [-73.046331, 42.32031599999999], [-73.04669299999999, 42.320601999999994], [-73.04821799999999, 42.321287999999996], [-73.048896, 42.321328], [-73.049844, 42.32174], [-73.050876, 42.32258100000001], [-73.051531, 42.323357999999985], [-73.052239, 42.323843999999994], [-73.05369499999999, 42.324633], [-73.056476, 42.32578799999999], [-73.060575, 42.32803], [-73.061916, 42.328464000000004], [-73.06290899999999, 42.329091], [-73.06437199999999, 42.33972200000001], [-73.068595, 42.38073]]]}}