{"type": "Feature", "properties": {"district_name": "13th Norfolk District", "chamber": "house", "vintage": "2012-2020"}, "geometry": {"type": "Polygon", "coordinates": [[[-71.35207199999999, 42.207557999999985], [-71.351434, 42.208997999999994], [-71.351657, 42.209832999999996], [-71.351591, 42.211044], [-71.35091899999999, 42.21260700000001], [-71.350387, 42.213522], [-71.349023, 42.21454299999999], [-71.347194, 42.215470999999994], [-71.34664599999999, 42.215604], [-71.34111899999999, 42.214246], [-71.340317, 42.213859], [-71.339553, 42.21402299999998], [-71.338646, 42.214849999999984], [-71.338369, 42.21580999999998], [-71.338683, 42.216778], [-71.33963299999999, 42.217562], [-71.341071, 42.218126000000005], [-71.342126, 42.219519], [-71.34298000000001, 42.220039], [-71.34302, 42.22123199999999], [-71.342693, 42.22148599999999], [-71.341635, 42.22180100000001], [-71.341559, 42.22268899999998], [-71.340679, 42.224788999999994], [-71.338225, 42.226727999999994], [-71.33655399999999, 42.227643], [-71.334538, 42.229381999999994], [-71.33390399999999, 42.230180000000004], [-71.330991, 42.231966], [-71.329662, 42.233395], [-71.329577, 42.233990999999996], [-71.329881, 42.234851000000006], [-71.33102099999999, 42.236774999999994], [-71.331124, 42.23880199999999], [-71.33058, 42.24182299999998], [-71.329776, 42.242823], [-71.32921999999999, 42.24530800000001], [-71.330176, 42.24637300000001], [-71.33153899999999, 42.247115], [-71.332025, 42.247620000000005], [-71.33243399999999, 42.247729000000014], [-71.33267599999999, 42.248449999999984], [-71.33249599999999, 42.249075000000005], [-71.302922, 42.24827400000001], [-71.30846, 42.270709], [-71.308115, 42.271223], [-71.30802899999999, 42.27181099999999], [-71.308476, 42.272293999999995], [-71.309013, 42.27334200000002], [-71.30902499999999, 42.27480799999999], [-71.309496, 42.275704], [-71.309302, 42.276378999999984], [-71.308875, 42.27667399999999], [-71.307341, 42.27710499999999], [-71.304636, 42.27835799999999], [-71.302477, 42.28015999999999], [-71.300789, 42.28265499999999], [-71.30046, 42.282916000000014], [-71.300174, 42.28293200000001], [-71.298824, 42.282314000000014], [-71.297641, 42.28128600000001], [-71.29751399999999, 42.280909], [-71.297525, 42.280055000000004], [-71.29786299999999, 42.279092], [-71.299775, 42.276139], [-71.299786, 42.27549800000002], [-71.299622, 42.27505199999999], [-71.299191, 42.274584], [-71.298604, 42.274349], [-71.298011, 42.27429199999998], [-71.296896, 42.274494], [-71.295969, 42.274246999999995], [-71.295239, 42.27372799999999], [-71.294843, 42.27305200000001], [-71.233006, 42.31626599999999], [-71.23053399999999, 42.31650199999999], [-71.228915, 42.31636], [-71.227689, 42.31547299999999], [-71.227325, 42.31490800000001], [-71.226376, 42.314218], [-71.22654299999999, 42.313181], [-71.227124, 42.312589], [-71.22698299999999, 42.31141600000001], [-71.226411, 42.310255], [-71.227121, 42.309378], [-71.22721899999999, 42.30892499999999], [-71.22667299999999, 42.308312], [-71.22534499999999, 42.307979], [-71.22369499999999, 42.307233], [-71.222495, 42.307134999999995], [-71.22102500000001, 42.306473999999994], [-71.218426, 42.306852999999975], [-71.216354, 42.30648599999999], [-71.214167, 42.30641099999999], [-71.213183, 42.30622399999999], [-71.212057, 42.304814], [-71.21108199999999, 42.302721], [-71.211759, 42.30078400000001], [-71.211603, 42.29994099999998], [-71.211007, 42.299296999999996], [-71.208029, 42.29740500000001], [-71.20723699999999, 42.29663800000001], [-71.206924, 42.29552], [-71.206096, 42.294036000000006], [-71.20548099999999, 42.291904], [-71.20539099999999, 42.290300999999985], [-71.204932, 42.289486], [-71.203553, 42.288775], [-71.202608, 42.28859899999999], [-71.201313, 42.28860799999999], [-71.200208, 42.287753], [-71.196518, 42.28659599999998], [-71.196133, 42.28672999999999], [-71.196009, 42.287520000000015], [-71.19552999999999, 42.28788499999999], [-71.195453, 42.288184], [-71.19482099999999, 42.288492999999995], [-71.194187, 42.28847099999999], [-71.19276099999999, 42.287810000000015], [-71.192256, 42.28742600000001], [-71.191012, 42.285893], [-71.19095700000001, 42.285329000000004], [-71.191222, 42.28362299999999], [-71.191051, 42.282534999999996], [-71.190681, 42.28184600000001], [-71.18816699999999, 42.280412000000005], [-71.18930499999999, 42.279197], [-71.190202, 42.277797], [-71.197011, 42.26896500000001], [-71.198791, 42.268431], [-71.19952599999999, 42.267893], [-71.20091099999999, 42.267582], [-71.20479399999999, 42.26715000000002], [-71.20536, 42.26719999999999], [-71.205574, 42.267469999999996], [-71.205975, 42.26761200000001], [-71.208128, 42.267853], [-71.209262, 42.267514000000006], [-71.211174, 42.267298000000004], [-71.2151, 42.267854], [-71.216754, 42.268519999999995], [-71.21798, 42.268708000000004], [-71.218311, 42.26845799999999], [-71.21812299999999, 42.267665], [-71.21867499999999, 42.265387000000004], [-71.219875, 42.263532000000005], [-71.221567, 42.26342700000001], [-71.222488, 42.262881], [-71.223188, 42.26269699999999], [-71.22429, 42.26318099999999], [-71.22565600000001, 42.26413300000001], [-71.227284, 42.263909000000005], [-71.228685, 42.264309], [-71.229455, 42.263906999999996], [-71.230626, 42.26086599999998], [-71.232404, 42.25847699999999], [-71.232237, 42.256898], [-71.25141599999999, 42.202613], [-71.25412399999999, 42.2028], [-71.25640299999999, 42.203672000000005], [-71.258194, 42.204071], [-71.258263, 42.20391000000001], [-71.25979099999999, 42.204115000000016], [-71.261366, 42.204044], [-71.263711, 42.203328000000006], [-71.26767, 42.200880999999995], [-71.27168, 42.20024], [-71.27378999999999, 42.19927], [-71.274963, 42.19907], [-71.275375, 42.198080999999995], [-71.275759, 42.198132000000015], [-71.27632799999999, 42.197765000000004], [-71.27618, 42.197538], [-71.276859, 42.197142], [-71.278223, 42.195781999999994], [-71.277357, 42.195906], [-71.27790399999999, 42.195471], [-71.277913, 42.194718], [-71.27813499999999, 42.194524999999985], [-71.27826999999999, 42.19401999999999], [-71.27949, 42.193650000000005], [-71.28094000000002, 42.19284], [-71.28291, 42.193200000000004], [-71.28329, 42.195460000000004], [-71.2842, 42.19538000000002], [-71.28457999999999, 42.19519999999999], [-71.28549, 42.19393000000001], [-71.28612, 42.19349999999999], [-71.28672, 42.19225], [-71.28813, 42.19261999999999], [-71.288647, 42.193969], [-71.288939, 42.19331899999999], [-71.288997, 42.19183399999999], [-71.28955599999999, 42.191350000000014], [-71.29002, 42.19135000000001], [-71.291536, 42.19074599999999], [-71.292428, 42.190694999999984], [-71.293374, 42.190403], [-71.294237, 42.18953200000001], [-71.294506, 42.18900199999998], [-71.294544, 42.18827499999999], [-71.295111, 42.18761699999999], [-71.29486399999999, 42.18694700000001], [-71.295025, 42.18608700000001], [-71.29474499999999, 42.185431], [-71.294466, 42.18520200000001], [-71.294106, 42.18507100000001], [-71.293004, 42.185168999999995], [-71.294519, 42.184641000000006], [-71.295282, 42.183375999999996], [-71.29789, 42.182759999999995], [-71.30046, 42.18477], [-71.304137, 42.187148], [-71.3054, 42.18665], [-71.30578, 42.186850000000014], [-71.306707, 42.187843], [-71.307695, 42.187069], [-71.308725, 42.186958000000004], [-71.308562, 42.186783000000005], [-71.308781, 42.18673599999999], [-71.30953, 42.18672999999998], [-71.310287, 42.187197000000005], [-71.311247, 42.187239999999996], [-71.31286399999999, 42.186312], [-71.312913, 42.18613999999999], [-71.313626, 42.185612], [-71.314039, 42.185513], [-71.314654, 42.18495000000001], [-71.3159, 42.184619999999995], [-71.31779, 42.18375], [-71.322578, 42.18119500000001], [-71.323247, 42.181487999999995], [-71.324288, 42.181403], [-71.325535, 42.181647000000005], [-71.32593, 42.182328999999996], [-71.326554, 42.182731], [-71.32630999999999, 42.18363399999999], [-71.325958, 42.183927], [-71.32601199999999, 42.184092999999976], [-71.326319, 42.18423699999999], [-71.327366, 42.18410999999999], [-71.327788, 42.184203000000004], [-71.32786399999999, 42.18437499999999], [-71.327671, 42.18483800000001], [-71.32781400000002, 42.185035], [-71.328823, 42.18495299999999], [-71.329551, 42.18508600000002], [-71.329565, 42.185419], [-71.32847, 42.18616799999999], [-71.32845, 42.186443000000004], [-71.32879, 42.186679], [-71.330485, 42.186947], [-71.330634, 42.187804], [-71.332019, 42.188742999999974], [-71.333033, 42.188884], [-71.33440000000002, 42.188504000000016], [-71.335145, 42.188483999999974], [-71.335582, 42.189658], [-71.335594, 42.191010999999996], [-71.33582299999999, 42.19123999999999], [-71.336466, 42.191376], [-71.338377, 42.191207999999996], [-71.33881, 42.19105100000001], [-71.33909299999999, 42.190609000000016], [-71.33925200000002, 42.190687], [-71.339167, 42.19170200000001], [-71.33949, 42.19288499999998], [-71.339309, 42.193393], [-71.339488, 42.193599000000006], [-71.34, 42.193740999999996], [-71.340037, 42.19389400000002], [-71.33907099999999, 42.1941], [-71.338974, 42.19437800000001], [-71.339511, 42.19457200000001], [-71.340082, 42.194474], [-71.340324, 42.194691999999996], [-71.340345, 42.194939], [-71.340003, 42.19530100000001], [-71.338898, 42.195268999999996], [-71.33850199999999, 42.19540299999999], [-71.33824299999999, 42.195704000000006], [-71.33828299999999, 42.196034], [-71.33929599999999, 42.19648999999998], [-71.339271, 42.19703300000001], [-71.339945, 42.197157], [-71.340025, 42.197782], [-71.340271, 42.197964999999996], [-71.340649, 42.197835999999974], [-71.341813, 42.198254], [-71.34272899999999, 42.19813399999999], [-71.342754, 42.198878], [-71.342339, 42.199371], [-71.34277399999999, 42.19976999999999], [-71.343226, 42.19989599999999], [-71.343522, 42.19979299999999], [-71.34376999999999, 42.19878900000002], [-71.34397799999999, 42.198561], [-71.344259, 42.19852799999999], [-71.344746, 42.198794], [-71.345004, 42.199356000000016], [-71.344235, 42.20042200000001], [-71.344106, 42.20112], [-71.34429899999999, 42.20138600000001], [-71.345563, 42.20204700000001], [-71.346239, 42.202647000000006], [-71.346847, 42.20371399999999], [-71.34653000000002, 42.20417500000001], [-71.346549, 42.20473899999998], [-71.346792, 42.20484699999999], [-71.34803099999999, 42.204682999999996], [-71.34958999999999, 42.205185], [-71.351029, 42.206139999999984], [-71.35186999999999, 42.207049999999995], [-71.35207199999999, 42.207557999999985]], [[-71.29990099999999, 42.27029], [-71.299756, 42.269878000000006], [-71.299854, 42.26953899999999], [-71.295666, 42.272502], [-71.29679600000001, 42.27264199999999], [-71.29765499999999, 42.27241000000001], [-71.298391, 42.271342], [-71.299397, 42.270846], [-71.29990099999999, 42.27029]]]}}