{"type": "Feature", "properties": {"district_name": "7th Plymouth District", "chamber": "house", "vintage": "2022-present"}, "geometry": {"type": "Polygon", "coordinates": [[[-71.002152, 42.127304], [-70.940768, 42.151365], [-70.931487, 42.116549], [-70.902412, 42.08589700000001], [-70.912962, 42.084417], [-70.909395, 42.068182], [-70.90846, 42.062885000000016], [-70.907549, 42.058795], [-70.906934, 42.056687], [-70.899729, 42.02529899999999], [-70.897418, 42.024941], [-70.89764900000002, 42.024224000000004], [-70.896618, 42.02328499999998], [-70.896893, 42.019419], [-70.897744, 42.01644900000001], [-70.899571, 42.002975], [-70.899187, 41.99637100000001], [-70.903366, 41.996627], [-70.908439, 41.996164], [-70.909652, 41.99641699999999], [-70.910681, 41.99692799999998], [-70.91112600000001, 41.99672799999999], [-70.9127, 41.996949], [-70.913485, 41.997486], [-70.914362, 41.999171], [-70.917343, 42.002263], [-70.917479, 42.00272999999999], [-70.917307, 42.00356], [-70.91739, 42.004636], [-70.918555, 42.005928], [-70.919733, 42.006797999999996], [-70.921459, 42.007551], [-70.925661, 42.00895000000001], [-70.926923, 42.008873], [-70.930222, 42.007845], [-70.931869, 42.007824999999976], [-70.932885, 42.01114600000002], [-70.933403, 42.01408799999999], [-70.933288, 42.015262], [-70.933008, 42.016225000000006], [-70.931517, 42.01973900000001], [-70.932197, 42.024868], [-70.931872, 42.026965000000004], [-70.931882, 42.029164], [-70.931599, 42.03104799999999], [-70.931523, 42.033359000000004], [-70.932265, 42.035816], [-70.93514, 42.033256], [-70.935798, 42.03289099999999], [-70.941467, 42.031751], [-70.946887, 42.029993], [-70.949491, 42.02938], [-70.953858, 42.029223000000016], [-70.95592, 42.02986799999999], [-70.958542, 42.031882], [-70.958591, 42.03362099999999], [-70.959717, 42.032862999999985], [-70.961332, 42.032084], [-70.969932, 42.031349000000006], [-70.978942, 42.02896699999999], [-70.981376, 42.029035], [-70.98334300000002, 42.02865200000001], [-70.989919, 42.059487000000004], [-70.980789, 42.068858], [-70.975231, 42.071177999999996], [-70.976528, 42.087198999999984], [-70.975387, 42.087496000000016], [-70.97499, 42.08792999999999], [-70.975176, 42.088082], [-70.975373, 42.089085999999995], [-70.975788, 42.089346], [-70.97587, 42.08973099999999], [-70.975864, 42.08990000000001], [-70.975445, 42.09017499999998], [-70.975587, 42.090594], [-70.97525, 42.09069400000002], [-70.975356, 42.091229000000006], [-70.975226, 42.09170700000001], [-70.975703, 42.092348999999984], [-70.975458, 42.09283400000001], [-70.975437, 42.09418100000001], [-70.97518, 42.094816], [-70.975243, 42.09508500000002], [-70.975533, 42.09531500000001], [-70.975188, 42.09572699999999], [-70.97507200000001, 42.096228999999994], [-70.975954, 42.09830799999999], [-70.976674, 42.098707], [-70.976737, 42.09915099999999], [-70.977174, 42.09978000000001], [-70.977144, 42.100253000000016], [-70.976733, 42.100534999999994], [-70.977058, 42.10109900000001], [-70.976895, 42.101199], [-70.976969, 42.101314], [-70.976688, 42.10185799999999], [-70.976725, 42.10265900000001], [-70.976855, 42.103358000000014], [-70.97742, 42.10417000000002], [-70.977374, 42.10434299999999], [-70.977603, 42.104369999999996], [-70.977875, 42.104768000000014], [-70.977364, 42.10577299999999], [-70.977479, 42.10611999999999], [-70.977925, 42.10649799999999], [-70.97813, 42.107862], [-70.978747, 42.108461], [-70.979817, 42.10870000000001], [-70.980512, 42.10902000000001], [-70.980663, 42.109255], [-70.980539, 42.10992600000001], [-70.98095600000002, 42.110949], [-70.980818, 42.11118199999998], [-70.979873, 42.11162399999999], [-70.979301, 42.11267600000001], [-70.978863, 42.11298599999999], [-70.978774, 42.11339699999999], [-70.979117, 42.114076999999995], [-70.998594, 42.111636], [-71.002152, 42.127304]]]}}