{"type": "Feature", "properties": {"district_name": "4th Essex District", "chamber": "house", "vintage": "2012-2020"}, "geometry": {"type": "Polygon", "coordinates": [[[-70.985293, 42.612187999999996], [-70.983568, 42.61389800000001], [-70.98346099999999, 42.614499], [-70.982511, 42.61659299999999], [-70.97751699999999, 42.62006400000001], [-70.97652, 42.621002], [-70.976326, 42.62141699999999], [-70.976472, 42.622364000000005], [-70.976263, 42.62277199999998], [-70.97671199999999, 42.623193], [-70.976669, 42.623311], [-70.97550199999999, 42.623825000000004], [-70.97497, 42.62378100000001], [-70.974513, 42.623442], [-70.97402799999999, 42.62349900000001], [-70.973089, 42.624374], [-70.972177, 42.62415199999999], [-70.971756, 42.624842000000015], [-70.971272, 42.62512099999999], [-70.970348, 42.625389999999996], [-70.96990000000001, 42.62519100000001], [-70.969386, 42.625297], [-70.967667, 42.626722], [-70.968053, 42.626740999999996], [-70.968525, 42.627125], [-70.96981099999999, 42.627517000000005], [-70.970237, 42.627793], [-70.971383, 42.628071], [-70.972234, 42.628745], [-70.97242, 42.628994], [-70.972336, 42.629342], [-70.97304, 42.629591000000005], [-70.973668, 42.63031900000001], [-70.973931, 42.63093599999999], [-70.973258, 42.63155999999999], [-70.973274, 42.63170300000001], [-70.974514, 42.633564], [-70.974328, 42.633919000000006], [-70.975078, 42.633788999999986], [-70.975188, 42.63437199999999], [-70.974739, 42.634533], [-70.974963, 42.635167], [-70.974436, 42.636129999999994], [-70.97400999999999, 42.63623700000001], [-70.97375, 42.63651000000001], [-70.973362, 42.636550999999976], [-70.97338500000001, 42.63686599999999], [-70.973765, 42.63745399999999], [-70.973742, 42.637778], [-70.973936, 42.637906], [-70.973696, 42.638247], [-70.97422999999999, 42.638517], [-70.974657, 42.639293], [-70.97528299999999, 42.63939099999998], [-70.975137, 42.63967199999999], [-70.97529899999999, 42.63984099999999], [-70.976051, 42.640052999999995], [-70.976214, 42.64063499999999], [-70.97637, 42.640714], [-70.975545, 42.642184], [-70.96036099999999, 42.64984299999998], [-70.968955, 42.673178000000014], [-70.965341, 42.671867000000006], [-70.96445500000002, 42.674825000000006], [-70.948594, 42.68066699999999], [-70.972691, 42.692637999999995], [-70.976411, 42.694351999999995], [-70.958891, 42.706950000000006], [-70.93784099999999, 42.726554000000014], [-70.924125, 42.73599200000001], [-70.922321, 42.735299000000005], [-70.910124, 42.738848000000004], [-70.898748, 42.74239899999999], [-70.898306, 42.742650000000005], [-70.897941, 42.74320500000001], [-70.897375, 42.743318], [-70.896945, 42.74374499999999], [-70.896653, 42.744479999999996], [-70.896705, 42.744955], [-70.896352, 42.745535000000004], [-70.89639, 42.746373], [-70.895988, 42.74704099999999], [-70.895425, 42.74733099999998], [-70.89505299999999, 42.74733500000001], [-70.89474, 42.747129999999984], [-70.894487, 42.74586699999999], [-70.89388199999999, 42.74532799999999], [-70.89390399999999, 42.744946000000006], [-70.894492, 42.74457699999999], [-70.89455199999999, 42.744312000000015], [-70.89336899999999, 42.74412200000001], [-70.892821, 42.74418300000001], [-70.89285699999999, 42.745139], [-70.892495, 42.745197999999995], [-70.891459, 42.744735], [-70.890524, 42.745364], [-70.89003799999999, 42.746199999999995], [-70.890469, 42.74631000000001], [-70.89137199999999, 42.745579], [-70.891967, 42.74559299999998], [-70.892283, 42.745906999999995], [-70.89220499999999, 42.74689000000001], [-70.89318, 42.74751699999999], [-70.89325699999999, 42.747858], [-70.89306499999999, 42.74810700000001], [-70.892763, 42.748188000000006], [-70.891887, 42.748156], [-70.890999, 42.747963000000006], [-70.889718, 42.74714], [-70.88901899999999, 42.74716699999999], [-70.888809, 42.74740299999998], [-70.888854, 42.747756], [-70.890419, 42.74895499999999], [-70.89032, 42.749328000000006], [-70.889774, 42.74956400000001], [-70.888916, 42.749512], [-70.887474, 42.748611000000004], [-70.88603499999999, 42.748464000000006], [-70.885036, 42.747555000000006], [-70.884605, 42.747555999999996], [-70.88430300000002, 42.747777], [-70.884441, 42.748552], [-70.884297, 42.74910299999999], [-70.883009, 42.749633], [-70.882772, 42.749902000000006], [-70.882695, 42.750686], [-70.88252, 42.750948], [-70.88205099999999, 42.751298000000006], [-70.881469, 42.751373], [-70.880864, 42.75099800000002], [-70.880596, 42.749767999999996], [-70.879702, 42.74766799999999], [-70.879188, 42.747501], [-70.87881, 42.74756800000001], [-70.878557, 42.74782899999999], [-70.878238, 42.748728], [-70.877566, 42.74896400000001], [-70.877192, 42.748743999999995], [-70.87677099999999, 42.747947], [-70.876121, 42.747639999999976], [-70.87568800000001, 42.748048], [-70.875506, 42.74882300000001], [-70.87522, 42.749196], [-70.87455299999999, 42.74955099999999], [-70.87303299999999, 42.74994499999999], [-70.872732, 42.75034999999999], [-70.86959, 42.748763], [-70.86113, 42.749036999999994], [-70.85479699999999, 42.75020699999999], [-70.854278, 42.75087199999999], [-70.851372, 42.752522], [-70.851016, 42.753091999999995], [-70.84908399999999, 42.753149999999984], [-70.84839699999999, 42.75290600000001], [-70.848479, 42.752027999999996], [-70.847191, 42.750466999999986], [-70.84655, 42.749909], [-70.845861, 42.749703000000004], [-70.84446, 42.75034300000001], [-70.842615, 42.75036699999998], [-70.842069, 42.750548999999985], [-70.841633, 42.75089499999999], [-70.841222, 42.751759], [-70.840462, 42.75221099999999], [-70.839986, 42.75224000000002], [-70.838973, 42.75113599999999], [-70.838315, 42.750803], [-70.837199, 42.751729000000005], [-70.835228, 42.752176000000006], [-70.834974, 42.752517000000005], [-70.832884, 42.75409000000001], [-70.831792, 42.75423699999999], [-70.83111099999999, 42.75356699999999], [-70.83095999999999, 42.75113], [-70.829638, 42.75047300000001], [-70.828456, 42.750485], [-70.827507, 42.75094], [-70.82663800000002, 42.751087000000005], [-70.82560000000001, 42.751019000000014], [-70.82367599999999, 42.751546999999995], [-70.820256, 42.750842999999996], [-70.814324, 42.75054799999999], [-70.81100500000001, 42.74990500000001], [-70.809752, 42.750034], [-70.79149699999999, 42.75388799999998], [-70.791218, 42.753172], [-70.790752, 42.75052899999997], [-70.78426, 42.736898000000004], [-70.781154, 42.73195200000003], [-70.775454, 42.722213999999994], [-70.77470000000001, 42.720203999999995], [-70.770501, 42.716986], [-70.759124, 42.708492], [-70.747461, 42.70138800000001], [-70.73709, 42.695973], [-70.722743, 42.691771], [-70.70898, 42.690916], [-70.721542, 42.671014000000014], [-70.72669599999999, 42.662441], [-70.73382099999999, 42.65130500000001], [-70.74732399999999, 42.667131999999995], [-70.751373, 42.67070099999999], [-70.759507, 42.67493700000001], [-70.76149699999999, 42.67574499999999], [-70.762556, 42.67585100000001], [-70.766649, 42.67431699999999], [-70.768914, 42.67365400000001], [-70.77161699999999, 42.673324], [-70.77791599999999, 42.673005], [-70.780984, 42.671242], [-70.784166, 42.67013300000001], [-70.78504199999999, 42.66837399999999], [-70.785696, 42.66795300000002], [-70.786831, 42.667773000000004], [-70.789103, 42.667967], [-70.789456, 42.66781499999999], [-70.789684, 42.66721], [-70.78951099999999, 42.66671300000001], [-70.78931, 42.666681000000004], [-70.78936999999999, 42.665625], [-70.790852, 42.664637000000006], [-70.790976, 42.664076], [-70.79084499999999, 42.663664], [-70.790542, 42.663565], [-70.78884599999999, 42.66364099999999], [-70.788598, 42.663335000000004], [-70.788893, 42.66282999999999], [-70.790201, 42.66187599999999], [-70.792735, 42.66183100000002], [-70.793123, 42.66209], [-70.79313499999999, 42.662271], [-70.792762, 42.66327100000001], [-70.793905, 42.663215], [-70.79408, 42.663067000000005], [-70.79360299999999, 42.661882999999996], [-70.79367300000001, 42.66117500000001], [-70.793549, 42.66069500000001], [-70.792968, 42.660487999999994], [-70.791837, 42.66080300000001], [-70.791241, 42.66080300000001], [-70.790567, 42.66027799999999], [-70.79066, 42.65979899999999], [-70.79250200000001, 42.65888499999999], [-70.79348499999999, 42.659011000000014], [-70.7945, 42.65984799999999], [-70.79548199999999, 42.659821], [-70.795579, 42.65968600000001], [-70.795493, 42.659116], [-70.79438499999999, 42.658648], [-70.79418799999999, 42.65825299999998], [-70.794353, 42.658086], [-70.795417, 42.658072000000004], [-70.795937, 42.657912], [-70.79592500000001, 42.65722100000001], [-70.7955, 42.65690199999998], [-70.79428, 42.656734], [-70.79403099999999, 42.65643299999999], [-70.79399099999999, 42.65605299999999], [-70.79432899999999, 42.655892999999985], [-70.795546, 42.65601900000001], [-70.795579, 42.655198], [-70.79626499999999, 42.65505300000001], [-70.796523, 42.65519300000002], [-70.79643899999999, 42.655863000000004], [-70.79661, 42.656071], [-70.797855, 42.656026], [-70.79856099999999, 42.65622200000001], [-70.798065, 42.657068], [-70.798324, 42.657306000000005], [-70.798587, 42.657197000000004], [-70.798817, 42.65680299999999], [-70.799754, 42.656361], [-70.800395, 42.65654300000001], [-70.800321, 42.656916], [-70.80064, 42.657272999999996], [-70.800874, 42.65727500000001], [-70.80127999999999, 42.656954], [-70.80202299999999, 42.656900000000014], [-70.80222499999999, 42.656646], [-70.803378, 42.656642999999995], [-70.803348, 42.656292], [-70.80287299999999, 42.65642099999999], [-70.802667, 42.656093999999996], [-70.80279, 42.65590300000001], [-70.803359, 42.656047], [-70.803825, 42.65594], [-70.80366599999999, 42.655657000000005], [-70.803987, 42.65550899999999], [-70.803444, 42.65511300000002], [-70.804121, 42.654776000000005], [-70.804711, 42.65476100000002], [-70.80543, 42.65434299999999], [-70.805696, 42.65441599999999], [-70.805522, 42.654575], [-70.805638, 42.65464099999999], [-70.805539, 42.654869], [-70.807479, 42.65468399999999], [-70.80790499999999, 42.653655], [-70.807473, 42.653389999999995], [-70.807523, 42.65318499999999], [-70.807721, 42.653245], [-70.807662, 42.65288600000001], [-70.80790999999999, 42.652571999999985], [-70.807794, 42.652326], [-70.808762, 42.651838], [-70.809113, 42.65125099999999], [-70.809919, 42.650943], [-70.810249, 42.649725], [-70.810997, 42.64922000000001], [-70.813781, 42.64789899999998], [-70.81545299999999, 42.647481], [-70.81603, 42.647136999999994], [-70.815161, 42.646668999999996], [-70.814464, 42.64665000000001], [-70.81694499999999, 42.64128500000001], [-70.813076, 42.64053299999999], [-70.81237899999999, 42.635633000000006], [-70.81185099999999, 42.625316999999995], [-70.818629, 42.62488099999999], [-70.818579, 42.621706], [-70.81611199999999, 42.618798999999996], [-70.809456, 42.607347], [-70.800889, 42.602011999999995], [-70.800797, 42.595323999999984], [-70.77345, 42.598248000000005], [-70.74565, 42.59957600000001], [-70.740455, 42.58999599999999], [-70.73384399999999, 42.58810599999999], [-70.723516, 42.58432500000002], [-70.717111, 42.58150600000001], [-70.715166, 42.575959], [-70.71594700000001, 42.574858000000006], [-70.716093, 42.573891], [-70.71562899999999, 42.57241899999999], [-70.71394, 42.57172399999999], [-70.713002, 42.57069399999998], [-70.716188, 42.56756400000001], [-70.719049, 42.56335], [-70.722544, 42.557263999999996], [-70.726835, 42.54356800000001], [-70.73065199999999, 42.52355199999999], [-70.732355, 42.505812], [-70.733558, 42.50395700000001], [-70.74542799999999, 42.513194999999996], [-70.773429, 42.53570800000001], [-70.777085, 42.53946200000001], [-70.78836799999999, 42.54954900000001], [-70.794675, 42.551169], [-70.79541499999999, 42.551479], [-70.794805, 42.55739], [-70.793824, 42.562218], [-70.79390099999999, 42.56293700000001], [-70.793312, 42.564263999999994], [-70.79343999999999, 42.56438200000001], [-70.793326, 42.56454699999999], [-70.793407, 42.56509], [-70.793598, 42.565436000000005], [-70.793469, 42.5664], [-70.79315799999999, 42.56692600000001], [-70.79382, 42.56820600000001], [-70.793753, 42.56865300000002], [-70.794039, 42.568847], [-70.793854, 42.569295000000004], [-70.794511, 42.569305], [-70.806935, 42.580354], [-70.810093, 42.584094999999984], [-70.813296, 42.580138999999996], [-70.819019, 42.57928600000002], [-70.820311, 42.57782200000002], [-70.827692, 42.58313100000001], [-70.835411, 42.590681000000004], [-70.901128, 42.590973000000005], [-70.922342, 42.591513], [-70.927497, 42.592228000000006], [-70.933883, 42.59959700000001], [-70.929452, 42.60897999999998], [-70.93109, 42.612444], [-70.93164999999999, 42.612496999999976], [-70.932422, 42.613238], [-70.943861, 42.60957400000001], [-70.954722, 42.605322], [-70.962941, 42.60045999999999], [-70.964659, 42.599647], [-70.965535, 42.600156], [-70.96641, 42.60112699999998], [-70.967478, 42.600716999999996], [-70.968639, 42.60099], [-70.969235, 42.60147499999998], [-70.969545, 42.60223500000001], [-70.970672, 42.602853], [-70.97345299999999, 42.60296899999999], [-70.97528, 42.60425199999999], [-70.976008, 42.604942], [-70.977471, 42.605295], [-70.978702, 42.605940000000004], [-70.979871, 42.60605100000001], [-70.980676, 42.60654099999999], [-70.982077, 42.606809999999996], [-70.982936, 42.60741199999998], [-70.983308, 42.60812], [-70.982613, 42.60914200000003], [-70.98273700000001, 42.60946799999999], [-70.984743, 42.611464000000005], [-70.985192, 42.61173500000001], [-70.985293, 42.612187999999996]]]}}