{"type": "Feature", "properties": {"district_name": "First Suffolk and Middlesex", "chamber": "senate", "vintage": "2001-2010"}, "geometry": {"type": "MultiPolygon", "coordinates": [[[[-71.06113467965588, 42.36984673165451], [-71.06113394657328, 42.36940558763013], [-71.06094906312455, 42.36906671128501], [-71.06036331446967, 42.36895081257792], [-71.06014769880089, 42.36861294278309], [-71.06014717620874, 42.36830628001079], [-71.06070219543159, 42.367765414537516], [-71.06070230929758, 42.36755778590418], [-71.060424420426, 42.36739185887542], [-71.05814262817336, 42.36819843998704], [-71.05709379257793, 42.36876665213344], [-71.0561994349072, 42.36899896798135], [-71.05521159978797, 42.36908912000019], [-71.05330089130535, 42.368880276021976], [-71.05215785412113, 42.3691346643856], [-71.05160273371854, 42.36890180269983], [-71.05163362746013, 42.368450653299575], [-71.05104779049027, 42.36808318844952], [-71.0510475647287, 42.36771406902703], [-71.05083161623384, 42.36751066087065], [-71.04965950907665, 42.36772045912401], [-71.04944375340101, 42.36749060310181], [-71.04947408595388, 42.367120477926115], [-71.04999873841379, 42.366913214459665], [-71.05002944346316, 42.36657009924414], [-71.04928975688722, 42.36636745140327], [-71.04928998033775, 42.36606979404173], [-71.0500602288797, 42.36600247460484], [-71.05003001722108, 42.365822861180874], [-71.04907420289624, 42.36552483573836], [-71.04904350055361, 42.36522818243072], [-71.0495057197614, 42.36512927383267], [-71.05040096139514, 42.36524868907916], [-71.05064778866601, 42.36513599207581], [-71.05064780362426, 42.364946931291485], [-71.04935216713763, 42.364609880287134], [-71.04944419897241, 42.363779723347776], [-71.04895122424806, 42.36364443566122], [-71.0490745685519, 42.36273281281054], [-71.05055532865545, 42.36298506324203], [-71.05061701653291, 42.36255203963296], [-71.04953699836318, 42.36222877428616], [-71.04944457177471, 42.362023033502375], [-71.04953735076319, 42.3618596566044], [-71.05015432741794, 42.36186657289677], [-71.05033992316014, 42.36113356194404], [-71.04913680938589, 42.36081318738602], [-71.0490130270357, 42.36053642535661], [-71.04762530793245, 42.360623817789616], [-71.0476564125531, 42.36017323203388], [-71.05055533574577, 42.35991394744407], [-71.05052450885589, 42.35955427332977], [-71.04864347334255, 42.359641999650705], [-71.04855130768414, 42.358869075677475], [-71.0492602224464, 42.35861302260642], [-71.04925978999154, 42.35790179088515], [-71.049599681874, 42.35763416052134], [-71.04929093470103, 42.35696448459367], [-71.051388898343, 42.3532882439312], [-71.05197560575371, 42.35276386038451], [-71.05182035361143, 42.35229847957581], [-71.05243488233364, 42.35119070007047], [-71.05619493614942, 42.35279710212612], [-71.05776607962164, 42.353302816895834], [-71.06007106075647, 42.35486691136079], [-71.06259493590365, 42.35619715311471], [-71.063543000363, 42.35507820492116], [-71.06489492890086, 42.352397084031544], [-71.06769493051976, 42.35239695338441], [-71.07092993222535, 42.351790119210385], [-71.07250995553609, 42.355317829111684], [-71.06959595561933, 42.355997932954224], [-71.070213999857, 42.357011945712415], [-71.0693480883572, 42.357220837287976], [-71.07019493502993, 42.35889685684387], [-71.06815992955735, 42.35890217521688], [-71.06818405464405, 42.359396862599134], [-71.06668805337432, 42.35940586556204], [-71.0667370024039, 42.36128709297068], [-71.07039493602258, 42.36122991701649], [-71.07099898609025, 42.36138015683763], [-71.07200306589984, 42.3613068104935], [-71.07579504126578, 42.36159713552787], [-71.07709494800034, 42.35869680173531], [-71.09129591473499, 42.35419718301373], [-71.09919597744137, 42.35279690443325], [-71.10879594378548, 42.35239726194562], [-71.1109959834848, 42.352597162101596], [-71.11709595720392, 42.355597027550985], [-71.11692894761231, 42.35871596893758], [-71.11719702932129, 42.3671969998116], [-71.11849697569622, 42.368397010726305], [-71.12329694044352, 42.36899576545796], [-71.1194979391534, 42.373296751396694], [-71.11889693465818, 42.373295887200655], [-71.11659692585974, 42.37259615042204], [-71.11709698578288, 42.37159624912845], [-71.11619709205736, 42.371395750077305], [-71.11569694481652, 42.3715960816778], [-71.11589697257601, 42.37239575266693], [-71.11309597004073, 42.36999723371835], [-71.11359598990815, 42.370096257861675], [-71.11359593858145, 42.368396968585444], [-71.11129593452885, 42.36779671840183], [-71.11059596497758, 42.368996795221264], [-71.10909592112034, 42.368396955809075], [-71.10709599821448, 42.37009674628448], [-71.1019960909724, 42.36839680339246], [-71.10119608927586, 42.36939672631368], [-71.10009601086999, 42.36879702998911], [-71.09759599690949, 42.367897027348235], [-71.09709591358252, 42.368797251380144], [-71.0962960379704, 42.36839719536203], [-71.09569608033048, 42.36939721958377], [-71.09639592385864, 42.369897085558705], [-71.09459607530974, 42.3729967432348], [-71.0940960701049, 42.3741968613889], [-71.08969596222914, 42.37399725536549], [-71.08659591594352, 42.37299696700291], [-71.08579599262005, 42.373996783123616], [-71.08459591378082, 42.37349673567876], [-71.08259595787769, 42.37369712463934], [-71.07949602399954, 42.37429690399106], [-71.07509598272823, 42.37369723744515], [-71.07379496396918, 42.373296860970555], [-71.07299502762774, 42.373396864670774], [-71.07069508933213, 42.372396863153384], [-71.06709495819887, 42.37189721566159], [-71.0642950739561, 42.36949694297732], [-71.06279497862164, 42.369597034854856], [-71.06159504857554, 42.36949681212755], [-71.06159493902463, 42.370196785746124], [-71.06059500817823, 42.37019690910111], [-71.06050845651058, 42.37006716201821], [-71.06113467965588, 42.36984673165451]]], [[[-70.98088795789864, 42.36500378745569], [-70.98132015563837, 42.365617937104055], [-70.98088842038212, 42.36557153735694], [-70.97983883389419, 42.36506713233914], [-70.97937689096351, 42.36516519999625], [-70.97922252413265, 42.36532148991657], [-70.97950004681128, 42.36571268594635], [-70.97940774815659, 42.36641731080256], [-70.97965525612776, 42.3665838597519], [-70.98132024955672, 42.36671685846583], [-70.98138248543977, 42.366923081241204], [-70.97993285641635, 42.36696661468775], [-70.97891455932391, 42.36666884781001], [-70.97811224498408, 42.36589883509072], [-70.97820351421709, 42.36511374267833], [-70.97882036472365, 42.36472491156027], [-70.97999334608265, 42.364731346131485], [-70.98088795789864, 42.36500378745569]]], [[[-71.00467961258444, 42.43003505564241], [-71.00321213206647, 42.429921262412975], [-71.00228290498198, 42.43027454742809], [-71.00178355774283, 42.43094253273981], [-71.00095428999775, 42.43087423390621], [-71.00120171633, 42.43032050927488], [-71.00070948343979, 42.428861049130376], [-71.0004009821461, 42.42854179978047], [-70.99916163199491, 42.428230882929945], [-70.99904660531239, 42.42789052700822], [-70.99878850326732, 42.42780218912008], [-70.99808294220051, 42.42779911542375], [-70.99623943128643, 42.42884551641332], [-70.99532180384179, 42.42888482373052], [-70.99497163256217, 42.428508546904006], [-70.99491281970772, 42.42705321173482], [-70.9950570263044, 42.42666165982565], [-70.99598067119501, 42.425863895148], [-70.99586484433438, 42.42569796154033], [-70.99551192406847, 42.4256440868232], [-70.99457915477372, 42.42611039212013], [-70.9939195486758, 42.426203712003094], [-70.9921714971063, 42.42564684376448], [-70.99195251302419, 42.42508770372865], [-70.99222637712062, 42.424653401206726], [-70.99282808732248, 42.42443829813023], [-70.99407548075283, 42.42434813174284], [-70.99431253295641, 42.42412241505315], [-70.9925481631865, 42.424114651610964], [-70.99169856441716, 42.42448564548258], [-70.99157306881649, 42.42545233029806], [-70.99172369494565, 42.425775408322714], [-70.99236628437656, 42.42624019978953], [-70.9942430906312, 42.42696305703683], [-70.99418297772836, 42.428566416378985], [-70.99463799993833, 42.4290562535014], [-70.99530601258789, 42.42936415331704], [-70.99576461328203, 42.42938360557405], [-70.99732135021792, 42.42892001679744], [-70.9982200555784, 42.42832243786633], [-70.99889091010182, 42.42827303090459], [-70.9994745159804, 42.42895471770911], [-70.99978223593445, 42.429084344828475], [-71.00002937357013, 42.4295034853928], [-71.00018194164645, 42.43064412601011], [-70.99996598335309, 42.43096334997248], [-70.99949219022679, 42.43103837774398], [-70.9972052496219, 42.430529321586064], [-70.99661834338362, 42.43062072376535], [-70.99427264467775, 42.43178755940317], [-70.99297710635327, 42.43281887051818], [-70.99205197353805, 42.433807913003506], [-70.9913105539833, 42.4342170800549], [-70.99050807076297, 42.43428499164867], [-70.9897972521499, 42.43405396119554], [-70.98921033011716, 42.43357815002208], [-70.98905543150593, 42.43303110600283], [-70.98865413523015, 42.43261519619264], [-70.98865367478085, 42.43227308807678], [-70.98951724801458, 42.43122190526779], [-70.98868286249821, 42.430308920608894], [-70.98843567019948, 42.43042148288307], [-70.9887139588733, 42.430830658162144], [-70.98862159566104, 42.4313096467777], [-70.98821998255265, 42.431379884713586], [-70.98584189178561, 42.429854006568654], [-70.98510070747876, 42.43039817702795], [-70.98491670662776, 42.430770970134276], [-70.98642948187951, 42.43110464177331], [-70.98723319219233, 42.43202763421957], [-70.9867702608316, 42.43207171099287], [-70.98593584370074, 42.43184291878135], [-70.98460762802529, 42.43113645101277], [-70.98399019085949, 42.43133624848346], [-70.9838357714771, 42.431131868049754], [-70.98473031749677, 42.42978320435499], [-70.98272342220204, 42.42969205487309], [-70.98269184185753, 42.42946740562563], [-70.98287734903455, 42.42932925821065], [-70.9854084706216, 42.42905082105531], [-70.98497664491055, 42.42875236044853], [-70.98340174480845, 42.42894167843342], [-70.983185240233, 42.42845905683376], [-70.98296898405142, 42.42836411913443], [-70.98253678969947, 42.428506785014356], [-70.98244475730978, 42.429102244389505], [-70.98121025488689, 42.42973645012401], [-70.98013026828333, 42.43067405959301], [-70.97898774506241, 42.43126983218326], [-70.97590242466896, 42.433881270925305], [-70.97503835377631, 42.43516642250195], [-70.97318604537175, 42.436945579937564], [-70.9720133205164, 42.43836152426641], [-70.97182920822993, 42.43907640160942], [-70.97099559852704, 42.44024350005643], [-70.97108919559913, 42.44140416377635], [-70.97065706692733, 42.442068946799964], [-70.96966923186393, 42.44230185024146], [-70.96923678487558, 42.44207535105544], [-70.968773575796, 42.442074340566485], [-70.96793977980214, 42.442440168046524], [-70.96658096028744, 42.44222906871019], [-70.96611695639037, 42.44193995475582], [-70.96503653750675, 42.441733503483185], [-70.9616090901834, 42.44168433267535], [-70.96095994296338, 42.44150630423357], [-70.96080527085185, 42.44129288922803], [-70.96080531538809, 42.44088720120199], [-70.96102135543396, 42.440496591146015], [-70.96170045975998, 42.43985437999921], [-70.96799877249097, 42.43640463311956], [-70.97154880681795, 42.434001478481896], [-70.97324561714404, 42.433125853799744], [-70.97784530379195, 42.4298309606166], [-70.98154630603946, 42.425506644780086], [-70.9857108064612, 42.42027330651761], [-70.98719051315831, 42.418077029675764], [-70.98783826220007, 42.4169309279298], [-70.99036486516319, 42.4110509143301], [-70.9906103179528, 42.41034359007594], [-70.9909474778139, 42.40727567548354], [-70.99100867817573, 42.406157905233385], [-70.99069942455358, 42.40512739906585], [-70.98958585781955, 42.40272376836628], [-70.98862859849964, 42.40221817233586], [-70.98742508993554, 42.402473338566466], [-70.98483193901673, 42.402203490366766], [-70.9844618872991, 42.40233575081207], [-70.98393738923224, 42.402066127674765], [-70.9840602027166, 42.40090193313279], [-70.98368659203872, 42.39684615393679], [-70.98242052406674, 42.39568866134547], [-70.98180290002688, 42.39460947534026], [-70.98133832519022, 42.39289739787997], [-70.97994882472925, 42.390795705089495], [-70.97936171945244, 42.39044587624121], [-70.97553501514743, 42.38949444767617], [-70.97306734655812, 42.39017639609939], [-70.97137041852544, 42.39029577837721], [-70.96825302437917, 42.39001639136138], [-70.96723421939726, 42.38940342035651], [-70.96686404913996, 42.38878894598839], [-70.96689453349771, 42.38803171826361], [-70.96729551462224, 42.387826508713545], [-70.96892998241695, 42.38763600061626], [-70.96998027461235, 42.38727566346304], [-70.9725083578996, 42.384278061450544], [-70.97250661760516, 42.38032408831954], [-70.97216594495424, 42.379221919490625], [-70.97161030375445, 42.37782672998552], [-70.97028184887198, 42.37530993063555], [-70.96852317544567, 42.37232578804953], [-70.9677505350819, 42.36995219291691], [-70.96728777893426, 42.36905932245448], [-70.96716346881155, 42.368367770983], [-70.96737873269926, 42.36720176158097], [-70.96885796760074, 42.36564490302768], [-70.96966004829764, 42.364370185764635], [-70.9700898740334, 42.362876552001445], [-70.97005828898976, 42.36155240987045], [-70.96953336844423, 42.358508116012395], [-70.96860750838299, 42.357343585055084], [-70.9674647967885, 42.35670921715401], [-70.96919061239248, 42.35568523109058], [-70.97092014826983, 42.35677243139954], [-70.97307924225909, 42.3577349699922], [-70.97453023729025, 42.358826465269416], [-70.97505406337342, 42.35940335853264], [-70.97551822104188, 42.360269197043614], [-70.97558041973302, 42.36207851100556], [-70.97521058025991, 42.36280550015374], [-70.97437840745658, 42.36392819374692], [-70.97410091086866, 42.364086164844984], [-70.97360734591054, 42.36404058031946], [-70.97292882122858, 42.363700987769704], [-70.97289647598511, 42.36180065464029], [-70.97264930473133, 42.3615980805398], [-70.97172402730152, 42.36157807904015], [-70.97104660733638, 42.36256247670542], [-70.9706161340812, 42.364317759215986], [-70.97021510067678, 42.36482007770625], [-70.96984563123415, 42.366195263224505], [-70.96996930138332, 42.36649067958749], [-70.97058690254646, 42.36681312840058], [-70.97163462780634, 42.36630871717068], [-70.9719438010654, 42.36635740245344], [-70.97243777741339, 42.36658305473544], [-70.97246882062234, 42.367068793242424], [-70.97219091927374, 42.36765946164509], [-70.97213035379527, 42.368552162673154], [-70.97166778683847, 42.36999219679945], [-70.9710202538171, 42.370976167446564], [-70.97105135410995, 42.37140845124459], [-70.97166860846448, 42.371460804098575], [-70.97194602924864, 42.37129383567535], [-70.97250217457137, 42.37207682896937], [-70.97290248766522, 42.37209666986448], [-70.97456889887367, 42.37157255820734], [-70.97506106058744, 42.37113141095324], [-70.975586320042, 42.37111355021602], [-70.97685110939243, 42.37143384926656], [-70.97740656868405, 42.37134296876055], [-70.9773443700247, 42.370857653363714], [-70.98116926089604, 42.370809135146196], [-70.98234120163248, 42.370284367871875], [-70.98240259647943, 42.36996841631496], [-70.98274196144231, 42.369691977489644], [-70.9841606891094, 42.36923469781323], [-70.98437671895115, 42.36884403901644], [-70.98480791995415, 42.368656346977474], [-70.9861033939553, 42.36867845992385], [-70.98653464032977, 42.36792357710602], [-70.98705873692357, 42.367905096228775], [-70.98730575477093, 42.36801817146716], [-70.98718311718537, 42.368497593392064], [-70.98832432092522, 42.36847791758446], [-70.98928009615733, 42.368704425075876], [-70.9900518866422, 42.36895205368428], [-70.99076186018108, 42.36948018210807], [-70.99215027993327, 42.36997810515098], [-70.9948028992894, 42.37052602248188], [-70.9961924983502, 42.37116851090985], [-70.99671758059799, 42.37167272206437], [-70.99687263963519, 42.372904548900124], [-70.99662675330543, 42.3735027295386], [-70.99662787583618, 42.374529628966705], [-70.99598093345851, 42.37560151850921], [-70.99480851150537, 42.37637850333556], [-70.99363698574902, 42.37647125921855], [-70.99252575273256, 42.37692326012023], [-70.99243468016968, 42.377609329975066], [-70.99271211234118, 42.37791046298099], [-70.99286834442134, 42.37955586972877], [-70.99249902771604, 42.380679041054876], [-70.99246857475977, 42.38158932485143], [-70.99274682397356, 42.38190902950028], [-70.99351759517404, 42.38202158540265], [-70.99413234696735, 42.38256783991011], [-70.99415685116882, 42.3830389115566], [-70.99342678967236, 42.383788003654246], [-70.99367370280399, 42.38401810162051], [-70.99287234209558, 42.38442814252479], [-70.99203837339796, 42.38428998284958], [-70.99000274238935, 42.38431642635108], [-70.98966320096226, 42.38465590534976], [-70.98975684501151, 42.385843014376476], [-70.98947869373714, 42.38602802780814], [-70.98707302524747, 42.38609666630558], [-70.98611596117347, 42.38646432765094], [-70.98574676930139, 42.3867592108592], [-70.98556269884547, 42.38799628539682], [-70.98423631997356, 42.38855077728628], [-70.98382036723, 42.389224691296775], [-70.98448333148171, 42.389186025165024], [-70.98553227891878, 42.38872650868208], [-70.98624163828696, 42.38900257823114], [-70.9864893092236, 42.38923213206603], [-70.98661273614137, 42.38968957926384], [-70.98639893806119, 42.39236810788883], [-70.98670758912723, 42.392731850994224], [-70.98883816047305, 42.393577477352956], [-70.98936274658305, 42.3937125988684], [-70.99226256983145, 42.39325671856249], [-70.99427118956721, 42.39329763670094], [-70.99454594870129, 42.392613500245616], [-70.9943605294689, 42.39247257839059], [-70.98911506476587, 42.39275269322902], [-70.98769488304966, 42.39234518833288], [-70.98747855433486, 42.39213322001714], [-70.98744788491527, 42.39153889335309], [-70.9877863172096, 42.39115496455559], [-70.98806348212072, 42.38985303084946], [-70.98784685532542, 42.3892803836902], [-70.98648711981951, 42.3875390167723], [-70.98658001942633, 42.38710504192655], [-70.98692002643863, 42.38706266954147], [-70.98756783712732, 42.3876732515166], [-70.98793722631159, 42.38742394054322], [-70.99037483014084, 42.38735429987176], [-70.99163976099229, 42.38680959418458], [-70.99191672785761, 42.386417503922395], [-70.99503241444569, 42.38557031935171], [-70.99555654800702, 42.38499418297098], [-70.99558675865232, 42.384561051377595], [-70.99524745365791, 42.38442283191226], [-70.99487693506542, 42.38398794167733], [-70.99490760399, 42.38373543267673], [-70.99527774506754, 42.383575567679614], [-70.99515405397547, 42.38307367641069], [-70.99462896117882, 42.38282154078525], [-70.99493666399644, 42.3820688995817], [-70.9955540011228, 42.38176944836535], [-70.99793023122366, 42.38153901535307], [-70.99950404198795, 42.381907676493014], [-70.99964378102322, 42.38218399789612], [-71.00109334890902, 42.38296004017606], [-71.00377594990982, 42.383876994616415], [-71.00522646158512, 42.384058797847814], [-71.00695402290302, 42.38467728480935], [-71.0078789084708, 42.38484104571333], [-71.00945312451508, 42.38458837285523], [-71.01062638650883, 42.38374822377073], [-71.01102837612267, 42.3832187628701], [-71.0109059373517, 42.38141035060044], [-71.01109320415364, 42.38082202012497], [-71.01167769811542, 42.38068552045584], [-71.01217097976388, 42.380910997312675], [-71.01309656771566, 42.38100269647982], [-71.01331317582867, 42.38086406827142], [-71.01334427220509, 42.37958466438683], [-71.01423888235811, 42.38019951627799], [-71.01460943399475, 42.38027366605602], [-71.01439379556953, 42.37942198313758], [-71.01516485014679, 42.37939935191316], [-71.01538031061422, 42.37995393733224], [-71.01609047677978, 42.38020281801143], [-71.01951728910569, 42.3772788637184], [-71.01908585276551, 42.376754893268284], [-71.01840616890043, 42.37634354363672], [-71.01652506178831, 42.375673940466626], [-71.01609415971372, 42.37535758999822], [-71.01603197345423, 42.375079363962335], [-71.01634173372312, 42.37436662444533], [-71.01372087900462, 42.37233217313514], [-71.01248678395308, 42.37196627064113], [-71.01088295051548, 42.37216596634937], [-71.00998782316591, 42.372812053982635], [-71.00998709602527, 42.37319973846811], [-71.01048070840882, 42.373496685187426], [-71.01048082810766, 42.3736773064421], [-71.00865838876913, 42.37507398950611], [-71.00862671086604, 42.376245356569946], [-71.0082563168111, 42.37676481662522], [-71.00760822647673, 42.37722681908703], [-71.00686683261858, 42.37850936956193], [-71.00646536520391, 42.378849757969164], [-71.00529208247491, 42.37921214924714], [-71.00439770858085, 42.37928201100096], [-71.00356523001295, 42.37908035799778], [-71.002794391063, 42.37861675597339], [-70.999493728131, 42.37793679141643], [-70.99820841376032, 42.377183951334125], [-70.99823299676231, 42.376237628246535], [-70.99934677103504, 42.37433161395577], [-70.99952952544041, 42.37358122896386], [-71.00024013110765, 42.37210108879507], [-71.00159955144224, 42.369699270051406], [-71.00166174805054, 42.369076650197705], [-71.00141571456278, 42.36873853725363], [-70.99968938334854, 42.36757078989408], [-71.00009081210206, 42.36708694016545], [-71.0007074546114, 42.36702209667247], [-71.00181766108892, 42.367200779520495], [-71.00246593955369, 42.367044909044196], [-71.00274334455978, 42.366770394179575], [-71.00289792763556, 42.36628996871398], [-71.0037928757325, 42.36576097261576], [-71.00370073405814, 42.36553719002632], [-71.00218892553782, 42.36550983742503], [-71.0017274065136, 42.365148847343804], [-71.00185187572991, 42.36372354791554], [-71.00148235879946, 42.36331568970297], [-70.99855837845023, 42.361425304527806], [-70.99824826032591, 42.360754921317636], [-70.99794030659224, 42.36062528554003], [-70.99747729240697, 42.3605793740484], [-70.99383419458539, 42.361194729227336], [-70.99357989847016, 42.36154247363935], [-70.99199264472666, 42.36142687566777], [-70.98887330068159, 42.36188289603241], [-70.98834970584824, 42.36177534603952], [-70.9877318924477, 42.3613804052634], [-70.98742278994936, 42.360926630199856], [-70.98716840852052, 42.35938542991845], [-70.99049298323769, 42.35839694090199], [-70.99129309364783, 42.35779672275683], [-70.99169301211144, 42.35629724942687], [-70.99024010016234, 42.355037719965765], [-70.99183712682199, 42.35396330832136], [-70.99668058703969, 42.35524783567353], [-70.99682505807858, 42.355564133770436], [-70.99833665959096, 42.356592009462965], [-70.99950941762773, 42.35689534184311], [-71.00262975395812, 42.356657922233886], [-71.00381049393785, 42.356236508369705], [-71.00659393372177, 42.356097122321536], [-71.00779399627189, 42.35379694890539], [-71.00519298974216, 42.353296814150916], [-71.0041929306767, 42.354097145122964], [-71.00619299961602, 42.347396863776744], [-71.00999390609135, 42.35079710901391], [-71.0124940771166, 42.35029681837794], [-71.01309400856715, 42.354696735818294], [-71.01529398843438, 42.357897007440265], [-71.0170940570461, 42.35929722074858], [-71.0260892275627, 42.362995451107885], [-71.02587950079352, 42.36382229221516], [-71.02600284983302, 42.364144092099444], [-71.02661936611229, 42.36464629283727], [-71.0274217299445, 42.364902236566294], [-71.02782287319863, 42.36483242346729], [-71.02834690838175, 42.36428258260798], [-71.02822309604302, 42.36412283581464], [-71.02828520801698, 42.36380630059894], [-71.0285321945725, 42.36354960493315], [-71.0292415619915, 42.36327623369928], [-71.02955049147609, 42.362775022646524], [-71.02985898463032, 42.36284211789804], [-71.02985824070912, 42.36373340320935], [-71.03032105517634, 42.363761177475936], [-71.0305371907069, 42.36362195208167], [-71.0307226359957, 42.36288953421262], [-71.03112319768061, 42.36281914458369], [-71.03137045427519, 42.362959134776595], [-71.03140064616903, 42.36321077664988], [-71.032049339657, 42.36316277640281], [-71.03214180719365, 42.36261172421506], [-71.03365307350859, 42.3627562816972], [-71.03371476591174, 42.363367604401795], [-71.03399166728515, 42.36357860700495], [-71.03454725688269, 42.36357804335252], [-71.03500961924917, 42.363074062574306], [-71.03528738346213, 42.36316802772274], [-71.03497878816864, 42.3639393425739], [-71.0356262010683, 42.36414396106538], [-71.03593450621364, 42.36405742708028], [-71.03713839114045, 42.3626128099779], [-71.0377857464029, 42.362772401623644], [-71.03778561126913, 42.36302448252872], [-71.03692186998421, 42.36451717880715], [-71.03753823960336, 42.36474022996248], [-71.03781625082979, 42.36467213762546], [-71.03880341963166, 42.36336674009038], [-71.03951300237868, 42.36355245480481], [-71.03951268475049, 42.363804534909505], [-71.03886460526266, 42.36462682958469], [-71.03886550319507, 42.364815894180474], [-71.0393890718042, 42.364968228077444], [-71.0400058841945, 42.364975760712184], [-71.04040787277845, 42.36426557561372], [-71.04074606004033, 42.3640075302876], [-71.04173358844699, 42.364449235426825], [-71.04108471910104, 42.365775701749754], [-71.04216469721344, 42.36636913296699], [-71.04200970226721, 42.36720972424269], [-71.04302799547914, 42.36686716280428], [-71.04339803833817, 42.367373357291115], [-71.04259593924564, 42.36840550344121], [-71.04290463483882, 42.368634053676374], [-71.04290413724463, 42.36888669541361], [-71.04321202826407, 42.369043218441995], [-71.04339719102927, 42.369409133454404], [-71.04423031270825, 42.369547480958], [-71.04441545158289, 42.36973333634473], [-71.04441531834443, 42.37012046012285], [-71.04490900933641, 42.37037280729237], [-71.04496992592524, 42.371029133816684], [-71.04549473671464, 42.371308047464545], [-71.04546382289236, 42.371623589041974], [-71.04460022170414, 42.371630301551676], [-71.04401431536847, 42.37203704915377], [-71.0441067879875, 42.37231481712009], [-71.04379844243219, 42.37279749977596], [-71.04268715534995, 42.372817282436905], [-71.04244027005954, 42.373299080408344], [-71.0427177531077, 42.37378071275957], [-71.04256365611498, 42.37391851942808], [-71.0417926810626, 42.37394077164354], [-71.04123699895355, 42.37446466291344], [-71.04126823738962, 42.37476131994894], [-71.04185283599514, 42.375091129529125], [-71.04191524763199, 42.37543236220577], [-71.04172934617077, 42.37579567576996], [-71.04120483461426, 42.37604791646282], [-71.04108118782366, 42.37682504697343], [-71.04188342701545, 42.37689182732749], [-71.04182142929649, 42.377514466999], [-71.04203741663756, 42.377582285916695], [-71.04206833442399, 42.37792395560521], [-71.0425621042277, 42.37804126938085], [-71.04256173044959, 42.378906106511955], [-71.04175948240908, 42.37904639708644], [-71.04169807024898, 42.3792999209469], [-71.0418509021884, 42.382088606039396], [-71.0404938167194, 42.382176035907186], [-71.04043209424785, 42.382888703914546], [-71.04009186802715, 42.383047707938424], [-71.0400613987342, 42.38348028637552], [-71.03941355573926, 42.383618364458954], [-71.03935158115551, 42.3840513792212], [-71.03765424877541, 42.384162733510884], [-71.03658154399047, 42.38453485010195], [-71.03651317918397, 42.38500835047559], [-71.03598506412102, 42.384833479326424], [-71.03573873552482, 42.38414039030638], [-71.03519045312622, 42.38410329045715], [-71.03508951417881, 42.38469594644235], [-71.03333897902587, 42.384351252019265], [-71.03332980100372, 42.38343517293157], [-71.03319166803095, 42.38325511784153], [-71.03232866720997, 42.38297927622542], [-71.03018830858578, 42.38311516455205], [-71.02972478436392, 42.383546534007486], [-71.02867582694323, 42.383502291347526], [-71.02855259079772, 42.38295486191914], [-71.02827490686097, 42.38278885858507], [-71.02697917256731, 42.38281223521736], [-71.02697895195502, 42.38329838949784], [-71.02463340456073, 42.38450129661915], [-71.02241154631338, 42.385972504855204], [-71.02108390780313, 42.38649140348732], [-71.0193875117117, 42.38656648105167], [-71.01496967924076, 42.39225463498741], [-71.015431489939, 42.39328178140402], [-71.01543181367815, 42.393858528403584], [-71.01503060373125, 42.39440601251045], [-71.01367186423265, 42.39538440287652], [-71.01212864870465, 42.39554667408051], [-71.01186552288576, 42.39575487463195], [-71.0074950564808, 42.401211112539286], [-71.0077112250646, 42.40167568404169], [-71.00888293103004, 42.40210551193535], [-71.01076610788525, 42.402108468704974], [-71.01079647015739, 42.4024771516595], [-71.01193761921655, 42.40286236679835], [-71.01320293329697, 42.40304778260206], [-71.01351412773617, 42.403033906180134], [-71.01342810072683, 42.402793279207074], [-71.0135939501277, 42.40289695026077], [-71.01616600455436, 42.40261913856812], [-71.01779391972292, 42.40269574294194], [-71.01819400186709, 42.40329610723169], [-71.01889399263682, 42.403596129135174], [-71.0209939934323, 42.403495729273715], [-71.02139391940095, 42.40399592501124], [-71.02036305585844, 42.40480020040402], [-71.02179405132617, 42.40479602695184], [-71.02229402658327, 42.40539622881157], [-71.0226950862109, 42.40509573530181], [-71.0232950908751, 42.405496034583024], [-71.02489503439793, 42.40589596136298], [-71.02589500890393, 42.40639580302863], [-71.02639496420636, 42.406296016947884], [-71.0271950460143, 42.40649624325743], [-71.02729498502615, 42.408996062104315], [-71.03219491487427, 42.41339594931752], [-71.03257000398828, 42.41393820412846], [-71.0318230844959, 42.41433691879072], [-71.03196107316707, 42.414545107123004], [-71.03099198342946, 42.41428514539899], [-71.03109606598794, 42.41509694718383], [-71.03080796046629, 42.415010809253985], [-71.03081399469649, 42.41634606198734], [-71.03099605625525, 42.41639688198869], [-71.03089593819237, 42.417097004413634], [-71.03071004866742, 42.41705010738951], [-71.03039599863048, 42.41779718431295], [-71.02949592358658, 42.418997070457124], [-71.0245840962768, 42.41763491019771], [-71.02008596955815, 42.41669627111952], [-71.0191950356919, 42.41659577311958], [-71.01889601111421, 42.41719714913852], [-71.01679408190383, 42.416595847871015], [-71.01639404296122, 42.41719623074426], [-71.01489392594695, 42.416695889648814], [-71.01442193848101, 42.4177877409008], [-71.01479396594523, 42.41789621792581], [-71.01339403116144, 42.419695934003066], [-71.01409397937981, 42.420096139254056], [-71.01259390543342, 42.421996141045646], [-71.01039405436198, 42.42409627451803], [-71.00819400314357, 42.425495834762735], [-71.00949391220468, 42.42629587682459], [-71.00467961258444, 42.43003505564241]]]]}}