{"type": "Feature", "properties": {"district_name": "First Middlesex District", "chamber": "senate", "vintage": "2012-2020"}, "geometry": {"type": "Polygon", "coordinates": [[[-71.660451, 42.63521700000002], [-71.65072099999999, 42.69091999999999], [-71.651911, 42.70519399999999], [-71.642015, 42.70489], [-71.63181399999999, 42.704788], [-71.622214, 42.70428800000001], [-71.62014599999999, 42.70439400000001], [-71.597413, 42.703787999999996], [-71.503916, 42.70189299999999], [-71.467584, 42.70068799999998], [-71.423538, 42.69979199999998], [-71.38813, 42.698794999999976], [-71.383667, 42.698809], [-71.36981999999999, 42.69831499999999], [-71.37436699999999, 42.693264], [-71.374014, 42.689370000000004], [-71.378798, 42.68309199999998], [-71.376676, 42.677953], [-71.37336499999999, 42.666123], [-71.37159799999999, 42.66403099999999], [-71.369626, 42.66933399999999], [-71.366434, 42.66667799999999], [-71.368882, 42.661753000000004], [-71.357523, 42.654454000000044], [-71.29956899999999, 42.66651499999999], [-71.28685999999999, 42.648867999999986], [-71.280406, 42.65412], [-71.277749, 42.65533999999998], [-71.275154, 42.656216], [-71.272018, 42.64921600000001], [-71.27170699999999, 42.64801799999999], [-71.271682, 42.646305], [-71.27146499999999, 42.64611100000001], [-71.271271, 42.643918000000006], [-71.274709, 42.62885899999998], [-71.277791, 42.62084700000002], [-71.283427, 42.61529900000001], [-71.29627099999999, 42.612674999999996], [-71.297028, 42.613010999999986], [-71.296778, 42.61377399999999], [-71.296205, 42.61468299999999], [-71.31930899999999, 42.61357200000001], [-71.318882, 42.608543999999995], [-71.319897, 42.6069], [-71.323341, 42.60649], [-71.325277, 42.611376999999976], [-71.324975, 42.611601], [-71.325698, 42.613263999999994], [-71.328077, 42.613147], [-71.329328, 42.61398499999998], [-71.34863, 42.62145300000001], [-71.359945, 42.626008000000006], [-71.364738, 42.63759799999999], [-71.367024, 42.637391], [-71.369495, 42.637583], [-71.37206499999999, 42.63835599999999], [-71.374521, 42.639548000000005], [-71.375935, 42.64090199999999], [-71.377115, 42.642697000000005], [-71.37910699999999, 42.647395999999986], [-71.379751, 42.648230999999996], [-71.380687, 42.648913999999984], [-71.381743, 42.64927899999999], [-71.384937, 42.64961], [-71.392488, 42.648476], [-71.394341, 42.648474], [-71.396968, 42.649637], [-71.398173, 42.65101899999998], [-71.398995, 42.652467], [-71.40211, 42.651603], [-71.401288, 42.649488], [-71.39831199999999, 42.64550199999999], [-71.39895899999999, 42.644883], [-71.402734, 42.646695], [-71.403966, 42.648419], [-71.405309, 42.648138000000024], [-71.409764, 42.648785], [-71.41197799999999, 42.64797400000001], [-71.412309, 42.64941], [-71.41765199999999, 42.653821], [-71.405401, 42.610392999999995], [-71.401978, 42.599805], [-71.400228, 42.59107900000001], [-71.39841899999999, 42.584723000000004], [-71.396884, 42.58016699999998], [-71.393795, 42.569489999999995], [-71.388504, 42.55040100000001], [-71.38474, 42.538699], [-71.423794, 42.526188999999974], [-71.438242, 42.53423199999999], [-71.443326, 42.537322999999994], [-71.48002, 42.558094], [-71.483965, 42.573907999999996], [-71.498006, 42.57686199999999], [-71.50303699999999, 42.575468], [-71.506411, 42.572172], [-71.511459, 42.569386], [-71.600839, 42.583026], [-71.602385, 42.58222799999999], [-71.60427100000001, 42.582138], [-71.60615899999999, 42.582964], [-71.60659199999999, 42.58294100000001], [-71.608972, 42.581182999999996], [-71.61058, 42.58109099999999], [-71.61092099999999, 42.58131899999999], [-71.61079699999999, 42.581571], [-71.609993, 42.58198300000001], [-71.610024, 42.582280000000004], [-71.61021, 42.58237099999999], [-71.611262, 42.58232499999999], [-71.612282, 42.58193599999999], [-71.613118, 42.581981000000006], [-71.613334, 42.582187000000005], [-71.61327299999999, 42.583102000000004], [-71.61451199999999, 42.58408399999999], [-71.614605, 42.58445], [-71.614234, 42.584976000000005], [-71.614265, 42.585433], [-71.614885, 42.58609600000001], [-71.615194, 42.586209999999994], [-71.616524, 42.58598099999999], [-71.61729799999999, 42.58616299999999], [-71.618195, 42.58582], [-71.61921699999999, 42.58579599999999], [-71.61921699999999, 42.586116000000004], [-71.618691, 42.586734], [-71.61872199999999, 42.586962], [-71.61909399999999, 42.587351000000005], [-71.620054, 42.58744199999999], [-71.620487, 42.58766999999999], [-71.62377, 42.59066300000002], [-71.62377, 42.59116600000002], [-71.62346099999999, 42.59164699999999], [-71.623493, 42.592698000000006], [-71.624093, 42.59320100000001], [-71.624513, 42.593305], [-71.624513, 42.59319000000002], [-71.62498599999999, 42.59362599999999], [-71.62639, 42.593602999999995], [-71.626802, 42.593901], [-71.626863, 42.594542], [-71.62613, 42.59625099999998], [-71.626314, 42.598647], [-71.627855, 42.600203000000015], [-71.628344, 42.600460999999996], [-71.627346, 42.602395], [-71.62768, 42.603308999999996], [-71.628001, 42.60323299999998], [-71.62884, 42.602348], [-71.62910000000001, 42.602394000000004], [-71.630291, 42.60374500000001], [-71.629758, 42.60503599999999], [-71.62989499999999, 42.60581300000001], [-71.63027699999999, 42.606463000000005], [-71.630033, 42.60705099999999], [-71.63027699999999, 42.60735599999999], [-71.630736, 42.60760700000001], [-71.631956, 42.60756200000001], [-71.63256799999999, 42.60780699999999], [-71.632933, 42.608324999999994], [-71.633804, 42.608593000000006], [-71.635285, 42.61065299999999], [-71.634233, 42.611171999999996], [-71.633539, 42.612390000000005], [-71.63405, 42.61261499999999], [-71.635713, 42.61240900000002], [-71.636968, 42.612902999999996], [-71.637716, 42.613411], [-71.638566, 42.61341600000001], [-71.63986299999999, 42.61414799999999], [-71.640613, 42.614089], [-71.642259, 42.61473600000001], [-71.64325099999999, 42.615765999999994], [-71.643464, 42.61662], [-71.642991, 42.61721500000001], [-71.644114, 42.617289], [-71.644137, 42.618497], [-71.643847, 42.61880999999999], [-71.643832, 42.619176], [-71.643389, 42.619665000000005], [-71.643389, 42.620298], [-71.643711, 42.62107399999999], [-71.644076, 42.62146499999999], [-71.644823, 42.621525999999996], [-71.64479299999999, 42.621708999999996], [-71.643847, 42.622297], [-71.644045, 42.622655], [-71.645144, 42.622793], [-71.64552499999999, 42.623318999999974], [-71.64525100000002, 42.6237], [-71.64438299999999, 42.623214999999995], [-71.64430999999999, 42.62339199999999], [-71.6447, 42.623667000000005], [-71.644515, 42.62430699999999], [-71.644671, 42.62445800000001], [-71.645663, 42.624104999999986], [-71.645815, 42.62431099999998], [-71.645968, 42.62473800000001], [-71.645586, 42.62523400000001], [-71.645586, 42.62569900000001], [-71.646273, 42.626020000000004], [-71.64657799999999, 42.626386000000004], [-71.646914, 42.626489], [-71.647143, 42.62614899999999], [-71.64670000000001, 42.62569900000001], [-71.646868, 42.625387], [-71.646714, 42.62508899999998], [-71.64721399999999, 42.62478899999999], [-71.64900399999999, 42.62578299999999], [-71.64905, 42.626287], [-71.64996599999999, 42.62675999999999], [-71.64994999999999, 42.627004000000014], [-71.649294, 42.627309], [-71.64931, 42.627514999999995], [-71.649935, 42.628225], [-71.65019500000001, 42.628949], [-71.65048399999999, 42.629049000000016], [-71.651049, 42.629834], [-71.65170499999999, 42.630238999999996], [-71.653094, 42.63050599999999], [-71.65413099999999, 42.63127600000001], [-71.65645099999999, 42.632589], [-71.657748, 42.633526999999994], [-71.657992, 42.634435], [-71.65829699999999, 42.634435], [-71.658953, 42.63406900000001], [-71.659258, 42.634114999999994], [-71.660451, 42.63521700000002]]]}}