{"type": "Feature", "properties": {"district_name": "First Plymouth and Bristol", "chamber": "senate", "vintage": "2001-2010"}, "geometry": {"type": "MultiPolygon", "coordinates": [[[[-70.71764080691577, 41.6694685365696], [-70.71733571059775, 41.66965326873467], [-70.7168172214348, 41.669489881005454], [-70.71654262767393, 41.66889992294902], [-70.7173963684675, 41.66880563134089], [-70.7176408403192, 41.66903634966808], [-70.71764080691577, 41.6694685365696]]], [[[-70.76099300656084, 41.67765143945463], [-70.76047365925015, 41.67792043145553], [-70.7599861709008, 41.67790094216179], [-70.76007782529862, 41.67760216002775], [-70.76077978724616, 41.67716834792001], [-70.76126835351336, 41.67714282156532], [-70.76166530059798, 41.67739750632426], [-70.76169475148887, 41.67757721182797], [-70.76099300656084, 41.67765143945463]]], [[[-70.74375234664116, 41.69779741618156], [-70.74253201742036, 41.698320528783256], [-70.7427761711362, 41.697866332636764], [-70.74271457574795, 41.69761493990981], [-70.74176855692535, 41.69786356305197], [-70.74167648688329, 41.69752305346822], [-70.7421340378917, 41.697245855900135], [-70.74298886576528, 41.697088350156704], [-70.74381337146636, 41.69758960721044], [-70.74375234664116, 41.69779741618156]]], [[[-70.75114915925938, 41.698136702763996], [-70.75114813975665, 41.69870450210209], [-70.75081188378103, 41.699141790064], [-70.7496513683959, 41.69946559929111], [-70.7493399966555, 41.69982876517757], [-70.74900446946674, 41.69991490203394], [-70.74885172259164, 41.69978221249032], [-70.74909549871451, 41.699228958069924], [-70.74878974069796, 41.69895457338561], [-70.74863675966155, 41.698299095116624], [-70.74845333386374, 41.69815776132963], [-70.74759843923981, 41.698225269024626], [-70.7473542494877, 41.69852584660143], [-70.74729909785104, 41.69928799670688], [-70.74680534044413, 41.69868766118341], [-70.74707978792013, 41.69795397390437], [-70.74823954351191, 41.69762962322305], [-70.75029478450135, 41.69751994053342], [-70.75114915925938, 41.698136702763996]]], [[[-70.64483374714912, 41.73379106277212], [-70.64483315628915, 41.734592973382235], [-70.64468063326088, 41.734874327027654], [-70.64434448332183, 41.73487011336385], [-70.64431450096406, 41.7340235159281], [-70.6441618636924, 41.73383666215536], [-70.64388662397035, 41.733912815023416], [-70.6436113450695, 41.73441215304308], [-70.64324476641367, 41.73440827001069], [-70.64162680079974, 41.733909308298756], [-70.64126018216855, 41.733545260059245], [-70.64129136058475, 41.73326580960437], [-70.6426655887264, 41.73219175015397], [-70.64376578837017, 41.73194172748559], [-70.6439489006831, 41.73248896935804], [-70.64446800221246, 41.73296782963806], [-70.64483374714912, 41.73379106277212]]], [[[-70.65414694310793, 41.73743069024159], [-70.65399404218714, 41.73765802958483], [-70.65326120917544, 41.73782140690604], [-70.65252895579093, 41.73734606620189], [-70.65262032568702, 41.73685828189699], [-70.65310921545242, 41.736563100289395], [-70.65362842804966, 41.73647410731583], [-70.65405599860125, 41.73683744236536], [-70.65414694310793, 41.73743069024159]]], [[[-70.92428595402613, 42.008700788091375], [-70.91998602534109, 42.00700102870271], [-70.91738598855048, 42.00470091503257], [-70.91748607793207, 42.00240102156094], [-70.91428504264694, 41.99920079373687], [-70.91378505433558, 41.99830125360809], [-70.9110850273679, 41.996801231757345], [-70.91018505030928, 41.99670093029121], [-70.90828509381083, 41.99610081880548], [-70.89918502261521, 41.99630096223612], [-70.89928502696641, 41.991900998398854], [-70.90128509258929, 41.982601241373544], [-70.91148506742293, 41.980200735609266], [-70.91218499073955, 41.978500975126046], [-70.91218506375579, 41.977901112994054], [-70.90858502282667, 41.974201209306045], [-70.9085849300006, 41.972101125583], [-70.90718500547331, 41.970600968130334], [-70.90718493480543, 41.96830111660192], [-70.9088850144395, 41.96640116353837], [-70.8959850174744, 41.960501076567645], [-70.86878394924712, 41.94850192829425], [-70.86078393532092, 41.95540206269615], [-70.85908397136156, 41.95363795861643], [-70.84854001918328, 41.945077768977306], [-70.84351593079393, 41.940789721616945], [-70.83247508888495, 41.930678214854964], [-70.82962697379875, 41.927734215685334], [-70.80549901570963, 41.93579804512732], [-70.78223505552808, 41.94318021040666], [-70.77156201271025, 41.946245948279376], [-70.77050604676006, 41.946502006613294], [-70.77004206770737, 41.94642194891766], [-70.75841004941768, 41.94782983960857], [-70.75085801326577, 41.92720591122979], [-70.75049007523766, 41.92587825864262], [-70.7426308583753, 41.91724020652377], [-70.74051717094166, 41.91524196476275], [-70.73632308387619, 41.90941275260948], [-70.73378483263095, 41.90639298922069], [-70.73108416713927, 41.903836893548274], [-70.72137393830049, 41.89231206926607], [-70.7157581699265, 41.88606325101466], [-70.70906404138046, 41.8776018671736], [-70.70645597087213, 41.87510320886917], [-70.68642305892185, 41.85221504267537], [-70.68370316644204, 41.848870936211725], [-70.68053500750705, 41.845526919119884], [-70.68221494262029, 41.84557499073428], [-70.68363897854717, 41.84491890478977], [-70.68488713734868, 41.844007185332075], [-70.68787912813848, 41.841191183612956], [-70.68955896078788, 41.839846924540424], [-70.68984684354596, 41.838007116487155], [-70.69087083947687, 41.83778309867058], [-70.69256712963163, 41.83658297466072], [-70.69365507664445, 41.83611909417821], [-70.69413508480824, 41.8353509682839], [-70.69442288001522, 41.83451901860071], [-70.69487098727255, 41.83407086423494], [-70.6949670682784, 41.83259884804541], [-70.69727103502878, 41.830567272141344], [-70.69743112208029, 41.830103011697894], [-70.69727100818143, 41.82946317323352], [-70.69749515879022, 41.82931900076529], [-70.69831105739681, 41.829655068541754], [-70.69906301554947, 41.82951122573928], [-70.6997988970371, 41.82971897851219], [-70.69997508796177, 41.82883896178368], [-70.7002468753335, 41.828615208871824], [-70.70064700464579, 41.828566804805455], [-70.70269503746249, 41.82880680122371], [-70.70335102304591, 41.82920699264118], [-70.70368706628959, 41.829078783705285], [-70.70487098848079, 41.82931889388072], [-70.70591107763893, 41.82920683990996], [-70.7066471021907, 41.828950850863514], [-70.70706314903325, 41.828438836546646], [-70.70720712751023, 41.82775104270539], [-70.70747901861097, 41.8273348160828], [-70.70802310653232, 41.82687095834758], [-70.70784692039828, 41.82479096957157], [-70.70795890008156, 41.82440683258227], [-70.70891913082858, 41.82344727191079], [-70.70976718096385, 41.822887034726875], [-70.71090281620246, 41.82167093773657], [-70.71151109280409, 41.82130317384371], [-70.71173491266974, 41.82066319674445], [-70.71208716125243, 41.82037525704043], [-70.71256703045583, 41.819590734749355], [-70.71368708746733, 41.81843921817611], [-70.71448700694854, 41.8179911627005], [-70.71479106448804, 41.817399002744], [-70.71483902668388, 41.81704705728853], [-70.71437516765015, 41.816535144368196], [-70.71469495056166, 41.81640679147034], [-70.71474287527631, 41.81611899823485], [-70.71512716835616, 41.815974768934005], [-70.71551101399702, 41.815254851412355], [-70.71538315478189, 41.81451903205082], [-70.71554305216216, 41.814086821853046], [-70.71531886419801, 41.8127431420837], [-70.71613486170432, 41.811959229813894], [-70.71639110356395, 41.81103078059878], [-70.71715903931008, 41.810023122671986], [-70.71739913276268, 41.80936692695616], [-70.71661509248023, 41.8084707231668], [-70.71743109919288, 41.80789501613013], [-70.71767114752494, 41.807302971996236], [-70.71770284371217, 41.805607088202265], [-70.71682282534512, 41.80423077126941], [-70.71690282374082, 41.80405518288613], [-70.71776714322769, 41.80376680352992], [-70.7178789239943, 41.80357511307537], [-70.7175910295187, 41.80215109070957], [-70.71765508761239, 41.80152688772354], [-70.68173409456689, 41.80333602196523], [-70.66149288161196, 41.80476011270357], [-70.6506128419351, 41.8052878920689], [-70.63267684556632, 41.80642408454744], [-70.61645996037358, 41.80547006013146], [-70.62447588067954, 41.792553267898256], [-70.62678803241894, 41.78866385161765], [-70.62728382095642, 41.78735194604586], [-70.62881993793431, 41.78708007433687], [-70.63006781730628, 41.78723986019962], [-70.63069187430283, 41.786855763893996], [-70.63051613342974, 41.78604012811194], [-70.629907937576, 41.78559204142327], [-70.62982797554112, 41.785032060156794], [-70.63016401764264, 41.784760004954464], [-70.63013204904955, 41.78456786414033], [-70.63061210481034, 41.78437625418014], [-70.63078797200087, 41.7839122038039], [-70.63051593386042, 41.78373623963582], [-70.6305801345368, 41.78308000345845], [-70.6307879076789, 41.78284016989194], [-70.63069205231697, 41.782232234444336], [-70.63094802349856, 41.78215202573503], [-70.63066003311849, 41.78176772370151], [-70.63077184340203, 41.781479887287695], [-70.63051600379356, 41.78088817633731], [-70.63051599715973, 41.780391833172374], [-70.63003611341368, 41.78010398312165], [-70.62931591936595, 41.78007203339705], [-70.62898004358776, 41.7796721668565], [-70.62902814119849, 41.77879183476341], [-70.62944400745789, 41.77823226525561], [-70.62936391861324, 41.77784785959978], [-70.6296199974635, 41.777400180724925], [-70.62976405157723, 41.77725609214987], [-70.63003602061316, 41.777352147733374], [-70.63064384114875, 41.7768559415502], [-70.63058004743192, 41.775992200299555], [-70.63009985731753, 41.77528791475058], [-70.6300679465512, 41.775064260377526], [-70.63029182541563, 41.77474407788564], [-70.63010011306751, 41.77455184300761], [-70.63019618835935, 41.77423181039981], [-70.63037190862077, 41.77383191272542], [-70.63064416126883, 41.77376814886164], [-70.63094799365739, 41.77340017885128], [-70.63166787823305, 41.77325597654121], [-70.63299596529055, 41.77247205366386], [-70.63285213586127, 41.7719920611111], [-70.63357212948823, 41.77095195399457], [-70.63427601952003, 41.770487973345084], [-70.63509208112175, 41.770343917697645], [-70.63586005093484, 41.76997608084466], [-70.63614799228858, 41.76964005333292], [-70.63611586289682, 41.76932016930565], [-70.63544410492824, 41.76844000176783], [-70.63531588902882, 41.767527940861854], [-70.63445207697434, 41.766456100752976], [-70.63435596890153, 41.76567202614888], [-70.63267581689807, 41.76383200613315], [-70.63253182588045, 41.76283991127834], [-70.63211589454167, 41.762584069652114], [-70.63153983292247, 41.762552104924126], [-70.63160407664343, 41.76236013495482], [-70.63115595703012, 41.7617360073828], [-70.62993982224447, 41.761048051717964], [-70.6295394278383, 41.76015022384633], [-70.63042567676244, 41.76030724611614], [-70.62978540955868, 41.75886622430002], [-70.62954227770747, 41.75726672534456], [-70.6301531501454, 41.757194858018444], [-70.63039788514122, 41.75696656271957], [-70.63073440462902, 41.75612388393399], [-70.6307659014071, 41.75502451489891], [-70.63058410477866, 41.754135673957975], [-70.63079800942972, 41.75346594816332], [-70.63153152716158, 41.753104068901486], [-70.63140951622402, 41.75273678965946], [-70.63034096001785, 41.752895772285534], [-70.62890398454748, 41.75273678904335], [-70.62743771471239, 41.75309979352133], [-70.62673558952774, 41.75278546391421], [-70.62649153530185, 41.75216738321097], [-70.62649378128125, 41.75049209880913], [-70.62576154143656, 41.74979992780357], [-70.62172531538499, 41.74769964873746], [-70.62172465332375, 41.74747454415908], [-70.6223657736579, 41.746781115212045], [-70.62291535827028, 41.74632276953227], [-70.62340399924442, 41.74625281147936], [-70.62539755430869, 41.747103256715434], [-70.62698535281139, 41.74737824211819], [-70.62964224394554, 41.748249451945505], [-70.63095546411272, 41.748383847026936], [-70.63156762507687, 41.747906804017816], [-70.63156761191968, 41.74746560947337], [-70.63132363946475, 41.74719869460403], [-70.62802533376305, 41.74545316869922], [-70.62695653994743, 41.745225508799365], [-70.62701872281212, 41.74490915812288], [-70.62762984179483, 41.744288064681704], [-70.6283939458756, 41.74388085784157], [-70.63343329445165, 41.74440327703763], [-70.63508282775537, 41.74436179251042], [-70.63679370851109, 41.74392288645306], [-70.63709949231524, 41.7436753437396], [-70.63709952744243, 41.74345024491336], [-70.63685519356642, 41.74323736295876], [-70.63691682161254, 41.7425968603289], [-70.63780439384585, 41.74077409055704], [-70.63810998489852, 41.73978765601418], [-70.63798856599956, 41.73934779375226], [-70.63713339187386, 41.738801642100285], [-70.63670591293149, 41.73879896498507], [-70.63728638549182, 41.73960134038617], [-70.63704144645429, 41.739740171495164], [-70.6366451551132, 41.73973660503353], [-70.63600375646288, 41.7394396744395], [-70.63579001614869, 41.73893833245705], [-70.63594330893552, 41.73857596053168], [-70.6370743912074, 41.73752375743088], [-70.63707430442626, 41.73697395211526], [-70.63533421878223, 41.73514363940772], [-70.63524283348768, 41.73456837971397], [-70.63560986987437, 41.734455240391334], [-70.63686227724112, 41.73445517383785], [-70.63878545728932, 41.735300913825746], [-70.64095369932686, 41.73541408425311], [-70.64092302749071, 41.73571154636031], [-70.64012867257647, 41.7364258678379], [-70.63960921912411, 41.73655925464764], [-70.63957877540933, 41.73683927297743], [-70.6406775818647, 41.73717452649488], [-70.64302989350635, 41.73706901149333], [-70.64425167391275, 41.73683509263028], [-70.64440385983127, 41.73758919216595], [-70.64773162540791, 41.73997318236], [-70.64834247511179, 41.74019891186024], [-70.64928960405845, 41.74036524844376], [-70.65200807583822, 41.740361888113256], [-70.6535959924597, 41.7397445503414], [-70.65390180540598, 41.739857121219615], [-70.65384038278438, 41.74015492059787], [-70.65298454723602, 41.741347771610315], [-70.6529534331261, 41.74205097359154], [-70.65435690709084, 41.74484024639579], [-70.65435684932925, 41.74532702174067], [-70.65392901661296, 41.74580161607689], [-70.65243214726667, 41.746625039580756], [-70.65059910452851, 41.74715555970941], [-70.65014027367565, 41.74761302649366], [-70.65020073578476, 41.749422708469424], [-70.64995573704041, 41.75010180380624], [-70.64949714433037, 41.75056771111949], [-70.65114704805048, 41.75107467357743], [-70.65197138321311, 41.750936750924645], [-70.6526737390448, 41.750476586681614], [-70.65334678951209, 41.74964703861886], [-70.6548751748204, 41.74866120288364], [-70.65551664955578, 41.747885994394494], [-70.65628049588145, 41.748028402836226], [-70.65710502740384, 41.748412673423175], [-70.65741100444201, 41.74868730663409], [-70.65829561011867, 41.750530088293715], [-70.65979248393292, 41.75085008783246], [-70.65930329089298, 41.75119087875229], [-70.65661515286197, 41.751508653662064], [-70.65652278487565, 41.75198742950718], [-70.65673727212055, 41.752191606302276], [-70.65676611603851, 41.75276750924922], [-70.6571323393209, 41.75317652260634], [-70.65713338253839, 41.7534106327459], [-70.6545049769739, 41.75423245858063], [-70.65444433394347, 41.75441377549771], [-70.65514647521567, 41.75470992536412], [-70.65587956794278, 41.754455934390144], [-70.65804884719235, 41.754370695253414], [-70.65835452786466, 41.75384341024056], [-70.65902588482012, 41.75416688320104], [-70.65939350494585, 41.754071678968025], [-70.65963797290179, 41.75379773729498], [-70.65963809666512, 41.75313144690272], [-70.65927205017711, 41.752308261908134], [-70.65933348738396, 41.75203690900992], [-70.66107467327507, 41.751696342276425], [-70.66134935602669, 41.752611139024026], [-70.66159293777217, 41.752832965879506], [-70.66189856083568, 41.75276543457746], [-70.66177767144981, 41.75101102868582], [-70.6621139579489, 41.750753514398916], [-70.66193140238455, 41.75023388228587], [-70.65976240832543, 41.74950884201519], [-70.65939577069355, 41.74887473550784], [-70.65988457858653, 41.748390441191574], [-70.65988432504287, 41.74820979781327], [-70.65884594719851, 41.74800010787042], [-70.65783852093135, 41.74726728323585], [-70.65640270405267, 41.747594305134164], [-70.65585326991962, 41.74720587841598], [-70.65548647621648, 41.74607597809705], [-70.65560929914636, 41.74562387787391], [-70.6563734521578, 41.74480230355383], [-70.65539588489762, 41.74457333594521], [-70.65487765229038, 41.74415756104822], [-70.65438842397266, 41.74345274735161], [-70.65423646772673, 41.74210384082581], [-70.6555804128312, 41.74130064499518], [-70.65622213226209, 41.74118328543494], [-70.6577189896045, 41.741116707121584], [-70.65848258752521, 41.740844355479055], [-70.65903228083013, 41.74129579939294], [-70.66016277576995, 41.74123436140755], [-70.66184298688944, 41.74082242929488], [-70.66275873126479, 41.740061579702825], [-70.66395155305004, 41.73827855956849], [-70.66407357997207, 41.73770939361523], [-70.66434847305327, 41.73768777584634], [-70.66498915802391, 41.73819163126372], [-70.66645552486852, 41.73990861960925], [-70.66651610657351, 41.74059223650415], [-70.66633307866934, 41.74114463873111], [-70.66532433622423, 41.74269943248898], [-70.66535424874647, 41.74296920699878], [-70.66569025579, 41.74290132580179], [-70.66712644227667, 41.74143913232552], [-70.66773744947392, 41.741457105139546], [-70.66776739478232, 41.74175389099328], [-70.66694303924517, 41.743288099057196], [-70.6660572296869, 41.74434633117342], [-70.665690119833, 41.7445225956031], [-70.66517063916604, 41.74434096117245], [-70.66477374369877, 41.74441008260629], [-70.66529293050233, 41.74498788977884], [-70.66538383831784, 41.7453914820384], [-70.66605619537941, 41.7459220118347], [-70.66642317133737, 41.745871800252985], [-70.66645387561844, 41.74487202574724], [-70.66660678110871, 41.7445270561005], [-70.6674005584148, 41.74395717302339], [-70.6701194608159, 41.74274629315186], [-70.67057726989353, 41.74301918340278], [-70.6710971696991, 41.742966131317914], [-70.67146360533654, 41.743564182513964], [-70.6727461785585, 41.74388808081011], [-70.67338779260061, 41.744184804392454], [-70.67381609946479, 41.744620100694874], [-70.67534207257208, 41.74530026441315], [-70.67628859606258, 41.745466370978505], [-70.67708367003962, 41.7452565872151], [-70.67763355600752, 41.74585200416246], [-70.67790814037194, 41.74585680023587], [-70.67815263773986, 41.745717878562736], [-70.67861055822127, 41.744963727291434], [-70.67864141578276, 41.74452163226696], [-70.67711429130102, 41.74384206728072], [-70.67674814353171, 41.7433340759718], [-70.67622840221455, 41.74328754908896], [-70.67522051613689, 41.743977495654406], [-70.67460924886477, 41.74397756914289], [-70.6734793792938, 41.74329126674187], [-70.67262387879326, 41.74317813316822], [-70.67237945392601, 41.74299233941436], [-70.67225746019872, 41.74194024429721], [-70.67241113020926, 41.740344289466876], [-70.67201380314033, 41.73937685551594], [-70.67109844544515, 41.73866957823824], [-70.67012083804107, 41.73821563810981], [-70.66572271001034, 41.73756842047568], [-70.66575377074905, 41.73711732575707], [-70.66599752792196, 41.73686193634894], [-70.66654811950397, 41.73672753197582], [-70.66706660238748, 41.735972744109134], [-70.6670669623996, 41.7355129833253], [-70.66615133981686, 41.73480566344737], [-70.66398274817841, 41.73414373016794], [-70.66334219612604, 41.73420711780452], [-70.66205877320103, 41.73473960529078], [-70.6612648468044, 41.735354469435656], [-70.66083628257292, 41.73652294983364], [-70.66068361448893, 41.73750663072577], [-70.66046968283986, 41.737663185464314], [-70.65998021770669, 41.73766126415881], [-70.65933905665936, 41.7374539440555], [-70.65866745665117, 41.73690537108342], [-70.65763039490147, 41.73547057912296], [-70.65628629708206, 41.734390846862475], [-70.65552372185488, 41.73331203608834], [-70.65460752502688, 41.73263162975037], [-70.65304987858502, 41.73194307001044], [-70.6455079623096, 41.72961097175179], [-70.64434844037193, 41.72910535796548], [-70.64413383935658, 41.72869406484386], [-70.64425721918529, 41.72825998835066], [-70.64703607193303, 41.7274091440694], [-70.64728064123192, 41.72718024957668], [-70.6473112773184, 41.72665768670994], [-70.6467308845525, 41.726242532956434], [-70.645449405691, 41.725900900906936], [-70.64456353134277, 41.72532812437048], [-70.64322034191969, 41.724969120888986], [-70.64248837650226, 41.72409697876882], [-70.64251912394593, 41.72370891440829], [-70.64538941902583, 41.723730496160435], [-70.64630569360686, 41.72405082074234], [-70.64789293152533, 41.72528893779772], [-70.6481358354402, 41.72633915377217], [-70.6491121619779, 41.727117980912155], [-70.6505788219525, 41.72754705337972], [-70.6517997702273, 41.72752970643804], [-70.65216631584158, 41.72713682530904], [-70.65210591816967, 41.72648021247443], [-70.6514040194758, 41.7256528096807], [-70.65152607209066, 41.725173133273806], [-70.6554960706662, 41.72528706177897], [-70.65540485827255, 41.72576584550868], [-70.65738842452787, 41.72650254672832], [-70.65793884652268, 41.726404198994516], [-70.65796971208411, 41.725971675066326], [-70.65754233354266, 41.72528421351582], [-70.65604624588418, 41.72466649235544], [-70.65467220507468, 41.724506608061276], [-70.654336467014, 41.72427676502117], [-70.65339075452651, 41.72285836703604], [-70.65201661265426, 41.722058606096255], [-70.6511316213362, 41.721305808107765], [-70.65149871000662, 41.72064337742858], [-70.65149834581713, 41.72004855091527], [-70.65049179144458, 41.719063552412884], [-70.64927103733697, 41.71828853726562], [-70.64924077311922, 41.71748695880622], [-70.65076745524865, 41.71691535170286], [-70.6512869504032, 41.71552079891237], [-70.65272334345124, 41.71385169850005], [-70.65263199550763, 41.71334904800975], [-70.65284572527807, 41.71297641189968], [-70.65776294148793, 41.70746477809974], [-70.65987123891679, 41.70564130232778], [-70.6614285548289, 41.70373607105842], [-70.66289362382203, 41.70227358505403], [-70.6645430000066, 41.70095255765701], [-70.66634466484044, 41.69877330845832], [-70.66887910744225, 41.69609741567307], [-70.67040493065028, 41.69493128352691], [-70.67116794000114, 41.694541795363875], [-70.67428252423855, 41.69150534922866], [-70.67519822124468, 41.69143827034356], [-70.6754112549754, 41.69220965087507], [-70.67489207453713, 41.693199134416325], [-70.67098487943741, 41.69635475601623], [-70.66203838592352, 41.70527686120598], [-70.65751773676539, 41.71014332735426], [-70.65360829922746, 41.713920184085225], [-70.65308867512961, 41.71501761558282], [-70.65311926333081, 41.71565656120051], [-70.65354638218335, 41.71592985655339], [-70.65464558050205, 41.71615693311294], [-70.65531689570155, 41.716111269066836], [-70.65666083967884, 41.71503794542665], [-70.65831006119123, 41.71476146242835], [-70.6605085275654, 41.715153048574074], [-70.6629810794262, 41.71583754764773], [-70.6663396905935, 41.71746376919504], [-70.66838482613585, 41.71888446739936], [-70.66890343023155, 41.71998448398699], [-70.67067340596184, 41.72172389612762], [-70.67088768143891, 41.72298206845336], [-70.67116231096377, 41.72341006674706], [-70.67348262319197, 41.724718436498925], [-70.67436770827827, 41.72563312981489], [-70.6752530417052, 41.726268696038446], [-70.67739131621009, 41.72743554229128], [-70.67897905685835, 41.72789832417631], [-70.67955906733519, 41.7282142659565], [-70.67995630226508, 41.72892900035148], [-70.68004741902614, 41.729819356729806], [-70.6797728748124, 41.73002165584515], [-70.67827618755419, 41.72998047613398], [-70.67827598943674, 41.72979139227917], [-70.6787647759182, 41.72931545973538], [-70.67861214286117, 41.728741484030444], [-70.67827611699109, 41.72846725344681], [-70.67800143187807, 41.72853448839661], [-70.6773908930822, 41.72921887939758], [-70.67708563213826, 41.72926844615493], [-70.67696333920036, 41.72858551479445], [-70.67598594175692, 41.72759983107365], [-70.67403210975337, 41.727304301228905], [-70.67378689703102, 41.727416196716085], [-70.67387868659097, 41.728189512503455], [-70.67534425501631, 41.727960969851914], [-70.67574165453333, 41.72851364979703], [-70.67571111381326, 41.728901160349], [-70.67516147674627, 41.72940477640853], [-70.67470304439796, 41.73020392963768], [-70.67488669301164, 41.73064251387362], [-70.67604677954785, 41.73057156742868], [-70.67623039835071, 41.73121723951675], [-70.6769633681495, 41.73144088513194], [-70.67772673091179, 41.73210537505387], [-70.6788561139659, 41.73246692917908], [-70.67952816128876, 41.73237610693968], [-70.67974237529023, 41.732192507103676], [-70.67995554021618, 41.731622293384966], [-70.68108568736857, 41.73013690141555], [-70.68145204325843, 41.73018568079898], [-70.68157486506715, 41.73039140290057], [-70.68187960773201, 41.73146787324852], [-70.68227690773054, 41.73174084476635], [-70.682551914783, 41.731737191939935], [-70.68239881578691, 41.73043333798738], [-70.68081144751135, 41.72876295602095], [-70.68044492021562, 41.72796684764875], [-70.68035296539162, 41.72734660323354], [-70.6807805936884, 41.72686290626846], [-70.68539167491332, 41.72764162737973], [-70.68682756851997, 41.729061567258036], [-70.68801842761626, 41.729521387169555], [-70.68829322589698, 41.72997691871936], [-70.6900641737528, 41.73113977960514], [-70.69238570212812, 41.73148322380093], [-70.69266079951954, 41.73165062150329], [-70.69360729730435, 41.731627503057794], [-70.69366811430845, 41.73139214387853], [-70.69226361791536, 41.73020605349637], [-70.69052265172195, 41.72961068654459], [-70.68847593937528, 41.72830799489049], [-70.68835399674019, 41.72812029444731], [-70.68847652026658, 41.72784823661007], [-70.68963637863337, 41.727849181863526], [-70.6896670325849, 41.727623739434286], [-70.68939182871515, 41.727348286566425], [-70.68786494534123, 41.72640718862979], [-70.68697923192565, 41.72608685578449], [-70.68646037947683, 41.72615799464372], [-70.68600229901755, 41.726795124253016], [-70.68563620034875, 41.72684540433292], [-70.6854218831018, 41.72668630264655], [-70.68575784400589, 41.72602410402599], [-70.68569756121668, 41.72565563772062], [-70.68423148878303, 41.72469522917208], [-70.68423207884135, 41.72444312362662], [-70.68530074352753, 41.72458076980896], [-70.68752924026234, 41.72409697708669], [-70.68872097620424, 41.72421464779494], [-70.68981914586155, 41.72409922665822], [-70.68994194256207, 41.72478214696713], [-70.69043001374209, 41.725153090758134], [-70.69152986595721, 41.72567750555768], [-70.6937587887574, 41.72739167364548], [-70.6955611758973, 41.72805833111956], [-70.69794283801603, 41.72830248176481], [-70.69940977658003, 41.728766940230514], [-70.70093560289052, 41.728969554261965], [-70.70582175169244, 41.72883322860947], [-70.70658603545839, 41.72926342831196], [-70.70771613640368, 41.73036358260689], [-70.70771607589832, 41.73082278085094], [-70.7069526054303, 41.73096040280154], [-70.70615896625725, 41.73153055911511], [-70.7061587994438, 41.731755655367415], [-70.70695301389371, 41.732077451477686], [-70.70750289033137, 41.73205089173426], [-70.70875453947788, 41.73150079201491], [-70.70967139181221, 41.73150490851253], [-70.71238918363241, 41.73170719426077], [-70.71474085102912, 41.73232951069161], [-70.71412949380978, 41.732437841563666], [-70.71022064300182, 41.73189307315057], [-70.70902917132447, 41.73207332185381], [-70.70851089723806, 41.733035950873536], [-70.70848100198562, 41.734296850935586], [-70.7074735473562, 41.73487059480288], [-70.70707622677857, 41.7352549962955], [-70.70695441760691, 41.735626121438095], [-70.70747468713816, 41.73747385357475], [-70.70726072451046, 41.738368814450794], [-70.70680348743784, 41.73873591569385], [-70.70506221410241, 41.739464344291015], [-70.70234392023143, 41.7416844935596], [-70.70072545678418, 41.740934263658644], [-70.69977859980841, 41.740795369489184], [-70.69925989765972, 41.73994704507369], [-70.69877060512152, 41.7398102333169], [-70.69788447584654, 41.739922734270884], [-70.69739618286995, 41.74015508363842], [-70.69721314940037, 41.74031079907182], [-70.69718219730949, 41.7407709054035], [-70.69684648687091, 41.74102796325035], [-70.69498272998636, 41.741713169237556], [-70.69498233264645, 41.74189380726341], [-70.69593015108865, 41.741897126754054], [-70.69675481631823, 41.74141673551094], [-70.69751839675511, 41.74125217001814], [-70.69941152173595, 41.74136791366291], [-70.70026684954402, 41.741706504870606], [-70.70109242325816, 41.742352138893736], [-70.70090955107769, 41.743426258991015], [-70.70142777318014, 41.74362572871009], [-70.70234456163638, 41.743468395139985], [-70.70353535270198, 41.74230678543912], [-70.70417732084465, 41.74189146668193], [-70.7045135115934, 41.74189550372148], [-70.70494138732047, 41.74301497456782], [-70.70487989332278, 41.74388060732298], [-70.70561308940312, 41.74477035636837], [-70.70552207251674, 41.74523117099966], [-70.70491190014886, 41.74598774189668], [-70.70228492584079, 41.74779266124857], [-70.69895596480958, 41.74779743378847], [-70.6989561826327, 41.74813958346472], [-70.69947488061348, 41.74884328343293], [-70.70179713309142, 41.751168518130186], [-70.7035389023206, 41.75262864943149], [-70.70589162504467, 41.75503448361956], [-70.70665475960553, 41.754644755662376], [-70.70760206071525, 41.75443244252618], [-70.70876283137244, 41.75455024646154], [-70.71044324320833, 41.755461732554494], [-70.71187965694173, 41.75653920289666], [-70.71188015563283, 41.757016412131314], [-70.71163535194987, 41.75733491872038], [-70.71050593742656, 41.757685563742285], [-70.71038343699287, 41.75786760605015], [-70.71117799331684, 41.7583418756206], [-70.71096405412615, 41.75926385468151], [-70.71010925521429, 41.75937554391382], [-70.70992564075411, 41.75957629521865], [-70.71007921984447, 41.760132787333845], [-70.71108700143958, 41.76065805700279], [-70.71114830186508, 41.76083687092148], [-70.71072144283853, 41.76141072544051], [-70.71017118982276, 41.76184247454556], [-70.70965171700243, 41.76200319261255], [-70.7078800229039, 41.76198469709131], [-70.70720692197517, 41.76213870830512], [-70.70677957506771, 41.76241541671053], [-70.70635240462266, 41.76349403334212], [-70.7059554502074, 41.763652774452204], [-70.70525226934417, 41.763564585146774], [-70.70396925079889, 41.76262878959243], [-70.70314399433586, 41.76232589172612], [-70.70198237835818, 41.762144998333284], [-70.69975246442273, 41.76129537025046], [-70.69886528994945, 41.76131783454564], [-70.69678898014872, 41.76182600263973], [-70.69639111173957, 41.76244446552249], [-70.69593267405864, 41.762649445831194], [-70.69400850682369, 41.76196618365292], [-70.69293862475058, 41.76217132625134], [-70.69186930889539, 41.763429919190145], [-70.68893662812187, 41.763770922236546], [-70.68872271735853, 41.76416106889739], [-70.69006629327974, 41.76415937401887], [-70.69193111677306, 41.764455676703605], [-70.69238879742996, 41.764134219017905], [-70.69333613607834, 41.76262489939704], [-70.69370191789672, 41.76255602043336], [-70.69449722329793, 41.76308499814368], [-70.69471114484529, 41.7634061488626], [-70.6970633789757, 41.7637041236471], [-70.69755245129238, 41.763543811286254], [-70.69810233785296, 41.76249085119428], [-70.69846866841903, 41.76246754304217], [-70.70308357334599, 41.76379479121249], [-70.70396905315415, 41.76379028977369], [-70.7042745976141, 41.76427244408806], [-70.70464170517268, 41.76451923806844], [-70.70598576609727, 41.76475089706496], [-70.7073303119839, 41.76388463236637], [-70.70775789764423, 41.763013667155825], [-70.7082464586286, 41.76261920456533], [-70.71227891098387, 41.762252113564706], [-70.71331829559263, 41.7613448393067], [-70.71371476567046, 41.76042918079376], [-70.7141422280002, 41.76001738925702], [-70.71447807183361, 41.76005740933904], [-70.71524207409425, 41.76097375493723], [-70.7160066370295, 41.760836082731736], [-70.71603725769013, 41.761709106789844], [-70.71674002696201, 41.762320577036654], [-70.7178096361603, 41.76289854666779], [-70.71808573094722, 41.763768190391495], [-70.71875827215705, 41.764703579804575], [-70.71909408622122, 41.76493266720401], [-70.72111176022027, 41.76549684116137], [-70.72101940329686, 41.76490364246036], [-70.71958261336542, 41.7632140241685], [-70.71496690470107, 41.75932977668497], [-70.71264343580812, 41.75768066209984], [-70.71252163140632, 41.7575019934624], [-70.71264389235644, 41.756698679393665], [-70.7124295103709, 41.756287520726744], [-70.70949546887526, 41.75340452408664], [-70.7084875325531, 41.75178020118971], [-70.70885418888606, 41.75102754745361], [-70.70827222245995, 41.74923454353984], [-70.70912800735348, 41.7484560253418], [-70.71089942107112, 41.74813235442908], [-70.71068528931366, 41.747856252104505], [-70.70885227062249, 41.747451302226814], [-70.70824122032884, 41.74703737903706], [-70.70811929324825, 41.74650755283144], [-70.70824078161661, 41.74616343592931], [-70.70927967767109, 41.745643363202205], [-70.71062349000731, 41.745803500213015], [-70.71160150125053, 41.74625709247127], [-70.71383126649457, 41.74779078582507], [-70.71505392835739, 41.748060894149205], [-70.71707021906153, 41.74881421593757], [-70.71725454077134, 41.749072656155036], [-70.71722364510063, 41.74947818117412], [-70.71652127356286, 41.75010137254574], [-70.71587995595019, 41.750279850625226], [-70.7142208000285, 41.749783332154124], [-70.71395485091585, 41.750113515260466], [-70.71429151891562, 41.75038764290598], [-70.71566661951105, 41.750456771142886], [-70.71594122563396, 41.75061454149308], [-70.71612459096932, 41.75159385012167], [-70.71725547309754, 41.75236920799948], [-70.7178657555376, 41.75248651147258], [-70.71792753730436, 41.75287241423111], [-70.71838588929576, 41.75315411786034], [-70.71890525455935, 41.7530558242151], [-70.71957735881281, 41.75349599369994], [-70.7204023653198, 41.75433956643282], [-70.72159482511037, 41.75509616865183], [-70.72266439822185, 41.75634994633656], [-70.72300032119378, 41.75644396516786], [-70.72352009718125, 41.75628262606033], [-70.72351965678024, 41.756102545624984], [-70.72189919529582, 41.75447923188482], [-70.72144054834375, 41.753603284846236], [-70.72144075879045, 41.75321611967413], [-70.7216244813087, 41.753032795877424], [-70.72422119889507, 41.75223734901293], [-70.7243123758254, 41.75193859121671], [-70.7235791879339, 41.75139111239257], [-70.72305916891078, 41.75139038014251], [-70.72180680005523, 41.75182358322718], [-70.72030952709076, 41.75138678516542], [-70.71896546930279, 41.751388831561286], [-70.71838496315254, 41.7510190669152], [-70.71746864647024, 41.75097901067049], [-70.71743736284073, 41.750772269253495], [-70.71768209194818, 41.750516777128425], [-70.7190261806948, 41.74986534150454], [-70.71899528118664, 41.74959613876524], [-70.71661141313295, 41.74792924355487], [-70.71661081258311, 41.74748804923992], [-70.71774188421978, 41.74683122446768], [-70.7176793891229, 41.745706435601264], [-70.71841245730451, 41.744749741738204], [-70.7184119855858, 41.74454264924732], [-70.71660971699482, 41.74445260801973], [-70.71615119304155, 41.74394579840885], [-70.71370814292122, 41.74442417124783], [-70.71312730089619, 41.74378426016482], [-70.71266895608409, 41.74369217906052], [-70.71184525951065, 41.74449739424787], [-70.71047057777488, 41.744769806861775], [-70.7096458246897, 41.74474607854805], [-70.70940105070288, 41.74342587255616], [-70.7085755484297, 41.742645241604635], [-70.7103778372788, 41.742303223869605], [-70.71309624788823, 41.741181359678365], [-70.71450042437445, 41.74076393173487], [-70.71553922057946, 41.73996524439048], [-70.71553898623068, 41.73973958291006], [-70.7152330653162, 41.73962717757572], [-70.71504973148079, 41.73926069393575], [-70.71529351101805, 41.738590459051274], [-70.71593520442677, 41.738157627829175], [-70.71666786535411, 41.737903245544885], [-70.71721667236498, 41.7373544059531], [-70.72134037227352, 41.73623862205225], [-70.7217054364414, 41.73593611130111], [-70.72158367433971, 41.73504614583051], [-70.72201108540735, 41.735021492382934], [-70.72256075427276, 41.735229521992416], [-70.72408805854249, 41.73607110959294], [-70.72564771042202, 41.73747057395046], [-70.72711334336917, 41.73733140407022], [-70.72833525541614, 41.73740271785409], [-70.72897621527862, 41.736897777861316], [-70.72998375948876, 41.73680161347396], [-70.73059434157855, 41.73700832766114], [-70.73169398596004, 41.736938093776224], [-70.73270235884371, 41.73721050685144], [-70.73270163026524, 41.736958393601284], [-70.73123507006987, 41.736458354177415], [-70.72649929311056, 41.73344037418394], [-70.726620487802, 41.73202421232704], [-70.7264054047892, 41.730739698803724], [-70.72594736681246, 41.73000839735209], [-70.72273937269334, 41.72882279221902], [-70.7223430510018, 41.72854940687906], [-70.72194553261618, 41.72772677513531], [-70.72224982608684, 41.726488006592646], [-70.72169957088775, 41.725532648593266], [-70.72148598386113, 41.72475178966274], [-70.72078320602957, 41.723924814798316], [-70.72099638173351, 41.72344456578133], [-70.72249265383286, 41.72316948334267], [-70.72518084017433, 41.72507468538792], [-70.72698387329743, 41.72685789167952], [-70.72851200532176, 41.728023566295995], [-70.72915262592646, 41.728410569910146], [-70.72958062353399, 41.7284579233364], [-70.73083240062694, 41.728249730722716], [-70.73092390853951, 41.72863582719587], [-70.73122968898116, 41.728820220626204], [-70.73251248824192, 41.72859364850004], [-70.73287870349482, 41.72875030772333], [-70.7333062372976, 41.72927484915756], [-70.73400921990601, 41.72957051812073], [-70.73416280334415, 41.730514143872874], [-70.73462096540628, 41.730804222841954], [-70.73553736313193, 41.73103378752554], [-70.7365768654291, 41.73208971230612], [-70.73786006978129, 41.73293510514081], [-70.73862386965655, 41.73386930112786], [-70.73847266684355, 41.73542989779812], [-70.7381375791508, 41.73609225415012], [-70.73746530841794, 41.736111389547595], [-70.73771043085083, 41.73656716313032], [-70.73746704390345, 41.73801177938695], [-70.73755992197236, 41.73970400224984], [-70.73771375974609, 41.73984571747588], [-70.73807924951618, 41.7397232347759], [-70.73807760241704, 41.737939896004164], [-70.73819987909806, 41.737577745795924], [-70.73969466725143, 41.73574419475532], [-70.74021236721603, 41.73409712952471], [-70.74021192128058, 41.73325020066059], [-70.74045580079961, 41.73295807664484], [-70.7406996051147, 41.73213472368901], [-70.74103493004722, 41.73185952772044], [-70.7421652866347, 41.731788272599104], [-70.74378360754417, 41.732285803007876], [-70.74393690855493, 41.73247252562592], [-70.74384548029046, 41.73283432389071], [-70.74290027067495, 41.733731805725824], [-70.7417401235291, 41.73450629668462], [-70.74137404650133, 41.73506097236501], [-70.7413444514743, 41.735908263674666], [-70.74201703991366, 41.73684351675303], [-70.74299558379057, 41.73763955192323], [-70.7440034540341, 41.738308593694036], [-70.74595835887041, 41.73891806034463], [-70.74657044267332, 41.739449399863254], [-70.74617386553939, 41.73978835920002], [-70.74547129586794, 41.73995252871835], [-70.7454407334919, 41.74025001622163], [-70.74647983974073, 41.74079262581684], [-70.74605283952974, 41.74179879425151], [-70.74544286004594, 41.74264618147446], [-70.74516829895873, 41.74276760229631], [-70.74467958764146, 41.742603418154665], [-70.74440428841592, 41.7423106548456], [-70.744312106428, 41.741528395883755], [-70.74406769133819, 41.74132474973047], [-70.74360911621409, 41.741440443258675], [-70.74345712525842, 41.74171236310251], [-70.74351754190147, 41.74209880483485], [-70.74409932455161, 41.74281059610517], [-70.74416030129726, 41.74340412986653], [-70.74382597058417, 41.74473391854156], [-70.7426659575818, 41.745417819462894], [-70.74251380497948, 41.74598742705321], [-70.74352348470353, 41.74765647480423], [-70.74355526016838, 41.749034275728576], [-70.74432151405331, 41.751562692301114], [-70.74417002311934, 41.75360049718454], [-70.74270455716022, 41.75496497674241], [-70.74258351139217, 41.75538116291161], [-70.74273611708612, 41.7556309089955], [-70.74270580458165, 41.75606401792804], [-70.74142245595274, 41.756704881748036], [-70.74017117690019, 41.756985228223414], [-70.73971330530794, 41.75769460322926], [-70.73977468277224, 41.758126072450615], [-70.7407535012442, 41.75958784855857], [-70.74072334243463, 41.76022804665918], [-70.74051057477159, 41.760897415443466], [-70.74011302683806, 41.76146200711477], [-70.74014471383158, 41.76176778676552], [-70.74182512870107, 41.76285888238972], [-70.74265158202262, 41.76377376856054], [-70.74317083980606, 41.76391058886811], [-70.74317031212573, 41.7632257300011], [-70.741121698628, 41.761491803266836], [-70.74102987053514, 41.761186748729195], [-70.74176228438913, 41.76036552251371], [-70.74185363346565, 41.75957154048438], [-70.74163919348098, 41.75861063998883], [-70.74282912509666, 41.75748463281134], [-70.74359265694515, 41.75713968067206], [-70.74484399157186, 41.75593190037144], [-70.74527049378032, 41.754214428676256], [-70.74609339628739, 41.75233694774598], [-70.7463062949374, 41.75075761796939], [-70.74615358827134, 41.750579906785724], [-70.74618277131628, 41.74896672211477], [-70.74651768839816, 41.748349360639175], [-70.74645581278277, 41.747224595150975], [-70.74654693625777, 41.746952831450656], [-70.74788949571916, 41.74576137911403], [-70.74795007195773, 41.74479667870505], [-70.74852949973751, 41.74402223291755], [-70.74874127505787, 41.74230727073535], [-70.74843558953323, 41.74175376783371], [-70.748892939061, 41.74107080410845], [-70.74895368352722, 41.74031375560205], [-70.7492884923036, 41.739443714921094], [-70.74931778799068, 41.73838933173924], [-70.74950071394572, 41.73807146338964], [-70.74983013959836, 41.73804212047748], [-70.75150939142121, 41.739097054197735], [-70.75266786360798, 41.74138488746646], [-70.7530640998669, 41.74174764093302], [-70.75465249260729, 41.74240801292443], [-70.7557209640966, 41.742616461815516], [-70.75695263980695, 41.74247312740354], [-70.75645575204122, 41.741911645946296], [-70.75651704276797, 41.74140670525833], [-70.75556991172327, 41.74092612785086], [-70.75334204554527, 41.738844034050956], [-70.75132678953881, 41.73749654475301], [-70.74986191965796, 41.73687126618192], [-70.74885845917147, 41.736910233615916], [-70.74827914763125, 41.737297515842805], [-70.7479426616045, 41.73732061747053], [-70.7456195876369, 41.73528444855339], [-70.74558878006556, 41.73480760273275], [-70.74650450821373, 41.73443325288036], [-70.74686976606228, 41.73327473443226], [-70.74662456792994, 41.73262989935639], [-70.7446075905887, 41.73080507267217], [-70.74457611048808, 41.73048128760306], [-70.7435975743403, 41.729406708318685], [-70.74115378544798, 41.72833587008191], [-70.7410323045471, 41.728950136837945], [-70.74112474903232, 41.72970538933621], [-70.74085018244509, 41.729862814904195], [-70.73920124993616, 41.730050456921845], [-70.73764298580487, 41.729091814675265], [-70.7368483356807, 41.728356615293315], [-70.73535078496064, 41.72735276594584], [-70.73480114581744, 41.727081770954136], [-70.73339633812014, 41.72680558135878], [-70.7332736788388, 41.726510441363104], [-70.7325711326541, 41.72596266208658], [-70.73250992529177, 41.72571126655544], [-70.73128840315401, 41.72465801366644], [-70.73046331013768, 41.724652439840966], [-70.72930373058439, 41.72497605151141], [-70.72887437549424, 41.72274018287144], [-70.72869088874279, 41.72216606823679], [-70.7282012451311, 41.72166022098206], [-70.72807841148047, 41.72104037157037], [-70.72642988757185, 41.719813658256705], [-70.72575758158574, 41.71873368693796], [-70.72502277279195, 41.71692565975158], [-70.72474805716992, 41.71663228855755], [-70.72316068789347, 41.71619715934375], [-70.72270161009752, 41.715717382488876], [-70.72190680041231, 41.71382001111238], [-70.72138757445393, 41.71322445529488], [-70.71986026269755, 41.712400271888676], [-70.7179977732958, 41.71168969064281], [-70.71485257818246, 41.71082786417662], [-70.71479097885855, 41.71043183068727], [-70.71445523044534, 41.70997763118683], [-70.7126847815431, 41.708328941040214], [-70.71234871028882, 41.70741553414855], [-70.71234782190116, 41.70684771974726], [-70.7137818689137, 41.70467362691453], [-70.71396373946051, 41.70286059799939], [-70.71445262670632, 41.70242953537256], [-70.71481786806656, 41.70179390459364], [-70.71777953779731, 41.701785035696886], [-70.71903134521042, 41.70233386584116], [-70.7209860308939, 41.70352958501942], [-70.72193164572398, 41.7038213640918], [-70.72327497374586, 41.70361163239638], [-70.72406876840924, 41.70391530054111], [-70.725870819394, 41.70507669233202], [-70.7292292886614, 41.7059267167768], [-70.7298398496025, 41.70642212398171], [-70.73063379118086, 41.70656311429283], [-70.73063318718883, 41.706238970546956], [-70.73041937698409, 41.70597191064759], [-70.72831263262744, 41.70466165038447], [-70.72770151174208, 41.70412177430049], [-70.72760867912456, 41.70242053592737], [-70.72684511812979, 41.701945461294294], [-70.72489012896172, 41.70011956900249], [-70.7243705424338, 41.697920768898605], [-70.72311742277397, 41.696525622645076], [-70.72116354501553, 41.69496978857634], [-70.72064430950512, 41.69478840694615], [-70.71902674479105, 41.694812770440365], [-70.71643169011465, 41.69287034909081], [-70.71560799359067, 41.69192770636761], [-70.71566785495473, 41.691332173546996], [-70.71707164456207, 41.690671613118745], [-70.71801692372297, 41.68968487083784], [-70.71820015288684, 41.68915940200685], [-70.71813820776535, 41.687809517605984], [-70.7176497708247, 41.68698793135694], [-70.71664207575681, 41.68584144265375], [-70.71740450220584, 41.68442463620582], [-70.71731234448409, 41.68401151128544], [-70.71606066765052, 41.68323756289963], [-70.71578566699061, 41.68289070595858], [-70.71511373874992, 41.681153384894515], [-70.71517429784055, 41.68083697794148], [-70.71633372075769, 41.68040546699982], [-70.7171579646908, 41.68092436347487], [-70.71801336881929, 41.68113677282687], [-70.71828764175034, 41.680745299870544], [-70.71798188291427, 41.68048883860657], [-70.71712734837396, 41.680267431041244], [-70.71679185202231, 41.67980423499488], [-70.7167912720212, 41.678687184907275], [-70.7161803703257, 41.678065647976055], [-70.71581347367189, 41.67713459254629], [-70.71584419506272, 41.67655742925844], [-70.71752217589479, 41.67664945489563], [-70.71941424535518, 41.677404711200836], [-70.71984167448876, 41.67783926728069], [-70.72051458496917, 41.68039648373186], [-70.72130819624543, 41.68106032781836], [-70.72286522983286, 41.68197305106855], [-70.72500214029263, 41.68412998973178], [-70.72921692483325, 41.687741040576185], [-70.72985789676785, 41.68812804570711], [-70.73333724705049, 41.68881332668408], [-70.73422336319999, 41.68929537362486], [-70.73550511066863, 41.689654580713686], [-70.73865060659374, 41.69212866320239], [-70.7401767096867, 41.692654897869225], [-70.74042071905878, 41.69287599627564], [-70.74063545374575, 41.693791885232], [-70.7415214562632, 41.69489514085444], [-70.74155247610975, 41.69525493971949], [-70.7411866182404, 41.6958732052215], [-70.74081999169569, 41.6959866848807], [-70.74051421942457, 41.695370130354945], [-70.73996493741687, 41.694964102656826], [-70.73718605840651, 41.693430044670116], [-70.73593401721747, 41.692494245682376], [-70.73437684935494, 41.6911483918617], [-70.73382670798946, 41.690319145864585], [-70.73330771173684, 41.68986770718438], [-70.73156795289279, 41.689200939484955], [-70.73138386362002, 41.68933869360287], [-70.73126367182442, 41.69112402682509], [-70.73144822483609, 41.69169758266981], [-70.73205787233103, 41.692102933959646], [-70.73239391978836, 41.692566087410334], [-70.73315732319696, 41.69286048399149], [-70.73376730249606, 41.69342789802887], [-70.73404305611024, 41.6941624450717], [-70.73526492911273, 41.6956748729727], [-70.7356015428186, 41.696408136747586], [-70.73575485336457, 41.697432794641564], [-70.73703819969195, 41.69871038925652], [-70.73859561362435, 41.69967748104801], [-70.73994028031343, 41.70145854375205], [-70.74388105219874, 41.70472224597816], [-70.74489020308894, 41.7061931992839], [-70.74580617193662, 41.706305067746484], [-70.74586633309974, 41.7059796389946], [-70.74507167970387, 41.70491135217345], [-70.74485679234785, 41.70349125494377], [-70.74406198600076, 41.702503431743935], [-70.7441831860385, 41.70142996270676], [-70.74500714798776, 41.70115631170904], [-70.74549586872214, 41.7012929224653], [-70.74656465875336, 41.70232137887931], [-70.74949681097542, 41.70405992666119], [-70.7523322018759, 41.70618774186403], [-70.75391702342546, 41.709072059985075], [-70.75446612681169, 41.709640087071215], [-70.75583894212936, 41.71051062673342], [-70.75629721223817, 41.71106173142634], [-70.7562966196905, 41.71162897037895], [-70.75592942848206, 41.711995166062806], [-70.75464792933339, 41.7121139616307], [-70.75421995774028, 41.712426293484555], [-70.75394341591786, 41.71387185122243], [-70.75489056762, 41.713848229530555], [-70.75522592919276, 41.71410422032056], [-70.75531629384872, 41.71476040465911], [-70.75498024276982, 41.71620613816709], [-70.75613993005618, 41.71625142550566], [-70.75610903455454, 41.71726021791694], [-70.75723750718885, 41.71837731107933], [-70.75735855723485, 41.72009558545636], [-70.75659364077359, 41.7212335195792], [-70.75653195746295, 41.7220806043034], [-70.7566843361271, 41.722492962731316], [-70.75702039440638, 41.722451262559524], [-70.75735655230328, 41.72114058183768], [-70.75799905927566, 41.72066250246001], [-70.75848803185426, 41.720501368053995], [-70.76031887767667, 41.721167182617975], [-70.76083829581121, 41.72114973476118], [-70.75894671750356, 41.719567391565306], [-70.75848952094583, 41.7188356654587], [-70.75717909420484, 41.71469547986054], [-70.75708814482884, 41.71357109295075], [-70.75760786288318, 41.7131670592594], [-70.75757767950574, 41.712888305711765], [-70.75712000402227, 41.71252629115891], [-70.7571202911359, 41.712291630105085], [-70.75751679939935, 41.71213271046643], [-70.7582494505878, 41.71213017131677], [-70.76014227715329, 41.712659648335574], [-70.76163901656459, 41.71233960064482], [-70.76240257172346, 41.7119044877314], [-70.76282973243585, 41.711951711331565], [-70.76298240114465, 41.712291469695266], [-70.76237149656545, 41.712661172386575], [-70.762766815719, 41.71398786174036], [-70.76340834989175, 41.714464153968514], [-70.76389663153027, 41.71435757804928], [-70.76441599625632, 41.713899488159896], [-70.76499567388376, 41.714106381757325], [-70.76481205905979, 41.71554130944201], [-70.76554390939151, 41.71623257670978], [-70.765758366193, 41.71606682626131], [-70.76569763146128, 41.71481602557567], [-70.76633947919197, 41.71422084562683], [-70.76630941684328, 41.7130777263444], [-70.76600419064795, 41.71243423468798], [-70.7660359680263, 41.71133484497734], [-70.76508962868408, 41.710377145121086], [-70.7651206916168, 41.709781966313884], [-70.76472377002786, 41.7093922376328], [-70.7642359167554, 41.70845381056183], [-70.76411518852909, 41.707492432077515], [-70.76304748701284, 41.7064191308125], [-70.76277331652625, 41.705432559264196], [-70.76249907688737, 41.70518486498346], [-70.76155280821, 41.70504592280534], [-70.7610651275753, 41.70385593753879], [-70.75990543067134, 41.70360361024255], [-70.75947830899894, 41.70316920984582], [-70.7578609537054, 41.70230218358309], [-70.75700711961507, 41.70145081312081], [-70.75725143203968, 41.700862092493104], [-70.75709917978408, 41.700378266990526], [-70.75691635050629, 41.70003830332599], [-70.75597082547296, 41.6992786155911], [-70.75566598529898, 41.69884218613761], [-70.75536211589102, 41.69777492937555], [-70.75475192586856, 41.69710915159964], [-70.7547824359075, 41.69664959184339], [-70.75539355280256, 41.69617188553648], [-70.75637075646935, 41.69491379586856], [-70.75646267014172, 41.69443494101169], [-70.75615842119745, 41.693449281208316], [-70.75628085522195, 41.69326719056326], [-70.7572270361478, 41.69317151421528], [-70.75750178551871, 41.69285198206034], [-70.75756301518216, 41.692509109497465], [-70.75731944460387, 41.69203538034009], [-70.75686243935485, 41.69170938339297], [-70.75649576708656, 41.69166984733187], [-70.75579329195867, 41.69221223981288], [-70.75478690010607, 41.69182242692637], [-70.75374954737595, 41.69120786823946], [-70.75280449208151, 41.690358117409865], [-70.75277487948712, 41.689583590818614], [-70.75295841988886, 41.688878555483065], [-70.75323318671906, 41.68862206073543], [-70.75509505012143, 41.688620758590424], [-70.75527771134908, 41.688762076780414], [-70.75521597010831, 41.689744218905545], [-70.75567387274289, 41.68992672948481], [-70.75588697506484, 41.689742981359274], [-70.75598036737678, 41.688120646391916], [-70.75457829044736, 41.6861790164431], [-70.75421212977628, 41.68590537575519], [-70.75393738451659, 41.68585574162006], [-70.75341802128258, 41.6865838988711], [-70.75305138835905, 41.686607941537616], [-70.75299128391629, 41.68596939820524], [-70.75277785229146, 41.68582843692816], [-70.75158789940913, 41.68573845602066], [-70.75155684062945, 41.6854416869571], [-70.75210730114686, 41.68462314113613], [-70.75213846867597, 41.68388390369001], [-70.75162076045982, 41.682514163290726], [-70.74950409528034, 41.68070338707757], [-70.74825278588702, 41.679902785795555], [-70.74724370589071, 41.67848644568729], [-70.74443425322056, 41.675583769767314], [-70.74443410555004, 41.67515158291876], [-70.74470800439681, 41.67448992885084], [-70.74449257128387, 41.67293476762774], [-70.74461469342397, 41.67263563709479], [-70.74482829483564, 41.672407456490696], [-70.74519425561472, 41.672338417013975], [-70.74574377967038, 41.67251932552925], [-70.74711737531106, 41.67324592035828], [-70.7481860601471, 41.67402225601291], [-70.7516853085439, 41.67821749338672], [-70.75247871410265, 41.67876350375788], [-70.75412640941964, 41.678999414344915], [-70.75708598541675, 41.68016058037294], [-70.7585497502135, 41.680435180012076], [-70.75940439000911, 41.680206083300256], [-70.75967921848793, 41.67967945803506], [-70.75998430358871, 41.67952162434124], [-70.76108250810786, 41.67940608456076], [-70.76236554965121, 41.67865639819959], [-70.76300631349588, 41.67856601029219], [-70.7636171872268, 41.67861048313943], [-70.76462271231739, 41.67922530975016], [-70.76483685251503, 41.67897852496356], [-70.7651116474081, 41.678956665163604], [-70.76614838441732, 41.679453504207444], [-70.7666368627431, 41.6794369579852], [-70.76657629514945, 41.678844001596985], [-70.76624117471655, 41.678497443445245], [-70.7648981772365, 41.67814944126125], [-70.76413565390065, 41.67828688528312], [-70.76322062792269, 41.67799509088577], [-70.76322034359976, 41.6777266616312], [-70.76403898419571, 41.67778373239972], [-70.76831104494953, 41.676872073379535], [-70.77135095361723, 41.676727826111346], [-70.79112692107495, 41.674103783995605], [-70.79901603454311, 41.68175189460243], [-70.80842394175096, 41.69148012589495], [-70.7960559605721, 41.72835877516278], [-70.7951280313202, 41.728631027235636], [-70.79416796265092, 41.7299587699414], [-70.79407199019607, 41.73023110313017], [-70.79423195765355, 41.730439182528166], [-70.79253597480226, 41.73173477376918], [-70.7920559168286, 41.73258321351946], [-70.7923439780075, 41.73307908851162], [-70.79301602992741, 41.733142913376874], [-70.79298405241472, 41.73335092806545], [-70.79323993706316, 41.73346281330409], [-70.79333595909651, 41.73381512077449], [-70.79132091668352, 41.74378276430138], [-70.78546401632737, 41.745831115277355], [-70.78687301529733, 41.749255206440054], [-70.78703294669289, 41.75746318426094], [-70.779512984522, 41.762903133833355], [-70.77877700608136, 41.761734733346714], [-70.77829701070097, 41.76279076767122], [-70.77420105951168, 41.76968699586121], [-70.77432904293399, 41.77069511334785], [-70.77530497695743, 41.77266303176197], [-70.77530500261503, 41.77699893222754], [-70.77568900869535, 41.777542728201], [-70.77626498973478, 41.78010290834324], [-70.77693694327814, 41.787270831265275], [-70.77733698362451, 41.78821482941931], [-70.7780409366341, 41.789015002510176], [-70.77820093659244, 41.78951122536273], [-70.77845690870194, 41.79232709848473], [-70.77767294195901, 41.79482293982459], [-70.77778504331103, 41.7966789967379], [-70.77586504521955, 41.79827905907033], [-70.77448901245413, 41.800247207193], [-70.7728889367488, 41.80213512687599], [-70.77173701820803, 41.80567077124279], [-70.77173700377209, 41.80895096974629], [-70.83106594705174, 41.802054122446876], [-70.86833109075887, 41.79755776166823], [-70.8742189919643, 41.79706183250046], [-70.89604299005381, 41.79429387019028], [-70.89876391553726, 41.814822063875084], [-70.89375592957666, 41.827141864700955], [-70.91570800334306, 41.849286184065875], [-70.91858808565017, 41.85255009535115], [-70.91830000399449, 41.85347825472784], [-70.91708407314441, 41.85549393286425], [-70.91657206593175, 41.85715811813881], [-70.91660393054077, 41.85768612056233], [-70.917292078026, 41.858533730119845], [-70.9172279901175, 41.85885415808095], [-70.91657204114789, 41.859526080065294], [-70.91602807688635, 41.85984574070931], [-70.91429990602816, 41.85983012973317], [-70.9139960672893, 41.860373853697084], [-70.91362795694083, 41.86066176776179], [-70.91325997758777, 41.86070995890826], [-70.91300401508545, 41.86114194344432], [-70.91311596241239, 41.86194215672978], [-70.91378804487029, 41.8619579916795], [-70.91449191498991, 41.8624061613285], [-70.91476394621509, 41.86295002722805], [-70.9148760880376, 41.86381382786815], [-70.91538798095097, 41.86424581350595], [-70.91573991784537, 41.86410186943755], [-70.91586801763206, 41.86429385294951], [-70.91524401064984, 41.86504583834287], [-70.91525994049529, 41.86523781036397], [-70.91604398959915, 41.865670061817866], [-70.91581995992179, 41.866005989387254], [-70.91519598951314, 41.86619805998566], [-70.91513205662541, 41.866438017324214], [-70.9163480773267, 41.86709419477423], [-70.91660391635384, 41.86747815827433], [-70.91516402827394, 41.86838972299945], [-70.9142680560236, 41.869381719354685], [-70.91359606139122, 41.86979806342835], [-70.91321206786786, 41.870374011505696], [-70.91321205975242, 41.8708860941917], [-70.914219927007, 41.87167008801969], [-70.9147480170615, 41.87237395680528], [-70.91618791326728, 41.87272572168052], [-70.91631598686673, 41.87290194795224], [-70.91606003518045, 41.873637812286994], [-70.91599598191219, 41.874630136707744], [-70.91607607777227, 41.87531820011882], [-70.9165080091742, 41.87651789426356], [-70.91590007441917, 41.87755808196419], [-70.9154520184906, 41.87782983644954], [-70.93871907109045, 41.886726857650686], [-70.95204406777678, 41.89162485364794], [-70.96050105626799, 41.894451750367274], [-70.96239094277426, 41.895898991245616], [-70.9627980565307, 41.89594086116487], [-70.96308595153185, 41.89616505461421], [-70.96329398047948, 41.89666123075817], [-70.96316607200846, 41.89698081985293], [-70.96323005636692, 41.897476881362046], [-70.96426999794892, 41.89819698940774], [-70.96474995624018, 41.899589170825216], [-70.96723006539148, 41.901508970337275], [-70.96772605583803, 41.90166884660431], [-70.97009402328139, 41.90160501920387], [-70.97212590761578, 41.90198920607805], [-70.97399795333129, 41.90173280292597], [-70.97446204563023, 41.90149296866436], [-70.97577394476436, 41.901636867267385], [-70.97641392912924, 41.90150925197236], [-70.97686198670661, 41.90184500127629], [-70.97761406295194, 41.90283715102382], [-70.97790194731911, 41.90298083701004], [-70.97796604321236, 41.90331707633868], [-70.97865406409629, 41.90413279346773], [-70.97946999909985, 41.904068989340004], [-70.97993401404155, 41.90386120781114], [-70.98031795036533, 41.904004762393065], [-70.980989996738, 41.90482095524212], [-70.98118199776053, 41.90531702479991], [-70.98223792204075, 41.90573316898948], [-70.98284592939429, 41.90627726465424], [-70.9836780615904, 41.90630916674346], [-70.9837580498007, 41.90675689371384], [-70.98422205844996, 41.906852965504534], [-70.98468595283305, 41.90768507731119], [-70.98511801632972, 41.9077967575012], [-70.98742197501393, 41.90611726478122], [-70.9818059266624, 41.88922088276589], [-70.98092608986155, 41.88640495031784], [-70.98094206394659, 41.886084832606066], [-70.97970998033489, 41.88318906853848], [-70.97753394860712, 41.87675674691282], [-70.97746997076274, 41.875973140432684], [-70.97686206873917, 41.8739889995422], [-70.97708601616465, 41.8737649357394], [-70.97678204076153, 41.87355702227661], [-70.97404600838223, 41.862533027798015], [-70.97362893662014, 41.861397211591076], [-70.9739329887898, 41.86078918153734], [-70.97627006394424, 41.85907686594583], [-70.97774207948741, 41.857716751917295], [-70.97884607899073, 41.85712474780073], [-70.98364599181004, 41.85523724315454], [-70.99634992818905, 41.8463731440108], [-70.99948607825266, 41.84403194058639], [-71.0058529773559, 41.83974978478914], [-71.00798900426314, 41.83796504956652], [-71.0239499791371, 41.825741739072726], [-71.03241908570818, 41.81932625986612], [-71.03664602502174, 41.816327870318716], [-71.03748499364445, 41.81624405423049], [-71.05530698612719, 41.816999228733586], [-71.08397994096613, 41.817784970254124], [-71.08890799931105, 41.817594073792456], [-71.09188406636665, 41.814535108419655], [-71.0931199473775, 41.812971215158115], [-71.0931649952824, 41.81248293190431], [-71.09293706883038, 41.811276764526596], [-71.0915169837622, 41.80945408806521], [-71.09128895648173, 41.808828084812596], [-71.08974701870027, 41.80918719153591], [-71.08921297359228, 41.80910311085923], [-71.08863398255447, 41.80887424549729], [-71.08773296846837, 41.80793518111635], [-71.08719802067544, 41.80662660053304], [-71.08736799176211, 41.806511294750166], [-71.08749009992405, 41.80600472242717], [-71.08828373043877, 41.805134806638634], [-71.08914012888104, 41.80470459896493], [-71.09143286421828, 41.80438364565456], [-71.09464290735644, 41.80424373249718], [-71.0951936297283, 41.80444995814719], [-71.09543845115844, 41.80483291662975], [-71.09525575589653, 41.80609783367622], [-71.09589787818008, 41.8061850828932], [-71.09678441614781, 41.80520458107795], [-71.09815863808423, 41.804584810202115], [-71.09763834640722, 41.80348678934432], [-71.09769964901018, 41.8030081278605], [-71.09809689758072, 41.80259536447076], [-71.09638362668183, 41.80085162030215], [-71.09623056086187, 41.80035025405636], [-71.09641343893172, 41.800121310375246], [-71.09751454475806, 41.79971385247034], [-71.09797258049869, 41.7993181858399], [-71.09800305609717, 41.79886755156956], [-71.09867517794123, 41.79817945784806], [-71.0987053220161, 41.79733210193023], [-71.10160764337047, 41.79474756354481], [-71.1023406873802, 41.79383288358178], [-71.10350074649305, 41.790902320300525], [-71.10377549516815, 41.790491361921084], [-71.10478355124549, 41.78980665068404], [-71.1054557103943, 41.78865933471319], [-71.11012993069782, 41.785546113357476], [-71.11144229149136, 41.783603571045774], [-71.11187095058874, 41.78330735088656], [-71.11287860848628, 41.78302716554447], [-71.11434648382354, 41.78335176953522], [-71.11465388799328, 41.78579671840391], [-71.11535847574314, 41.788152971466694], [-71.11566534086431, 41.7898860697641], [-71.11606298570062, 41.790437190852685], [-71.11719496900692, 41.79110107309343], [-71.11854104489785, 41.79290517552837], [-71.11860289195099, 41.79359753219766], [-71.11805361357045, 41.794535440827026], [-71.11646440508227, 41.79542933625488], [-71.11631241096829, 41.7964771782585], [-71.11600762189654, 41.79714072810786], [-71.11579533823041, 41.799613181515525], [-71.11591856933704, 41.80075479946316], [-71.11570501446951, 41.80128135134253], [-71.11533878066734, 41.801278990652314], [-71.11506322237135, 41.801049594845715], [-71.11423701961567, 41.79991178908732], [-71.11393068965478, 41.79995351897072], [-71.11374775153446, 41.800389572496684], [-71.11377866941712, 41.800686232413355], [-71.11549221531166, 41.80215004105171], [-71.11640995232584, 41.803520550082865], [-71.11723900519965, 41.80695594713846], [-71.1172395679625, 41.807865309306294], [-71.116995971732, 41.80825727179902], [-71.11644560233637, 41.808600933371466], [-71.11522233019643, 41.80905599324264], [-71.11412285329031, 41.81027451144017], [-71.1134505241315, 41.81075505017573], [-71.11131067233686, 41.811488318410305], [-71.11051723314866, 41.81304322787598], [-71.10889713223993, 41.81373039395492], [-71.10819401456277, 41.81437398590894], [-71.10746128153173, 41.81539674688985], [-71.1078284232308, 41.816335506729295], [-71.10834945246427, 41.81677678422006], [-71.10834965178331, 41.817479625804374], [-71.10813631141673, 41.818258263996526], [-71.10847297193548, 41.81862125129439], [-71.10981831329899, 41.81878567617143], [-71.1102472570224, 41.81912927862672], [-71.1116538199066, 41.81887803893694], [-71.11354962090473, 41.81901446887095], [-71.11477381132366, 41.81981148749167], [-71.11462237317266, 41.82265216204043], [-71.11477542116543, 41.823127054253796], [-71.11550998735555, 41.82369900855311], [-71.116825957033, 41.8243590096826], [-71.11707143952536, 41.82548077725068], [-71.11649141399532, 41.82644671052663], [-71.11404620263674, 41.82779799837462], [-71.11389320047029, 41.82827804535352], [-71.11392464725589, 41.829142493326906], [-71.11331397081689, 41.82972115377834], [-71.1108668808467, 41.83042354858914], [-71.10973606191932, 41.83100322763499], [-71.10894055040997, 41.83168421034014], [-71.1077185719311, 41.83365291839917], [-71.10726068481617, 41.83384154271984], [-71.1072608756569, 41.83454382086103], [-71.10661902133643, 41.83509645305861], [-71.10668159633036, 41.836266568544545], [-71.10686489974545, 41.83665041438397], [-71.10735436503244, 41.83701955807507], [-71.10772193464958, 41.83818396965585], [-71.10882455006171, 41.83965027130431], [-71.10965121766473, 41.840472989410955], [-71.11026406059615, 41.8416866255147], [-71.11038704132048, 41.84234261673258], [-71.11032699446889, 41.84422640459348], [-71.11048051360913, 41.84456568749164], [-71.1114286177824, 41.845481093136584], [-71.11256236979256, 41.84712190700709], [-71.11253231652931, 41.84760912192075], [-71.11213574188127, 41.84849912537835], [-71.11146342280836, 41.84918729699859], [-71.110638378623, 41.850418532626236], [-71.10944533242613, 41.85126922867971], [-71.1076712343784, 41.85193221743993], [-71.1068157336842, 41.85271426894177], [-71.10696896867661, 41.85355775396821], [-71.10779490831243, 41.854218417895396], [-71.1080406821591, 41.85467337883604], [-71.10801071252158, 41.855385681332535], [-71.10678878814379, 41.85763348800438], [-71.10669763560112, 41.85849976486079], [-71.10645284444799, 41.8591347959877], [-71.10584103932787, 41.859686401964574], [-71.10386484612106, 41.860393651470744], [-71.10379172759046, 41.860561651302376], [-71.10431354907699, 41.8635976557298], [-71.10434537744159, 41.86511036087523], [-71.1037053559493, 41.86822111352882], [-71.10220737417366, 41.87087869780702], [-71.10107572307001, 41.87158433876286], [-71.09801546413159, 41.87209074075771], [-71.09382279071666, 41.87239270721452], [-71.09314926578332, 41.87263903082176], [-71.09269047512419, 41.87312471089613], [-71.09250713247853, 41.87380382366359], [-71.09342637257689, 41.87511148995573], [-71.09471145646746, 41.875105931878636], [-71.09394575090796, 41.873921495637084], [-71.09397598682528, 41.873488870609734], [-71.09431307251151, 41.87316763014251], [-71.0959349300138, 41.87282280880553], [-71.0986581984198, 41.872844798364596], [-71.10028077676617, 41.87267998864146], [-71.10223882138476, 41.8720228192965], [-71.10324835009386, 41.871220517040726], [-71.10346273982036, 41.870856056259704], [-71.10364472667129, 41.86970873755007], [-71.10474630554516, 41.86865239184951], [-71.10480736692601, 41.86833579135921], [-71.10517070526997, 41.86376212592105], [-71.1048024998229, 41.861408676093504], [-71.10495517897454, 41.86112615595544], [-71.1059954599232, 41.86076510949901], [-71.10660721829625, 41.8603750035769], [-71.10743218095094, 41.85925183947708], [-71.10788970290947, 41.85746902315654], [-71.10871433826614, 41.85586809810722], [-71.10892725105285, 41.8548103489826], [-71.10941714851037, 41.854242553027184], [-71.10926367733693, 41.85383124078964], [-71.10849848052678, 41.85351180525788], [-71.1083760245093, 41.8528923912143], [-71.11128139651989, 41.851361595965116], [-71.11286952582331, 41.848314231580666], [-71.11305238422199, 41.84658166921346], [-71.11256151439709, 41.845590175543045], [-71.11188770936086, 41.84504429576892], [-71.11164320609109, 41.844382265474756], [-71.11158058824631, 41.84341923517705], [-71.11222263433667, 41.84268706759266], [-71.11222202236067, 41.84241639628453], [-71.11142684958877, 41.841386160008604], [-71.11130351137781, 41.840694717197415], [-71.10977346713521, 41.83937159791976], [-71.10912938562024, 41.83841051408007], [-71.10870053474265, 41.8372650294764], [-71.10866788287699, 41.835320149444264], [-71.10882109764844, 41.83502918490856], [-71.10885024613924, 41.83365005254653], [-71.1095529038446, 41.83228560771476], [-71.11053095881358, 41.831529276774106], [-71.11138716926551, 41.83122495112147], [-71.11303811296372, 41.83104149006954], [-71.11502680949744, 41.82999592984621], [-71.11524020821194, 41.829668020206555], [-71.11530072747335, 41.828459496905666], [-71.11569778844236, 41.82786660087888], [-71.11725589745583, 41.82683755730944], [-71.1175006078429, 41.82649117870035], [-71.11804966080665, 41.824318659900925], [-71.11804897393768, 41.82367940498002], [-71.11761985817611, 41.82303871419863], [-71.11737471912745, 41.82207901286816], [-71.1168234959111, 41.82138670142345], [-71.11679071311005, 41.81889147949317], [-71.11590257212794, 41.81750250534665], [-71.11562632848761, 41.81621969216518], [-71.11483106274078, 41.815810722636776], [-71.11486089942673, 41.81526048057053], [-71.11522762507363, 41.81475808186655], [-71.11528863704386, 41.81437000903308], [-71.11568584135912, 41.81395718461781], [-71.1159902583284, 41.812744417252354], [-71.1177322874452, 41.81196471030323], [-71.11904571484548, 41.81008454791569], [-71.11931910428886, 41.80807035064956], [-71.1198376906227, 41.80643005577019], [-71.12078326686037, 41.80469214041412], [-71.12081387982614, 41.80415990635018], [-71.12075136494784, 41.80265666535272], [-71.12038347504033, 41.8020780870272], [-71.12035241694602, 41.801736410720395], [-71.12056600640109, 41.800660069970014], [-71.11980009754124, 41.79992654069286], [-71.11961582663965, 41.79892090244124], [-71.12025795696465, 41.79855783614034], [-71.12059416426585, 41.79801086336999], [-71.12047129302795, 41.79730142316121], [-71.12059325033064, 41.796614744183785], [-71.1217850140497, 41.79638573745775], [-71.1217531241856, 41.79542224958617], [-71.12196673637773, 41.79471561521512], [-71.12300461565951, 41.793542961315254], [-71.1229728136405, 41.79208427754787], [-71.12378415531464, 41.79100033997761], [-71.1243889130492, 41.79090104442515], [-71.12568894936564, 41.79110114905332], [-71.1312889963117, 41.7907007370027], [-71.13338890907896, 41.79090108767926], [-71.14258908712604, 41.79050095232327], [-71.14909001026815, 41.790500895217434], [-71.15439004530694, 41.79020084011338], [-71.1711899318979, 41.7898009307323], [-71.17232992251841, 41.7957887609962], [-71.17349000234024, 41.80050094505898], [-71.17388990861228, 41.803001136298086], [-71.17659096019165, 41.815801173626845], [-71.19319109169999, 41.81670126051508], [-71.1976620596433, 41.843747962713806], [-71.19908098494264, 41.84845379835638], [-71.20216291814796, 41.869075966793346], [-71.20286604513551, 41.8751000111132], [-71.20268590837789, 41.87510010469079], [-71.20379294758393, 41.88249991142035], [-71.18769194992313, 41.87989999950163], [-71.19189205023028, 41.8968002659451], [-71.19539297642187, 41.90999974873106], [-71.17979197699201, 41.920100037837855], [-71.1770920523582, 41.92149979035], [-71.16389193842984, 41.930200134561304], [-71.16319209079387, 41.930800179777926], [-71.15239201687226, 41.93759976628149], [-71.14286391476755, 41.947945178846965], [-71.12579095828394, 41.965999867227445], [-71.12019099021104, 41.97219996413614], [-71.10179095097418, 41.99480013546444], [-71.08908996184665, 41.992000144295666], [-71.05548901975993, 41.985499997316], [-71.05435401498532, 41.98088017526976], [-71.03378794212766, 41.98720018786508], [-71.02748793519852, 41.98930027019163], [-71.0260880595966, 41.98989996010316], [-71.00258709313707, 41.99800005924247], [-70.99038696348026, 42.00389989436955], [-70.98518697973843, 42.005500044822654], [-70.9823869749555, 42.00610020577901], [-70.97858709143345, 42.007199939449684], [-70.97938693885281, 42.01090007775902], [-70.95368592431603, 42.00570109593095], [-70.94178601034798, 42.00660081556363], [-70.93538605801876, 42.00790079290501], [-70.93148599174967, 42.00780100286276], [-70.92548608208081, 42.00890096171289], [-70.92428595402613, 42.008700788091375]]]]}}