{"type": "Feature", "properties": {"district_name": "Second Essex and Middlesex", "chamber": "senate", "vintage": "2001-2010"}, "geometry": {"type": "Polygon", "coordinates": [[[-71.2558983750014, 42.735902348719335], [-71.24193695601411, 42.68587523229478], [-71.23944397322482, 42.675835182162466], [-71.23877501413959, 42.67199204423191], [-71.2381030311739, 42.66949076212786], [-71.23444795187889, 42.672077831217955], [-71.22963699716509, 42.677824057062466], [-71.22770804595532, 42.6808571573759], [-71.2256540531228, 42.68572296480926], [-71.22532504162662, 42.68785003726789], [-71.2253969239768, 42.69068921934963], [-71.22525105350604, 42.692044800820774], [-71.22483796987615, 42.693459946859946], [-71.22160298845779, 42.69819006835422], [-71.21510291640489, 42.70108975658661], [-71.20990299813963, 42.700490012041826], [-71.20121591065667, 42.698724882036274], [-71.1961539446464, 42.698649240893744], [-71.19525408134398, 42.69848821268414], [-71.18870200126813, 42.696191001734576], [-71.18960294290223, 42.703389959864076], [-71.190403078727, 42.7075898416944], [-71.190693056034, 42.7106760433826], [-71.18746308897008, 42.7123192212869], [-71.18200393761022, 42.715591182166825], [-71.18130296844181, 42.71619013347898], [-71.17860304190019, 42.71789022108599], [-71.17845504266238, 42.717811042714814], [-71.17800299980038, 42.71798982428009], [-71.17810307519846, 42.71818983357464], [-71.17390292973721, 42.72109019914053], [-71.17210303578676, 42.72208995309449], [-71.17060292476064, 42.72338984727727], [-71.1675019305611, 42.72239020005208], [-71.1655019886955, 42.72249020731461], [-71.1491020046674, 42.72208998557943], [-71.13420297117243, 42.72139119110551], [-71.13380200614367, 42.71359084025921], [-71.13510207732347, 42.70879126268847], [-71.1368020763797, 42.707391176856284], [-71.13680193371178, 42.70649097634114], [-71.13860197154993, 42.704490856140985], [-71.1401739468971, 42.70336713103588], [-71.14190191234164, 42.70019084533504], [-71.14320207702498, 42.69989104603986], [-71.14280196377129, 42.69919102904475], [-71.14450200974038, 42.69919120417806], [-71.14570199934997, 42.69859118895396], [-71.1445020817505, 42.69749094737021], [-71.14330203944846, 42.696890867617256], [-71.14320093897747, 42.69619121061883], [-71.14220109352698, 42.69379076712471], [-71.13920096173227, 42.69309110080615], [-71.13930107296787, 42.692591237235646], [-71.13810096157896, 42.692691010739296], [-71.13780104298947, 42.69229116861964], [-71.13820091352054, 42.69139109081248], [-71.13770104249804, 42.689590803740145], [-71.13840099979873, 42.688691101818065], [-71.1393009306182, 42.68869109969629], [-71.13840101823409, 42.68799119212647], [-71.1386010472578, 42.68699090133165], [-71.13930094414471, 42.687591161163525], [-71.13990095500235, 42.68629110884925], [-71.13800105693811, 42.686591245801466], [-71.1395009673143, 42.68529119613416], [-71.13810101721904, 42.68489073158267], [-71.13930098317354, 42.68449107654654], [-71.13350097032672, 42.67939116389204], [-71.13440100600164, 42.67679072301496], [-71.12900091899772, 42.6745910725054], [-71.12430102987678, 42.66829073189215], [-71.12310094184195, 42.667091230527696], [-71.11910008589697, 42.661392142393304], [-71.11670002574532, 42.65749190351877], [-71.10140009425581, 42.638092190315724], [-71.09530602126569, 42.63012090931745], [-71.09339903662627, 42.62729200856198], [-71.0897990071588, 42.62299195486492], [-71.08929891331529, 42.62149186318775], [-71.0797990840772, 42.608192816541035], [-71.07596096172549, 42.60409173433051], [-71.13529006543018, 42.59906123253642], [-71.1415280306832, 42.60338611800103], [-71.14307304562956, 42.604080142290975], [-71.14573899163733, 42.608269912588725], [-71.14656600943744, 42.609996944906165], [-71.14861702092068, 42.61325077169508], [-71.1543360887824, 42.615277223317264], [-71.15596792299011, 42.61504297388152], [-71.15732302353987, 42.61421598235683], [-71.15862204006976, 42.61294319731645], [-71.159246091397, 42.60783794330799], [-71.16070606269766, 42.605215266380206], [-71.16366206138451, 42.60213500729762], [-71.1650170363681, 42.597965259882365], [-71.17535705774449, 42.59226989948746], [-71.18592092111453, 42.57497077409287], [-71.19269998264747, 42.56429309657194], [-71.19364390874267, 42.56501579628308], [-71.19689908317854, 42.566342114362755], [-71.19789796946276, 42.56696927287951], [-71.21061504932915, 42.57279994297552], [-71.21298905017537, 42.574252997952485], [-71.23134208144008, 42.582860077929276], [-71.2512780236275, 42.59210791497111], [-71.25500197938466, 42.59369183946001], [-71.2802030122591, 42.60549219777373], [-71.28660308494895, 42.60819193191173], [-71.29627209295988, 42.612747076731495], [-71.28323101670438, 42.61537110865019], [-71.27766300137544, 42.62090700472341], [-71.27463896704836, 42.62898679308002], [-71.27123104173616, 42.64346681062544], [-71.27150395162012, 42.64859124881098], [-71.27470409259394, 42.65599107713076], [-71.27880405517985, 42.65469088030132], [-71.28200399014312, 42.652691180287725], [-71.28646997968757, 42.649153250945666], [-71.29041601914771, 42.65421909677472], [-71.29944197442465, 42.66666304721422], [-71.30870491840585, 42.66459027117922], [-71.31331293628199, 42.66377017897745], [-71.35789393477776, 42.65433021966263], [-71.35920603289439, 42.655390133054425], [-71.36910593538644, 42.66159013146685], [-71.36650592548288, 42.66659004933076], [-71.36860593642957, 42.66849019927642], [-71.36950604336099, 42.66908985472372], [-71.37110607559029, 42.66596175187351], [-71.37181009417206, 42.66410586181764], [-71.37373100617853, 42.66649014394484], [-71.37701098015822, 42.67759374667809], [-71.37900696675248, 42.68308988983626], [-71.37578595384174, 42.68756777815009], [-71.37491595678287, 42.68853792925224], [-71.37411497032126, 42.68988173084314], [-71.37380706114031, 42.691489935918334], [-71.37410691918838, 42.692190166220506], [-71.37390696776112, 42.693490170450325], [-71.36913013556219, 42.698353236346264], [-71.3222714226798, 42.697196972680445], [-71.29447868704608, 42.697190862531386], [-71.27880141524591, 42.711361961339115], [-71.26787891251556, 42.72612001709268], [-71.2558983750014, 42.735902348719335]]]}}