{"type": "Feature", "properties": {"district_name": "Fifth Middlesex District", "chamber": "senate", "vintage": "2022-present"}, "geometry": {"type": "Polygon", "coordinates": [[[-71.150544, 42.46429500000001], [-71.123862, 42.473392000000004], [-71.112056, 42.47381999999999], [-71.116795, 42.49463900000001], [-71.121765, 42.49872000000001], [-71.11976, 42.500291999999995], [-71.121959, 42.50427799999999], [-71.122395, 42.504153], [-71.123463, 42.506174], [-71.124176, 42.507526], [-71.123798, 42.50763399999999], [-71.123988, 42.50801400000002], [-71.135454, 42.53000099999998], [-71.131295, 42.53182000000002], [-71.136478, 42.552367], [-71.136177, 42.552227000000016], [-71.135596, 42.552279999999996], [-71.134381, 42.552710000000005], [-71.134136, 42.552586000000005], [-71.134332, 42.552571], [-71.134231, 42.552458999999985], [-71.133499, 42.55251399999999], [-71.133014, 42.55297500000001], [-71.132407, 42.552731], [-71.132465, 42.553263], [-71.131974, 42.553416], [-71.131675, 42.552885999999994], [-71.131227, 42.55266699999999], [-71.131024, 42.553008000000005], [-71.131013, 42.5536], [-71.130677, 42.55375900000001], [-71.130708, 42.553934000000005], [-71.130272, 42.55385100000003], [-71.130269, 42.55356099999998], [-71.13011, 42.553500000000014], [-71.12947200000002, 42.55364299999999], [-71.129389, 42.55391500000001], [-71.129739, 42.554136000000014], [-71.129444, 42.55431999999998], [-71.129553, 42.554629], [-71.129242, 42.554735], [-71.128593, 42.554481], [-71.127568, 42.554441000000004], [-71.126926, 42.554154000000025], [-71.127076, 42.554654], [-71.126988, 42.554922999999995], [-71.126346, 42.55557100000001], [-71.126363, 42.555988999999975], [-71.125707, 42.55628500000001], [-71.1263, 42.55655400000003], [-71.12609, 42.556873], [-71.125578, 42.55676799999999], [-71.125298, 42.556967], [-71.124393, 42.55695800000001], [-71.124461, 42.557482], [-71.123946, 42.557741], [-71.123885, 42.558308000000004], [-71.123226, 42.55827500000001], [-71.123163, 42.558514], [-71.122309, 42.55893499999999], [-71.122161, 42.559219], [-71.121798, 42.559208999999996], [-71.121812, 42.55970700000002], [-71.12167800000002, 42.559882], [-71.121156, 42.56010800000001], [-71.120957, 42.560044999999995], [-71.12069, 42.56056199999999], [-71.120109, 42.560230999999995], [-71.11955700000001, 42.560331999999995], [-71.119376, 42.56012400000001], [-71.118673, 42.56046499999999], [-71.118481, 42.56136300000001], [-71.11695, 42.56150999999998], [-71.116724, 42.561581999999994], [-71.116646, 42.561844000000015], [-71.116356, 42.561907], [-71.116215, 42.561786000000005], [-71.115977, 42.561963], [-71.115459, 42.56176800000001], [-71.115432, 42.561600000000006], [-71.11514, 42.56162600000001], [-71.115215, 42.561203], [-71.11448, 42.561177], [-71.11427300000001, 42.56103499999999], [-71.114062, 42.561161000000006], [-71.114199, 42.561299], [-71.113654, 42.56141400000001], [-71.113505, 42.561299], [-71.113595, 42.56114199999998], [-71.113171, 42.56086199999999], [-71.113005, 42.56109299999999], [-71.1126, 42.560896], [-71.11219, 42.56114499999999], [-71.111252, 42.56113], [-71.110162, 42.56143099999999], [-71.109624, 42.561889], [-71.109171, 42.562673], [-71.108605, 42.562974000000004], [-71.108705, 42.563676], [-71.108529, 42.56405899999998], [-71.107078, 42.564955000000005], [-71.10603700000001, 42.565300999999984], [-71.106085, 42.565525], [-71.105636, 42.56587600000001], [-71.105089, 42.565847000000005], [-71.104818, 42.56618999999997], [-71.104985, 42.566393000000005], [-71.104712, 42.56664700000002], [-71.104379, 42.566431], [-71.104189, 42.566489999999995], [-71.103998, 42.56621100000003], [-71.104063, 42.565853], [-71.103846, 42.56558900000001], [-71.103711, 42.564962], [-71.09278100000002, 42.559249999999984], [-71.08989, 42.55822199999999], [-71.070978, 42.55588899999999], [-71.07515, 42.531035], [-71.067567, 42.52468], [-71.067263, 42.52494200000001], [-71.067324, 42.52522099999999], [-71.067122, 42.52536999999999], [-71.066354, 42.52481], [-71.065395, 42.524779], [-71.064241, 42.52440400000001], [-71.063784, 42.52462899999999], [-71.06327600000002, 42.524659000000014], [-71.062026, 42.52427599999997], [-71.061478, 42.525034999999995], [-71.060744, 42.525239], [-71.060069, 42.52430699999999], [-71.059109, 42.524089999999994], [-71.05902, 42.523872000000004], [-71.058447, 42.523610000000005], [-71.058209, 42.523914999999995], [-71.057662, 42.52417899999999], [-71.040983, 42.52626200000001], [-71.040004, 42.525189], [-71.039167, 42.524789], [-71.03869, 42.52425900000001], [-71.038599, 42.523959999999995], [-71.038736, 42.52353800000001], [-71.039287, 42.523205], [-71.040086, 42.52223200000001], [-71.040913, 42.521718], [-71.04108, 42.520123000000005], [-71.040989, 42.51984700000001], [-71.040325, 42.519292999999976], [-71.040127, 42.518809999999995], [-71.040261, 42.51742099999999], [-71.038888, 42.51674100000001], [-71.039036, 42.51648999999999], [-71.038907, 42.516341], [-71.038516, 42.51642300000002], [-71.038296, 42.516242000000005], [-71.038274, 42.515692], [-71.039259, 42.51484100000002], [-71.039467, 42.51445799999999], [-71.038383, 42.51418899999999], [-71.038298, 42.513750000000016], [-71.037496, 42.513287], [-71.036911, 42.512541000000006], [-71.036556, 42.51243500000001], [-71.03667400000002, 42.511557999999994], [-71.036497, 42.510828], [-71.036926, 42.51045899999998], [-71.037048, 42.509999000000015], [-71.036756, 42.50997399999999], [-71.036457, 42.50969300000001], [-71.036529, 42.509508000000004], [-71.036206, 42.50926999999999], [-71.036305, 42.50900200000001], [-71.035717, 42.50862], [-71.035901, 42.50843300000001], [-71.035553, 42.508313], [-71.03563200000002, 42.50756299999998], [-71.034914, 42.50710400000001], [-71.0349, 42.506758], [-71.035404, 42.506377], [-71.035424, 42.50590900000001], [-71.035739, 42.50573599999999], [-71.035841, 42.504843], [-71.036228, 42.50461299999999], [-71.03622, 42.50420100000001], [-71.036962, 42.50353299999999], [-71.037437, 42.50330700000001], [-71.037796, 42.50338999999998], [-71.038033, 42.503165000000024], [-71.038267, 42.503261], [-71.03818, 42.502950999999996], [-71.038622, 42.502727], [-71.039751, 42.50303400000001], [-71.040604, 42.50259799999999], [-71.040982, 42.50275499999999], [-71.04124, 42.502613], [-71.042219, 42.50260599999999], [-71.042229, 42.50234300000001], [-71.042499, 42.50199599999999], [-71.043759, 42.50125199999999], [-71.043833, 42.50088000000001], [-71.043553, 42.50034699999999], [-71.043717, 42.50021600000001], [-71.043671, 42.50005699999999], [-71.043243, 42.499643000000006], [-71.042503, 42.499381], [-71.042317, 42.498799000000005], [-71.042037, 42.498537], [-71.042032, 42.49815300000001], [-71.040938, 42.497731], [-71.041085, 42.497484], [-71.040638, 42.49722100000003], [-71.040324, 42.496846], [-71.040371, 42.49654], [-71.04012, 42.49639199999999], [-71.040143, 42.496189], [-71.039854, 42.496055], [-71.045209, 42.488720000000015], [-71.050252, 42.48653299999999], [-71.052621, 42.48610199999999], [-71.054214, 42.476903], [-71.025864, 42.44474300000001], [-71.020377, 42.43824999999998], [-71.02822700000002, 42.424202], [-71.050472, 42.42288700000001], [-71.054383, 42.420027], [-71.054735, 42.42003799999999], [-71.05685, 42.41867100000002], [-71.060441, 42.416007], [-71.061584, 42.41561000000001], [-71.064559, 42.41533399999999], [-71.064507, 42.41524099999999], [-71.073296, 42.41479600000002], [-71.073196, 42.41299599999999], [-71.073574, 42.41271600000001], [-71.074734, 42.412546999999996], [-71.075332, 42.41297299999998], [-71.07549, 42.41327699999999], [-71.076296, 42.413063], [-71.077132, 42.41328500000001], [-71.07931, 42.414938], [-71.07991, 42.415166000000006], [-71.081068, 42.41509299999999], [-71.082061, 42.41531899999999], [-71.08349, 42.41600700000001], [-71.08588, 42.417913], [-71.089446, 42.42662299999999], [-71.089062, 42.42911500000001], [-71.088031, 42.42902600000001], [-71.085639, 42.44468799999999], [-71.104867, 42.448879], [-71.119402, 42.453445], [-71.121346, 42.448670000000014], [-71.124153, 42.444115999999994], [-71.124005, 42.44382700000001], [-71.124042, 42.443369999999994], [-71.12523000000002, 42.44334099999999], [-71.126546, 42.44391099999999], [-71.125906, 42.444065], [-71.125577, 42.44434200000002], [-71.125513, 42.44467100000003], [-71.126065, 42.44515399999998], [-71.128835, 42.445914], [-71.130161, 42.44649500000003], [-71.134112, 42.447432], [-71.134714, 42.44356], [-71.135841, 42.44247400000001], [-71.136193, 42.442485000000005], [-71.137092, 42.443318999999995], [-71.13826, 42.444064000000004], [-71.144042, 42.446977999999994], [-71.143053, 42.447913000000014], [-71.144189, 42.44876800000001], [-71.145169, 42.449777], [-71.143845, 42.450312999999994], [-71.144865, 42.451463999999994], [-71.146002, 42.451379], [-71.146372, 42.451499], [-71.146474, 42.452178999999994], [-71.145552, 42.453158], [-71.14342600000002, 42.45467500000001], [-71.142131, 42.456006], [-71.141491, 42.45634900000001], [-71.141873, 42.456874], [-71.142429, 42.45720800000001], [-71.144149, 42.457895], [-71.147179, 42.460573], [-71.147958, 42.46052600000001], [-71.1488, 42.460775], [-71.149355, 42.461417999999995], [-71.14971, 42.462213], [-71.14970900000002, 42.463167], [-71.150404, 42.463884000000014], [-71.150544, 42.46429500000001]]]}}