{"type": "Feature", "properties": {"district_name": "Second Hampden & Hampshire District", "chamber": "senate", "vintage": "2012-2020"}, "geometry": {"type": "Polygon", "coordinates": [[[-73.07511699999999, 42.105412], [-73.07480699999999, 42.10618100000001], [-73.072994, 42.10694400000002], [-73.072176, 42.107668000000004], [-73.071867, 42.10816299999997], [-73.07176299999999, 42.108642999999994], [-73.071867, 42.109450999999986], [-73.073002, 42.110645], [-73.072825, 42.111444000000006], [-73.07242, 42.11195000000001], [-73.07137399999999, 42.112756999999995], [-73.069265, 42.113878999999976], [-73.066118, 42.11463599999999], [-73.06335299999999, 42.115849999999995], [-73.06182, 42.117166], [-73.0612, 42.118047000000004], [-73.06106, 42.118576], [-73.06113400000001, 42.119158000000006], [-73.061355, 42.11948199999999], [-73.06355099999999, 42.12174300000001], [-73.06425899999999, 42.12284499999999], [-73.066272, 42.124325], [-73.066727, 42.125156], [-73.067082, 42.126891], [-73.067753, 42.127942999999995], [-73.068319, 42.12960000000002], [-73.06949900000001, 42.131322], [-73.069759, 42.132380999999995], [-73.069823, 42.133503], [-73.06940999999999, 42.13500000000003], [-73.068564, 42.135571000000006], [-73.06850899999999, 42.136064999999995], [-73.068666, 42.136914999999995], [-73.06897, 42.13750100000001], [-73.06895, 42.138572], [-73.070657, 42.140316000000006], [-73.071947, 42.143089], [-73.071949, 42.14367499999999], [-73.070314, 42.14487199999999], [-73.070176, 42.145424], [-73.070121, 42.146049000000005], [-73.070346, 42.14625499999999], [-73.07066499999999, 42.147327999999995], [-73.071199, 42.148214], [-73.034916, 42.143682], [-73.03344500000001, 42.14338400000001], [-72.981906, 42.136693999999984], [-72.895663, 42.12391699999999], [-72.87384, 42.20943099999998], [-72.87218, 42.216438999999994], [-72.864308, 42.23209099999999], [-72.857641, 42.240491], [-72.813416, 42.24500700000001], [-72.81440500000001, 42.25681900000002], [-72.73585899999999, 42.266506], [-72.736524, 42.277586], [-72.736726, 42.284241], [-72.672091, 42.29188699999999], [-72.672169, 42.290962000000015], [-72.672035, 42.290192999999995], [-72.660216, 42.28925399999998], [-72.660488, 42.28862799999999], [-72.656086, 42.289941999999996], [-72.65383299999999, 42.290389999999995], [-72.648652, 42.29176100000001], [-72.646048, 42.290339999999986], [-72.643832, 42.28851900000001], [-72.64207999999999, 42.288174000000005], [-72.640677, 42.284137000000015], [-72.63743699999999, 42.28739], [-72.636196, 42.286113], [-72.634849, 42.28538800000001], [-72.633669, 42.285122], [-72.630232, 42.28492899999999], [-72.629022, 42.28526699999998], [-72.627927, 42.28592299999999], [-72.627382, 42.28649199999999], [-72.624521, 42.28814800000001], [-72.622159, 42.28902599999997], [-72.61823199999999, 42.29018800000001], [-72.614701, 42.29019900000001], [-72.614921, 42.288658000000005], [-72.614449, 42.287506999999984], [-72.613034, 42.28619], [-72.605633, 42.28479000000001], [-72.60133300000001, 42.281290000000006], [-72.598933, 42.26809], [-72.600133, 42.26538999999999], [-72.607918, 42.26017], [-72.61802999999999, 42.24807500000001], [-72.620189, 42.243576], [-72.62393399999999, 42.233691], [-72.62093399999999, 42.22929100000001], [-72.612934, 42.22499100000001], [-72.61023399999999, 42.218491000000014], [-72.607933, 42.216291000000005], [-72.602233, 42.213291000000005], [-72.60073299999999, 42.212790999999974], [-72.596633, 42.21189100000001], [-72.592418, 42.211691], [-72.57220199999999, 42.21380399999998], [-72.572101, 42.213386], [-72.570966, 42.207444999999986], [-72.57087800000001, 42.205980000000004], [-72.571201, 42.203697], [-72.572399, 42.200712], [-72.57360700000001, 42.20146200000001], [-72.57574199999999, 42.201927], [-72.57893299999999, 42.20161599999998], [-72.57844, 42.197575000000015], [-72.577576, 42.194367], [-72.577272, 42.194233999999994], [-72.575217, 42.19444599999999], [-72.576176, 42.192330000000005], [-72.5804, 42.19379999999998], [-72.583469, 42.194448], [-72.583525, 42.193869], [-72.584442, 42.193002], [-72.58493299999999, 42.19289199999998], [-72.585454, 42.19350999999998], [-72.588219, 42.192664000000015], [-72.590981, 42.193315999999996], [-72.591297, 42.19283], [-72.59296499999999, 42.19248900000001], [-72.594974, 42.192871], [-72.59505899999999, 42.19212100000001], [-72.595421, 42.191709], [-72.597433, 42.19179200000001], [-72.598806, 42.19108000000002], [-72.598889, 42.19053799999999], [-72.599614, 42.190912000000004], [-72.601179, 42.18945499999999], [-72.600503, 42.188834999999976], [-72.600861, 42.188410999999995], [-72.601344, 42.18790699999999], [-72.603157, 42.186761000000004], [-72.604432, 42.18430400000001], [-72.604325, 42.183337], [-72.603585, 42.182326999999994], [-72.603156, 42.18200800000001], [-72.601996, 42.181608], [-72.596397, 42.18045000000002], [-72.594128, 42.180253], [-72.590898, 42.18026], [-72.589213, 42.177957999999975], [-72.58712299999999, 42.17451499999998], [-72.587386, 42.17421700000001], [-72.58949299999999, 42.173986000000006], [-72.589569, 42.174385000000015], [-72.591443, 42.17417299999999], [-72.591684, 42.17548000000001], [-72.59573999999999, 42.17524499999999], [-72.59562799999999, 42.17461699999999], [-72.598491, 42.174347999999995], [-72.59822, 42.17211400000001], [-72.59776699999999, 42.17140200000001], [-72.59311199999999, 42.168119999999995], [-72.59663499999999, 42.16693999999999], [-72.599918, 42.165295], [-72.61018299999999, 42.157948], [-72.611181, 42.160635000000006], [-72.611429, 42.162139999999994], [-72.61036899999999, 42.168687], [-72.61009299999999, 42.171527], [-72.610863, 42.171253], [-72.614561, 42.17150499999999], [-72.614662, 42.17506100000001], [-72.62053, 42.17771], [-72.619703, 42.178326999999996], [-72.621858, 42.179258], [-72.624618, 42.180127000000006], [-72.625816, 42.17521299999999], [-72.62790199999999, 42.175380000000004], [-72.628258, 42.173590000000004], [-72.628498, 42.171974000000006], [-72.62861, 42.166227], [-72.628407, 42.16516199999998], [-72.627342, 42.16203200000001], [-72.68483599999999, 42.162992], [-72.68567999999999, 42.153839999999995], [-72.686568, 42.150782], [-72.688063, 42.14914400000001], [-72.689064, 42.146243], [-72.68677, 42.143753], [-72.687192, 42.142315999999994], [-72.686358, 42.13594699999999], [-72.690176, 42.128755999999996], [-72.690906, 42.12251899999999], [-72.691192, 42.121771999999986], [-72.691159, 42.12100199999999], [-72.692495, 42.117013000000014], [-72.693028, 42.112669], [-72.694492, 42.106563], [-72.694861, 42.10590100000001], [-72.69357699999999, 42.105754999999995], [-72.69107, 42.106224999999995], [-72.688142, 42.106336], [-72.68445799999999, 42.10713499999999], [-72.683258, 42.106972], [-72.682884, 42.106713000000006], [-72.682661, 42.106311999999996], [-72.682445, 42.10245799999999], [-72.682251, 42.101537], [-72.681936, 42.10108100000001], [-72.68144199999999, 42.10069500000001], [-72.680178, 42.100963000000014], [-72.678822, 42.10065100000002], [-72.676385, 42.10048999999999], [-72.67595399999999, 42.09991400000002], [-72.675737, 42.098366999999996], [-72.673969, 42.096383999999986], [-72.673219, 42.094886], [-72.672935, 42.09460000000001], [-72.670284, 42.093334999999996], [-72.669462, 42.092563000000006], [-72.66834899999999, 42.091318], [-72.667553, 42.08983499999999], [-72.667168, 42.08905399999999], [-72.666941, 42.08775899999999], [-72.666692, 42.08731799999999], [-72.66470199999999, 42.08536000000001], [-72.663443, 42.08442600000001], [-72.66219099999999, 42.08437300000001], [-72.661827, 42.08453], [-72.661412, 42.085004999999995], [-72.660755, 42.086812], [-72.66128499999999, 42.08847299999999], [-72.661429, 42.089535], [-72.660669, 42.09214499999999], [-72.660186, 42.093433999999995], [-72.659224, 42.095046], [-72.658198, 42.096235], [-72.657364, 42.09679800000001], [-72.654973, 42.09757599999999], [-72.651713, 42.09788599999999], [-72.649057, 42.098955000000004], [-72.64710699999999, 42.099261000000006], [-72.645952, 42.099386999999986], [-72.642482, 42.099322], [-72.638635, 42.098811], [-72.636515, 42.09921299999999], [-72.634755, 42.10017200000001], [-72.633309, 42.100460999999996], [-72.631856, 42.100381], [-72.631007, 42.100121], [-72.629809, 42.098106], [-72.62948899999999, 42.09728599999999], [-72.630234, 42.096264999999995], [-72.63089, 42.09586], [-72.63109, 42.095168], [-72.630685, 42.094255], [-72.62987799999999, 42.093066], [-72.629319, 42.09172399999999], [-72.626808, 42.089884], [-72.62029, 42.087684999999986], [-72.613494, 42.087547], [-72.61048, 42.088494], [-72.609561, 42.08861], [-72.607158, 42.088266], [-72.605718, 42.087877999999996], [-72.602144, 42.086266], [-72.601081, 42.085996], [-72.60043399999999, 42.086439], [-72.600374, 42.08732499999998], [-72.600681, 42.08827899999998], [-72.60053599999999, 42.08899299999999], [-72.59947000000001, 42.089766], [-72.598427, 42.089933], [-72.598373, 42.09015599999999], [-72.598573, 42.09035500000001], [-72.599778, 42.09049700000002], [-72.599503, 42.091943], [-72.598346, 42.093402000000005], [-72.597578, 42.093751], [-72.596412, 42.093872000000005], [-72.593971, 42.09346299999999], [-72.59172199999999, 42.092443], [-72.590994, 42.09230500000001], [-72.58948099999999, 42.09261599999999], [-72.588531, 42.09324399999999], [-72.585732, 42.08989599999999], [-72.58411199999999, 42.08699699999999], [-72.58269299999999, 42.081557999999994], [-72.58253500000001, 42.080686], [-72.58267099999999, 42.079518], [-72.583437, 42.07830199999999], [-72.584115, 42.077563999999995], [-72.586455, 42.075683000000005], [-72.588681, 42.073383], [-72.59003299999999, 42.071470999999974], [-72.592494, 42.068856999999994], [-72.596482, 42.063384], [-72.600173, 42.057670999999985], [-72.60500499999999, 42.05102199999999], [-72.606207, 42.04828199999999], [-72.607619, 42.04432699999998], [-72.60755499999999, 42.042612000000005], [-72.608254, 42.038315], [-72.608111, 42.03584000000001], [-72.608173, 42.033229999999975], [-72.607933, 42.030795], [-72.610833, 42.03099499999998], [-72.618134, 42.03109500000001], [-72.64165, 42.032295999999995], [-72.678434, 42.035594999999994], [-72.696388, 42.036801000000004], [-72.714137, 42.03689499999999], [-72.714337, 42.03659499999999], [-72.715637, 42.03649499999999], [-72.718937, 42.03659499999999], [-72.755994, 42.036185999999994], [-72.756008, 42.035116000000016], [-72.75679099999999, 42.03417900000001], [-72.757175, 42.03334499999999], [-72.75511999999999, 42.032732], [-72.75370199999999, 42.032062999999994], [-72.75204, 42.03064400000001], [-72.75176499999999, 42.029792], [-72.75253300000001, 42.02824300000002], [-72.753776, 42.02720300000001], [-72.75452899999999, 42.025717], [-72.755703, 42.02478600000001], [-72.755965, 42.023958999999984], [-72.756671, 42.022757000000006], [-72.75642599999999, 42.021927999999996], [-72.757071, 42.02112200000001], [-72.75805199999999, 42.020865999999984], [-72.758934, 42.02096299999999], [-72.75910999999999, 42.021077999999996], [-72.759202, 42.02168400000001], [-72.759585, 42.02225500000001], [-72.76098000000002, 42.022753000000016], [-72.761555, 42.022594], [-72.762337, 42.02187900000003], [-72.763542, 42.021148000000004], [-72.76366399999999, 42.021159999999995], [-72.76393999999999, 42.021937000000015], [-72.765036, 42.022452], [-72.76522, 42.022281], [-72.765159, 42.021829], [-72.764622, 42.02167999999999], [-72.76444599999999, 42.021371], [-72.764608, 42.02070799999999], [-72.765275, 42.020400000000016], [-72.765569, 42.01989999999999], [-72.76553799999999, 42.01964700000001], [-72.76529099999999, 42.01961000000001], [-72.764439, 42.02005100000002], [-72.762807, 42.01974200000001], [-72.762309, 42.018117999999994], [-72.761933, 42.01770599999999], [-72.760998, 42.017294], [-72.76009499999999, 42.01748800000001], [-72.75988, 42.01739099999999], [-72.75971899999999, 42.017029999999984], [-72.75985899999999, 42.01656799999999], [-72.76079399999999, 42.01541899999999], [-72.760978, 42.014813000000004], [-72.76155399999999, 42.014281], [-72.762689, 42.013693], [-72.76321899999999, 42.01271599999999], [-72.76307299999999, 42.01207600000001], [-72.76241499999999, 42.011343], [-72.76194799999999, 42.010217], [-72.761366, 42.00988000000001], [-72.761473, 42.00930800000001], [-72.76177299999999, 42.008981999999996], [-72.76255499999999, 42.00860000000001], [-72.765238, 42.008326000000004], [-72.76613900000001, 42.00787299999998], [-72.766738, 42.002995], [-72.816741, 41.997595], [-72.813541, 42.036494000000005], [-72.84714199999999, 42.036894000000004], [-72.86184899999999, 42.037694], [-72.87477, 42.037651999999994], [-72.94005299999999, 42.038181], [-72.944321, 42.03870399999999], [-72.96628199999999, 42.03838], [-72.999549, 42.03865299999998], [-73.030063, 42.03919699999997], [-73.052037, 42.03972199999998], [-73.053254, 42.039860999999995], [-73.054819, 42.042716], [-73.054929, 42.044971999999994], [-73.056618, 42.04693799999999], [-73.056786, 42.048016999999994], [-73.055735, 42.04948900000002], [-73.05487099999999, 42.050256999999995], [-73.054592, 42.05102900000001], [-73.054405, 42.051666999999995], [-73.054346, 42.052912000000006], [-73.053405, 42.054998999999995], [-73.053737, 42.05758099999999], [-73.053867, 42.057933999999996], [-73.05429000000001, 42.058095], [-73.05469, 42.058536], [-73.057178, 42.059289], [-73.05838299999999, 42.060159000000006], [-73.05919399999999, 42.060326], [-73.060087, 42.060787999999995], [-73.06088, 42.06134900000001], [-73.06129299999999, 42.06199599999999], [-73.061455, 42.062704999999994], [-73.061219, 42.063012], [-73.060976, 42.064074999999995], [-73.060343, 42.064947], [-73.05937, 42.06528199999999], [-73.05864799999999, 42.065891], [-73.058339, 42.066326999999994], [-73.05825, 42.066992000000006], [-73.05868, 42.06764800000002], [-73.060243, 42.06875699999999], [-73.061329, 42.070263000000025], [-73.06187899999999, 42.07044], [-73.062863, 42.072829000000006], [-73.073082, 42.09418499999999], [-73.074167, 42.10186699999999], [-73.07511699999999, 42.105412]]]}}