{"type": "Feature", "properties": {"district_name": "Suffolk and Middlesex District", "chamber": "senate", "vintage": "2022-present"}, "geometry": {"type": "Polygon", "coordinates": [[[-71.217038, 42.366589], [-71.194177, 42.386030999999996], [-71.195531, 42.38739999999999], [-71.195406, 42.387721000000006], [-71.194876, 42.38817], [-71.196817, 42.389736], [-71.196724, 42.390655], [-71.196973, 42.39083799999999], [-71.197028, 42.39197299999999], [-71.197964, 42.39267799999999], [-71.197654, 42.39316699999999], [-71.19633, 42.394031000000005], [-71.196284, 42.394361], [-71.196627, 42.39522899999998], [-71.197454, 42.395813000000004], [-71.19818800000002, 42.396066999999995], [-71.199429, 42.39732], [-71.199591, 42.39775699999999], [-71.199552, 42.39821400000001], [-71.20008, 42.398627000000005], [-71.200236, 42.39930400000001], [-71.200621, 42.399457999999996], [-71.201613, 42.400566000000005], [-71.201799, 42.401374000000004], [-71.20157400000001, 42.401695000000004], [-71.201849, 42.40207100000002], [-71.201702, 42.402425000000015], [-71.202543, 42.40322599999999], [-71.202628, 42.40370200000002], [-71.211261, 42.406074], [-71.202642, 42.41482900000001], [-71.194257, 42.41339], [-71.195355, 42.41526499999999], [-71.194492, 42.41499000000001], [-71.194291, 42.415321000000006], [-71.183899, 42.411424000000004], [-71.182147, 42.410978], [-71.177151, 42.41010699999999], [-71.171576, 42.40846499999999], [-71.166864, 42.40670199999999], [-71.163842, 42.405776], [-71.164178, 42.40553299999999], [-71.164055, 42.40530599999999], [-71.16267, 42.40453099999999], [-71.160625, 42.403976], [-71.159805, 42.403569], [-71.159922, 42.403462000000005], [-71.158083, 42.402561000000006], [-71.157358, 42.40242800000001], [-71.156321, 42.402533999999996], [-71.153193, 42.40110299999999], [-71.152245, 42.400816], [-71.156362, 42.395852], [-71.153169, 42.39564300000001], [-71.150115, 42.39493300000001], [-71.145248, 42.392878], [-71.141121, 42.392092000000005], [-71.141699, 42.390658], [-71.143097, 42.38903], [-71.143436, 42.38871199999999], [-71.144134, 42.388679999999994], [-71.143683, 42.38825], [-71.14164, 42.387051], [-71.141637, 42.387190000000004], [-71.141017, 42.386907], [-71.140993, 42.387097], [-71.140809, 42.38714199999999], [-71.138372, 42.38743999999999], [-71.136535, 42.38618200000001], [-71.13475800000002, 42.38557200000001], [-71.135211, 42.385301], [-71.135794, 42.3846], [-71.132855, 42.38327600000001], [-71.132419, 42.383821000000005], [-71.13041, 42.38291799999998], [-71.130224, 42.383065], [-71.128804, 42.38210900000001], [-71.128634, 42.38224499999999], [-71.128258, 42.382038000000016], [-71.127188, 42.382490000000004], [-71.125065, 42.380135], [-71.122383, 42.38121199999999], [-71.121948, 42.38082300000001], [-71.121525, 42.379784], [-71.124186, 42.378966], [-71.122151, 42.376534], [-71.119141, 42.375151000000024], [-71.11882200000001, 42.374355], [-71.118841, 42.37365200000001], [-71.118462, 42.37328300000001], [-71.117906, 42.37311], [-71.118606, 42.37197299999998], [-71.119122, 42.372166], [-71.11925400000001, 42.371913999999975], [-71.119493, 42.371998999999995], [-71.119913, 42.37124399999999], [-71.120965, 42.371634], [-71.123204, 42.368938], [-71.122044, 42.368703], [-71.11896, 42.36876], [-71.117934, 42.368385], [-71.11723, 42.36736700000001], [-71.11687300000001, 42.365885000000006], [-71.116936, 42.363676999999996], [-71.116578, 42.359567], [-71.117165, 42.356997], [-71.117066, 42.355866], [-71.11653, 42.355028000000004], [-71.114916, 42.35386100000001], [-71.114087, 42.353450999999986], [-71.11246, 42.352903], [-71.110083, 42.352549], [-71.103407, 42.352448999999986], [-71.097244, 42.35319099999999], [-71.093002, 42.353893999999976], [-71.091235, 42.354338], [-71.087758, 42.34729999999999], [-71.089264, 42.34688700000001], [-71.089222, 42.346633999999995], [-71.090407, 42.34229300000002], [-71.091188, 42.340949], [-71.09066000000001, 42.339766000000004], [-71.10491, 42.33419000000001], [-71.109333, 42.33700000000001], [-71.110808, 42.335586000000006], [-71.111, 42.335833], [-71.110708, 42.336307999999995], [-71.111551, 42.337299], [-71.110885, 42.338884], [-71.110663, 42.340270999999994], [-71.110177, 42.340959], [-71.109553, 42.34149399999999], [-71.108412, 42.341888], [-71.10802700000002, 42.34247799999999], [-71.10651400000002, 42.34310599999999], [-71.106072, 42.34358299999999], [-71.105516, 42.343812], [-71.107213, 42.347049000000005], [-71.10657, 42.349912], [-71.122855, 42.351860999999985], [-71.122942, 42.35141599999997], [-71.124067, 42.351552], [-71.126854, 42.35008799999999], [-71.128583, 42.349833000000004], [-71.129281, 42.34906699999999], [-71.133381, 42.347122000000006], [-71.13515500000001, 42.34602300000001], [-71.141326, 42.341048], [-71.141939, 42.340008], [-71.14421200000001, 42.34002199999999], [-71.146245, 42.338595], [-71.146606, 42.33853700000002], [-71.146156, 42.33744200000002], [-71.148742, 42.336866], [-71.148295, 42.335806999999996], [-71.15005900000001, 42.33539299999999], [-71.150461, 42.334968], [-71.149853, 42.334635], [-71.157036, 42.33039], [-71.159325, 42.332767999999994], [-71.161295, 42.33378299999999], [-71.162732, 42.333961], [-71.167565, 42.333441], [-71.168191, 42.33479100000001], [-71.16857, 42.335143], [-71.168886, 42.33582599999999], [-71.169217, 42.33806800000001], [-71.168633, 42.338629], [-71.166808, 42.33928999999997], [-71.166683, 42.340104000000004], [-71.17485, 42.350337], [-71.173916, 42.35346499999999], [-71.167625, 42.360073000000014], [-71.169381, 42.360136], [-71.172754, 42.35933100000001], [-71.175272, 42.359272], [-71.17824, 42.359565999999994], [-71.182126, 42.360681], [-71.18368, 42.358829], [-71.196298, 42.361802000000004], [-71.192215, 42.36542399999999], [-71.19476500000002, 42.366871], [-71.195206, 42.36773399999999], [-71.19542200000001, 42.367825], [-71.19585400000001, 42.367694], [-71.196485, 42.367024000000015], [-71.19708, 42.36693900000001], [-71.197744, 42.36733999999999], [-71.198323, 42.367402000000006], [-71.200515, 42.366271999999995], [-71.202029, 42.36582], [-71.202866, 42.365686999999994], [-71.205098, 42.365749], [-71.206321, 42.36461299999999], [-71.20745800000002, 42.36409999999999], [-71.208812, 42.364577999999995], [-71.209942, 42.364132], [-71.211259, 42.36428499999996], [-71.21373, 42.36512400000001], [-71.21451, 42.36568200000001], [-71.215534, 42.365608], [-71.21634100000001, 42.36584799999999], [-71.217038, 42.366589]]]}}