{"type": "Feature", "properties": {"district_name": "Worcester and Middlesex District", "chamber": "senate", "vintage": "2022-present"}, "geometry": {"type": "Polygon", "coordinates": [[[-71.89869500000002, 42.711310000000005], [-71.749224, 42.707471000000005], [-71.696505, 42.705721999999994], [-71.651836, 42.70476899999999], [-71.650721, 42.69091999999999], [-71.65793, 42.649944000000005], [-71.656412, 42.649723], [-71.652466, 42.645755], [-71.648988, 42.64423000000001], [-71.646949, 42.644152], [-71.64074, 42.63926599999999], [-71.630784, 42.635163000000006], [-71.621867, 42.631876], [-71.615525, 42.629273000000005], [-71.61418, 42.62849799999998], [-71.609874, 42.627845], [-71.609929, 42.62755400000001], [-71.608056, 42.62738000000001], [-71.607123, 42.630468], [-71.60603, 42.63096899999999], [-71.605621, 42.631025999999984], [-71.604828, 42.630818999999995], [-71.603215, 42.62946099999999], [-71.601268, 42.62656500000001], [-71.600654, 42.626113000000004], [-71.599644, 42.625821], [-71.597975, 42.625898], [-71.59598800000002, 42.62633699999999], [-71.593623, 42.626247000000006], [-71.593254, 42.62638299999998], [-71.593063, 42.626656999999994], [-71.593563, 42.62750599999999], [-71.593705, 42.628223], [-71.593463, 42.628780000000006], [-71.592952, 42.629272], [-71.591601, 42.629926000000005], [-71.58847, 42.630438000000005], [-71.587919, 42.630833], [-71.58792, 42.63144600000001], [-71.588483, 42.631965], [-71.588834, 42.632673], [-71.589216, 42.63291500000001], [-71.590261, 42.633002], [-71.592346, 42.632836000000005], [-71.592958, 42.63312199999999], [-71.593112, 42.63336699999999], [-71.593087, 42.63383000000001], [-71.592832, 42.634340000000016], [-71.591478, 42.635183000000005], [-71.591248, 42.635501999999995], [-71.591262, 42.63572800000001], [-71.591555, 42.635985], [-71.592298, 42.636397], [-71.592426, 42.636567], [-71.592363, 42.636964000000006], [-71.592134, 42.63721700000001], [-71.591431, 42.637454999999996], [-71.589663, 42.637101], [-71.588839, 42.63715100000002], [-71.588375, 42.637373], [-71.588055, 42.63783199999999], [-71.587117, 42.64014700000002], [-71.586914, 42.64226300000001], [-71.586199, 42.64369700000001], [-71.586245, 42.64432299999999], [-71.58715, 42.644963], [-71.587196, 42.645643000000014], [-71.586731, 42.646269000000004], [-71.585674, 42.646596], [-71.584473, 42.64641999999999], [-71.583568, 42.645757], [-71.58321300000001, 42.644525], [-71.582961, 42.64413799999999], [-71.58262, 42.644037000000004], [-71.582081, 42.64434399999999], [-71.58179, 42.645334000000005], [-71.580432, 42.646800000000006], [-71.57985, 42.64791099999999], [-71.579929, 42.649289000000024], [-71.57910000000001, 42.65138500000001], [-71.57941, 42.653442], [-71.579436, 42.65415000000001], [-71.579296, 42.654301000000004], [-71.555035, 42.659582], [-71.555511, 42.65875499999999], [-71.551362, 42.65984900000001], [-71.552421, 42.660123999999996], [-71.537136, 42.66349499999999], [-71.534413, 42.648414], [-71.534296, 42.64836199999999], [-71.514969, 42.64362299999999], [-71.496484, 42.649802], [-71.497478, 42.641667], [-71.498593, 42.63879200000001], [-71.493528, 42.61740400000001], [-71.417642, 42.653774], [-71.405401, 42.61039300000001], [-71.401978, 42.59980500000001], [-71.400228, 42.59107900000001], [-71.396876, 42.58013999999999], [-71.388373, 42.54994600000002], [-71.38474, 42.538699], [-71.423794, 42.52618899999999], [-71.48002, 42.558094], [-71.483765, 42.573788], [-71.498006, 42.57686199999999], [-71.503037, 42.575468], [-71.506411, 42.572172000000016], [-71.511459, 42.569386], [-71.600309, 42.582927000000005], [-71.601036, 42.58302400000001], [-71.602076, 42.582071000000006], [-71.60309, 42.582021000000005], [-71.60448400000001, 42.58223100000001], [-71.605194, 42.58244799999999], [-71.606354, 42.583172000000005], [-71.606917, 42.58315299999999], [-71.609565, 42.58080900000001], [-71.609943, 42.57977999999999], [-71.609489, 42.578384], [-71.609791, 42.57792200000001], [-71.610526, 42.57756400000001], [-71.612924, 42.57702200000001], [-71.613611, 42.576465], [-71.613918, 42.57522600000002], [-71.614414, 42.575092], [-71.615639, 42.57510999999999], [-71.616109, 42.574695000000006], [-71.616031, 42.57423800000001], [-71.61574, 42.57392399999999], [-71.614559, 42.573268], [-71.614125, 42.572115000000004], [-71.612733, 42.57194], [-71.611825, 42.57129499999999], [-71.611911, 42.57027900000001], [-71.611257, 42.568379], [-71.60771, 42.56713400000001], [-71.606607, 42.566511000000006], [-71.60678100000001, 42.566157999999994], [-71.60767, 42.565909999999995], [-71.608706, 42.56536099999999], [-71.608833, 42.564336999999995], [-71.609027, 42.56397499999999], [-71.610532, 42.56285299999998], [-71.611111, 42.562138], [-71.612491, 42.55918799999999], [-71.612522, 42.558655], [-71.611919, 42.556577999999995], [-71.610885, 42.55496900000001], [-71.611013, 42.55429300000003], [-71.611476, 42.55384], [-71.612003, 42.553689], [-71.615548, 42.553644999999996], [-71.619678, 42.55262299999999], [-71.625126, 42.550099], [-71.628434, 42.548064], [-71.629912, 42.546134000000016], [-71.631554, 42.545024999999995], [-71.632017, 42.544517999999975], [-71.633706, 42.54107900000002], [-71.634327, 42.540728000000016], [-71.635444, 42.540406999999995], [-71.635885, 42.54000099999999], [-71.636179, 42.539339], [-71.636467, 42.53629900000001], [-71.636367, 42.533500999999994], [-71.63665, 42.53312699999999], [-71.638891, 42.53140200000001], [-71.639206, 42.530956999999994], [-71.639055, 42.529211999999994], [-71.638758, 42.52833899999999], [-71.63674, 42.52583200000001], [-71.635947, 42.524532000000015], [-71.635913, 42.523697999999996], [-71.636144, 42.523098000000005], [-71.635153, 42.52286500000001], [-71.634087, 42.52211], [-71.632914, 42.520116999999985], [-71.6319, 42.51911299999999], [-71.630646, 42.51908299999999], [-71.630151, 42.518834], [-71.630022, 42.51782100000001], [-71.630306, 42.517361], [-71.630811, 42.51708], [-71.631824, 42.51699300000002], [-71.632274, 42.51662599999999], [-71.632312, 42.51636200000001], [-71.631798, 42.515979], [-71.631124, 42.515871999999995], [-71.630061, 42.515982], [-71.629615, 42.515845000000006], [-71.629132, 42.51509499999998], [-71.629751, 42.513956], [-71.62974, 42.51365999999999], [-71.62916, 42.513379999999984], [-71.628001, 42.513240999999994], [-71.627305, 42.512836], [-71.627441, 42.51234500000001], [-71.627994, 42.51151300000001], [-71.627813, 42.510923999999996], [-71.627964, 42.510707999999994], [-71.628427, 42.510512000000006], [-71.628683, 42.51056700000001], [-71.629201, 42.511100000000006], [-71.629711, 42.51127300000001], [-71.629873, 42.511142], [-71.62982900000002, 42.51041900000001], [-71.630577, 42.509716], [-71.631803, 42.50972599999999], [-71.631849, 42.50950099999998], [-71.631426, 42.50912899999999], [-71.631263, 42.508725999999996], [-71.631326, 42.508333], [-71.632815, 42.506583], [-71.634219, 42.504361], [-71.634183, 42.504167], [-71.633467, 42.50350800000001], [-71.633763, 42.502863999999995], [-71.633699, 42.50269599999999], [-71.633217, 42.50251300000001], [-71.631993, 42.50266700000002], [-71.631236, 42.502563], [-71.629674, 42.50152300000001], [-71.626405, 42.500094000000004], [-71.62588, 42.49949500000002], [-71.625885, 42.49851100000001], [-71.62663, 42.49591199999999], [-71.626834, 42.495567000000015], [-71.62776, 42.495047000000014], [-71.627978, 42.494513], [-71.627594, 42.493335], [-71.627769, 42.492611999999994], [-71.628629, 42.490778000000006], [-71.62895, 42.48877800000001], [-71.630808, 42.48743999999999], [-71.631231, 42.48673800000002], [-71.63161000000001, 42.485423], [-71.631908, 42.485413], [-71.633567, 42.48623500000001], [-71.634151, 42.48580799999999], [-71.634129, 42.485352], [-71.633492, 42.48515900000001], [-71.633103, 42.485265000000005], [-71.632602, 42.48513400000001], [-71.632203, 42.484553000000005], [-71.63206, 42.48397800000001], [-71.632108, 42.482988000000006], [-71.632277, 42.48272599999999], [-71.632539, 42.48267800000001], [-71.633664, 42.48308600000001], [-71.634102, 42.482875000000014], [-71.634158, 42.482445999999996], [-71.633915, 42.48129399999999], [-71.634288, 42.48055000000001], [-71.634847, 42.47996299999998], [-71.634709, 42.47952600000001], [-71.633782, 42.478435], [-71.633689, 42.477183999999994], [-71.635448, 42.477081999999996], [-71.635791, 42.476891], [-71.642426, 42.479502999999994], [-71.65674, 42.430957], [-71.668069, 42.39456599999999], [-71.676521, 42.396119], [-71.678766, 42.389162999999996], [-71.701017, 42.39580800000002], [-71.725979, 42.39028900000002], [-71.721578, 42.409239000000014], [-71.718362, 42.410219999999995], [-71.718699, 42.473373999999986], [-71.727547, 42.47499200000001], [-71.830019, 42.49218600000001], [-71.822289, 42.504306000000014], [-71.842326, 42.51263000000001], [-71.837807, 42.543783], [-71.862953, 42.544703000000005], [-71.862508, 42.55247399999999], [-71.855591, 42.552055], [-71.855131, 42.558291], [-71.856873, 42.558119000000005], [-71.860262, 42.558518000000014], [-71.862343, 42.55805], [-71.858482, 42.633841], [-71.856393, 42.667643000000005], [-71.857757, 42.674982], [-71.864076, 42.67955700000001], [-71.863754, 42.679550999999975], [-71.865751, 42.684111], [-71.869778, 42.68364700000001], [-71.897103, 42.70372799999999], [-71.89869500000002, 42.711310000000005]]]}}