{"type": "Feature", "properties": {"district_name": "First Suffolk", "chamber": "senate", "vintage": "2001-2010"}, "geometry": {"type": "MultiPolygon", "coordinates": [[[[-71.09859508643889, 42.28139791658762], [-71.09539506614166, 42.27849783995616], [-71.09359492815392, 42.2771978601914], [-71.09329491916819, 42.279197723950766], [-71.09379491455223, 42.27959787771511], [-71.09359502506463, 42.28119802299993], [-71.09589491170432, 42.281297855746075], [-71.09669498056309, 42.282297753513205], [-71.09589506442188, 42.28379788549843], [-71.09539507317548, 42.28439820298493], [-71.09439503229743, 42.28459780700694], [-71.09639509433012, 42.28559799816009], [-71.09589497487632, 42.28609815853915], [-71.09349496971289, 42.28639804421125], [-71.0931950582004, 42.28589787725669], [-71.09119495210997, 42.28549801962446], [-71.08929493761279, 42.291198033959276], [-71.08699509684615, 42.289497783585105], [-71.08789499719232, 42.28839814493712], [-71.08639507978056, 42.28769783330979], [-71.08599495771796, 42.28679777728464], [-71.08329507894011, 42.28739797041719], [-71.08289500403973, 42.2864979035452], [-71.08099498575916, 42.28689781332338], [-71.0804949188598, 42.28659776281188], [-71.07909502268629, 42.28819799496715], [-71.07852208042915, 42.28933984162927], [-71.07809494499682, 42.29199810507564], [-71.07939498580026, 42.292498038292734], [-71.07909496867266, 42.29179807989154], [-71.08099505450197, 42.29149779753822], [-71.08059500440409, 42.292797837059716], [-71.08308399609389, 42.293590159163415], [-71.08323909214691, 42.29386193779104], [-71.08019503298806, 42.294397788227116], [-71.08079407183536, 42.295756054882446], [-71.08389898207545, 42.29519621330716], [-71.08421003798757, 42.29595696871377], [-71.08207506201843, 42.29622887847861], [-71.0831949442888, 42.298698083484126], [-71.0813950834653, 42.298998205038224], [-71.08139509211864, 42.299398276246556], [-71.08189498917187, 42.299998233719634], [-71.08269504978448, 42.3003978372351], [-71.07959491112778, 42.30119793181928], [-71.07909508448567, 42.30289823239521], [-71.0793949741954, 42.30279804676016], [-71.0806950648116, 42.30389778839863], [-71.07949491924789, 42.304698045728365], [-71.08039499036313, 42.305397943011904], [-71.07829501016383, 42.306198274423885], [-71.08119496123756, 42.308197979214825], [-71.08309490734426, 42.308797959911395], [-71.08269495431868, 42.30949817865381], [-71.07979497194081, 42.313197966800956], [-71.07852403091812, 42.31552227141302], [-71.07809593072778, 42.31704726807462], [-71.07789495165456, 42.32029716624936], [-71.07569507265013, 42.320397101689046], [-71.07229501632091, 42.32129717578736], [-71.07149497531428, 42.31999720505542], [-71.0690950083972, 42.31849823960179], [-71.06879495209091, 42.31849823960432], [-71.06769494278045, 42.32319703626075], [-71.06649505101909, 42.32609709967715], [-71.06059509020396, 42.33569717274646], [-71.05969492638225, 42.33669699487539], [-71.05999500156297, 42.34229684890492], [-71.05909490650014, 42.344196959075134], [-71.05839694033044, 42.345331463536795], [-71.05805073926325, 42.345485433960896], [-71.05481276634605, 42.345922526706595], [-71.04926144233285, 42.353037971286234], [-71.04830470050065, 42.35419897021125], [-71.04771973055897, 42.35465975874655], [-71.04623911994001, 42.3552087310261], [-71.04469632084836, 42.35509234736876], [-71.04358629711402, 42.35477003154363], [-71.04438895400538, 42.35344978473601], [-71.04352537463537, 42.35301478229941], [-71.04216839271972, 42.35317425382413], [-71.04155126899177, 42.35390609632525], [-71.04118126993677, 42.353903495319145], [-71.0410889142909, 42.35356270368221], [-71.04275488553886, 42.35129947696637], [-71.04256987709059, 42.35078895025988], [-71.04195278544778, 42.350629505230486], [-71.03988645673874, 42.353152204404324], [-71.03883784700207, 42.3527383707492], [-71.03896168228415, 42.35234892793739], [-71.04044222201752, 42.350268987766945], [-71.04050399364135, 42.349989018334476], [-71.03979459446977, 42.349668265300544], [-71.03763477002742, 42.352183235678524], [-71.0368336059179, 42.351909360958], [-71.03695702278867, 42.351474903844405], [-71.03856051282762, 42.3493926689384], [-71.03859244206907, 42.349149155116706], [-71.03800639819305, 42.34884464097323], [-71.03760531785015, 42.34886947495219], [-71.03708129318136, 42.349446367890394], [-71.03671113827653, 42.34941674295682], [-71.03168574900762, 42.34745287589195], [-71.02949630130344, 42.34687956567426], [-71.02875613766189, 42.34685684066389], [-71.0264737343022, 42.348347017116694], [-71.02332837039623, 42.347241288419255], [-71.02339177927938, 42.345645778361884], [-71.0303717830265, 42.3453548945413], [-71.02626018073592, 42.34523449367853], [-71.02505797294212, 42.34457175590857], [-71.02200538902943, 42.34461650002304], [-71.0219129386104, 42.34442930433896], [-71.02203557936616, 42.343607169142615], [-71.03763838790043, 42.343384002568484], [-71.03850193526442, 42.34353995934693], [-71.0385634770678, 42.342511619536225], [-71.04170907416541, 42.33960949574989], [-71.04183297389687, 42.339310078690524], [-71.04100136566554, 42.339018667105364], [-71.04050773526907, 42.3393160435349], [-71.03992146145556, 42.33926305730227], [-71.03976712682002, 42.33988758221812], [-71.03936622999029, 42.340155502634836], [-71.03899555464938, 42.34132383803443], [-71.03878008182028, 42.34146308228792], [-71.03501845706162, 42.341692698709636], [-71.03498756560555, 42.340684242962205], [-71.03366175017963, 42.34045548714792], [-71.0336306663298, 42.34148282329075], [-71.032551586797, 42.341529082770364], [-71.03212001005642, 42.3417349579416], [-71.03045523345658, 42.341647707287706], [-71.0303938032532, 42.340522649513915], [-71.02965371364493, 42.34049993024948], [-71.02956059787732, 42.34157315191459], [-71.02851245651657, 42.341690961055896], [-71.02650880916316, 42.341303477417526], [-71.0249051810411, 42.3417368816905], [-71.01395876577352, 42.342092885310436], [-71.01084619936623, 42.34014854856954], [-71.01090879108982, 42.33960638588351], [-71.00992151262997, 42.33920998973289], [-71.00936894686, 42.33711162793735], [-71.00967741214981, 42.33667404880818], [-71.01100332930184, 42.33608324892277], [-71.01236172416789, 42.334276043960806], [-71.01260870323732, 42.33413698244446], [-71.01282373536165, 42.334502514599244], [-71.01263939496339, 42.334730746557625], [-71.01263886063633, 42.33514488132839], [-71.01288441037413, 42.335437956134996], [-71.01279212816411, 42.335898967681715], [-71.01220542722761, 42.33644960017859], [-71.01217426736059, 42.33699921217576], [-71.01300648951066, 42.337362859453876], [-71.01303648942483, 42.33804721250818], [-71.01537915679587, 42.33841104068202], [-71.01870939820253, 42.33834344087615], [-71.02015876229189, 42.33811936083624], [-71.02166987986192, 42.33752527243417], [-71.02271850995099, 42.33660626358694], [-71.02315111104082, 42.335760654150086], [-71.02318246049677, 42.335148019413516], [-71.022998158386, 42.3346464644842], [-71.02213449008747, 42.33347305359972], [-71.02121084049817, 42.332814243829155], [-71.01923840848083, 42.33180443036232], [-71.01778939010343, 42.33128012705809], [-71.01569329508987, 42.330984345167614], [-71.01455259949068, 42.33137341432608], [-71.01442966261804, 42.33118664585373], [-71.01492292386821, 42.33047524172407], [-71.01566263231943, 42.330408024912074], [-71.01905331485563, 42.33121283544324], [-71.02118030081961, 42.332264934936255], [-71.02228959390477, 42.33229036941045], [-71.0240474698443, 42.332745559028375], [-71.02472470070038, 42.332769742997606], [-71.0285484209607, 42.33118858522792], [-71.02999708976589, 42.330775878954704], [-71.03157062281501, 42.3297300788204], [-71.03301940551692, 42.32903768000241], [-71.03419089359201, 42.328719451284364], [-71.03588661193926, 42.32862615214381], [-71.03958584741058, 42.329568897395646], [-71.04417857200707, 42.32945103081592], [-71.04531891715709, 42.32913312810277], [-71.04615173995717, 42.32863169017865], [-71.04704641837847, 42.32769722191867], [-71.04763203596788, 42.32668725619422], [-71.04784805832793, 42.32614286346212], [-71.0478791701246, 42.324494315654086], [-71.04766404771941, 42.324011809889065], [-71.047232097493, 42.32357796614431], [-71.04655385830985, 42.323283820944326], [-71.04405766294568, 42.322734329884234], [-71.0436567614311, 42.32236305382427], [-71.0434413209694, 42.32177250268356], [-71.04316399634322, 42.321588527584595], [-71.03669177585762, 42.31870473282018], [-71.03669172601242, 42.318452648722385], [-71.03730876054554, 42.31790088744917], [-71.03715462797169, 42.31772358300773], [-71.03293265105769, 42.31646577665275], [-71.03253307027988, 42.315365222914096], [-71.03268828080033, 42.31323720573596], [-71.03570902225657, 42.31120182756215], [-71.03688038798431, 42.310153764514865], [-71.0373117396578, 42.31012849304285], [-71.04393745890394, 42.31410786082026], [-71.04433779933521, 42.31415502652227], [-71.04594015790443, 42.31330664622542], [-71.04590994881576, 42.31294696949656], [-71.0454467325089, 42.312577140532426], [-71.04458405387186, 42.312304197673406], [-71.04384497465198, 42.31134469712831], [-71.04381389475823, 42.31097601318702], [-71.04399900494337, 42.31074717119304], [-71.0446773320146, 42.31042912872458], [-71.04455367171798, 42.3101517962119], [-71.04218070810454, 42.31019469696642], [-71.0424583751366, 42.309694447756556], [-71.04298260627947, 42.30935160599939], [-71.04436991939018, 42.308849570303096], [-71.04486263793596, 42.308327097498385], [-71.04541772906745, 42.30727256622075], [-71.04612764400576, 42.30505331594442], [-71.04658967600783, 42.30454928300621], [-71.04751404779077, 42.304343606648196], [-71.04806881393401, 42.30475711522146], [-71.04760521604966, 42.30717935241915], [-71.04797508083215, 42.30758706882305], [-71.05250584481303, 42.307775859198244], [-71.05287509159079, 42.30736372086128], [-71.05290597023128, 42.306399393646785], [-71.0527218371499, 42.30571838706106], [-71.04970259195348, 42.302701275769365], [-71.04905550655957, 42.302532744886086], [-71.04880830103652, 42.30310459152632], [-71.04800750297946, 42.303497014367686], [-71.04748368834593, 42.3031556513981], [-71.04742229009152, 42.30217464307942], [-71.0471136942818, 42.302081146191824], [-71.0467136243548, 42.30240367737871], [-71.04671270533328, 42.303061456928916], [-71.0464973319903, 42.30312812973962], [-71.04375525053602, 42.3024926898844], [-71.04350833802488, 42.30230770992015], [-71.04338573425677, 42.30125611971185], [-71.0437866535243, 42.300501458134036], [-71.04378616823045, 42.299727195896864], [-71.0458822461136, 42.298789056280604], [-71.04477299119586, 42.29788999059334], [-71.04452670239681, 42.29711981801175], [-71.04461960963474, 42.29613660495543], [-71.04489648078878, 42.296131512443054], [-71.04520488741, 42.296405075439566], [-71.04591272477565, 42.29821185752996], [-71.04628272114691, 42.298169429472814], [-71.04579034739429, 42.29672812450986], [-71.04462082789158, 42.29462353719599], [-71.04400366894484, 42.293706718298615], [-71.04289532078691, 42.29293424195074], [-71.04246435934157, 42.29226630136221], [-71.04191043387068, 42.28984452573586], [-71.041571771769, 42.28977846539287], [-71.04166320511283, 42.29130765990946], [-71.0420323744037, 42.292265142813804], [-71.04203211690287, 42.293453543224224], [-71.04160111827802, 42.29352441134075], [-71.0409547662098, 42.29313976400131], [-71.03947512017083, 42.29285981215994], [-71.03935240292317, 42.29256503320387], [-71.0387672006098, 42.292476593636295], [-71.03870512728363, 42.29218036933583], [-71.03885941579246, 42.291807925092876], [-71.0387358498305, 42.29139610239573], [-71.03784340044655, 42.290754424694775], [-71.03784370049817, 42.29014221863975], [-71.03759768049115, 42.28927299706392], [-71.03725799144983, 42.28885580084799], [-71.03725863692263, 42.288378641711276], [-71.03787544566752, 42.28734971244769], [-71.03796742343266, 42.28684366063838], [-71.03784542779074, 42.28653031374054], [-71.03806025202825, 42.286454651848985], [-71.03836795544535, 42.28671022510492], [-71.038614410829, 42.2866875822339], [-71.03852234645866, 42.286140276836726], [-71.03864544165388, 42.28591288143956], [-71.03913825672835, 42.28572354472245], [-71.03923191950044, 42.28547914987308], [-71.0411425216297, 42.28383248610376], [-71.04151261768965, 42.283006245211176], [-71.04145132629087, 42.28092685609031], [-71.04163612418725, 42.27976169688501], [-71.04194440097022, 42.27904493220476], [-71.0427151382729, 42.277977201050085], [-71.04357732792137, 42.27735829341962], [-71.04425587095494, 42.277039690857585], [-71.04502492061937, 42.27696283762574], [-71.04721140086593, 42.27795056152742], [-71.04825935713872, 42.27815725693727], [-71.04875184015744, 42.27842759668006], [-71.04982981547093, 42.27857024880278], [-71.0509389514129, 42.27840634581701], [-71.0530647120219, 42.27762968278903], [-71.05395804056019, 42.277496421469145], [-71.0550051400422, 42.27696423819116], [-71.05614492326379, 42.275989002722355], [-71.05633013512579, 42.27521095326329], [-71.05620718176714, 42.274700116953795], [-71.0542357708972, 42.272916064379544], [-71.05420478126621, 42.27252881205679], [-71.05472889070734, 42.27209644708383], [-71.0560227239013, 42.27161416488823], [-71.05750072108643, 42.27065935390795], [-71.05873215804714, 42.26958316067475], [-71.06085777104956, 42.26868931303913], [-71.06119666704444, 42.26816111514421], [-71.0622122335179, 42.26761130205527], [-71.0628289713772, 42.26806886949077], [-71.06273595019162, 42.26848434481112], [-71.06289041274044, 42.26866161815043], [-71.06332168469623, 42.268825314174386], [-71.06421457228255, 42.268845023955386], [-71.06455373992088, 42.26910008457527], [-71.06421525143062, 42.2701780437102], [-71.06436856066765, 42.27063440573476], [-71.06487840846583, 42.270639152042534], [-71.06482582544314, 42.269939526868924], [-71.06539401707079, 42.270798095428276], [-71.0680939674599, 42.27099790822749], [-71.07189395495946, 42.27089790993417], [-71.07319399918357, 42.27039801448132], [-71.07959503971509, 42.269698003931076], [-71.08309504570933, 42.2683980042008], [-71.0857950011739, 42.26919779273726], [-71.08949493430606, 42.26969780571325], [-71.08999497381645, 42.26799801396112], [-71.09059505262422, 42.266698087151354], [-71.09489509476825, 42.266897899465526], [-71.097994914587, 42.262897928831286], [-71.09899592780091, 42.262398945335065], [-71.10139603998546, 42.260698970197474], [-71.10337494385088, 42.25971210915743], [-71.10499494199114, 42.26069790235908], [-71.10579508258624, 42.26099775321974], [-71.1076950589085, 42.260698156053486], [-71.10869495272111, 42.26109826533134], [-71.10683707629363, 42.261875748219374], [-71.10760792476135, 42.263056097877055], [-71.10849493416589, 42.26269787772277], [-71.11169607541116, 42.26729805428899], [-71.11029499208904, 42.27079774471419], [-71.11229600180201, 42.271798228265105], [-71.11039606136838, 42.27499800638586], [-71.10919598896594, 42.27424780236005], [-71.10776702720669, 42.27813393104349], [-71.10463408083083, 42.28101710163206], [-71.09999496757973, 42.282097721528146], [-71.09859508643889, 42.28139791658762]]], [[[-71.01345872752462, 42.310281499802024], [-71.01419821657498, 42.31028631639096], [-71.01478336269847, 42.31007778016974], [-71.01429117619736, 42.30978028914463], [-71.01355141798511, 42.309712450802955], [-71.01358258220188, 42.30950438772501], [-71.01456885217763, 42.30950518208614], [-71.01549297039058, 42.309875955377905], [-71.01604711239538, 42.3104246614512], [-71.01712450368925, 42.312594420236756], [-71.01706201565646, 42.31320805098346], [-71.01669216438184, 42.31376355787369], [-71.01626026235468, 42.31410441803626], [-71.01197454276256, 42.315864394517504], [-71.01077170365733, 42.3165519500286], [-71.01000110117329, 42.317349372783696], [-71.00932208736597, 42.318604084282256], [-71.00808829724846, 42.31975175847517], [-71.00565199033636, 42.32101072995664], [-71.00337117490456, 42.321284492237], [-70.99956561953881, 42.32087522935996], [-70.99922621325148, 42.3204804318691], [-70.99926872024861, 42.31997138400011], [-70.99891715574378, 42.319125818963485], [-70.99952022725053, 42.31906430015085], [-71.00029024150467, 42.31953749557028], [-71.00170829707434, 42.31972877677216], [-71.00334207447362, 42.319267691604246], [-71.00476091684544, 42.318098920605905], [-71.00543958433124, 42.31706930951448], [-71.00651925915341, 42.31599640176272], [-71.00809363083249, 42.31311374412371], [-71.01083891724745, 42.31028219447255], [-71.01142583455713, 42.308912292185205], [-71.01164125675417, 42.308773098238746], [-71.01191842807296, 42.30895771254428], [-71.01271936075557, 42.309915995226575], [-71.01345872752462, 42.310281499802024]]], [[[-70.98779036420532, 42.319888167328024], [-70.98803814509982, 42.3219464616608], [-70.98776213586117, 42.323095367508], [-70.98853358572578, 42.323667681028354], [-70.98834912204397, 42.32425599485858], [-70.99115536567166, 42.32599084084858], [-70.99115621400507, 42.326522022137986], [-70.99063260426975, 42.327135283720985], [-70.98958400412533, 42.32772989496904], [-70.98856823884522, 42.32803598384508], [-70.9858859770541, 42.328235589315604], [-70.9839741761542, 42.327827514255084], [-70.98354225722117, 42.32755604683202], [-70.98357316898395, 42.32727596697627], [-70.98443565495235, 42.32677454460766], [-70.98455886488682, 42.32652019937819], [-70.98480573749548, 42.32588546833296], [-70.9851123410616, 42.323943316189855], [-70.98498814098657, 42.32334180831104], [-70.98418542012156, 42.32156348829813], [-70.98591022225675, 42.319299077871186], [-70.98658840632639, 42.31911642195976], [-70.98779036420532, 42.319888167328024]]], [[[-70.9929380256738, 42.35406494960115], [-70.99444828806716, 42.353966376953835], [-70.99552870378379, 42.35442520800174], [-70.9970401059283, 42.35439862990676], [-70.99744016729151, 42.35458043793873], [-70.99744079378435, 42.35478807119817], [-70.99673207484389, 42.35499822917491], [-70.99668058703969, 42.35524783567353], [-70.99183712682199, 42.35396330832136], [-70.9924128662125, 42.35387582149289], [-70.9929380256738, 42.35406494960115]]], [[[-71.00645520193892, 42.35501448590529], [-71.00513018011152, 42.35402859598097], [-71.00488361775854, 42.35407817624901], [-71.00411178303402, 42.35503760303891], [-71.00358666513415, 42.35505559409598], [-71.00346391183986, 42.354553712616905], [-71.00398903118247, 42.35368831979921], [-71.00488580379735, 42.35144819927763], [-71.0051663170369, 42.34712911349488], [-71.00763354846977, 42.34685161006574], [-71.0171582601256, 42.3527990595183], [-71.0280412907864, 42.35810926601552], [-71.02804152011056, 42.35858698459322], [-71.0260892275627, 42.362995451107885], [-71.0170940570461, 42.35929722074858], [-71.01529398843438, 42.357897007440265], [-71.01309400856715, 42.354696735818294], [-71.0124940771166, 42.35029681837794], [-71.00999390609135, 42.35079710901391], [-71.00619299961602, 42.347396863776744], [-71.0041929306767, 42.354097145122964], [-71.00519298974216, 42.353296814150916], [-71.00779399627189, 42.35379694890539], [-71.00659393372177, 42.356097122321536], [-71.00381049393785, 42.356236508369705], [-71.0050973059658, 42.35551562840985], [-71.00583773012292, 42.355565515216625], [-71.00642456551715, 42.355221984791505], [-71.00645520193892, 42.35501448590529]]], [[[-70.9864957977188, 42.357636982009716], [-70.99024010016234, 42.355037719965765], [-70.99169301211144, 42.35629724942687], [-70.99129309364783, 42.35779672275683], [-70.99049298323769, 42.35839694090199], [-70.98716840852052, 42.35938542991845], [-70.9864957977188, 42.357636982009716]]], [[[-70.95576269161904, 42.310452633870355], [-70.95656458545464, 42.31087113229874], [-70.95779711604929, 42.310336207922006], [-70.95801266997248, 42.31063882728367], [-70.95727330459769, 42.311282432749], [-70.95567065648156, 42.311435782401375], [-70.95449884825588, 42.31182579794313], [-70.9529277579144, 42.3129966050201], [-70.95240418215118, 42.31320343251946], [-70.95114004001238, 42.31300046004007], [-70.9495070843574, 42.31205520560812], [-70.9494760928642, 42.311848549376705], [-70.94981483689212, 42.31168980457313], [-70.95154130260471, 42.31148873602912], [-70.95240334706406, 42.3109335317007], [-70.9530203794276, 42.311139039202345], [-70.95326703352086, 42.311810378367795], [-70.95375970412215, 42.31175701477938], [-70.95474566128402, 42.31102851028985], [-70.954437140032, 42.31047504575472], [-70.9544988795575, 42.309996488412374], [-70.95483823045193, 42.30972069189626], [-70.95545446164765, 42.30990873916314], [-70.95576269161904, 42.310452633870355]]], [[[-70.93076826649795, 42.31905833299317], [-70.93061405628043, 42.321556481188935], [-70.93049074677528, 42.32175675099767], [-70.92993517027122, 42.321964443280656], [-70.92860987794072, 42.32207715300781], [-70.92682230297237, 42.321575897648266], [-70.92632886879571, 42.32130503210644], [-70.92592898196054, 42.320689701836095], [-70.92571316257953, 42.31940568694114], [-70.92586796585066, 42.318555670543596], [-70.92651511050616, 42.31777957344195], [-70.92725473649445, 42.31775794057388], [-70.92845660758142, 42.31732333612238], [-70.92885742705936, 42.317415359381826], [-70.93027505339094, 42.31905813993189], [-70.93076826649795, 42.31905833299317]]], [[[-70.97406902681446, 42.31216348628232], [-70.97311466606399, 42.312900740650036], [-70.97188319407566, 42.31431813192314], [-70.97077484496583, 42.31632802685558], [-70.96948047799145, 42.31822451409201], [-70.96886564081441, 42.321108835466596], [-70.9684346245354, 42.322187769466034], [-70.96791155569919, 42.32282737785061], [-70.9653225560587, 42.32486299014836], [-70.96532326061245, 42.325340716595974], [-70.96335111616011, 42.32623970642649], [-70.95999195182965, 42.328296921373415], [-70.95940603083426, 42.328865859443894], [-70.95869776482118, 42.330283316080894], [-70.95814347899146, 42.330608189607524], [-70.95758758281377, 42.33078844182615], [-70.9562926900574, 42.3308560368014], [-70.95453606109736, 42.330471838633756], [-70.95425821308297, 42.33024206811778], [-70.95422763945193, 42.329720310146875], [-70.95441217585324, 42.32949217165839], [-70.95712501166693, 42.3280673446637], [-70.95943568685962, 42.32608181271318], [-70.96029863988888, 42.32463469174426], [-70.96072901843682, 42.32358223151053], [-70.96344096930427, 42.32020246702871], [-70.96630451674947, 42.314297424628656], [-70.9667966279716, 42.31392889586516], [-70.96889297075053, 42.313604364942634], [-70.9700940866009, 42.312944246748785], [-70.9707714003651, 42.311752213177044], [-70.97104886153423, 42.311549233926065], [-70.97403779650944, 42.31047020756639], [-70.97644137666666, 42.31023978914648], [-70.97699649143631, 42.31040099563853], [-70.976873905962, 42.31076337303583], [-70.97406902681446, 42.31216348628232]]], [[[-70.9402619774566, 42.32486972699075], [-70.94192623076151, 42.326264850658745], [-70.94211137391122, 42.32670295957945], [-70.94192673145385, 42.32711113891737], [-70.94121799214166, 42.327573603085824], [-70.94017019688873, 42.327573568999725], [-70.93693222071992, 42.32665576108413], [-70.934528724656, 42.32647177908362], [-70.9338810831105, 42.32626602265537], [-70.93348036487377, 42.325858911223534], [-70.93708725956755, 42.3258068580756], [-70.93795029925154, 42.3256028859363], [-70.93918272443791, 42.324852087089106], [-70.93967591189012, 42.32475320807466], [-70.9402619774566, 42.32486972699075]]], [[[-70.92632836325345, 42.32661064353671], [-70.9270069344328, 42.327292633085264], [-70.93018196741137, 42.32885131329908], [-70.93135316439312, 42.328876807218855], [-70.93156874677727, 42.329422557594576], [-70.93101389334544, 42.33063916200343], [-70.93107507971467, 42.3312775553062], [-70.93209294509934, 42.33242259798301], [-70.9320618115716, 42.33276512223897], [-70.93147586870187, 42.33319831048808], [-70.93061243723636, 42.333537277891956], [-70.93008877069022, 42.3334744751909], [-70.93005764301078, 42.33301516601621], [-70.92814641350166, 42.33067838860837], [-70.9263906407839, 42.328942744156045], [-70.92521910472618, 42.32736811074851], [-70.92355446302783, 42.3261983809531], [-70.92352370813714, 42.325766080074764], [-70.92401624397017, 42.32532571142437], [-70.92450978622048, 42.325190886911905], [-70.92546590495748, 42.325282887058144], [-70.92608230069567, 42.32566915889167], [-70.92632836325345, 42.32661064353671]]], [[[-70.96388796651782, 42.35565050484058], [-70.96213034939771, 42.355564084344515], [-70.96105072626055, 42.355861754614786], [-70.96009445302475, 42.35595011219097], [-70.95947808858924, 42.35583467967361], [-70.95639354924798, 42.35403192436614], [-70.9557447070266, 42.353439722965405], [-70.9552206980081, 42.3522055214495], [-70.95364740006346, 42.350025524392024], [-70.95355501936359, 42.34952316885869], [-70.95423333234699, 42.3489344438394], [-70.95432467628169, 42.34799631566666], [-70.95373890205906, 42.3462587701447], [-70.95339930028486, 42.34570628547819], [-70.95336833604564, 42.34472481161935], [-70.95318306101099, 42.34428672253332], [-70.95330624087622, 42.34387879720257], [-70.95392295360286, 42.34389523237508], [-70.95457088345925, 42.344469998208474], [-70.95719210932906, 42.34524428115637], [-70.95765448068121, 42.34557000810358], [-70.9585499113242, 42.34769837128924], [-70.96009203441311, 42.34878879440721], [-70.96200416911562, 42.34954894312332], [-70.96354659274314, 42.35050427569215], [-70.9644403668404, 42.35068681337937], [-70.96527421371667, 42.351879649565795], [-70.96527416604931, 42.35222176240708], [-70.9650270000787, 42.35267638840019], [-70.96567516478828, 42.35313348941741], [-70.96891465548688, 42.354465180368116], [-70.96891462871756, 42.3548072930203], [-70.96808145026377, 42.35501107315541], [-70.9682668928003, 42.35528708394344], [-70.96919061239248, 42.35568523109058], [-70.9674647967885, 42.35670921715401], [-70.96650934779484, 42.3564521430928], [-70.96518397305954, 42.35634020218017], [-70.96388796651782, 42.35565050484058]]]]}}