{"type": "Feature", "properties": {"district_name": "Middlesex and Worcester", "chamber": "senate", "vintage": "2001-2010"}, "geometry": {"type": "Polygon", "coordinates": [[[-71.39952702897315, 42.5338181597791], [-71.39779104998019, 42.526121264056634], [-71.39142103256496, 42.506712930160205], [-71.38513301039583, 42.50445284309541], [-71.390798078553, 42.495481186938214], [-71.39696194145908, 42.48685908960176], [-71.41687899709297, 42.456712150377406], [-71.43027602890194, 42.43674595589325], [-71.4335789658612, 42.42881377674168], [-71.4351659563234, 42.42548820443005], [-71.4424940844911, 42.40691678236269], [-71.44212095862329, 42.40666114407462], [-71.43888702193755, 42.40581209427157], [-71.43782699874815, 42.40536814403535], [-71.4372050707499, 42.40453393206732], [-71.43621306522274, 42.40179881774622], [-71.43547795941141, 42.40052114990702], [-71.43481406037124, 42.3999727362945], [-71.43297704530187, 42.3991051708783], [-71.42772506304661, 42.39924603557806], [-71.42443192754666, 42.40045084523148], [-71.42369204246619, 42.3995692174205], [-71.4235449280412, 42.39849385913848], [-71.42447708501773, 42.39553708451913], [-71.42478798039846, 42.3935898883839], [-71.42393691595355, 42.392906810434916], [-71.42272092524955, 42.39224204967758], [-71.42086294998946, 42.39069400675171], [-71.41859991442314, 42.38709583851211], [-71.4183429508865, 42.38506891611314], [-71.41505296991626, 42.382928946529134], [-71.41225197461489, 42.3825599826599], [-71.41281491178952, 42.381884079648444], [-71.41327900567623, 42.38064092642107], [-71.41426004714384, 42.37887093397517], [-71.41501194203633, 42.376608988063296], [-71.416183046635, 42.37392027397469], [-71.41971300737208, 42.36691526431018], [-71.41950395408348, 42.36603115837998], [-71.41906696699324, 42.36583898009455], [-71.41886991210515, 42.36537125962864], [-71.41927592743279, 42.36500693286874], [-71.41916401139095, 42.364562904831445], [-71.41855408933849, 42.36418717125306], [-71.41879502535451, 42.36386211623997], [-71.41857605714515, 42.36318393960092], [-71.41892999249322, 42.36274586674098], [-71.41838306664323, 42.36222106789895], [-71.41628899705162, 42.3610959029019], [-71.41504206165338, 42.36054300528332], [-71.41442694225984, 42.36055098936192], [-71.41428293015485, 42.360168826374476], [-71.41301104176841, 42.3593058544723], [-71.4121879299831, 42.358995195400404], [-71.41152208442212, 42.35839712489149], [-71.41047400552651, 42.35838506030725], [-71.40987296437906, 42.357712194871496], [-71.40889902474494, 42.35798488729721], [-71.40832804807928, 42.35778187076425], [-71.4082180799532, 42.358018106343486], [-71.40800295850526, 42.35804606818537], [-71.40764404301041, 42.35770423709204], [-71.40732695547298, 42.35768316305675], [-71.40699597008229, 42.358342913044986], [-71.40614701496816, 42.35770977723844], [-71.40554696036499, 42.35768115225469], [-71.40502305062999, 42.357972186182614], [-71.40454091424697, 42.35797797642052], [-71.40363493914371, 42.357693070214786], [-71.40350804975363, 42.357322723947526], [-71.4024870952124, 42.357075973992764], [-71.4015159775261, 42.357471832082254], [-71.39996494271821, 42.357330950089555], [-71.39975591691973, 42.35758115828493], [-71.39937608288224, 42.35766072636748], [-71.39931702070943, 42.35735176631332], [-71.39889105297743, 42.35698621674859], [-71.39935397528785, 42.356893781486555], [-71.39941806891812, 42.35678186529622], [-71.39923199407767, 42.35667310618526], [-71.39861798938628, 42.35671814319501], [-71.39854708094254, 42.35717609785974], [-71.3978239699078, 42.35748324071192], [-71.39767592280009, 42.356964885721204], [-71.39725499710323, 42.356772075683075], [-71.39667707382065, 42.35690322379247], [-71.3966669987073, 42.35656898595062], [-71.39651806516741, 42.35648388814516], [-71.39619008772729, 42.35674804968817], [-71.39608405144115, 42.3565268227479], [-71.39545608603423, 42.356755262230784], [-71.3956100241182, 42.35702604860542], [-71.39546296487998, 42.3572988122471], [-71.3938559365762, 42.356968175553625], [-71.39362294596503, 42.357019163675595], [-71.3936100529586, 42.357241970932336], [-71.39326094394198, 42.35731873387513], [-71.39368192496167, 42.3575869569707], [-71.39305101449769, 42.35786377057941], [-71.39260006756365, 42.35781889904233], [-71.39227105941286, 42.35811793421391], [-71.39112002822384, 42.357980120321265], [-71.3905500487333, 42.35493100713812], [-71.38970597302988, 42.354774902393245], [-71.38845407904627, 42.34959989492146], [-71.38727093083584, 42.34820780658542], [-71.38719599759723, 42.34769119662098], [-71.38746604347148, 42.344701963016995], [-71.38987994679849, 42.34515275318241], [-71.39047995048446, 42.3451381339929], [-71.39155896027022, 42.344785233335074], [-71.39268599510893, 42.344172973591704], [-71.39733994918821, 42.34310701265253], [-71.39771405431412, 42.34264820209486], [-71.39660499124139, 42.34089616057052], [-71.40230604598304, 42.34179580191207], [-71.4697079435313, 42.3510949572185], [-71.48301808379463, 42.35265123863772], [-71.48570796936123, 42.33459477051196], [-71.4866079804671, 42.33009514829951], [-71.48500703718177, 42.32099419430237], [-71.48558504607927, 42.31407612870782], [-71.48620808615229, 42.31039515440334], [-71.50542208432411, 42.27324927167359], [-71.50573201319659, 42.27172325691918], [-71.50594308923463, 42.2644758667305], [-71.50774103109529, 42.263828108968475], [-71.51002608237137, 42.264750173173965], [-71.51027896046669, 42.26504499780676], [-71.5104419879238, 42.26598522977941], [-71.51154892645526, 42.26575273489039], [-71.51347509314182, 42.267036009358236], [-71.51474204956907, 42.267507946284915], [-71.51769300116177, 42.26751878324918], [-71.51933194813235, 42.267295133167444], [-71.52064702654752, 42.2665032066197], [-71.5211590925626, 42.26636187949176], [-71.52277306808563, 42.26633006041231], [-71.52444600767667, 42.26597972641418], [-71.52784894160303, 42.26594519048797], [-71.53234003196437, 42.26614207865497], [-71.53429198444299, 42.26527779081298], [-71.53579591716894, 42.26495772671481], [-71.53678806960758, 42.26455790669466], [-71.53755591363179, 42.26468595036138], [-71.53842002207733, 42.26459000802742], [-71.53883603815942, 42.263870193687595], [-71.53970005173186, 42.26303824934202], [-71.54005194750857, 42.26278210529979], [-71.54046800584518, 42.262766204237295], [-71.54141208395431, 42.26308603562577], [-71.54193992208141, 42.263709862078805], [-71.54232503284004, 42.263853768211995], [-71.54454901706522, 42.26420573061709], [-71.54462903801081, 42.26434974696577], [-71.54434101946241, 42.26467002642485], [-71.54448504249984, 42.26479826294499], [-71.5451409267582, 42.26458981347088], [-71.54598902833465, 42.26463786787943], [-71.54626107940558, 42.26476605082974], [-71.54638894848878, 42.26506984923914], [-71.54752494944158, 42.265149848694854], [-71.54862904051436, 42.26559784650224], [-71.54859704150348, 42.26585388176501], [-71.54920495512712, 42.2658221125306], [-71.55000508576289, 42.2660142051989], [-71.5502609398339, 42.266238042154576], [-71.55210092101555, 42.26676614602285], [-71.5536369302802, 42.26748623830687], [-71.55486891471678, 42.26767809452586], [-71.55555697714638, 42.267453815119154], [-71.55677290939315, 42.267902242995014], [-71.55720507948159, 42.26786995549281], [-71.55802094798621, 42.26740589381179], [-71.55848507710385, 42.26732575711501], [-71.55893290776325, 42.267438065161144], [-71.5590609875073, 42.26769402100651], [-71.56003697640686, 42.267534275080045], [-71.5611570948238, 42.26777395049485], [-71.5618449143969, 42.267709998744216], [-71.5627089946886, 42.26738992510418], [-71.56302899153597, 42.26750172422868], [-71.58738202020083, 42.25938985634878], [-71.59992593653634, 42.225566022371375], [-71.60845394373383, 42.22751812792685], [-71.61715803534018, 42.229726006324746], [-71.62154196285708, 42.23060599511689], [-71.64440294761903, 42.22646287037334], [-71.64491099891035, 42.22739404451939], [-71.64910793722488, 42.24532494306665], [-71.65106600525823, 42.247406016655624], [-71.66261208167747, 42.245894055149805], [-71.67131200197841, 42.244294058275315], [-71.67451202431174, 42.248094136430645], [-71.67671191666706, 42.251893978895005], [-71.67731203223214, 42.25239384569295], [-71.6778119785894, 42.25329393537796], [-71.67381207874816, 42.25749376877499], [-71.67101206272363, 42.26069403454889], [-71.65961202892498, 42.266893805424736], [-71.67061201187144, 42.27859309885893], [-71.66896803319119, 42.27946881560747], [-71.66399202967895, 42.281277180671374], [-71.65829901036099, 42.28290288447029], [-71.64317498439655, 42.28815681403057], [-71.64362293238035, 42.28894119800124], [-71.64315894099208, 42.28935703734049], [-71.64325492137743, 42.290077152080244], [-71.64283907117927, 42.290589148773364], [-71.64163908150029, 42.29062101940904], [-71.6418310439607, 42.29122904285733], [-71.64144698683285, 42.2913088546541], [-71.64099905294435, 42.291037066754754], [-71.640727017523, 42.29105315543378], [-71.64067894216993, 42.29150110991049], [-71.6410629219599, 42.29198117023318], [-71.6409189517929, 42.29233302367746], [-71.6402470947726, 42.2925887411165], [-71.64005502516606, 42.29201278825403], [-71.63978308170842, 42.29190114557671], [-71.63831094413965, 42.29260515544577], [-71.63797500832146, 42.29303713702425], [-71.6383430811205, 42.293612881422796], [-71.63759097438518, 42.29505312652796], [-71.63747899596237, 42.296188753617805], [-71.63704705526418, 42.29657301898421], [-71.63504691126025, 42.296493235797584], [-71.63463107355261, 42.29697312908223], [-71.6346310452141, 42.29740526902078], [-71.63509491686328, 42.298301077106466], [-71.63443893276803, 42.29884483468104], [-71.63400703856685, 42.299805274571575], [-71.63397494644542, 42.300221133873436], [-71.63330306650731, 42.30114921486308], [-71.63256700807584, 42.302749207550505], [-71.63175092991948, 42.30306918657834], [-71.6314789998341, 42.30370926682985], [-71.63091898609049, 42.30369302581175], [-71.63003901582155, 42.304284840449824], [-71.62911108505246, 42.30441305280676], [-71.62879093159881, 42.30465311430696], [-71.63189504543664, 42.30538895635233], [-71.6328390328618, 42.30478073588707], [-71.63467898288565, 42.30399702970058], [-71.6391910732012, 42.304348955277206], [-71.64104706478165, 42.30391680343447], [-71.64397507235824, 42.3055809596517], [-71.64453496050223, 42.305948813016386], [-71.64480691086172, 42.30636485474939], [-71.64506402534464, 42.30799686839345], [-71.64495202355943, 42.31180523341209], [-71.64415197693137, 42.3140288274904], [-71.64338294228617, 42.31532507941166], [-71.64136704327937, 42.3160129211159], [-71.64003903990398, 42.31682874488593], [-71.63797492149934, 42.31847707988851], [-71.63741492637182, 42.31922892814492], [-71.6370149205003, 42.32025291980925], [-71.63586295742593, 42.32066898205112], [-71.63607108597853, 42.32102097315477], [-71.63648695201704, 42.32127706186932], [-71.63695093125251, 42.32134121809175], [-71.63803908306924, 42.32199712585238], [-71.63935109543874, 42.32238097798319], [-71.63931892171121, 42.32274900921199], [-71.6395429417705, 42.322989001483116], [-71.63634299282205, 42.325196855570375], [-71.63312696654428, 42.327709047005996], [-71.63096708323117, 42.329052953596914], [-71.63032694099587, 42.3309251490359], [-71.62727097530217, 42.334476819865664], [-71.62581501332718, 42.33673307138333], [-71.62429506687072, 42.33735704585636], [-71.62255102514449, 42.338397057654824], [-71.61837498426937, 42.34257311955898], [-71.62167094653012, 42.34602901365886], [-71.62597495818288, 42.34983707152209], [-71.6100550197527, 42.357693163135195], [-71.60778309413053, 42.36106911074308], [-71.60730294924018, 42.361469058387414], [-71.60587903781216, 42.36372501281697], [-71.60562304407026, 42.36388504756544], [-71.60306290803004, 42.36750085998], [-71.60791107896047, 42.37049321131578], [-71.5982950757363, 42.37599689100164], [-71.58021405502619, 42.38718107207391], [-71.60242296618016, 42.39695615768373], [-71.60392694674854, 42.397739733224796], [-71.58543002080204, 42.40701985404544], [-71.55904603572255, 42.41198113642595], [-71.55418197509462, 42.428443763952174], [-71.55336909123365, 42.433361270175844], [-71.5490769381257, 42.44748602918977], [-71.56405492111446, 42.45292580385221], [-71.57710408153187, 42.457419098854146], [-71.59543905892325, 42.464133100970116], [-71.60001408139192, 42.465467225833116], [-71.61439598536907, 42.47019706512018], [-71.63539692223571, 42.47728912471004], [-71.6339899091053, 42.477699259612166], [-71.63351191119676, 42.4780182792131], [-71.63335402264289, 42.47856874207978], [-71.63342502753272, 42.478897815080636], [-71.63413407397911, 42.48079990225768], [-71.63372396659682, 42.4812420655327], [-71.63343603251988, 42.48203687244907], [-71.6332730473131, 42.48341894878966], [-71.63294206306823, 42.48354199049118], [-71.63223895906299, 42.483204079497156], [-71.63190803552867, 42.48326578846777], [-71.63189594497234, 42.48366416399173], [-71.632596076951, 42.48493778006108], [-71.63395101624644, 42.485162964081134], [-71.63430102706336, 42.485405062095616], [-71.63428197009752, 42.48564815232919], [-71.63399609176065, 42.48607497940765], [-71.63352493405802, 42.4862431981707], [-71.63311401340557, 42.486137893964575], [-71.63228992120884, 42.48548616031832], [-71.63186003395984, 42.485487215658345], [-71.63110904941347, 42.48745005848859], [-71.62926792553696, 42.488808141797776], [-71.62917309539343, 42.49029816338959], [-71.62797393761365, 42.49299124986968], [-71.62795105862105, 42.49361301043148], [-71.62816507001565, 42.494450004996644], [-71.62796207481853, 42.49492173631368], [-71.62700106117084, 42.49568407273525], [-71.62627193885103, 42.497784142336435], [-71.62617306325606, 42.49852920651108], [-71.62617595053695, 42.49921282966859], [-71.62686203343338, 42.50037283444219], [-71.62911994465529, 42.50129589503441], [-71.6315460511915, 42.50253211822609], [-71.63250804701501, 42.502394853917046], [-71.63340790674295, 42.502631819035486], [-71.6335449783999, 42.50290623590708], [-71.63351498456198, 42.503555011665284], [-71.63394204890484, 42.50386791493456], [-71.63401796053347, 42.504164908393776], [-71.63394200282204, 42.504652818260084], [-71.63250804014686, 42.506919159568625], [-71.63150097380499, 42.50781211960545], [-71.63131705414901, 42.50832321915194], [-71.63174498905536, 42.50949811500994], [-71.63145497675649, 42.50964304810101], [-71.63102801360264, 42.50948317780936], [-71.6300969718947, 42.50993322996799], [-71.6299140367491, 42.510192256987494], [-71.62991405515038, 42.51094002370965], [-71.62953194612793, 42.5112380974136], [-71.6292419901688, 42.51113827048896], [-71.62863200023311, 42.51045195260353], [-71.62815893785017, 42.51052787504436], [-71.62802207015537, 42.51072608119731], [-71.62802200073457, 42.511535177118375], [-71.62747194977962, 42.512657154880195], [-71.62802204444938, 42.51324395540324], [-71.62922699962446, 42.51338102381587], [-71.62968508358931, 42.51377774263386], [-71.62930297127004, 42.514640156392424], [-71.62930306388805, 42.51533503274791], [-71.6295779761379, 42.5157848464465], [-71.63001995320059, 42.515922198835334], [-71.63098191754277, 42.51576187925824], [-71.6319129368573, 42.51589923044275], [-71.63230906959271, 42.51629600946647], [-71.63218708793822, 42.516882996238536], [-71.63087507147216, 42.51714275055102], [-71.63056995144123, 42.517355779193515], [-71.63035606377393, 42.518103786508114], [-71.63047794067008, 42.51883622218792], [-71.63101206816222, 42.519110753557605], [-71.63168397568441, 42.51888999106088], [-71.63197396995167, 42.51898924898314], [-71.63304192441431, 42.520468922577415], [-71.63331591643197, 42.52126982277084], [-71.63411208887003, 42.521891192668214], [-71.63432303410478, 42.522276926382375], [-71.63511196340832, 42.52279083116328], [-71.63603200848821, 42.52307782720549], [-71.63581208061505, 42.524090859601245], [-71.6757139900974, 42.52998981569107], [-71.6786139793071, 42.53028975497222], [-71.67741402192426, 42.53958996936994], [-71.67641404558277, 42.54529001539863], [-71.67541397417463, 42.54978991524732], [-71.6753139198394, 42.55218976084511], [-71.67471405418121, 42.5545898000618], [-71.67091394090838, 42.57728979840383], [-71.66211404774361, 42.62508916243915], [-71.6621140775115, 42.625988816527986], [-71.66041405244582, 42.635088991534495], [-71.65925792352097, 42.63411498402877], [-71.65895301340638, 42.63406926800274], [-71.65829690845098, 42.6344347557295], [-71.6579919230298, 42.634435173253], [-71.6577479067006, 42.63352685286572], [-71.65645097354425, 42.6325890176817], [-71.65413099537396, 42.63127613492232], [-71.65309401202417, 42.630506142106164], [-71.65170491821772, 42.63023903550124], [-71.65104905954497, 42.62983423547803], [-71.650483923312, 42.629048972476205], [-71.6501949156659, 42.62894919964838], [-71.64993508928968, 42.62822486357338], [-71.64930996971752, 42.6275150654149], [-71.64929405337072, 42.62730916157715], [-71.64995008826781, 42.62700392620499], [-71.64996607727326, 42.626759721812434], [-71.64904991992178, 42.62628716888185], [-71.64900396728807, 42.625783107000274], [-71.64721406823534, 42.62478897499713], [-71.64697495215181, 42.62483710353157], [-71.64671402561898, 42.625088933287465], [-71.64686804797522, 42.62538693427425], [-71.64670001836504, 42.625698847765655], [-71.64714296301928, 42.62614895515259], [-71.64691404578996, 42.62648907818903], [-71.64558595325143, 42.625699132101516], [-71.64558602002899, 42.62523383262873], [-71.64596809678653, 42.62473823126527], [-71.64566302680363, 42.624105088861846], [-71.64482305633985, 42.62426480835629], [-71.64471698168344, 42.624769062673714], [-71.64445690732028, 42.62489823174665], [-71.64418304592934, 42.62474609975002], [-71.6440760790072, 42.62427980845015], [-71.64445708726139, 42.623730762902206], [-71.64399901119013, 42.62331104612067], [-71.64416704993002, 42.62316623912851], [-71.64525106552092, 42.623699947438034], [-71.64552502756948, 42.6233192608932], [-71.64514402939264, 42.62279311329774], [-71.64404493611258, 42.62265495562486], [-71.64384698978166, 42.62229680333345], [-71.64479299137693, 42.62170879201962], [-71.64482304435982, 42.6215258976571], [-71.64407592578267, 42.62146494212623], [-71.64344997322367, 42.62116696158203], [-71.64328195541401, 42.62081721053446], [-71.64338903516881, 42.619664798778516], [-71.64383205514063, 42.61917587957774], [-71.6438470277909, 42.61881014728222], [-71.64413693786267, 42.618496959961284], [-71.64411398746238, 42.61728900788453], [-71.642990951257, 42.61721501053055], [-71.64346399703746, 42.616620279468], [-71.64325104260541, 42.61576589844305], [-71.64225899293551, 42.61473581114396], [-71.64061292660082, 42.61408910655461], [-71.63986293046057, 42.61414796896652], [-71.63856597219836, 42.613415853557655], [-71.63792502437133, 42.61361410653825], [-71.63707102080865, 42.61278298281974], [-71.63626196441952, 42.61291222163817], [-71.63551494118612, 42.61240110068938], [-71.63405002958903, 42.61261492478882], [-71.63351291353348, 42.61238880417866], [-71.6342330093024, 42.61117323500754], [-71.63528590910742, 42.61065381699095], [-71.63380592875676, 42.608595161559904], [-71.63293590880245, 42.608327788104056], [-71.63256997490134, 42.607808893833976], [-71.63195898725674, 42.607564846089964], [-71.63073908578933, 42.60761124482027], [-71.63028099342725, 42.607359138041], [-71.63003701280829, 42.60705390050458], [-71.63028105309826, 42.60646679365983], [-71.62989907950839, 42.60581793928834], [-71.62976209478192, 42.605039964235246], [-71.6302960015457, 42.603750920345774], [-71.62910605985415, 42.60240023573261], [-71.62884606828564, 42.60235382712316], [-71.62800705798641, 42.60323922879554], [-71.62768695488845, 42.603316102125056], [-71.62735094484856, 42.60239993440625], [-71.62828197712729, 42.60051575040276], [-71.62631392639682, 42.598647144085675], [-71.62612997325778, 42.5962510621898], [-71.62686293102117, 42.59454208351928], [-71.62680205291237, 42.593900740384434], [-71.62639005564206, 42.59360299275159], [-71.62498609157625, 42.593625901656345], [-71.6245129119028, 42.59318980397181], [-71.62451294971379, 42.59330514523484], [-71.62409297067008, 42.59320094631744], [-71.62349307263405, 42.59269802632504], [-71.62346093449219, 42.591647047920624], [-71.62376990966938, 42.59116622181358], [-71.62377006466335, 42.59066322069572], [-71.62048701463053, 42.58767006732795], [-71.62005409111266, 42.58744208599042], [-71.61909395554915, 42.587350807394245], [-71.61872203080934, 42.58696184263341], [-71.61869095384665, 42.58673400478123], [-71.61921706478849, 42.58611624478917], [-71.61921703061383, 42.585796101719424], [-71.61819508295534, 42.58582022099949], [-71.61729802786799, 42.58616322218969], [-71.61652391219528, 42.585981147721576], [-71.61519396669904, 42.586209789836914], [-71.61488500790557, 42.58609588151144], [-71.61426497489126, 42.58543314245755], [-71.61423407010169, 42.58497574531273], [-71.61460505460367, 42.58444987010063], [-71.61451207141324, 42.58408424515311], [-71.61327306146133, 42.583101969508256], [-71.61333403997645, 42.5821870535101], [-71.61311801410429, 42.58198077572469], [-71.61228196555021, 42.58193601804279], [-71.61126205625759, 42.58232522884149], [-71.61020993708834, 42.582371249624934], [-71.61002400630615, 42.58228027897834], [-71.60999303358192, 42.581983233413126], [-71.6107970625223, 42.58157117289255], [-71.61092090899987, 42.581318990177245], [-71.6105799962822, 42.5810908844992], [-71.60897200451248, 42.58118299929288], [-71.60659101796229, 42.58294516748927], [-71.60615802967398, 42.58296807221699], [-71.60426999869532, 42.58214495995644], [-71.60238293348176, 42.58223779730801], [-71.60083694240059, 42.58303811001614], [-71.60069194292656, 42.58342195841206], [-71.511477987638, 42.56934916583374], [-71.5064699344585, 42.57208625376243], [-71.50298401399459, 42.575429059242836], [-71.4988850906269, 42.57663483581842], [-71.49299698416269, 42.575770972175555], [-71.48386098614407, 42.573786739794514], [-71.4834290746623, 42.57340295596154], [-71.48358096251869, 42.5733309593441], [-71.4815560495777, 42.566779230021055], [-71.48007005783639, 42.55833199460262], [-71.4770440002639, 42.55636273465758], [-71.46797991602976, 42.55154375988113], [-71.4282170177342, 42.52876391906288], [-71.4266739331088, 42.52743621823006], [-71.42384400644504, 42.52581282449324], [-71.4185290770832, 42.52778409629356], [-71.40824198640331, 42.530876011358025], [-71.40553809132055, 42.53191810705739], [-71.39952702897315, 42.5338181597791]]]}}