{"type": "Feature", "properties": {"district_name": "Third Suffolk District", "chamber": "senate", "vintage": "2022-present"}, "geometry": {"type": "Polygon", "coordinates": [[[-71.091235, 42.354338], [-71.077952, 42.35873500000001], [-71.077334, 42.35908399999999], [-71.076092, 42.36038], [-71.074792, 42.363773000000016], [-71.073721, 42.365056], [-71.069478, 42.36904599999999], [-71.063921, 42.369016000000016], [-71.062994, 42.36839100000001], [-71.059795, 42.368767], [-71.057141, 42.369982], [-71.054995, 42.370697], [-71.050895, 42.370697], [-71.049095, 42.371197], [-71.046995, 42.372597000000006], [-71.046113, 42.37479799999999], [-71.045195, 42.37709699999999], [-71.044298, 42.383209], [-71.043264, 42.383594000000016], [-71.039512, 42.38685300000001], [-71.038813, 42.386810999999994], [-71.038357, 42.386529], [-71.034975, 42.385876], [-71.033234, 42.384910000000005], [-71.031995, 42.38459700000001], [-71.027712, 42.384041], [-71.022428, 42.386373], [-71.020512, 42.38764099999999], [-71.017794, 42.390697], [-71.016094, 42.395897], [-71.013395, 42.39739799999999], [-71.009629, 42.40016700000001], [-71.009445, 42.400475], [-71.009396, 42.401183], [-71.010861, 42.401689000000005], [-71.013007, 42.402864], [-71.013772, 42.402964], [-71.01563, 42.402704000000014], [-71.017035, 42.40271499999999], [-71.017826, 42.402883], [-71.018088, 42.40335699999999], [-71.018715, 42.403709000000006], [-71.019981, 42.40372300000001], [-71.020828, 42.403513000000004], [-71.021169, 42.40392400000001], [-71.021191, 42.40423299999999], [-71.020305, 42.404829], [-71.020442, 42.405114], [-71.02148, 42.405164000000006], [-71.022442, 42.405474], [-71.022855, 42.40512499999999], [-71.023278, 42.40554399999999], [-71.023847, 42.40532400000001], [-71.024901, 42.40590000000002], [-71.025753, 42.405756999999994], [-71.026237, 42.40592500000002], [-71.026888, 42.40655000000001], [-71.026898, 42.40733199999999], [-71.027115, 42.40778199999998], [-71.02797, 42.40872699999999], [-71.029036, 42.410354000000005], [-71.033181, 42.41420599999999], [-71.031275, 42.418433000000014], [-71.02962, 42.42129899999999], [-71.02858, 42.42356800000001], [-71.020377, 42.43824999999998], [-71.025836, 42.44470900000001], [-71.018757, 42.45011800000001], [-71.011924, 42.442164], [-71.009503, 42.440963999999994], [-71.011826, 42.439944000000004], [-71.011897, 42.439748000000016], [-71.012365, 42.439741000000005], [-71.011802, 42.438997], [-71.011141, 42.43906399999998], [-71.01093, 42.438597000000016], [-71.01067, 42.438739000000005], [-71.010536, 42.43844500000001], [-71.010099, 42.438301], [-71.01013, 42.43817599999999], [-71.010625, 42.438102], [-71.010736, 42.43776400000001], [-71.010425, 42.437583999999994], [-71.010677, 42.437347], [-71.010639, 42.43719599999999], [-71.010927, 42.437083], [-71.01109, 42.436795], [-71.011442, 42.436693000000005], [-71.010994, 42.43654200000001], [-71.01144, 42.436225000000015], [-71.011416, 42.435990999999994], [-71.010802, 42.435397999999985], [-71.010777, 42.43456799999998], [-71.009277, 42.43427799999999], [-71.00858, 42.434346], [-71.007873, 42.433972], [-71.006974, 42.43383800000001], [-71.006532, 42.43339399999999], [-71.005691, 42.432981], [-71.004632, 42.43305500000001], [-71.003302, 42.43270299999998], [-71.002994, 42.432837], [-71.00215, 42.43260800000001], [-70.999857, 42.431296], [-70.998475, 42.431296], [-70.995714, 42.430855000000015], [-70.994779, 42.43119600000001], [-70.992023, 42.43413499999999], [-70.99012, 42.43487700000001], [-70.987805, 42.43399799999998], [-70.985754, 42.432557], [-70.983708, 42.431663], [-70.982294, 42.431296], [-70.979894, 42.432396000000004], [-70.975194, 42.436896000000004], [-70.971594, 42.442696], [-70.968594, 42.444396], [-70.966293, 42.44349700000001], [-70.950793, 42.44429599999999], [-70.951393, 42.436996], [-70.952993, 42.42939599999999], [-70.959093, 42.41859699999998], [-70.962093, 42.412397000000006], [-70.959494, 42.407498000000004], [-70.924593, 42.386798], [-70.917892, 42.38599700000002], [-70.967048, 42.356954], [-70.967257, 42.35706900000001], [-70.96882, 42.35586600000001], [-70.968935, 42.35592500000001], [-70.972893, 42.35359699999999], [-70.975094, 42.34349900000001], [-70.988173, 42.34344700000002], [-71.010994, 42.34269800000001], [-71.026895, 42.353097999999996], [-71.042596, 42.363798], [-71.049396, 42.354498], [-71.05106, 42.355130999999986], [-71.051529, 42.35467200000001], [-71.053612, 42.35365499999999], [-71.053847, 42.35388], [-71.055354, 42.35309999999998], [-71.058009, 42.35235], [-71.060119, 42.35255800000001], [-71.062575, 42.35239899999999], [-71.062516, 42.353280000000005], [-71.064235, 42.353394000000016], [-71.064562, 42.35238300000001], [-71.067533, 42.352513], [-71.0684, 42.352356], [-71.071057, 42.35180299999998], [-71.079508, 42.349508], [-71.078718, 42.347834000000006], [-71.07891900000001, 42.34769299999999], [-71.078699, 42.347697], [-71.0849, 42.34273300000001], [-71.083151, 42.34162199999999], [-71.083504, 42.341263], [-71.084681, 42.340293], [-71.086469, 42.341375000000006], [-71.090567, 42.33956799999999], [-71.091188, 42.340949], [-71.090407, 42.34229300000002], [-71.089222, 42.346633999999995], [-71.089264, 42.34688700000001], [-71.087758, 42.34729999999999], [-71.091235, 42.354338]]]}}