{"type": "Feature", "properties": {"district_name": "Norfolk, Bristol & Middlesex District", "chamber": "senate", "vintage": "2012-2020"}, "geometry": {"type": "Polygon", "coordinates": [[[-71.45810399999999, 42.017797999999985], [-71.454754, 42.04411699999999], [-71.45468699999999, 42.052223999999995], [-71.45485699999999, 42.059008], [-71.45206, 42.059177999999996], [-71.44328399999999, 42.058176], [-71.441437, 42.058066000000004], [-71.438863, 42.05820400000001], [-71.437523, 42.05838999999998], [-71.434405, 42.05922899999998], [-71.432053, 42.060108], [-71.42842499999999, 42.062034999999995], [-71.42808, 42.06146800000002], [-71.428797, 42.061129], [-71.42894799999999, 42.06072999999999], [-71.43043899999999, 42.060401], [-71.430184, 42.05954200000002], [-71.42975799999999, 42.059059000000005], [-71.429778, 42.057969], [-71.42988799999999, 42.057819], [-71.43041199999999, 42.057832999999995], [-71.43083, 42.05755999999999], [-71.43105, 42.05618], [-71.42429, 42.05553], [-71.42091700000002, 42.05597700000001], [-71.41940600000001, 42.05640700000001], [-71.41618799999999, 42.058592], [-71.4161, 42.058949999999996], [-71.41517999999999, 42.060359999999974], [-71.41485999999999, 42.06191], [-71.414413, 42.06309099999999], [-71.41341, 42.06475999999999], [-71.41301, 42.065729999999995], [-71.41066, 42.06907], [-71.40923, 42.070663999999994], [-71.412154, 42.07267899999999], [-71.39719199999999, 42.08250300000001], [-71.39716, 42.082789999999996], [-71.39856, 42.084329999999994], [-71.39999, 42.08632999999998], [-71.40088, 42.08830999999999], [-71.40113, 42.0891], [-71.40111, 42.08954000000001], [-71.40205, 42.08948999999999], [-71.40319, 42.09064000000001], [-71.40371, 42.09139999999999], [-71.408716, 42.096357000000005], [-71.410319, 42.09722600000002], [-71.41232, 42.09781], [-71.41183, 42.09854000000001], [-71.41090799999999, 42.09889800000002], [-71.40972, 42.09905199999998], [-71.40885399999999, 42.09942300000001], [-71.40765, 42.10117999999999], [-71.40643, 42.101670000000006], [-71.40693999999999, 42.102439999999994], [-71.40836, 42.10391], [-71.41058, 42.10559000000001], [-71.4114, 42.10539000000001], [-71.41412000000001, 42.10523], [-71.41456, 42.105639999999994], [-71.41537, 42.10595], [-71.42126999999999, 42.10620000000001], [-71.42358, 42.10259], [-71.42654, 42.10355999999999], [-71.42851999999999, 42.10478], [-71.42904899999999, 42.10835], [-71.428936, 42.11049100000002], [-71.42988, 42.11390999999999], [-71.43002, 42.11647999999999], [-71.4299, 42.11766], [-71.42914, 42.11931999999999], [-71.42824999999999, 42.11987], [-71.42304, 42.120990000000006], [-71.41721, 42.12356999999999], [-71.41273, 42.123949999999994], [-71.41147, 42.12451000000001], [-71.411333, 42.12378899999999], [-71.41157, 42.12285999999999], [-71.410288, 42.12284999999999], [-71.40991799999999, 42.122649], [-71.40953, 42.120920000000005], [-71.40838, 42.11949], [-71.40760999999999, 42.11905999999999], [-71.40732, 42.118710000000014], [-71.40737, 42.11802], [-71.40714, 42.1167], [-71.40652, 42.11588999999999], [-71.40598, 42.114440000000016], [-71.40414, 42.11458], [-71.40232, 42.11404], [-71.40186, 42.11484000000001], [-71.40128, 42.11504], [-71.39936999999999, 42.11422000000001], [-71.39854, 42.114149999999995], [-71.39799, 42.114360000000005], [-71.39771, 42.11517999999999], [-71.397132, 42.114734999999996], [-71.396689, 42.114943999999994], [-71.396202, 42.11394], [-71.395849, 42.113907], [-71.395723, 42.11242499999999], [-71.39471999999999, 42.10719000000001], [-71.37978, 42.10883000000001], [-71.3823, 42.11203], [-71.38216, 42.112107], [-71.37687, 42.11074000000001], [-71.37648, 42.11193000000001], [-71.37366, 42.11153], [-71.37335, 42.11494], [-71.37396799999999, 42.117098], [-71.379982, 42.126549999999995], [-71.380074, 42.127384], [-71.38051399999999, 42.128051], [-71.380798, 42.12907100000001], [-71.38132399999999, 42.129586999999994], [-71.382072, 42.129715999999995], [-71.38218700000002, 42.129858000000006], [-71.381841, 42.13028800000001], [-71.381743, 42.13086600000001], [-71.38074499999999, 42.13101299999998], [-71.380398, 42.131375999999996], [-71.380417, 42.131578], [-71.381029, 42.13226399999999], [-71.38109299999999, 42.1326], [-71.38075800000001, 42.132756], [-71.380231, 42.132636000000005], [-71.380248, 42.132966], [-71.37953399999999, 42.13313799999998], [-71.379218, 42.13344099999998], [-71.379994, 42.13459100000001], [-71.379978, 42.135160000000006], [-71.37967900000001, 42.135682], [-71.378989, 42.13579099999999], [-71.37822, 42.135429], [-71.376834, 42.13561], [-71.375618, 42.13545399999999], [-71.385358, 42.151512], [-71.402185, 42.178640000000016], [-71.404381, 42.188215], [-71.38482599999999, 42.19189099999999], [-71.38018199999999, 42.201758999999996], [-71.388206, 42.204302999999996], [-71.38848899999999, 42.20800499999999], [-71.391706, 42.20974200000001], [-71.393923, 42.20708899999999], [-71.39731499999999, 42.207926999999984], [-71.39711299999999, 42.20822400000002], [-71.397131, 42.208562], [-71.397323, 42.20874200000001], [-71.397302, 42.20949900000001], [-71.39753, 42.21008899999999], [-71.398095, 42.21077499999999], [-71.398805, 42.211227999999984], [-71.40010099999999, 42.211723], [-71.40115399999999, 42.21295800000001], [-71.402278, 42.21313199999998], [-71.402469, 42.213452], [-71.403701, 42.21438099999999], [-71.40376599999999, 42.214842999999995], [-71.40195299999999, 42.21541999999999], [-71.407331, 42.218164], [-71.407961, 42.217656], [-71.408256, 42.218444999999996], [-71.410186, 42.218753], [-71.410083, 42.219151000000004], [-71.41028399999999, 42.21959199999999], [-71.409263, 42.220541000000004], [-71.409502, 42.220949999999995], [-71.409134, 42.222097], [-71.40920899999999, 42.222906], [-71.409908, 42.22388200000001], [-71.409311, 42.22431799999999], [-71.409301, 42.22455700000001], [-71.409615, 42.225586], [-71.410056, 42.22599099999999], [-71.410324, 42.22650799999998], [-71.411265, 42.226856999999995], [-71.41234899999999, 42.227609], [-71.412598, 42.22796400000003], [-71.412807, 42.228909], [-71.413228, 42.22958899999998], [-71.413032, 42.23133200000001], [-71.413203, 42.23200800000002], [-71.413595, 42.232662000000005], [-71.41340000000001, 42.233697], [-71.413715, 42.23454999999999], [-71.414492, 42.235326], [-71.415452, 42.23564800000001], [-71.415989, 42.236357], [-71.417197, 42.237480000000005], [-71.417407, 42.23787600000001], [-71.418733, 42.23811], [-71.41969499999999, 42.237989999999996], [-71.41984699999999, 42.238006000000006], [-71.419826, 42.238145], [-71.420075, 42.23812300000001], [-71.41931699999999, 42.241543], [-71.418429, 42.246900999999994], [-71.419298, 42.25728099999999], [-71.397769, 42.261527999999984], [-71.390365, 42.27191600000001], [-71.37683299999999, 42.269489], [-71.35690699999999, 42.263495], [-71.356656, 42.263314], [-71.35646, 42.262632999999994], [-71.356939, 42.261780999999985], [-71.356526, 42.26128999999999], [-71.356534, 42.260176999999985], [-71.356304, 42.25959300000001], [-71.354796, 42.259716000000004], [-71.350464, 42.259133], [-71.350624, 42.261156], [-71.350428, 42.26295199999999], [-71.35073299999999, 42.264443], [-71.35146399999999, 42.266073999999996], [-71.351643, 42.26855099999999], [-71.352546, 42.269633999999996], [-71.35493799999999, 42.271545], [-71.35145399999999, 42.275978999999985], [-71.34729, 42.280741000000006], [-71.347276, 42.28378299999999], [-71.347634, 42.285247999999996], [-71.347605, 42.285889], [-71.348319, 42.290945999999984], [-71.348164, 42.293915000000005], [-71.34976499999999, 42.295078], [-71.35003999999999, 42.296243], [-71.350725, 42.296699000000004], [-71.35916, 42.297432], [-71.35949, 42.299015999999995], [-71.359887, 42.29993300000002], [-71.34907799999999, 42.30110599999999], [-71.349088, 42.30304299999998], [-71.34943500000001, 42.303535000000004], [-71.34937599999999, 42.305552000000006], [-71.351012, 42.30510400000001], [-71.352522, 42.304956999999995], [-71.352749, 42.30659099999998], [-71.351248, 42.30687700000003], [-71.348553, 42.30788200000001], [-71.349018, 42.309355000000004], [-71.348038, 42.30953399999998], [-71.347372, 42.310123], [-71.347726, 42.311691], [-71.347032, 42.313158000000016], [-71.346093, 42.314012999999996], [-71.346057, 42.314755], [-71.34553, 42.31485299999999], [-71.345888, 42.31492900000001], [-71.345998, 42.314803999999995], [-71.355199, 42.31717], [-71.35991, 42.317149], [-71.363171, 42.31581099999998], [-71.364093, 42.31590600000001], [-71.36518, 42.31523900000001], [-71.36675699999999, 42.31395], [-71.368753, 42.312837], [-71.369117, 42.311977000000006], [-71.369723, 42.31121900000001], [-71.370425, 42.310848], [-71.37074900000002, 42.310199], [-71.37177, 42.309880000000014], [-71.373395, 42.30985500000002], [-71.373981, 42.310405999999986], [-71.374426, 42.31118300000001], [-71.374935, 42.31155699999999], [-71.37768700000001, 42.314668999999995], [-71.381757, 42.32846899999999], [-71.388832, 42.336269], [-71.388345, 42.336948], [-71.38853999999999, 42.33743299999999], [-71.38902399999999, 42.337568999999995], [-71.389938, 42.337465999999985], [-71.391212, 42.336960999999995], [-71.392681, 42.33568899999999], [-71.39429299999999, 42.335556], [-71.39485599999999, 42.336065999999995], [-71.394971, 42.336526000000006], [-71.394825, 42.338454000000006], [-71.394932, 42.33888799999998], [-71.39684799999999, 42.341062], [-71.398085, 42.34309799999999], [-71.39348, 42.344094000000005], [-71.392754, 42.3444], [-71.391859, 42.34508400000001], [-71.391369, 42.34520899999999], [-71.389071, 42.345033], [-71.387681, 42.344693], [-71.387703, 42.347261], [-71.387939, 42.348636], [-71.388961, 42.35002199999999], [-71.39011099999999, 42.35481199999998], [-71.39080899999999, 42.35523699999999], [-71.391798, 42.361837], [-71.390031, 42.365230999999994], [-71.390237, 42.365384], [-71.390119, 42.365708999999995], [-71.39011599999999, 42.367858999999996], [-71.3897, 42.36843600000001], [-71.387474, 42.36992400000001], [-71.388781, 42.37148100000001], [-71.38752000000001, 42.372792], [-71.386603, 42.373070000000006], [-71.387394, 42.37472699999999], [-71.38781399999999, 42.37527800000001], [-71.384467, 42.37658899999999], [-71.383485, 42.37661800000001], [-71.383465, 42.377033], [-71.382973, 42.37821199999999], [-71.38305, 42.378522], [-71.383889, 42.379506], [-71.38403699999999, 42.379979999999996], [-71.383613, 42.38098199999998], [-71.38136399999999, 42.38342000000001], [-71.378576, 42.38461], [-71.37841600000002, 42.386052], [-71.377256, 42.386705], [-71.377471, 42.38745699999999], [-71.377344, 42.387774], [-71.376398, 42.387843999999994], [-71.37547200000002, 42.38867899999998], [-71.374989, 42.38872699999999], [-71.374505, 42.38855500000001], [-71.374213, 42.38825999999999], [-71.373703, 42.387257], [-71.37338299999999, 42.38711100000001], [-71.372688, 42.38720599999999], [-71.372366, 42.38791499999999], [-71.372573, 42.388991000000004], [-71.372484, 42.38927799999998], [-71.372231, 42.389427999999995], [-71.370297, 42.388465000000004], [-71.369834, 42.388625], [-71.369604, 42.389395000000015], [-71.36923, 42.389703], [-71.368254, 42.39007399999999], [-71.367339, 42.390057], [-71.36571599999999, 42.389399999999995], [-71.36482000000001, 42.38964099999999], [-71.364398, 42.38993199999999], [-71.364429, 42.39022200000001], [-71.364951, 42.39054199999999], [-71.365104, 42.39087199999999], [-71.36508599999999, 42.39170100000002], [-71.364795, 42.39218699999999], [-71.36415199999999, 42.39243399999998], [-71.362392, 42.391668999999986], [-71.36194499999999, 42.391838], [-71.361715, 42.392187999999976], [-71.36215299999999, 42.393067], [-71.36218699999999, 42.39403599999999], [-71.361626, 42.395317], [-71.361729, 42.396018], [-71.362421, 42.396328000000004], [-71.36327899999999, 42.39621100000001], [-71.36446099999999, 42.39629399999999], [-71.367273, 42.397416], [-71.36927299999999, 42.39777999999999], [-71.369901, 42.398307], [-71.36984, 42.39864199999999], [-71.367244, 42.40003699999999], [-71.367347, 42.400512], [-71.368101, 42.40100100000001], [-71.368478, 42.40101100000002], [-71.369267, 42.400670999999996], [-71.369678, 42.400932], [-71.369669, 42.40135600000001], [-71.368436, 42.403136999999994], [-71.36822599999999, 42.403681999999996], [-71.368505, 42.40416300000002], [-71.37066700000001, 42.40509900000001], [-71.37356, 42.40561599999999], [-71.37418199999999, 42.40630499999998], [-71.374567, 42.40723800000001], [-71.374425, 42.407939], [-71.374014, 42.408308], [-71.372281, 42.40873999999997], [-71.370755, 42.409698999999996], [-71.367724, 42.410528000000006], [-71.367243, 42.41098799999998], [-71.367475, 42.41164899999999], [-71.36734799999999, 42.412164999999995], [-71.366326, 42.41271499999999], [-71.332599, 42.399440999999996], [-71.33587800000001, 42.393942], [-71.332358, 42.362410999999994], [-71.327444, 42.321113999999994], [-71.327327, 42.313745999999995], [-71.32974999999999, 42.312991000000004], [-71.326396, 42.304401999999996], [-71.312761, 42.305411], [-71.31497999999999, 42.30753999999999], [-71.31439, 42.307739999999995], [-71.31381999999999, 42.30819], [-71.30985, 42.309219999999996], [-71.30957, 42.30958999999999], [-71.30819, 42.31015], [-71.30610999999999, 42.31131000000001], [-71.30399000000001, 42.312760000000004], [-71.30328, 42.31203], [-71.30315, 42.3117], [-71.30387, 42.309979999999996], [-71.30384, 42.30952000000001], [-71.30322, 42.30905], [-71.30167, 42.30856999999999], [-71.301, 42.30806], [-71.30071, 42.30760000000001], [-71.30073999999999, 42.30734999999999], [-71.30127999999999, 42.306709999999995], [-71.3011, 42.305949999999996], [-71.300787, 42.30596], [-71.30099, 42.305830000000014], [-71.29768, 42.305870000000006], [-71.29903, 42.30457999999999], [-71.29405, 42.300650000000005], [-71.29404, 42.30049], [-71.29459, 42.30015], [-71.293629, 42.299259], [-71.294724, 42.298652999999995], [-71.29545499999999, 42.298031], [-71.29539, 42.29741999999999], [-71.29431, 42.29643], [-71.29294, 42.29659], [-71.290941, 42.293483], [-71.290587, 42.293917000000015], [-71.28950999999999, 42.294654000000016], [-71.28877899999999, 42.295475], [-71.28797, 42.295978000000005], [-71.287183, 42.29497299999999], [-71.28647, 42.29449], [-71.28547, 42.29432], [-71.28411, 42.293800000000005], [-71.28107, 42.2922], [-71.27940000000001, 42.29202], [-71.27844999999999, 42.2924], [-71.27526, 42.29473000000001], [-71.276059, 42.296707999999995], [-71.276776, 42.297326999999996], [-71.279256, 42.29883999999999], [-71.27778599999999, 42.299042000000014], [-71.27663, 42.30001], [-71.27579, 42.30022], [-71.26437, 42.300180000000005], [-71.259199, 42.297976], [-71.233006, 42.31626599999999], [-71.229733, 42.31648600000001], [-71.228887, 42.31634400000002], [-71.227689, 42.31547299999999], [-71.227325, 42.31490800000001], [-71.22632, 42.31411999999999], [-71.22654299999999, 42.313181], [-71.227119, 42.312659999999994], [-71.22698299999999, 42.31141600000001], [-71.226418, 42.310433999999994], [-71.226519, 42.30998399999999], [-71.22721899999999, 42.30913799999999], [-71.227164, 42.30878799999999], [-71.226894, 42.308451999999996], [-71.22534499999999, 42.307979], [-71.22369499999999, 42.307233], [-71.222495, 42.307134999999995], [-71.22102500000001, 42.306473999999994], [-71.218426, 42.306852999999975], [-71.216354, 42.30648599999999], [-71.214167, 42.30641099999999], [-71.213183, 42.30622399999999], [-71.212057, 42.304814], [-71.21108199999999, 42.302721], [-71.211759, 42.30078400000001], [-71.211529, 42.299808999999996], [-71.210937, 42.299246999999994], [-71.20776300000001, 42.297180999999995], [-71.217807, 42.29510300000001], [-71.217531, 42.294827], [-71.21799, 42.294259999999994], [-71.218516, 42.29312700000002], [-71.21777000000002, 42.29204], [-71.21668, 42.29115999999999], [-71.21346, 42.289669999999994], [-71.21124, 42.28741000000001], [-71.20985, 42.28547000000002], [-71.20934299999999, 42.28500800000001], [-71.20998999999999, 42.2845], [-71.21227, 42.28550999999999], [-71.21298999999999, 42.284319999999965], [-71.21307999999999, 42.28279], [-71.213769, 42.282050999999996], [-71.21498, 42.281349999999996], [-71.21597, 42.28006000000001], [-71.21637299999999, 42.279850999999994], [-71.21817, 42.28044000000001], [-71.21969, 42.28047000000001], [-71.21967, 42.282169999999994], [-71.22019, 42.28207], [-71.22214, 42.28621999999998], [-71.22279, 42.28550999999999], [-71.22433, 42.28693], [-71.22643, 42.28574999999998], [-71.22800000000001, 42.28593], [-71.22798, 42.28533999999999], [-71.229894, 42.28542600000001], [-71.22985, 42.284600000000005], [-71.23487, 42.28458299999999], [-71.23495, 42.285030000000006], [-71.23570000000001, 42.28521], [-71.23491, 42.28736], [-71.23546999999999, 42.28726000000002], [-71.236205, 42.287468], [-71.236066, 42.293181], [-71.24125400000001, 42.293423000000004], [-71.24108, 42.292356000000005], [-71.24213, 42.291970000000006], [-71.244934, 42.29173399999999], [-71.24428999999999, 42.29041000000001], [-71.24387, 42.28991], [-71.24378, 42.28917000000001], [-71.24392999999999, 42.288759999999996], [-71.24468, 42.28822], [-71.24504, 42.28656000000001], [-71.24703, 42.28745000000001], [-71.24762, 42.28620999999999], [-71.24945, 42.28681999999999], [-71.2501, 42.28679999999999], [-71.25081999999999, 42.28624999999998], [-71.25177, 42.28647999999997], [-71.2522, 42.286760000000015], [-71.25267, 42.28586999999999], [-71.25283, 42.28362000000003], [-71.24937, 42.281409999999994], [-71.24754, 42.28077], [-71.24804999999999, 42.27989], [-71.24789, 42.27922], [-71.24757, 42.27891], [-71.24591, 42.27835999999999], [-71.24641, 42.27715999999999], [-71.24698, 42.27663], [-71.24947999999999, 42.27571], [-71.2532, 42.27583999999998], [-71.25558, 42.27621], [-71.256602, 42.27580899999998], [-71.258365, 42.275793], [-71.260283, 42.27538999999999], [-71.261213, 42.275003000000005], [-71.26542800000001, 42.27244100000001], [-71.266148, 42.271408000000015], [-71.26862, 42.26525000000001], [-71.27022, 42.26324], [-71.27023, 42.260600000000004], [-71.270738, 42.259429999999995], [-71.27147099999999, 42.25901600000002], [-71.270663, 42.26086799999998], [-71.270848, 42.261563], [-71.271355, 42.262138], [-71.272271, 42.26218000000001], [-71.274231, 42.261756000000005], [-71.275581, 42.26096199999999], [-71.27599099999999, 42.26097300000001], [-71.27656999999999, 42.261396000000005], [-71.27687, 42.261437], [-71.27766, 42.260367], [-71.278243, 42.26011200000001], [-71.27933999999999, 42.26007399999999], [-71.279951, 42.260242], [-71.28077499999999, 42.26087799999999], [-71.282289, 42.261552], [-71.283957, 42.26261599999999], [-71.284688, 42.263588000000006], [-71.284842, 42.26404499999998], [-71.284773, 42.264790999999995], [-71.285814, 42.265674999999995], [-71.286703, 42.26613600000001], [-71.287275, 42.266102], [-71.287403, 42.265355], [-71.287753, 42.265204], [-71.28862699999999, 42.26568199999999], [-71.290099, 42.266070000000006], [-71.29096899999999, 42.26701400000001], [-71.291536, 42.26728099999999], [-71.29194, 42.267282], [-71.293675, 42.26646099999999], [-71.294545, 42.265305], [-71.29514600000002, 42.26501400000001], [-71.295384, 42.265173], [-71.29510499999999, 42.265893000000005], [-71.295242, 42.26655600000001], [-71.295613, 42.26687300000001], [-71.296443, 42.26701299999999], [-71.298903, 42.266828999999994], [-71.301053, 42.267112999999995], [-71.30119499999999, 42.26737099999999], [-71.30037899999999, 42.26772200000001], [-71.300033, 42.26823099999999], [-71.299756, 42.269878000000006], [-71.299888, 42.270361], [-71.299565, 42.27071700000002], [-71.298391, 42.271342], [-71.297979, 42.27210099999999], [-71.29753500000001, 42.272470000000006], [-71.296456, 42.272639999999996], [-71.295137, 42.27240099999998], [-71.29485199999999, 42.272519999999986], [-71.294781, 42.272762000000014], [-71.295142, 42.27360499999999], [-71.295887, 42.274209], [-71.296896, 42.274494], [-71.298011, 42.27429199999998], [-71.298604, 42.274349], [-71.299191, 42.274584], [-71.299622, 42.27505199999999], [-71.299786, 42.27549800000002], [-71.299775, 42.276139], [-71.29786299999999, 42.279092], [-71.297525, 42.280055000000004], [-71.29751399999999, 42.280909], [-71.297641, 42.28128600000001], [-71.298824, 42.282314000000014], [-71.29985599999999, 42.28284199999998], [-71.30046, 42.282916000000014], [-71.30134, 42.28194], [-71.301987, 42.280725999999994], [-71.302477, 42.28015999999999], [-71.303974, 42.27885799999999], [-71.30516, 42.27805000000001], [-71.30760000000001, 42.27700700000001], [-71.308875, 42.27667399999999], [-71.309302, 42.276378999999984], [-71.309493, 42.275847], [-71.308979, 42.274567999999995], [-71.309013, 42.27334200000002], [-71.308476, 42.272293999999995], [-71.30802899999999, 42.27181099999999], [-71.308115, 42.271223], [-71.30846, 42.270709], [-71.302922, 42.24827400000001], [-71.33249599999999, 42.249075000000005], [-71.33267599999999, 42.248449999999984], [-71.33243399999999, 42.247729000000014], [-71.332025, 42.247620000000005], [-71.33153899999999, 42.247115], [-71.330176, 42.24637300000001], [-71.32921999999999, 42.24530800000001], [-71.329776, 42.242823], [-71.33058, 42.24182299999998], [-71.331124, 42.23880199999999], [-71.330992, 42.23667000000002], [-71.329897, 42.234885], [-71.329561, 42.233670000000004], [-71.329802, 42.233168], [-71.330991, 42.231966], [-71.33390399999999, 42.230180000000004], [-71.334538, 42.229381999999994], [-71.33655399999999, 42.227643], [-71.338225, 42.226727999999994], [-71.340679, 42.224788999999994], [-71.341559, 42.22268899999998], [-71.341635, 42.22180100000001], [-71.342693, 42.22148599999999], [-71.34302, 42.22123199999999], [-71.34298000000001, 42.220039], [-71.342126, 42.219519], [-71.341071, 42.218126000000005], [-71.33963299999999, 42.217562], [-71.338683, 42.216778], [-71.338369, 42.21580999999998], [-71.33845699999999, 42.21518299999999], [-71.33945, 42.214099000000004], [-71.340171, 42.21384899999999], [-71.34111899999999, 42.214246], [-71.346076, 42.21552400000003], [-71.34698, 42.21555499999999], [-71.349023, 42.21454299999999], [-71.350387, 42.213522], [-71.351591, 42.211044], [-71.351657, 42.209832999999996], [-71.351434, 42.208997999999994], [-71.35203299999999, 42.207770000000004], [-71.35199000000001, 42.20724499999999], [-71.351029, 42.206139999999984], [-71.34958999999999, 42.205185], [-71.34803099999999, 42.204682999999996], [-71.346792, 42.20484699999999], [-71.346549, 42.20473899999998], [-71.34653000000002, 42.20417500000001], [-71.346847, 42.20371399999999], [-71.346239, 42.202647000000006], [-71.345563, 42.20204700000001], [-71.34429899999999, 42.20138600000001], [-71.344106, 42.20112], [-71.344235, 42.20042200000001], [-71.345004, 42.199356000000016], [-71.344746, 42.198794], [-71.344259, 42.19852799999999], [-71.34397799999999, 42.198561], [-71.34376999999999, 42.19878900000002], [-71.343522, 42.19979299999999], [-71.343226, 42.19989599999999], [-71.34277399999999, 42.19976999999999], [-71.342339, 42.199371], [-71.342754, 42.198878], [-71.34272899999999, 42.19813399999999], [-71.341813, 42.198254], [-71.340649, 42.197835999999974], [-71.340271, 42.197964999999996], [-71.340025, 42.197782], [-71.339945, 42.197157], [-71.339271, 42.19703300000001], [-71.33929599999999, 42.19648999999998], [-71.33828299999999, 42.196034], [-71.33824299999999, 42.195704000000006], [-71.33850199999999, 42.19540299999999], [-71.338898, 42.195268999999996], [-71.340003, 42.19530100000001], [-71.340345, 42.194939], [-71.340324, 42.194691999999996], [-71.340082, 42.194474], [-71.339511, 42.19457200000001], [-71.338974, 42.19437800000001], [-71.33907099999999, 42.1941], [-71.340037, 42.19389400000002], [-71.34, 42.193740999999996], [-71.339488, 42.193599000000006], [-71.339309, 42.193393], [-71.33949, 42.19288499999998], [-71.339167, 42.19170200000001], [-71.33925200000002, 42.190687], [-71.33909299999999, 42.190609000000016], [-71.33881, 42.19105100000001], [-71.338377, 42.191207999999996], [-71.336466, 42.191376], [-71.33582299999999, 42.19123999999999], [-71.335594, 42.191010999999996], [-71.335582, 42.189658], [-71.335145, 42.188483999999974], [-71.33440000000002, 42.188504000000016], [-71.333033, 42.188884], [-71.332019, 42.188742999999974], [-71.330634, 42.187804], [-71.330485, 42.186947], [-71.32879, 42.186679], [-71.32845, 42.186443000000004], [-71.32847, 42.18616799999999], [-71.329565, 42.185419], [-71.329551, 42.18508600000002], [-71.328823, 42.18495299999999], [-71.32781400000002, 42.185035], [-71.327671, 42.18483800000001], [-71.32786399999999, 42.18437499999999], [-71.327788, 42.184203000000004], [-71.327366, 42.18410999999999], [-71.326319, 42.18423699999999], [-71.32601199999999, 42.184092999999976], [-71.325958, 42.183927], [-71.32630999999999, 42.18363399999999], [-71.326554, 42.182731], [-71.32593, 42.182328999999996], [-71.325535, 42.181647000000005], [-71.324288, 42.181403], [-71.323247, 42.181487999999995], [-71.32276399999999, 42.18132000000001], [-71.321482, 42.18022999999999], [-71.320172, 42.179947000000006], [-71.320135, 42.179713], [-71.32041699999999, 42.179483000000005], [-71.320804, 42.178732999999994], [-71.320773, 42.17842600000001], [-71.320425, 42.178335999999994], [-71.3201, 42.178487], [-71.319919, 42.178808999999994], [-71.319456, 42.178885999999984], [-71.318497, 42.17848000000001], [-71.318175, 42.17813], [-71.318184, 42.17777499999999], [-71.31928599999999, 42.175939000000014], [-71.31877399999999, 42.174547999999994], [-71.318905, 42.173885999999996], [-71.319389, 42.173860000000005], [-71.319828, 42.17426500000002], [-71.320262, 42.17336499999998], [-71.322355, 42.17374299999999], [-71.32297, 42.17360199999999], [-71.32324899999999, 42.173473], [-71.32335499999999, 42.173231], [-71.322655, 42.172748999999996], [-71.322587, 42.17254700000001], [-71.322873, 42.17252600000001], [-71.323871, 42.172959], [-71.323751, 42.172069999999984], [-71.324069, 42.17179], [-71.32445299999999, 42.171926], [-71.324398, 42.172298], [-71.324528, 42.17243999999999], [-71.32486899999999, 42.172375], [-71.325076, 42.17208400000001], [-71.325471, 42.17212800000001], [-71.32589899999999, 42.173028], [-71.32607, 42.172992], [-71.326313, 42.172507], [-71.326683, 42.172382999999996], [-71.327928, 42.172711000000014], [-71.328701, 42.17211200000001], [-71.32888299999999, 42.17177999999999], [-71.330354, 42.170860999999995], [-71.331087, 42.170994], [-71.332038, 42.170723999999986], [-71.33223, 42.17060200000001], [-71.33235599999999, 42.170131999999995], [-71.333151, 42.169785999999995], [-71.333002, 42.169435], [-71.332082, 42.169225], [-71.332864, 42.16854099999998], [-71.332854, 42.16834399999998], [-71.33253599999999, 42.168313], [-71.33163400000001, 42.16863199999999], [-71.33128400000001, 42.16851700000002], [-71.331154, 42.168257], [-71.33178199999999, 42.167646999999995], [-71.332692, 42.167224999999995], [-71.33337399999999, 42.167164000000014], [-71.333849, 42.16664999999999], [-71.333471, 42.16604499999999], [-71.332616, 42.166205000000005], [-71.33243999999999, 42.166101], [-71.332426, 42.16592399999998], [-71.33297100000001, 42.16538999999997], [-71.332593, 42.164632000000005], [-71.332684, 42.16376400000001], [-71.332285, 42.163717], [-71.331178, 42.164337999999994], [-71.33086999999999, 42.164039], [-71.331391, 42.162839000000005], [-71.332381, 42.16204299999999], [-71.332167, 42.161865], [-71.33084699999999, 42.16170100000001], [-71.331028, 42.16142700000001], [-71.331777, 42.16130699999999], [-71.331947, 42.161080000000005], [-71.33173699999999, 42.160855000000005], [-71.330816, 42.16067199999999], [-71.330675, 42.16020899999998], [-71.331031, 42.15980699999999], [-71.331577, 42.159736], [-71.332143, 42.160350999999984], [-71.332411, 42.16040900000001], [-71.333073, 42.159378999999994], [-71.33301600000001, 42.158957999999984], [-71.332561, 42.158373999999995], [-71.33151, 42.15804199999998], [-71.33140999999999, 42.15778399999999], [-71.33147799999999, 42.15758699999999], [-71.331785, 42.157500999999996], [-71.332773, 42.15768800000001], [-71.333974, 42.15666900000002], [-71.334148, 42.15630600000001], [-71.333883, 42.155477], [-71.33381899999999, 42.154591], [-71.334093, 42.15394799999999], [-71.33478, 42.153372], [-71.33639200000002, 42.15308199999999], [-71.336244, 42.15265999999999], [-71.336383, 42.152509999999985], [-71.339216, 42.150856000000005], [-71.339304, 42.15002099999999], [-71.339638, 42.14941599999998], [-71.30375099999999, 42.14949999999999], [-71.303566, 42.148693], [-71.30322699999999, 42.148669000000005], [-71.303225, 42.14843800000001], [-71.302846, 42.14846300000001], [-71.302652, 42.148635000000006], [-71.30260299999999, 42.14897799999999], [-71.30234000000002, 42.149026], [-71.302202, 42.14865099999999], [-71.30196699999999, 42.148572], [-71.301965, 42.148165999999996], [-71.301282, 42.148253000000004], [-71.300817, 42.14809099999997], [-71.300853, 42.147532], [-71.30042999999999, 42.147444000000014], [-71.300118, 42.147175999999995], [-71.30044099999999, 42.14692900000001], [-71.300302, 42.14658199999999], [-71.30067799999999, 42.14625100000001], [-71.300275, 42.146039], [-71.300118, 42.14573100000001], [-71.300696, 42.14506799999997], [-71.30035099999999, 42.14472099999999], [-71.300386, 42.14433799999999], [-71.29987799999999, 42.144072999999985], [-71.29984999999999, 42.143761999999974], [-71.300443, 42.143138], [-71.300506, 42.142874], [-71.30022799999999, 42.142695], [-71.300263, 42.14234799999999], [-71.300005, 42.14198699999999], [-71.29940599999999, 42.141771000000006], [-71.299416, 42.14141399999998], [-71.299724, 42.141226], [-71.299768, 42.140936], [-71.298947, 42.140420000000006], [-71.299194, 42.13952699999999], [-71.299031, 42.138948], [-71.299194, 42.138794999999995], [-71.29959699999999, 42.13881700000001], [-71.299747, 42.138495999999996], [-71.30032299999999, 42.138658], [-71.300585, 42.138315], [-71.30060600000002, 42.137923000000015], [-71.301249, 42.137716000000005], [-71.301271, 42.13723900000001], [-71.301885, 42.13713199999999], [-71.302155, 42.136838], [-71.30165699999999, 42.136631999999985], [-71.29991199999999, 42.12940899999999], [-71.29894, 42.1265], [-71.300223, 42.12591], [-71.29715399999999, 42.12050899999999], [-71.295901, 42.116614], [-71.28026799999999, 42.08849199999998], [-71.28464799999999, 42.083269], [-71.285387, 42.08201199999999], [-71.287707, 42.076933000000004], [-71.287099, 42.06370699999999], [-71.289424, 42.059136], [-71.288263, 42.014379], [-71.268739, 41.98730000000001], [-71.291074, 41.97186099999999], [-71.291466, 41.96949400000001], [-71.291372, 41.96825600000001], [-71.290533, 41.96599099999999], [-71.28964700000002, 41.964829999999985], [-71.288054, 41.96206399999999], [-71.287623, 41.958183], [-71.28824, 41.95568300000002], [-71.28985899999999, 41.951807], [-71.290069, 41.949954999999996], [-71.28959499999999, 41.950150000000015], [-71.288569, 41.94980199999999], [-71.287826, 41.95002300000001], [-71.287188, 41.949392], [-71.286701, 41.94960400000001], [-71.285997, 41.949432999999985], [-71.285736, 41.949556], [-71.28556499999999, 41.94997800000001], [-71.28505899999999, 41.950159000000006], [-71.28479700000001, 41.950606], [-71.284387, 41.95063999999999], [-71.28335799999999, 41.944669], [-71.284117, 41.944505], [-71.294639, 41.936983], [-71.298515, 41.935118], [-71.30040799999999, 41.933692], [-71.300764, 41.93363199999999], [-71.300353, 41.93357100000001], [-71.301625, 41.930873], [-71.302314, 41.929926999999985], [-71.30346999999999, 41.92883899999999], [-71.31304999999999, 41.922681000000004], [-71.3168, 41.919139000000015], [-71.319673, 41.917550000000006], [-71.322161, 41.915636000000006], [-71.321727, 41.914219], [-71.32119, 41.91345], [-71.320895, 41.91262999999999], [-71.321156, 41.908542], [-71.319971, 41.906466], [-71.32033799999999, 41.90538600000001], [-71.320881, 41.904695999999994], [-71.32122, 41.90455100000001], [-71.32371499999999, 41.904725], [-71.330366, 41.903404], [-71.333041, 41.90330600000001], [-71.333426, 41.903377], [-71.336164, 41.90500500000001], [-71.338166, 41.90376899999998], [-71.343431, 41.901098999999974], [-71.34332599999999, 41.900814999999994], [-71.342792, 41.90052000000001], [-71.341619, 41.90118700000001], [-71.341017, 41.900825999999995], [-71.34049499999999, 41.900801], [-71.340014, 41.89998399999999], [-71.340081, 41.899685999999996], [-71.339589, 41.89929800000001], [-71.339895, 41.89917399999999], [-71.339776, 41.89847600000001], [-71.339671, 41.898480000000006], [-71.339779, 41.898192999999985], [-71.34379799999999, 41.897899], [-71.34759799999999, 41.89739899999999], [-71.34866699999999, 41.897124999999996], [-71.352062, 41.896997000000006], [-71.359491, 41.895900999999974], [-71.364538, 41.895451000000016], [-71.36508599999999, 41.89558399999999], [-71.370999, 41.89459900000001], [-71.373772, 41.894463000000016], [-71.376583, 41.89391200000003], [-71.38170000000001, 41.893198999999996], [-71.3814, 41.895698999999986], [-71.3815, 41.89649900000001], [-71.3814, 41.898599000000004], [-71.3816, 41.89959899999998], [-71.38170000000001, 41.903299], [-71.38170000000001, 41.910098999999995], [-71.3815, 41.91049900000001], [-71.3816, 41.912499], [-71.3814, 41.913499000000016], [-71.3816, 41.916298999999995], [-71.38149899999999, 41.921473], [-71.38170000000001, 41.92269899999999], [-71.381401, 41.96298300000001], [-71.381534, 41.96452000000001], [-71.38134699999999, 41.964603], [-71.381344, 41.965111], [-71.381508, 41.96687799999999], [-71.381399, 41.972224], [-71.38150499999999, 41.97679299999998], [-71.381301, 41.97749800000001], [-71.38120099999999, 41.981198], [-71.38150499999999, 42.00001099999999], [-71.381401, 42.018798000000004], [-71.392722, 42.0188], [-71.415902, 42.018498], [-71.44680000000001, 42.017899], [-71.45810399999999, 42.017797999999985]], [[-71.389982, 42.36743500000001], [-71.389957, 42.36568499999999], [-71.38992999999999, 42.365342000000005], [-71.388798, 42.36632599999999], [-71.389178, 42.366884000000006], [-71.389982, 42.36743500000001]], [[-71.390031, 42.365230999999994], [-71.38904, 42.364650999999995], [-71.386659, 42.36140100000001], [-71.38604699999999, 42.36127799999999], [-71.383397, 42.36278300000001], [-71.384188, 42.365825], [-71.38721, 42.36545], [-71.388967, 42.364906000000005], [-71.38994, 42.36533399999999], [-71.390031, 42.365230999999994]]]}}