{"type": "Feature", "properties": {"district_name": "Middlesex and Norfolk District", "chamber": "senate", "vintage": "2022-present"}, "geometry": {"type": "Polygon", "coordinates": [[[-71.602221, 42.218101], [-71.586759, 42.25954500000002], [-71.562194, 42.267651], [-71.560584, 42.267864], [-71.559781, 42.26758200000002], [-71.558581, 42.267867999999986], [-71.558335, 42.267390999999996], [-71.557879, 42.267400000000016], [-71.557729, 42.26767200000001], [-71.557285, 42.26759400000001], [-71.557291, 42.26779299999998], [-71.556658, 42.26813099999999], [-71.555813, 42.26776999999999], [-71.555463, 42.26783399999999], [-71.555284, 42.26746], [-71.554861, 42.26754799999999], [-71.554498, 42.26788400000001], [-71.553498, 42.26760500000001], [-71.552772, 42.26758], [-71.552412, 42.267431], [-71.551918, 42.266824], [-71.55176300000001, 42.26635799999999], [-71.551488, 42.266234000000004], [-71.550755, 42.26625500000001], [-71.549949, 42.265892999999984], [-71.549453, 42.266095], [-71.548757, 42.265928000000024], [-71.548045, 42.26601299999999], [-71.547949, 42.265937000000015], [-71.548181, 42.265767], [-71.547955, 42.26576500000001], [-71.547958, 42.26553900000001], [-71.547586, 42.265450000000016], [-71.547289, 42.265643], [-71.547171, 42.265372], [-71.546908, 42.265262], [-71.546639, 42.26542500000001], [-71.545862, 42.26523000000001], [-71.546022, 42.26489600000001], [-71.54583, 42.264701], [-71.544687, 42.264444], [-71.54477, 42.26475299999999], [-71.544202, 42.264823000000014], [-71.543982, 42.26456099999999], [-71.544307, 42.264441000000005], [-71.543668, 42.26393000000001], [-71.543289, 42.264017], [-71.542963, 42.26380799999999], [-71.54275100000001, 42.264051000000016], [-71.541977, 42.263897], [-71.541752, 42.26399500000001], [-71.54097000000002, 42.26320299999999], [-71.539632, 42.262793], [-71.538658, 42.26361], [-71.538072, 42.26453800000001], [-71.536837, 42.264574999999994], [-71.535948, 42.264755999999984], [-71.535444, 42.265038], [-71.534854, 42.264977000000016], [-71.532144, 42.26614699999998], [-71.527995, 42.266524999999994], [-71.524931, 42.265904999999975], [-71.523412, 42.26598599999998], [-71.52251200000002, 42.266436000000006], [-71.521672, 42.266645000000004], [-71.521143, 42.266497999999984], [-71.520642, 42.26659800000001], [-71.519664, 42.26714599999999], [-71.519187, 42.267496], [-71.519228, 42.267633999999994], [-71.518911, 42.267718000000016], [-71.518587, 42.26762000000001], [-71.517168, 42.267738], [-71.516207, 42.267573000000006], [-71.515566, 42.267782], [-71.513882, 42.26758499999999], [-71.51327, 42.26737099999999], [-71.511704, 42.26636800000002], [-71.511374, 42.266004], [-71.51054, 42.266227], [-71.510216, 42.266156], [-71.510085, 42.266044], [-71.510194, 42.265387], [-71.508985, 42.26448600000001], [-71.507471, 42.26410099999999], [-71.506932, 42.264334000000005], [-71.506422, 42.264265], [-71.506091, 42.264392999999984], [-71.505928, 42.266578], [-71.505882, 42.272938000000025], [-71.485948, 42.31122800000001], [-71.485109, 42.323164], [-71.486804, 42.33021699999999], [-71.483298, 42.353129999999986], [-71.396717, 42.341045000000015], [-71.396083, 42.33991699999999], [-71.394886, 42.338542999999994], [-71.395078, 42.336057000000004], [-71.394876, 42.33574900000001], [-71.394544, 42.335559999999994], [-71.39288800000001, 42.335609999999996], [-71.392474, 42.33579400000001], [-71.39094, 42.337093], [-71.389601, 42.337431], [-71.388609, 42.33736999999999], [-71.388345, 42.336948], [-71.388832, 42.336269], [-71.381757, 42.32846899999999], [-71.37768700000001, 42.314668999999995], [-71.373395, 42.30985500000002], [-71.37177, 42.309880000000014], [-71.370613, 42.310262000000016], [-71.370025, 42.31081100000001], [-71.368493, 42.312810999999996], [-71.364093, 42.31590600000001], [-71.363171, 42.31581099999998], [-71.35991, 42.317149], [-71.355199, 42.31717], [-71.345998, 42.314803999999995], [-71.338523, 42.323216000000016], [-71.333751, 42.33239900000001], [-71.328757, 42.33168100000001], [-71.327444, 42.321113999999994], [-71.327327, 42.313746], [-71.32975, 42.312991000000004], [-71.323662, 42.297415], [-71.308484, 42.270794], [-71.302922, 42.24827400000001], [-71.332496, 42.249075000000005], [-71.332676, 42.248449999999984], [-71.332434, 42.247729000000014], [-71.332908, 42.24783800000001], [-71.342459, 42.25045499999999], [-71.341777, 42.253537], [-71.344932, 42.25384], [-71.348409, 42.254704000000004], [-71.350829, 42.25589599999999], [-71.351776, 42.255816], [-71.353372, 42.256874], [-71.353681, 42.25679299999999], [-71.354399, 42.257686], [-71.354493, 42.258039000000004], [-71.354267, 42.258361], [-71.354443, 42.25862699999999], [-71.355, 42.258662000000015], [-71.355453, 42.259001999999995], [-71.35623200000002, 42.25922500000001], [-71.356686, 42.259983999999996], [-71.356487, 42.261016], [-71.35671, 42.26134499999999], [-71.357098, 42.261435000000006], [-71.357141, 42.261882], [-71.356599, 42.262206], [-71.35645, 42.26248900000001], [-71.356656, 42.263314], [-71.356907, 42.263495], [-71.376833, 42.269489], [-71.390365, 42.27191600000001], [-71.397769, 42.261527999999984], [-71.419298, 42.25728099999999], [-71.418303, 42.246504], [-71.420075, 42.23812300000001], [-71.4188, 42.238198000000004], [-71.417259, 42.23788799999998], [-71.416491, 42.23667799999999], [-71.414973, 42.235449000000024], [-71.413675, 42.23488900000001], [-71.413362, 42.234556999999995], [-71.41321, 42.233583], [-71.41339, 42.23256499999999], [-71.413044, 42.23215], [-71.412664, 42.23101400000001], [-71.413045, 42.229639000000006], [-71.412801, 42.229355], [-71.412538, 42.228171], [-71.412109, 42.227651000000016], [-71.411482, 42.227411999999994], [-71.411305, 42.22706500000001], [-71.410407, 42.226572000000004], [-71.410074, 42.226558], [-71.409605, 42.22593700000001], [-71.409586, 42.22560099999999], [-71.409323, 42.225342], [-71.409298, 42.224888000000014], [-71.409049, 42.224575], [-71.409088, 42.224340999999995], [-71.40968, 42.22401399999999], [-71.408953, 42.22295899999999], [-71.408966, 42.222387999999995], [-71.408758, 42.22219800000002], [-71.408615, 42.22111400000001], [-71.408829, 42.221092000000006], [-71.409118, 42.220425999999996], [-71.41009100000001, 42.219816], [-71.409893, 42.219198999999996], [-71.410022, 42.21874900000003], [-71.408256, 42.218444999999996], [-71.407961, 42.217656], [-71.407331, 42.218164], [-71.401953, 42.21542], [-71.403709, 42.214861000000006], [-71.403582, 42.21428699999999], [-71.402468, 42.213577], [-71.402227, 42.213131], [-71.402035, 42.213198999999996], [-71.40118, 42.212927000000015], [-71.40058, 42.212422999999994], [-71.400191, 42.211791000000005], [-71.399672, 42.211725], [-71.398603, 42.21120699999998], [-71.397529, 42.210302000000006], [-71.397333, 42.209842], [-71.397358, 42.209199000000005], [-71.39719, 42.20905900000001], [-71.397311, 42.20874299999999], [-71.397027, 42.20856799999999], [-71.397056, 42.20815100000001], [-71.397341, 42.207889], [-71.393923, 42.207089], [-71.391706, 42.20974200000001], [-71.388489, 42.20800499999999], [-71.388206, 42.20430300000001], [-71.380182, 42.201758999999996], [-71.384765, 42.19201399999999], [-71.404427, 42.18843300000001], [-71.40229500000001, 42.17879400000002], [-71.380366, 42.14316699999999], [-71.3793, 42.141639999999995], [-71.375618, 42.13545399999999], [-71.37679, 42.13561], [-71.378109, 42.13539200000001], [-71.378944, 42.135834], [-71.379584, 42.13576], [-71.379931, 42.135374000000006], [-71.380044, 42.134592], [-71.37939, 42.13385500000001], [-71.379218, 42.13344099999998], [-71.379326, 42.13324499999999], [-71.380188, 42.132925], [-71.380591, 42.13314299999998], [-71.381101, 42.13286600000002], [-71.382092, 42.13349099999999], [-71.38249, 42.133451], [-71.382627, 42.13317500000001], [-71.382821, 42.13315999999998], [-71.383335, 42.133556000000006], [-71.383132, 42.13381700000001], [-71.382499, 42.133668], [-71.382074, 42.13378199999999], [-71.38212, 42.13392199999999], [-71.382527, 42.133942], [-71.38292600000001, 42.134213], [-71.382803, 42.135031], [-71.382123, 42.13529499999999], [-71.381998, 42.135436999999996], [-71.382096, 42.13554700000001], [-71.383092, 42.135515], [-71.383494, 42.13519299999999], [-71.384991, 42.13527500000001], [-71.397103, 42.13732300000001], [-71.397083, 42.137447000000016], [-71.397519, 42.137614000000006], [-71.398106, 42.138173], [-71.39909, 42.138768999999996], [-71.40094, 42.13909900000001], [-71.402343, 42.139542999999996], [-71.403259, 42.139134], [-71.404177, 42.13756000000001], [-71.405, 42.13679299999999], [-71.406237, 42.136309000000004], [-71.408627, 42.13432099999999], [-71.40924, 42.134044], [-71.410049, 42.13398500000001], [-71.411062, 42.13445299999999], [-71.411328, 42.134415000000004], [-71.41269100000001, 42.133604], [-71.413643, 42.133766000000016], [-71.414368, 42.13414699999999], [-71.415409, 42.134981999999994], [-71.415833, 42.13563400000001], [-71.41571500000002, 42.136077], [-71.415053, 42.13651100000001], [-71.414707, 42.13733900000001], [-71.414703, 42.137917], [-71.415098, 42.13825900000001], [-71.416624, 42.137555000000006], [-71.417735, 42.136731000000005], [-71.418845, 42.136402], [-71.419044, 42.136478999999994], [-71.419323, 42.13744599999998], [-71.419674, 42.13760199999999], [-71.41999, 42.137201999999995], [-71.420535, 42.137541000000006], [-71.420237, 42.13782700000002], [-71.419036, 42.13832099999999], [-71.418942, 42.138789], [-71.419221, 42.138968000000006], [-71.421829, 42.13872800000001], [-71.423191, 42.139115], [-71.424382, 42.13904500000001], [-71.425821, 42.138670000000005], [-71.427085, 42.138566], [-71.427852, 42.138108], [-71.42880100000002, 42.138288999999986], [-71.429514, 42.13897200000002], [-71.430229, 42.139012], [-71.43083, 42.138628000000004], [-71.43094, 42.138262], [-71.431847, 42.138025999999996], [-71.432788, 42.13714], [-71.433089, 42.13649499999999], [-71.433865, 42.13597100000002], [-71.433496, 42.135646], [-71.433797, 42.135161], [-71.434226, 42.135095], [-71.434299, 42.135612999999985], [-71.434745, 42.13559000000001], [-71.434926, 42.135314000000015], [-71.43482400000002, 42.13489700000001], [-71.434451, 42.134508000000004], [-71.434572, 42.134327], [-71.435529, 42.134208], [-71.436193, 42.134319], [-71.437063, 42.134814000000006], [-71.438625, 42.13518500000001], [-71.439259, 42.135029000000024], [-71.440248, 42.13526700000001], [-71.441426, 42.134829], [-71.441769, 42.13503000000001], [-71.441841, 42.135248000000004], [-71.442366, 42.135316], [-71.442451, 42.13545600000001], [-71.442279, 42.13557200000001], [-71.442693, 42.13578400000001], [-71.461441, 42.13364099999999], [-71.478522, 42.13137799999999], [-71.478027, 42.165871], [-71.49313600000002, 42.166209999999985], [-71.497378, 42.166643000000015], [-71.502626, 42.191416], [-71.506894, 42.188927], [-71.539498, 42.189733999999994], [-71.555738, 42.182503000000004], [-71.555995, 42.18268200000001], [-71.555725, 42.182819], [-71.555435, 42.183527999999995], [-71.555468, 42.183951], [-71.555131, 42.184231999999994], [-71.55518, 42.184934], [-71.555508, 42.184779], [-71.555605, 42.184988], [-71.555421, 42.185244], [-71.555485, 42.18540499999999], [-71.556262, 42.18594700000001], [-71.556887, 42.185839], [-71.556935, 42.18569000000001], [-71.557055, 42.18577399999999], [-71.55669500000002, 42.186494999999994], [-71.556447, 42.18661399999999], [-71.556432, 42.187305], [-71.556204, 42.187870000000004], [-71.556344, 42.18809099999999], [-71.556608, 42.187918], [-71.556673, 42.188097000000006], [-71.556092, 42.18832400000001], [-71.556233, 42.188663], [-71.555848, 42.188854], [-71.555953, 42.18908599999998], [-71.555817, 42.189843], [-71.55613, 42.19060600000002], [-71.556243, 42.191820999999976], [-71.556782, 42.192450000000015], [-71.572271, 42.192733], [-71.572085, 42.19362200000001], [-71.571548, 42.19465299999999], [-71.58291000000001, 42.195559], [-71.602221, 42.218101]]]}}