{"type": "Feature", "properties": {"district_name": "Hampden-Hampshire-Worcester District", "chamber": "senate", "vintage": "2022-present"}, "geometry": {"type": "Polygon", "coordinates": [[[-72.62411, 42.23507299999999], [-72.623983, 42.235925], [-72.621342, 42.24182], [-72.618681, 42.247245], [-72.618009, 42.248368999999975], [-72.615071, 42.252013999999996], [-72.613621, 42.254248999999994], [-72.612579, 42.255310000000016], [-72.611248, 42.25725], [-72.607781, 42.26057999999999], [-72.600278, 42.265311], [-72.599917, 42.265741], [-72.599074, 42.267718000000016], [-72.59884, 42.27066800000001], [-72.599364, 42.275336], [-72.599959, 42.276845], [-72.600376, 42.27739299999998], [-72.600714, 42.27858700000001], [-72.600797, 42.279986000000015], [-72.601209, 42.281259], [-72.60432000000002, 42.284021], [-72.605056, 42.28440100000001], [-72.609948, 42.285224], [-72.602124, 42.288045], [-72.595326, 42.294431000000024], [-72.587961, 42.300358], [-72.577285, 42.302981], [-72.569306, 42.30448900000001], [-72.564951, 42.30383299999999], [-72.544658, 42.30568300000001], [-72.539903, 42.304127], [-72.535151, 42.30425199999999], [-72.531212, 42.303624], [-72.527961, 42.30145799999999], [-72.526843, 42.301903000000024], [-72.524673, 42.303155], [-72.521421, 42.302182], [-72.510191, 42.305569], [-72.506665, 42.306388000000005], [-72.504151, 42.30547100000002], [-72.500745, 42.305166], [-72.499117, 42.306263], [-72.498034, 42.30511899999998], [-72.493586, 42.302268], [-72.490609, 42.30363200000001], [-72.487764, 42.304708000000005], [-72.4831, 42.30531900000001], [-72.479694, 42.306902000000015], [-72.464195, 42.308053], [-72.472287, 42.35145800000001], [-72.409417, 42.358762], [-72.405455, 42.336437], [-72.39347, 42.338168999999986], [-72.393708, 42.339296], [-72.380368, 42.340613999999995], [-72.355396, 42.34067800000002], [-72.355045, 42.340379], [-72.354972, 42.339911], [-72.354767, 42.33980799999999], [-72.353988, 42.340068000000024], [-72.354157, 42.33922400000001], [-72.353935, 42.339093], [-72.353455, 42.33913900000001], [-72.353401, 42.33891], [-72.353648, 42.338727], [-72.353663, 42.33851600000001], [-72.352884, 42.33817400000001], [-72.352948, 42.337877], [-72.3535, 42.337585], [-72.352666, 42.337157000000005], [-72.353183, 42.33697300000001], [-72.352927, 42.336276999999995], [-72.352332, 42.33583400000001], [-72.352272, 42.336176000000016], [-72.352087, 42.336284], [-72.351555, 42.33574900000001], [-72.351778, 42.33567900000001], [-72.351638, 42.335417], [-72.351174, 42.335335999999984], [-72.351045, 42.335165999999994], [-72.350975, 42.33471500000001], [-72.35156800000001, 42.33419399999999], [-72.35099, 42.33364099999999], [-72.351491, 42.333628000000004], [-72.35169900000001, 42.3332], [-72.351946, 42.33337699999999], [-72.352201, 42.333325], [-72.35204, 42.33294800000001], [-72.352524, 42.332438], [-72.352763, 42.331815], [-72.352532, 42.331134999999996], [-72.351961, 42.33080300000001], [-72.351128, 42.329563], [-72.351899, 42.32978499999999], [-72.352128, 42.329425], [-72.352487, 42.32965500000001], [-72.352901, 42.329092999999986], [-72.352233, 42.328725], [-72.353594, 42.327692000000006], [-72.352669, 42.327425], [-72.352329, 42.32653999999999], [-72.352945, 42.326298], [-72.352435, 42.32575700000002], [-72.351842, 42.325694000000006], [-72.35188, 42.325341], [-72.351255, 42.32506099999999], [-72.351178, 42.324884000000004], [-72.352101, 42.324743], [-72.352827, 42.32426], [-72.353598, 42.32430599999999], [-72.354273, 42.323856000000006], [-72.354302, 42.32368299999998], [-72.353586, 42.32319499999999], [-72.353658, 42.32273499999998], [-72.353527, 42.322347], [-72.353997, 42.322152], [-72.353342, 42.321828], [-72.353317, 42.32157200000001], [-72.353002, 42.321252], [-72.353741, 42.32069000000001], [-72.354419, 42.31963899999999], [-72.355105, 42.31954700000001], [-72.355204, 42.31933100000001], [-72.355266, 42.31911199999999], [-72.355097, 42.31899800000001], [-72.354873, 42.31912400000001], [-72.35458, 42.319055999999996], [-72.35455700000001, 42.31887799999998], [-72.355227, 42.318197999999995], [-72.354917, 42.31801800000001], [-72.354695, 42.317484], [-72.35521, 42.316527999999984], [-72.354556, 42.316049000000014], [-72.354527, 42.315837], [-72.35494, 42.31489300000001], [-72.356157, 42.314373999999994], [-72.356096, 42.31351400000002], [-72.356928, 42.31303299999999], [-72.35699, 42.312856], [-72.35645, 42.312439000000005], [-72.35645, 42.31216400000001], [-72.356946, 42.311347], [-72.35689, 42.311207], [-72.356326, 42.31123800000001], [-72.35638, 42.311009000000006], [-72.356935, 42.310946000000015], [-72.357328, 42.310389999999984], [-72.358275, 42.31034900000001], [-72.358599, 42.30988500000001], [-72.359013, 42.309849], [-72.358884, 42.309239], [-72.358655, 42.30902300000002], [-72.358895, 42.308697999999985], [-72.360478, 42.30869999999999], [-72.360594, 42.308414], [-72.36010100000001, 42.307837000000006], [-72.360632, 42.307654], [-72.359923, 42.30733400000001], [-72.359098, 42.30666100000001], [-72.358797, 42.305747], [-72.358558, 42.305638999999985], [-72.357864, 42.30579299999999], [-72.357678, 42.305188], [-72.357215, 42.304903], [-72.357277, 42.30448000000001], [-72.356675, 42.303428999999994], [-72.353754, 42.302547], [-72.353646, 42.302353], [-72.354631, 42.30091199999999], [-72.354896, 42.29984600000001], [-72.35472300000002, 42.29919800000001], [-72.354317, 42.298913], [-72.350766, 42.298435], [-72.350807, 42.298244999999994], [-72.351963, 42.297895000000004], [-72.352442, 42.29682599999999], [-72.352635, 42.29573399999999], [-72.352199, 42.295433], [-72.350596, 42.29501199999999], [-72.350041, 42.29464800000001], [-72.348631, 42.29458599999999], [-72.348531, 42.29419299999998], [-72.348851, 42.291090999999994], [-72.350035, 42.28796000000001], [-72.350214, 42.287019], [-72.35075, 42.285954], [-72.350872, 42.285278], [-72.35068, 42.284679999999994], [-72.35012, 42.284265999999995], [-72.348445, 42.283792], [-72.34679, 42.28361000000002], [-72.346168, 42.283362], [-72.343261, 42.28165400000002], [-72.341136, 42.28148900000001], [-72.339443, 42.280877999999994], [-72.338484, 42.27981900000001], [-72.338292, 42.279411], [-72.338429, 42.278285], [-72.338799, 42.27711599999999], [-72.338851, 42.275294], [-72.338258, 42.27418900000001], [-72.336456, 42.27340399999999], [-72.333071, 42.27285300000001], [-72.331975, 42.27205499999999], [-72.331583, 42.27128399999999], [-72.33173000000001, 42.27015900000001], [-72.33289, 42.267761], [-72.334244, 42.26653400000001], [-72.334513, 42.266051999999995], [-72.334398, 42.26508500000001], [-72.333658, 42.26436900000001], [-72.333621, 42.263305], [-72.33378, 42.26265499999999], [-72.334114, 42.26236800000001], [-72.334492, 42.26230200000001], [-72.335852, 42.262563], [-72.337375, 42.26168299999999], [-72.337779, 42.26093199999998], [-72.337763, 42.26037], [-72.336712, 42.259395], [-72.337992, 42.25933499999999], [-72.338416, 42.259055], [-72.3385, 42.25867600000001], [-72.338339, 42.258432], [-72.336681, 42.258075], [-72.336407, 42.257684000000005], [-72.336738, 42.25717100000001], [-72.336313, 42.256247], [-72.336237, 42.255188], [-72.335606, 42.253858000000015], [-72.334759, 42.25123399999999], [-72.334673, 42.24963899999998], [-72.334951, 42.24852700000001], [-72.334868, 42.24746300000002], [-72.333542, 42.245591000000005], [-72.333642, 42.24536000000001], [-72.33487, 42.24505299999998], [-72.335206, 42.244447], [-72.335227, 42.24394100000001], [-72.334927, 42.24353599999999], [-72.334858, 42.243103999999995], [-72.334786, 42.241309], [-72.333776, 42.240372], [-72.332948, 42.237092], [-72.333319, 42.23604100000003], [-72.333157, 42.23465], [-72.334181, 42.23350200000001], [-72.334305, 42.233028], [-72.334196, 42.23254], [-72.334472, 42.232062], [-72.33401, 42.23051600000001], [-72.334016, 42.22932099999999], [-72.334373, 42.228750000000005], [-72.33576, 42.22772799999999], [-72.335432, 42.226828000000005], [-72.337075, 42.22341200000002], [-72.336982, 42.223105], [-72.335447, 42.222030000000004], [-72.33544, 42.22149499999999], [-72.335968, 42.22015900000001], [-72.281295, 42.235019999999984], [-72.27767, 42.233103], [-72.273772, 42.235847], [-72.271587, 42.236307], [-72.271133, 42.23652799999999], [-72.27054800000002, 42.237125999999996], [-72.268231, 42.22931099999999], [-72.257614, 42.229873999999995], [-72.247013, 42.242094], [-72.221218, 42.245252000000015], [-72.218068, 42.248605], [-72.214821, 42.24904099999999], [-72.214584, 42.24757100000001], [-72.21046, 42.24720499999999], [-72.211079, 42.251262], [-72.182506, 42.25138700000002], [-72.182161, 42.247971], [-72.18112600000002, 42.24607400000001], [-72.179567, 42.24625499999999], [-72.179403, 42.24606200000001], [-72.179736, 42.24573], [-72.17942, 42.24553000000001], [-72.179723, 42.24483], [-72.179258, 42.244617], [-72.17935700000001, 42.244410999999985], [-72.179166, 42.244202999999985], [-72.179321, 42.24404299999999], [-72.179121, 42.243655], [-72.179126, 42.24309400000002], [-72.178683, 42.24235500000001], [-72.178733, 42.24175000000001], [-72.178174, 42.239625999999994], [-72.17846, 42.23913299999999], [-72.178018, 42.23882699999999], [-72.177808, 42.238257999999995], [-72.177585, 42.23808100000001], [-72.177498, 42.237697], [-72.177655, 42.237266999999996], [-72.176754, 42.236854000000015], [-72.175809, 42.23700299999999], [-72.174507, 42.23670199999999], [-72.17409, 42.23576600000001], [-72.173159, 42.23505999999999], [-72.172222, 42.234770000000005], [-72.171966, 42.23454600000001], [-72.171661, 42.23457800000002], [-72.171304, 42.23429300000002], [-72.171433, 42.234159], [-72.171059, 42.23380700000003], [-72.171193, 42.233534], [-72.170607, 42.233288], [-72.170099, 42.232581999999965], [-72.153902, 42.207183], [-72.141886, 42.161], [-72.199348, 42.153707000000004], [-72.20062600000001, 42.16128699999999], [-72.263924, 42.183831], [-72.263247, 42.182079], [-72.263371, 42.181543999999995], [-72.263918, 42.180952999999995], [-72.263951, 42.180707], [-72.263481, 42.17985999999999], [-72.263352, 42.178940999999995], [-72.262078, 42.17785400000002], [-72.261654, 42.176926999999985], [-72.262124, 42.175802], [-72.263626, 42.17528400000004], [-72.263938, 42.174739], [-72.263472, 42.173295], [-72.262011, 42.172165000000035], [-72.261554, 42.17149400000002], [-72.262069, 42.16984500000002], [-72.262828, 42.16868100000001], [-72.264022, 42.16822000000001], [-72.264742, 42.16710600000001], [-72.265944, 42.166804000000006], [-72.266881, 42.166253999999995], [-72.268221, 42.16347299999999], [-72.268231, 42.162707000000005], [-72.267828, 42.16216199999999], [-72.26696, 42.16162499999998], [-72.266676, 42.16095], [-72.266821, 42.16052400000002], [-72.26786400000002, 42.159831000000004], [-72.26822, 42.15938800000001], [-72.268381, 42.15828900000001], [-72.267828, 42.15768099999998], [-72.267631, 42.157063], [-72.267156, 42.15646100000001], [-72.266434, 42.15614600000003], [-72.265897, 42.15612500000001], [-72.265554, 42.15575599999999], [-72.265273, 42.154624000000005], [-72.265537, 42.154317000000006], [-72.266269, 42.15410599999999], [-72.266775, 42.153531], [-72.266741, 42.152682], [-72.267298, 42.151597999999986], [-72.267337, 42.150399], [-72.267781, 42.14907200000002], [-72.268404, 42.148233000000005], [-72.269322, 42.14737000000001], [-72.268998, 42.146155], [-72.269188, 42.145452], [-72.270641, 42.14363199999999], [-72.271573, 42.143096], [-72.273395, 42.14290999999999], [-72.274927, 42.143975], [-72.277309, 42.143441], [-72.279724, 42.143635], [-72.280396, 42.14341500000002], [-72.280988, 42.14294999999999], [-72.281309, 42.142435], [-72.281347, 42.14169900000002], [-72.281641, 42.141469000000015], [-72.284928, 42.14115000000001], [-72.285887, 42.141282], [-72.286267, 42.141691], [-72.287017, 42.14189900000001], [-72.288329, 42.14174100000001], [-72.289561, 42.14203899999999], [-72.290954, 42.14213199999999], [-72.291684, 42.14246099999998], [-72.293115, 42.14382400000001], [-72.29382, 42.143895999999984], [-72.295102, 42.14332400000001], [-72.295909, 42.143261], [-72.297039, 42.14442900000001], [-72.298385, 42.144735], [-72.302322, 42.14415700000001], [-72.303985, 42.144522], [-72.30578, 42.14447100000001], [-72.307668, 42.144918], [-72.308739, 42.14473800000001], [-72.311136, 42.143314], [-72.31229, 42.143379999999986], [-72.313359, 42.14374], [-72.31439800000001, 42.144366000000005], [-72.314456, 42.14489600000001], [-72.314059, 42.14605], [-72.31569800000001, 42.147944], [-72.316166, 42.14822200000002], [-72.316527, 42.148245], [-72.317125, 42.147941], [-72.318232, 42.14654499999998], [-72.318625, 42.146317999999994], [-72.318883, 42.14635499999999], [-72.31962, 42.146874], [-72.320811, 42.147219], [-72.321344, 42.148588], [-72.321721, 42.149199], [-72.322094, 42.14948400000001], [-72.322707, 42.14969099999999], [-72.323673, 42.149313], [-72.324545, 42.149608], [-72.325892, 42.151376000000006], [-72.32894, 42.15157399999999], [-72.330296, 42.152004], [-72.330657, 42.152475], [-72.332479, 42.15628999999998], [-72.332872, 42.156761], [-72.33367700000001, 42.15722199999999], [-72.333838, 42.157732], [-72.334348, 42.15788800000001], [-72.33497500000001, 42.158628], [-72.335544, 42.15897699999998], [-72.33610100000001, 42.15918], [-72.338691, 42.159404000000016], [-72.34003800000002, 42.15926600000002], [-72.340491, 42.159015], [-72.341289, 42.15900100000001], [-72.341785, 42.15952600000001], [-72.342094, 42.160664], [-72.342737, 42.161222], [-72.343334, 42.16114400000001], [-72.34402400000002, 42.16042], [-72.344828, 42.160075], [-72.345227, 42.160347], [-72.345121, 42.160847000000004], [-72.345326, 42.161331], [-72.346305, 42.161713], [-72.3477, 42.16082099999999], [-72.348421, 42.16084700000001], [-72.348908, 42.16044800000001], [-72.350396, 42.160992], [-72.352328, 42.160726999999994], [-72.354257, 42.16094800000001], [-72.355077, 42.160845000000016], [-72.35744, 42.159223000000004], [-72.358946, 42.158778999999996], [-72.36069, 42.158643000000005], [-72.364949, 42.155529], [-72.365533, 42.154645999999985], [-72.366318, 42.154332999999994], [-72.367467, 42.154326000000005], [-72.369127, 42.15384000000002], [-72.370135, 42.15374099999999], [-72.37097, 42.154078999999996], [-72.372109, 42.154056999999995], [-72.37296, 42.15389900000002], [-72.373859, 42.153489000000015], [-72.378777, 42.152672999999986], [-72.382149, 42.15235099999998], [-72.383533, 42.152483000000004], [-72.386181, 42.15227899999999], [-72.389044, 42.152416], [-72.379439, 42.103134], [-72.366991, 42.03270499999999], [-72.391818, 42.03295200000002], [-72.460119, 42.034357], [-72.492236, 42.034214000000006], [-72.531549, 42.034577999999996], [-72.572778, 42.030218999999995], [-72.582163, 42.02474100000001], [-72.607169, 42.02514800000001], [-72.60813000000002, 42.03274600000001], [-72.607984, 42.03904200000001], [-72.607337, 42.044856999999986], [-72.60638, 42.04783599999999], [-72.60525, 42.050048], [-72.600451, 42.057759], [-72.591813, 42.069561], [-72.589383, 42.07219099999998], [-72.588765, 42.073164], [-72.587002, 42.07513099999996], [-72.583722, 42.07799100000002], [-72.583024, 42.078889000000025], [-72.582671, 42.079518], [-72.582581, 42.080787000000015], [-72.582693, 42.081557999999994], [-72.579985, 42.082026000000006], [-72.579892, 42.082494], [-72.579576, 42.082922], [-72.579722, 42.08351900000002], [-72.574119, 42.084394999999994], [-72.574053, 42.084188999999995], [-72.573704, 42.08423399999999], [-72.56908, 42.085075999999994], [-72.569433, 42.085747], [-72.568004, 42.086041], [-72.567418, 42.084322], [-72.563317, 42.085123], [-72.564135, 42.087324], [-72.558031, 42.086206000000004], [-72.557763, 42.086267], [-72.55592300000002, 42.085811], [-72.55549, 42.085388], [-72.556394, 42.084898], [-72.555272, 42.08377899999999], [-72.556053, 42.08341899999999], [-72.55788000000001, 42.08299000000001], [-72.558276, 42.082702], [-72.559167, 42.07811800000001], [-72.558893, 42.076963], [-72.558295, 42.076681], [-72.55736, 42.076867], [-72.556854, 42.07675499999999], [-72.556454, 42.076557], [-72.556065, 42.075830999999994], [-72.555782, 42.075613000000004], [-72.554803, 42.075601], [-72.551779, 42.074418000000016], [-72.551245, 42.073863], [-72.550675, 42.073950999999994], [-72.550221, 42.07379799999998], [-72.550066, 42.073938000000005], [-72.548007, 42.074088], [-72.548277, 42.07475600000001], [-72.548198, 42.07517700000001], [-72.547986, 42.07538300000001], [-72.54855, 42.07567099999999], [-72.546036, 42.07714199999999], [-72.547337, 42.078435], [-72.546799, 42.07884], [-72.546942, 42.079683999999986], [-72.547537, 42.08027899999998], [-72.545827, 42.08047700000001], [-72.546171, 42.082244], [-72.545017, 42.08240999999999], [-72.54444, 42.083704999999995], [-72.54357400000002, 42.08350500000001], [-72.54206100000002, 42.08241199999999], [-72.541913, 42.08035700000001], [-72.53985, 42.080522000000016], [-72.539973, 42.081404000000006], [-72.539409, 42.081222000000004], [-72.528275, 42.08258200000001], [-72.529224, 42.08668900000002], [-72.529409, 42.08846200000001], [-72.528273, 42.08844499999998], [-72.528548, 42.09011699999999], [-72.528978, 42.09072200000001], [-72.528996, 42.09111800000001], [-72.531126, 42.091146], [-72.531191, 42.091388999999985], [-72.542074, 42.08924800000001], [-72.542449, 42.09195600000001], [-72.545452, 42.092228000000006], [-72.544664, 42.09311300000002], [-72.54304, 42.094208000000016], [-72.54201600000002, 42.094842999999976], [-72.540824, 42.095326], [-72.541366, 42.099134], [-72.540019, 42.09961], [-72.538178, 42.099771999999994], [-72.538152, 42.10065599999998], [-72.537352, 42.102534999999996], [-72.537277, 42.103137], [-72.537572, 42.103831000000014], [-72.538149, 42.10444900000002], [-72.53939, 42.105028000000004], [-72.540206, 42.10513100000001], [-72.54236400000002, 42.10491700000001], [-72.544265, 42.105005], [-72.545434, 42.104890000000005], [-72.546119, 42.10514299999999], [-72.546415, 42.105727], [-72.543823, 42.10581199999999], [-72.542531, 42.10789400000001], [-72.533931, 42.107693999999995], [-72.532563, 42.105506000000005], [-72.531276, 42.10433], [-72.529375, 42.103582], [-72.528123, 42.103438000000004], [-72.526568, 42.10332400000001], [-72.525315, 42.10377], [-72.524446, 42.104318], [-72.523076, 42.10448199999997], [-72.522259, 42.10475699999999], [-72.521753, 42.104642999999996], [-72.521523, 42.103597000000015], [-72.510161, 42.10493199999999], [-72.509024, 42.105431999999986], [-72.508311, 42.10603900000002], [-72.50333300000001, 42.11340100000002], [-72.505674, 42.11394399999999], [-72.508658, 42.113907], [-72.50879, 42.11477900000002], [-72.508649, 42.117549000000004], [-72.504482, 42.117477], [-72.503447, 42.117296], [-72.498557, 42.115320999999994], [-72.498397, 42.11429], [-72.499261, 42.111774], [-72.499327, 42.111125000000015], [-72.49918, 42.110380000000006], [-72.497667, 42.11033800000002], [-72.492532, 42.110959000000015], [-72.490409, 42.11082399999999], [-72.490095, 42.11066199999999], [-72.48947, 42.10970100000001], [-72.488252, 42.106863], [-72.486343, 42.10520999999999], [-72.485517, 42.10540100000001], [-72.484858, 42.10530700000001], [-72.482796, 42.104312], [-72.481864, 42.10514], [-72.481505, 42.10528099999999], [-72.480512, 42.10627100000001], [-72.479277, 42.10688999999999], [-72.478342, 42.10539500000001], [-72.477358, 42.104475], [-72.473804, 42.10318000000001], [-72.484595, 42.156524000000005], [-72.487185, 42.157297], [-72.4881, 42.15796200000001], [-72.48812200000002, 42.158305], [-72.487822, 42.15875100000001], [-72.487004, 42.15905999999998], [-72.486662, 42.159351], [-72.486686, 42.15967900000001], [-72.486981, 42.159942], [-72.487629, 42.159946], [-72.488898, 42.15906400000001], [-72.489465, 42.159042], [-72.48972, 42.15921], [-72.489887, 42.159684], [-72.48903, 42.161255], [-72.488926, 42.16156500000002], [-72.489051, 42.161984], [-72.489766, 42.16205899999999], [-72.490864, 42.161561999999996], [-72.492532, 42.161276000000015], [-72.494151, 42.161233], [-72.500043, 42.16158600000001], [-72.504485, 42.162215], [-72.505275, 42.16220800000001], [-72.506221, 42.162046000000004], [-72.509242, 42.160819], [-72.510754, 42.16048299999998], [-72.511565, 42.160484], [-72.513414, 42.16090700000001], [-72.516782, 42.16082799999999], [-72.520146, 42.16128199999997], [-72.521499, 42.16121700000002], [-72.524004, 42.160562], [-72.528736, 42.158305], [-72.533377, 42.15736600000001], [-72.535801, 42.15747799999999], [-72.536463, 42.156963999999995], [-72.536971, 42.155732], [-72.537366, 42.155172], [-72.537975, 42.154807999999996], [-72.538789, 42.154747], [-72.539962, 42.15507799999999], [-72.540476, 42.15552900000002], [-72.540703, 42.156206], [-72.540815, 42.15754900000001], [-72.541228, 42.15836799999999], [-72.541931, 42.15919299999997], [-72.543963, 42.15938599999999], [-72.544773, 42.159216], [-72.547942, 42.158428], [-72.552483, 42.156667999999996], [-72.555632, 42.15709299999999], [-72.559332, 42.16059299999998], [-72.562332, 42.161193000000004], [-72.570232, 42.16109300000002], [-72.575746, 42.15869], [-72.581853, 42.15978699999999], [-72.581826, 42.160289000000006], [-72.588327, 42.160292999999996], [-72.588434, 42.15958899999999], [-72.589816, 42.16019000000001], [-72.59025, 42.160949], [-72.590161, 42.161271000000006], [-72.590334, 42.161593999999994], [-72.591946, 42.162287000000006], [-72.59270800000002, 42.162802000000006], [-72.592926, 42.163044], [-72.593076, 42.16383600000001], [-72.59327100000002, 42.16407799999999], [-72.595274, 42.165077000000004], [-72.595897, 42.16576000000002], [-72.594542, 42.16654200000001], [-72.593112, 42.168119999999995], [-72.593795, 42.168631], [-72.596621, 42.170595000000006], [-72.597956, 42.17022400000001], [-72.60293, 42.169695999999995], [-72.603251, 42.171596], [-72.60288, 42.171659], [-72.602873, 42.17199499999998], [-72.598856, 42.173184], [-72.598091, 42.173112000000025], [-72.587386, 42.17421700000001], [-72.587123, 42.17451499999998], [-72.589213, 42.177957999999975], [-72.590898, 42.18026], [-72.595795, 42.180355999999996], [-72.602655, 42.181795], [-72.603585, 42.182326999999994], [-72.604134, 42.18296499999999], [-72.604444, 42.18379800000001], [-72.604432, 42.18430400000001], [-72.603157, 42.186761000000004], [-72.601344, 42.18790699999999], [-72.600503, 42.188834999999976], [-72.601179, 42.18945500000001], [-72.599614, 42.190912000000004], [-72.598889, 42.19053799999999], [-72.598806, 42.19108000000002], [-72.59865, 42.191056999999994], [-72.598097, 42.19157899999998], [-72.597301, 42.19170100000001], [-72.595671, 42.191527], [-72.595059, 42.19212100000001], [-72.594974, 42.192871], [-72.592965, 42.19248900000001], [-72.591297, 42.19283], [-72.590981, 42.19331600000002], [-72.588219, 42.192664000000015], [-72.585454, 42.19351], [-72.584933, 42.19289199999998], [-72.584442, 42.193002], [-72.583769, 42.193639000000005], [-72.580562, 42.193148], [-72.576496, 42.191995000000006], [-72.576324, 42.192378000000005], [-72.576176, 42.192330000000005], [-72.575217, 42.19444599999999], [-72.577272, 42.194233999999994], [-72.577576, 42.194367], [-72.57844, 42.197575000000015], [-72.578933, 42.201615999999994], [-72.575742, 42.201927], [-72.57360700000001, 42.20146200000001], [-72.572399, 42.200712], [-72.571201, 42.203697], [-72.57087800000001, 42.205980000000004], [-72.570966, 42.207444999999986], [-72.572202, 42.21380399999999], [-72.593448, 42.211557000000006], [-72.596133, 42.211774999999996], [-72.599481, 42.212474], [-72.603803, 42.21386699999999], [-72.607038, 42.21559600000002], [-72.609887, 42.217901999999995], [-72.610749, 42.219419999999985], [-72.611654, 42.22294599999999], [-72.611959, 42.223611000000005], [-72.613564, 42.22558199999999], [-72.615127, 42.22681000000001], [-72.621612, 42.22973500000001], [-72.622861, 42.230539], [-72.623656, 42.23165599999999], [-72.62411, 42.23507299999999]]]}}