{"type": "Feature", "properties": {"district_name": "Worcester & Middlesex District", "chamber": "senate", "vintage": "2012-2020"}, "geometry": {"type": "Polygon", "coordinates": [[[-72.04607299999999, 42.601834999999994], [-72.03595, 42.608297], [-72.033037, 42.60974], [-72.019746, 42.615575999999976], [-71.985972, 42.62998500000002], [-71.986097, 42.62776700000002], [-71.975835, 42.627452000000005], [-71.956446, 42.610272], [-71.95211800000001, 42.610696999999995], [-71.95031999999999, 42.608100000000015], [-71.951726, 42.60755799999999], [-71.948807, 42.602522], [-71.950569, 42.60170799999997], [-71.945792, 42.594878], [-71.928022, 42.602009], [-71.912933, 42.607799], [-71.91302999999999, 42.607381999999994], [-71.91139199999999, 42.607808000000006], [-71.91066099999999, 42.6067], [-71.89540099999999, 42.611585000000005], [-71.896023, 42.612743999999985], [-71.89289500000001, 42.613778], [-71.892139, 42.612466000000005], [-71.883051, 42.61534200000001], [-71.883629, 42.616350000000004], [-71.880601, 42.617339000000015], [-71.88203399999999, 42.619911], [-71.858612, 42.62904499999999], [-71.85840999999999, 42.63384], [-71.844843, 42.63798500000001], [-71.775322, 42.63666300000001], [-71.775742, 42.64421600000001], [-71.77595699999999, 42.64444499999999], [-71.775672, 42.645893000000015], [-71.77251799999999, 42.70798700000001], [-71.651911, 42.70519399999999], [-71.65072099999999, 42.69091999999999], [-71.664614, 42.611588999999995], [-71.67773, 42.539397], [-71.67898, 42.53035099999999], [-71.675714, 42.52998999999999], [-71.635812, 42.52409099999999], [-71.636032, 42.523078], [-71.63474, 42.522548], [-71.634326, 42.522244], [-71.634117, 42.52182399999998], [-71.633264, 42.521195], [-71.63279399999999, 42.52006499999999], [-71.631974, 42.51898900000001], [-71.63168399999999, 42.51889], [-71.631012, 42.51911099999999], [-71.630478, 42.518836], [-71.63035599999999, 42.518104], [-71.63057, 42.517356], [-71.630875, 42.51714299999999], [-71.632187, 42.516883], [-71.63230899999999, 42.516296], [-71.631913, 42.51589899999999], [-71.630982, 42.515762], [-71.63002, 42.515922], [-71.629578, 42.51578500000001], [-71.629303, 42.515335], [-71.629303, 42.51464], [-71.629685, 42.51377800000001], [-71.629227, 42.513381], [-71.628022, 42.513244], [-71.627472, 42.512657], [-71.628022, 42.51153499999999], [-71.628022, 42.51072599999999], [-71.628159, 42.51052800000001], [-71.628632, 42.51045200000001], [-71.62924199999999, 42.511138], [-71.629532, 42.51123799999999], [-71.629914, 42.51094], [-71.629914, 42.510191999999996], [-71.63009699999999, 42.50993299999999], [-71.631028, 42.509482999999996], [-71.631455, 42.509643000000004], [-71.631745, 42.50949800000001], [-71.631317, 42.508323000000004], [-71.631501, 42.507812], [-71.632508, 42.506918999999996], [-71.63394199999999, 42.504653000000005], [-71.634018, 42.50416500000001], [-71.63394199999999, 42.503868], [-71.633515, 42.50355499999999], [-71.633545, 42.502905999999996], [-71.633408, 42.502632], [-71.632508, 42.502395], [-71.631546, 42.502531999999995], [-71.62912, 42.501296], [-71.626862, 42.500372999999996], [-71.62617999999999, 42.499231], [-71.62617999999999, 42.498560000000005], [-71.626282, 42.497828000000005], [-71.62702, 42.495767], [-71.62796800000001, 42.494949], [-71.628165, 42.49445000000001], [-71.627944, 42.49354400000002], [-71.627974, 42.492990999999996], [-71.629173, 42.49029799999999], [-71.62926800000001, 42.48880799999999], [-71.631109, 42.48744999999998], [-71.63186, 42.485487000000006], [-71.63229, 42.485485999999995], [-71.63311399999999, 42.486138000000004], [-71.63352499999999, 42.48624300000001], [-71.633996, 42.486075], [-71.634282, 42.485648], [-71.634301, 42.48540500000001], [-71.633951, 42.485163], [-71.63259599999999, 42.48493799999999], [-71.631896, 42.48366399999999], [-71.631908, 42.48326600000001], [-71.632239, 42.48320400000001], [-71.632942, 42.483541999999986], [-71.633273, 42.483418999999984], [-71.633436, 42.48203699999999], [-71.633724, 42.481241999999995], [-71.634134, 42.480800000000016], [-71.633425, 42.478898000000015], [-71.633383, 42.478288000000006], [-71.63362599999999, 42.47784699999999], [-71.635397, 42.477289000000006], [-71.635335, 42.476744999999994], [-71.54890300000001, 42.44730799999999], [-71.553964, 42.42976200000001], [-71.554182, 42.42844399999999], [-71.559046, 42.411981], [-71.58543, 42.40702], [-71.60425099999999, 42.397703], [-71.580043, 42.386949000000016], [-71.607759, 42.370022], [-71.603065, 42.367267], [-71.610007, 42.357403000000005], [-71.624702, 42.35046500000001], [-71.634038, 42.35841199999999], [-71.677794, 42.365154000000025], [-71.67055100000002, 42.38666500000001], [-71.678766, 42.389162999999996], [-71.676515, 42.396139], [-71.668054, 42.39461200000001], [-71.66058199999999, 42.41851400000002], [-71.662601, 42.417859], [-71.662981, 42.416943], [-71.664902, 42.415345], [-71.665294, 42.41427099999999], [-71.665526, 42.414030000000004], [-71.66754499999999, 42.413093999999994], [-71.67033800000002, 42.412293], [-71.670735, 42.412834000000004], [-71.67175499999999, 42.413409000000016], [-71.671278, 42.413743], [-71.671404, 42.413956], [-71.672094, 42.414325999999996], [-71.67325799999999, 42.413908000000006], [-71.673525, 42.414151999999994], [-71.673698, 42.414640000000006], [-71.67476599999999, 42.41422699999999], [-71.675657, 42.412988], [-71.678553, 42.410588], [-71.68083299999999, 42.410131000000014], [-71.681756, 42.41024699999998], [-71.681693, 42.411946000000015], [-71.68210499999999, 42.413712], [-71.682569, 42.413303000000006], [-71.683149, 42.413646], [-71.689883, 42.41576500000002], [-71.68743599999999, 42.419762], [-71.687268, 42.420471999999975], [-71.68621499999999, 42.420658], [-71.68495, 42.42114000000001], [-71.685367, 42.421133999999995], [-71.685211, 42.423446], [-71.68741200000001, 42.423498999999985], [-71.687969, 42.428467000000005], [-71.687936, 42.429545999999995], [-71.687621, 42.430875999999984], [-71.68695199999999, 42.43183900000001], [-71.685698, 42.434221000000015], [-71.685563, 42.43529199999999], [-71.686132, 42.43636500000001], [-71.688191, 42.436744], [-71.718362, 42.410263999999984], [-71.721578, 42.409239000000014], [-71.725979, 42.39028900000001], [-71.741919, 42.38685000000001], [-71.741916, 42.392773000000005], [-71.76330399999999, 42.40036699999999], [-71.77773499999999, 42.400408999999996], [-71.786552, 42.398979000000004], [-71.81777799999999, 42.403955999999994], [-71.831745, 42.431826], [-71.81423099999999, 42.443999], [-71.81466499999999, 42.444401000000006], [-71.81456, 42.44455700000002], [-71.81420299999999, 42.444809], [-71.81384299999999, 42.444814999999984], [-71.81316199999999, 42.445291999999995], [-71.813465, 42.44561299999999], [-71.815095, 42.445584], [-71.81689899999999, 42.44619499999999], [-71.81748999999999, 42.446244000000014], [-71.818176, 42.446595], [-71.8186, 42.446909000000005], [-71.819299, 42.448108], [-71.81945600000002, 42.44869699999999], [-71.819262, 42.449435], [-71.819514, 42.45002600000001], [-71.821012, 42.450453], [-71.821193, 42.45065100000001], [-71.82118299999999, 42.450979000000004], [-71.820511, 42.45154000000001], [-71.820396, 42.452178999999994], [-71.821935, 42.45382399999999], [-71.822216, 42.454651999999996], [-71.822109, 42.45638499999999], [-71.82369, 42.458121999999996], [-71.823972, 42.458956000000015], [-71.82393499999999, 42.461037000000005], [-71.82409899999999, 42.461526], [-71.82482499999999, 42.46194499999999], [-71.825834, 42.463077999999975], [-71.826998, 42.463744], [-71.827317, 42.464990000000014], [-71.827815, 42.465826000000014], [-71.82791399999999, 42.466967000000004], [-71.82807799999999, 42.46716899999999], [-71.82790500000002, 42.467309], [-71.827904, 42.468328], [-71.828295, 42.469170999999996], [-71.827826, 42.470826], [-71.827799, 42.472061], [-71.835604, 42.48359599999998], [-71.822318, 42.50427500000001], [-71.842326, 42.51263000000001], [-71.842004, 42.514679000000015], [-71.844954, 42.51443899999999], [-71.84737, 42.514704999999985], [-71.849357, 42.51781600000001], [-71.856837, 42.51908299999999], [-71.86104, 42.51637400000001], [-71.864531, 42.516932999999995], [-71.909649, 42.484492], [-71.979721, 42.53238899999999], [-72.02700999999999, 42.563240999999984], [-72.015053, 42.567879], [-72.016926, 42.56989600000001], [-72.018669, 42.570229999999995], [-72.019476, 42.57054600000001], [-72.01965, 42.57078], [-72.019526, 42.571029], [-72.017342, 42.57218000000002], [-72.01696799999999, 42.572979999999994], [-72.016277, 42.573612999999995], [-72.01626499999999, 42.57387999999999], [-72.01702999999999, 42.574434999999994], [-72.017149, 42.57528599999998], [-72.017831, 42.576083], [-72.01845999999999, 42.57656999999999], [-72.01923599999999, 42.576692], [-72.019584, 42.57661700000001], [-72.019769, 42.57582000000001], [-72.020038, 42.57551799999999], [-72.023123, 42.574386000000004], [-72.023338, 42.574166000000005], [-72.023375, 42.573808000000014], [-72.02380000000001, 42.57363000000001], [-72.026928, 42.573301], [-72.027833, 42.57403600000001], [-72.02862, 42.573999000000015], [-72.02967000000001, 42.574242000000005], [-72.030175, 42.57400399999999], [-72.03084, 42.57401199999998], [-72.031311, 42.57421500000001], [-72.031426, 42.57446900000001], [-72.031139, 42.575480999999996], [-72.03116899999999, 42.575965], [-72.032377, 42.575881999999986], [-72.03289699999999, 42.57611199999997], [-72.033029, 42.57635900000001], [-72.032933, 42.576799], [-72.032243, 42.577231999999995], [-72.031729, 42.57833599999999], [-72.03282899999999, 42.578765999999995], [-72.034402, 42.579904], [-72.03514899999999, 42.58008], [-72.03558799999999, 42.57995700000001], [-72.03580099999999, 42.57891499999999], [-72.03707399999999, 42.57748599999999], [-72.03799699999999, 42.577070000000006], [-72.038207, 42.57715700000001], [-72.038217, 42.57733000000001], [-72.037595, 42.577871], [-72.03783, 42.57832399999998], [-72.039526, 42.57864799999999], [-72.040385, 42.578581999999976], [-72.041338, 42.57942999999999], [-72.042041, 42.579780999999976], [-72.042198, 42.580259999999996], [-72.041646, 42.580890000000004], [-72.042025, 42.582108], [-72.04151399999999, 42.582894], [-72.041626, 42.583245], [-72.042237, 42.58362499999999], [-72.042283, 42.58396600000001], [-72.04151399999999, 42.584872999999995], [-72.040705, 42.585069000000004], [-72.040312, 42.585350999999996], [-72.039541, 42.58544400000002], [-72.038876, 42.586338000000005], [-72.038974, 42.586591999999996], [-72.039562, 42.58681099999999], [-72.039986, 42.587838999999995], [-72.04123299999999, 42.58836799999999], [-72.042227, 42.589378999999994], [-72.042007, 42.590026], [-72.041939, 42.59177799999998], [-72.041853, 42.59196499999998], [-72.03604, 42.593871000000014], [-72.04607299999999, 42.601834999999994]]]}}