{"type": "Feature", "properties": {"district_name": "Middlesex & Suffolk District", "chamber": "senate", "vintage": "2012-2020"}, "geometry": {"type": "Polygon", "coordinates": [[[-71.14908199999999, 42.35615100000001], [-71.14620000000001, 42.36130400000001], [-71.145707, 42.36161], [-71.14750699999999, 42.361788000000004], [-71.14679699999999, 42.36229599999999], [-71.14509799999999, 42.36449199999999], [-71.14379699999999, 42.364996], [-71.139997, 42.36449599999999], [-71.131997, 42.369696], [-71.132997, 42.371697], [-71.133197, 42.372596], [-71.13266, 42.37318099999999], [-71.131518, 42.37372599999999], [-71.13099700000001, 42.373796], [-71.130999, 42.37435200000001], [-71.13064500000002, 42.37437399999999], [-71.130579, 42.374705], [-71.128433, 42.374566999999985], [-71.12822, 42.37561], [-71.12897699999999, 42.375816], [-71.12835199999999, 42.377173], [-71.128954, 42.37754300000002], [-71.12985499999999, 42.377804999999995], [-71.129815, 42.377988], [-71.129184, 42.37823299999999], [-71.130066, 42.379715], [-71.129781, 42.380772], [-71.128855, 42.381132999999984], [-71.12750299999999, 42.38040700000001], [-71.126767, 42.38110000000001], [-71.126117, 42.381380000000014], [-71.1267, 42.38204499999999], [-71.12364699999999, 42.38346099999999], [-71.122686, 42.382225], [-71.121686, 42.382693999999994], [-71.12105199999999, 42.38202099999999], [-71.119739, 42.382222], [-71.11922899999999, 42.387021999999995], [-71.119556, 42.388463], [-71.11761, 42.38748700000001], [-71.115584, 42.385158], [-71.111656, 42.38174900000002], [-71.110643, 42.38163999999999], [-71.107855, 42.379374], [-71.108457, 42.379112000000006], [-71.103172, 42.374297000000006], [-71.09746299999999, 42.374431], [-71.089522, 42.373968000000005], [-71.086088, 42.373059], [-71.085443, 42.37404499999998], [-71.08434199999999, 42.373346], [-71.083739, 42.37323899999999], [-71.08245099999999, 42.37346699999999], [-71.080831, 42.374219999999994], [-71.075856, 42.373444000000006], [-71.07522, 42.372817], [-71.07442999999999, 42.372724000000005], [-71.073074, 42.373348000000014], [-71.072728, 42.373321999999995], [-71.075696, 42.38019699999999], [-71.080595, 42.380996999999994], [-71.080947, 42.382378], [-71.07978500000002, 42.382932000000004], [-71.077096, 42.386495999999994], [-71.076796, 42.38669600000001], [-71.076628, 42.387197], [-71.07349599999999, 42.391795999999985], [-71.074086, 42.392588], [-71.075996, 42.39639599999999], [-71.076419, 42.39777299999999], [-71.075988, 42.399705999999995], [-71.073448, 42.402665000000006], [-71.071297, 42.40692200000001], [-71.072692, 42.408237], [-71.07365899999999, 42.40851899999999], [-71.07374399999999, 42.40867900000001], [-71.073801, 42.409056], [-71.073624, 42.40930300000001], [-71.072161, 42.41036299999999], [-71.071873, 42.411099000000014], [-71.071907, 42.411672], [-71.07211099999999, 42.412081000000015], [-71.073196, 42.41299599999999], [-71.073296, 42.414796], [-71.06450699999999, 42.41524099999999], [-71.064559, 42.41533399999999], [-71.061584, 42.41561000000001], [-71.060441, 42.416007], [-71.05685, 42.418671], [-71.054735, 42.42003799999999], [-71.05442, 42.420044999999995], [-71.050324, 42.42299500000001], [-71.028065, 42.42415499999999], [-71.031275, 42.418433000000014], [-71.032493, 42.415506000000015], [-71.033095, 42.414696000000006], [-71.033203, 42.41422599999999], [-71.02924, 42.41056799999998], [-71.027115, 42.40778199999998], [-71.026898, 42.40733199999999], [-71.026826, 42.406432999999986], [-71.026004, 42.40579300000002], [-71.024901, 42.40590000000002], [-71.023847, 42.40532400000001], [-71.02327799999999, 42.40554399999999], [-71.02285499999999, 42.40512499999999], [-71.022443, 42.40548700000001], [-71.02191599999999, 42.405287], [-71.020618, 42.405190000000005], [-71.020377, 42.404866000000005], [-71.021205, 42.40424799999999], [-71.021157, 42.403842000000004], [-71.020853, 42.403511], [-71.018878, 42.403718], [-71.01808799999999, 42.40335699999999], [-71.017826, 42.402883], [-71.01703499999999, 42.40271499999999], [-71.013772, 42.402964], [-71.011555, 42.401907], [-71.010892, 42.40179499999999], [-71.009396, 42.401183], [-71.009445, 42.400475], [-71.009629, 42.400166999999996], [-71.013395, 42.39739799999999], [-71.016094, 42.395897], [-71.017794, 42.390697], [-71.020512, 42.38764099999999], [-71.02242799999999, 42.386373], [-71.027712, 42.384041], [-71.031995, 42.38459700000001], [-71.033234, 42.384910000000005], [-71.034975, 42.38587599999999], [-71.03835699999999, 42.38652899999999], [-71.03881299999999, 42.386810999999994], [-71.039512, 42.38685300000001], [-71.043264, 42.38359400000001], [-71.044298, 42.383209], [-71.04519499999999, 42.37709699999999], [-71.046995, 42.372597000000006], [-71.049095, 42.371196999999995], [-71.050895, 42.370697], [-71.05499499999999, 42.370697], [-71.057141, 42.369982], [-71.059795, 42.368767], [-71.058525, 42.36695199999999], [-71.063294, 42.36431], [-71.063835, 42.362792000000006], [-71.06375500000001, 42.36124100000001], [-71.069755, 42.361163999999995], [-71.07078899999999, 42.36140400000001], [-71.075777, 42.361621], [-71.07157099999999, 42.36723399999999], [-71.07073799999999, 42.367995], [-71.07311299999999, 42.369131], [-71.075363, 42.366908], [-71.075565, 42.367002], [-71.07673, 42.36574600000001], [-71.082022, 42.36639799999999], [-71.083472, 42.363851], [-71.084389, 42.362713], [-71.083683, 42.362202999999994], [-71.082484, 42.361972000000016], [-71.085219, 42.36237800000001], [-71.090021, 42.362691000000005], [-71.090227, 42.362452], [-71.094852, 42.36016600000001], [-71.097684, 42.361816000000005], [-71.09852699999999, 42.36140400000001], [-71.10193199999999, 42.363418], [-71.102432, 42.36286299999999], [-71.105104, 42.364520999999996], [-71.106707, 42.363053000000015], [-71.10824099999999, 42.36404999999999], [-71.108841, 42.363845999999995], [-71.109214, 42.366169], [-71.110411, 42.36681600000002], [-71.109438, 42.36777899999999], [-71.11074599999999, 42.36830599999999], [-71.111094, 42.367772999999985], [-71.113512, 42.36856400000001], [-71.113348, 42.37009799999999], [-71.11518099999999, 42.370753], [-71.115867, 42.369653], [-71.114649, 42.369367], [-71.114729, 42.36774899999998], [-71.11634, 42.36777000000001], [-71.117167, 42.36907599999999], [-71.118118, 42.369583000000006], [-71.11849699999999, 42.36839699999999], [-71.11719699999999, 42.36719699999999], [-71.116929, 42.358715999999994], [-71.117099, 42.355594], [-71.111001, 42.352597], [-71.110591, 42.35258500000001], [-71.110661, 42.352393], [-71.11147199999999, 42.351878000000006], [-71.112199, 42.351718999999996], [-71.11383099999999, 42.351724999999995], [-71.11804, 42.35391900000002], [-71.120729, 42.35461500000001], [-71.120832, 42.353824], [-71.12474, 42.35430100000001], [-71.12495, 42.35335399999999], [-71.128031, 42.35372400000001], [-71.128344, 42.35260400000001], [-71.134002, 42.35328299999998], [-71.134159, 42.35211599999999], [-71.13371599999999, 42.35090599999999], [-71.133251, 42.350308], [-71.133488, 42.35018499999998], [-71.13298999999999, 42.34956599999999], [-71.135314, 42.34845399999999], [-71.136589, 42.34833899999998], [-71.13857600000001, 42.348975], [-71.139731, 42.348977], [-71.139956, 42.349465999999985], [-71.140084, 42.351478], [-71.142828, 42.351087], [-71.142997, 42.351634], [-71.144291, 42.35134600000001], [-71.145612, 42.350786], [-71.146033, 42.351181999999994], [-71.146087, 42.351442000000006], [-71.144176, 42.35488899999999], [-71.14908199999999, 42.35615100000001]]]}}