{"type": "Feature", "properties": {"district_name": "Second Middlesex District", "chamber": "senate", "vintage": "2022-present"}, "geometry": {"type": "Polygon", "coordinates": [[[-71.189635, 42.44983], [-71.163003, 42.46019600000001], [-71.156237, 42.456917], [-71.15233, 42.46370699999999], [-71.150544, 42.46429500000001], [-71.150404, 42.463884000000014], [-71.14970900000002, 42.463167], [-71.14971, 42.462213], [-71.149355, 42.461417999999995], [-71.1488, 42.460775], [-71.147958, 42.46052600000001], [-71.147179, 42.460573], [-71.144149, 42.457895], [-71.142429, 42.45720800000001], [-71.141873, 42.456874], [-71.141491, 42.45634900000001], [-71.142131, 42.456006], [-71.14342600000002, 42.45467500000001], [-71.145552, 42.453158], [-71.146474, 42.452178999999994], [-71.146372, 42.451499], [-71.146002, 42.451379], [-71.144865, 42.451463999999994], [-71.143845, 42.450312999999994], [-71.145169, 42.449777], [-71.144189, 42.44876800000001], [-71.143053, 42.447913000000014], [-71.144042, 42.446977999999994], [-71.13826, 42.444064000000004], [-71.137092, 42.443318999999995], [-71.136193, 42.442485000000005], [-71.135841, 42.44247400000001], [-71.134714, 42.44356], [-71.134112, 42.447432], [-71.130161, 42.44649500000003], [-71.128835, 42.445914], [-71.126065, 42.44515399999998], [-71.125513, 42.44467100000003], [-71.125577, 42.44434200000002], [-71.125906, 42.444065], [-71.126546, 42.44391099999999], [-71.12523000000002, 42.44334099999999], [-71.124042, 42.443369999999994], [-71.124005, 42.44382700000001], [-71.124153, 42.444115999999994], [-71.121346, 42.448670000000014], [-71.119402, 42.453445], [-71.104867, 42.448879], [-71.085639, 42.44468799999999], [-71.088031, 42.42902600000001], [-71.089062, 42.42911500000001], [-71.089446, 42.42662299999999], [-71.08588, 42.417913], [-71.08349, 42.41600700000001], [-71.081724, 42.41515700000001], [-71.07991, 42.415166000000006], [-71.07931, 42.414938], [-71.077132, 42.41328500000001], [-71.076296, 42.413063], [-71.07549, 42.41327699999999], [-71.075332, 42.41297299999998], [-71.074734, 42.412546999999996], [-71.073574, 42.41271600000001], [-71.073196, 42.41299599999999], [-71.072214, 42.412189999999995], [-71.071907, 42.41167200000001], [-71.071873, 42.411099000000014], [-71.072161, 42.41036299999999], [-71.073552, 42.40939300000001], [-71.073785, 42.40886799999999], [-71.073659, 42.40851899999999], [-71.072692, 42.408237], [-71.071297, 42.40692200000001], [-71.073448, 42.402665000000006], [-71.075988, 42.399706000000016], [-71.076419, 42.39777299999999], [-71.075586, 42.39524700000001], [-71.073496, 42.391795999999985], [-71.079713, 42.38292100000003], [-71.080971, 42.38232300000001], [-71.080701, 42.381039], [-71.075657, 42.380196000000005], [-71.072689, 42.37322199999999], [-71.074202, 42.372527], [-71.074903, 42.372878], [-71.075983, 42.37402999999999], [-71.076833, 42.37364300000001], [-71.077601, 42.373565000000006], [-71.078003, 42.373616000000005], [-71.078987, 42.37417299999999], [-71.079964, 42.373809], [-71.080364, 42.374117999999996], [-71.081197, 42.374055999999996], [-71.081656, 42.373960999999994], [-71.082001, 42.373554999999996], [-71.082414, 42.37341], [-71.084445, 42.373301], [-71.084952, 42.37346], [-71.085443, 42.37404499999999], [-71.086088, 42.373059], [-71.089783, 42.373948], [-71.093143, 42.374210000000005], [-71.097463, 42.374431], [-71.103204, 42.374327], [-71.108457, 42.379112000000006], [-71.107855, 42.379374], [-71.110699, 42.381687], [-71.111578, 42.381785999999984], [-71.11214200000002, 42.381513], [-71.112459, 42.38177399999999], [-71.114541, 42.38080099999999], [-71.116395, 42.380874], [-71.116506, 42.37982600000002], [-71.119983, 42.37998300000001], [-71.121525, 42.379784], [-71.121948, 42.38082300000001], [-71.122383, 42.38121199999999], [-71.125065, 42.380135], [-71.127188, 42.382490000000004], [-71.128258, 42.382038000000016], [-71.128634, 42.38224499999999], [-71.128804, 42.38210900000001], [-71.130224, 42.383065], [-71.13041, 42.38291799999998], [-71.132419, 42.383821000000005], [-71.132855, 42.38327600000001], [-71.135794, 42.3846], [-71.135211, 42.385301], [-71.13475800000002, 42.38557200000001], [-71.136535, 42.38618200000001], [-71.138372, 42.38743999999999], [-71.140809, 42.38714199999999], [-71.140993, 42.387097], [-71.141017, 42.386907], [-71.141637, 42.387190000000004], [-71.14164, 42.387051], [-71.143683, 42.38825], [-71.144134, 42.388679999999994], [-71.143436, 42.38871199999999], [-71.143097, 42.38903], [-71.141699, 42.390658], [-71.141121, 42.392092000000005], [-71.145248, 42.392878], [-71.150115, 42.39493300000001], [-71.153169, 42.39564300000001], [-71.156362, 42.395852], [-71.152057, 42.40104], [-71.143593, 42.39741199999999], [-71.142053, 42.39836100000001], [-71.1409, 42.399532], [-71.140372, 42.39983100000001], [-71.139334, 42.400148], [-71.137859, 42.40030600000001], [-71.136303, 42.400991], [-71.134742, 42.40291799999999], [-71.134515, 42.40415300000001], [-71.134635, 42.404258999999996], [-71.134466, 42.40600199999999], [-71.13412, 42.40673400000001], [-71.132317, 42.409170999999986], [-71.132247, 42.41017800000001], [-71.132887, 42.41197299999998], [-71.132435, 42.415215999999994], [-71.134207, 42.415467], [-71.13629, 42.41514600000001], [-71.138458, 42.415516], [-71.140084, 42.41643200000001], [-71.141544, 42.41838400000001], [-71.14276, 42.419351999999996], [-71.142965, 42.420061999999994], [-71.142599, 42.42169200000001], [-71.142675, 42.421865], [-71.144821, 42.42253000000001], [-71.145183, 42.42279599999999], [-71.145798, 42.42340599999999], [-71.146784, 42.425262000000004], [-71.14854, 42.430717], [-71.149886, 42.43583999999999], [-71.182277, 42.43627900000001], [-71.177885, 42.440200999999995], [-71.182562, 42.443637], [-71.182543, 42.443893], [-71.183529, 42.444001000000014], [-71.183486, 42.444117], [-71.183979, 42.44421499999999], [-71.183815, 42.444609], [-71.185713, 42.44500400000002], [-71.186454, 42.44562600000001], [-71.187452, 42.44725800000001], [-71.189635, 42.44983]]]}}