{"type": "Feature", "properties": {"district_name": "First Suffolk & Middlesex District", "chamber": "senate", "vintage": "2012-2020"}, "geometry": {"type": "Polygon", "coordinates": [[[-71.11849699999999, 42.36839699999999], [-71.118118, 42.369583000000006], [-71.117167, 42.36907599999999], [-71.11634, 42.36777000000001], [-71.114729, 42.36774899999998], [-71.114649, 42.369367], [-71.115867, 42.369653], [-71.11518099999999, 42.370753], [-71.113348, 42.37009799999999], [-71.113512, 42.36856400000001], [-71.111094, 42.367772999999985], [-71.11074599999999, 42.36830599999999], [-71.109438, 42.36777899999999], [-71.110411, 42.36681600000002], [-71.109214, 42.366169], [-71.108841, 42.363845999999995], [-71.10824099999999, 42.36404999999999], [-71.106707, 42.363053000000015], [-71.105104, 42.364520999999996], [-71.102432, 42.36286299999999], [-71.10193199999999, 42.363418], [-71.09852699999999, 42.36140400000001], [-71.097684, 42.361816000000005], [-71.094852, 42.36016600000001], [-71.090227, 42.362452], [-71.090021, 42.362691000000005], [-71.085219, 42.36237800000001], [-71.082484, 42.361972000000016], [-71.083683, 42.362202999999994], [-71.084389, 42.362713], [-71.083472, 42.363851], [-71.082022, 42.36639799999999], [-71.07673, 42.36574600000001], [-71.075565, 42.367002], [-71.075363, 42.366908], [-71.07311299999999, 42.369131], [-71.07073799999999, 42.367995], [-71.07157099999999, 42.36723399999999], [-71.075777, 42.361621], [-71.07078899999999, 42.36140400000001], [-71.069755, 42.361163999999995], [-71.06375500000001, 42.36124100000001], [-71.063835, 42.362792000000006], [-71.063294, 42.36431], [-71.058525, 42.36695199999999], [-71.059795, 42.368767], [-71.057141, 42.369982], [-71.05499499999999, 42.370697], [-71.050895, 42.370697], [-71.049095, 42.371196999999995], [-71.046995, 42.372597000000006], [-71.04519499999999, 42.37709699999999], [-71.044298, 42.383209], [-71.043264, 42.38359400000001], [-71.039512, 42.38685300000001], [-71.03881299999999, 42.386810999999994], [-71.03835699999999, 42.38652899999999], [-71.034975, 42.38587599999999], [-71.033234, 42.384910000000005], [-71.031995, 42.38459700000001], [-71.027712, 42.384041], [-71.02242799999999, 42.386373], [-71.020512, 42.38764099999999], [-71.017794, 42.390697], [-71.016094, 42.395897], [-71.013395, 42.39739799999999], [-71.009629, 42.400166999999996], [-71.009445, 42.400475], [-71.009396, 42.401183], [-71.010892, 42.40179499999999], [-71.011555, 42.401907], [-71.013772, 42.402964], [-71.01703499999999, 42.40271499999999], [-71.017826, 42.402883], [-71.01808799999999, 42.40335699999999], [-71.018878, 42.403718], [-71.020853, 42.403511], [-71.021157, 42.403842000000004], [-71.021205, 42.40424799999999], [-71.020377, 42.404866000000005], [-71.020618, 42.405190000000005], [-71.02191599999999, 42.405287], [-71.022443, 42.40548700000001], [-71.02285499999999, 42.40512499999999], [-71.02327799999999, 42.40554399999999], [-71.023847, 42.40532400000001], [-71.024901, 42.40590000000002], [-71.026004, 42.40579300000002], [-71.026826, 42.406432999999986], [-71.026898, 42.40733199999999], [-71.027115, 42.40778199999998], [-71.02924, 42.41056799999998], [-71.033203, 42.41422599999999], [-71.033095, 42.414696000000006], [-71.032493, 42.415506000000015], [-71.031275, 42.418433000000014], [-71.028065, 42.42415499999999], [-71.028257, 42.42414799999998], [-71.020377, 42.43824999999998], [-71.025835, 42.44470799999999], [-71.024958, 42.44538899999999], [-71.023679, 42.44599500000001], [-71.02029499999999, 42.448896], [-71.018495, 42.45009599999999], [-71.018295, 42.44959599999998], [-71.016795, 42.44819599999999], [-71.012095, 42.442796], [-71.009495, 42.441196], [-71.011995, 42.439696000000005], [-71.010295, 42.43869600000001], [-71.01049499999999, 42.437396], [-71.011579, 42.436179], [-71.01074299999999, 42.435262], [-71.01088299999999, 42.43440699999999], [-71.010327, 42.434098999999996], [-71.01086699999999, 42.43389599999998], [-71.010954, 42.43366], [-71.01117599999999, 42.43377799999999], [-71.01171599999999, 42.433705], [-71.01191, 42.433319000000004], [-71.011534, 42.433335], [-71.011158, 42.43314300000001], [-71.010403, 42.433521], [-71.010742, 42.433767], [-71.010164, 42.433796], [-71.009864, 42.43398099999999], [-71.00972, 42.433862], [-71.00976, 42.43328899999999], [-71.009577, 42.433189000000006], [-71.009613, 42.43403], [-71.00937499999999, 42.433989], [-71.009277, 42.43427799999999], [-71.00862599999999, 42.434352999999994], [-71.007873, 42.433972], [-71.006974, 42.43383800000001], [-71.005875, 42.433029], [-71.004632, 42.43305500000001], [-71.00330199999999, 42.43270299999998], [-71.003219, 42.43243700000001], [-71.00334699999999, 42.43220900000001], [-71.004595, 42.431715], [-71.004595, 42.429814], [-71.003918, 42.429694999999995], [-71.003275, 42.429709999999986], [-71.001094, 42.431296], [-70.998475, 42.431296], [-70.99571399999999, 42.430855000000015], [-70.994849, 42.43115], [-70.992023, 42.43413499999999], [-70.99011999999999, 42.43487700000001], [-70.987805, 42.43399799999998], [-70.985754, 42.432556999999996], [-70.983708, 42.431663], [-70.982294, 42.431296], [-70.979648, 42.432631], [-70.975194, 42.436896000000004], [-70.971594, 42.442696], [-70.968594, 42.444396], [-70.966293, 42.44349700000001], [-70.95079299999999, 42.44429599999999], [-70.951393, 42.436996], [-70.95299299999999, 42.42939599999999], [-70.959093, 42.41859699999998], [-70.962093, 42.412397000000006], [-70.95949399999999, 42.407498000000004], [-70.924593, 42.386798], [-70.917892, 42.385997], [-70.96704799999999, 42.356953999999995], [-70.967257, 42.357069], [-70.96882, 42.35586600000001], [-70.968935, 42.35592500000001], [-70.972893, 42.35359699999999], [-70.975094, 42.34349900000001], [-70.988173, 42.34344700000002], [-71.010994, 42.34269800000001], [-71.026895, 42.353097999999996], [-71.042596, 42.363797999999996], [-71.049396, 42.354498], [-71.049595, 42.35449699999999], [-71.05218800000002, 42.351121], [-71.05218599999999, 42.350922], [-71.054771, 42.347253], [-71.054788, 42.34687100000001], [-71.054469, 42.34677800000001], [-71.05825, 42.345506], [-71.058143, 42.34564699999999], [-71.058757, 42.345554], [-71.059821, 42.34471500000001], [-71.060609, 42.34371799999999], [-71.060906, 42.343775], [-71.060513, 42.34471099999998], [-71.06062899999999, 42.345072], [-71.06129299999999, 42.34387100000001], [-71.062052, 42.344041999999995], [-71.062529, 42.34300899999998], [-71.06593, 42.34393599999999], [-71.06985499999999, 42.345265999999995], [-71.07054099999999, 42.34456], [-71.071863, 42.343833], [-71.073531, 42.347262000000015], [-71.071815, 42.34867700000001], [-71.073067, 42.351243], [-71.070655, 42.351853999999996], [-71.072357, 42.35528200000001], [-71.072564, 42.355439], [-71.073021, 42.355309999999996], [-71.073302, 42.355812], [-71.07504899999999, 42.355325], [-71.075692, 42.356065], [-71.077095, 42.35869699999999], [-71.091297, 42.354197], [-71.09919599999999, 42.35279699999999], [-71.108798, 42.35239699999999], [-71.111001, 42.352597], [-71.117099, 42.355594], [-71.116929, 42.358715999999994], [-71.11719699999999, 42.36719699999999], [-71.11849699999999, 42.36839699999999]]]}}