{"type": "Feature", "properties": {"district_name": "Second Essex & Middlesex District", "chamber": "senate", "vintage": "2012-2020"}, "geometry": {"type": "Polygon", "coordinates": [[[-71.378798, 42.68309199999998], [-71.374014, 42.689370000000004], [-71.37436699999999, 42.693264], [-71.36981999999999, 42.69831499999999], [-71.35180799999999, 42.69816699999999], [-71.344906, 42.69769000000001], [-71.33020599999999, 42.69719], [-71.31705699999999, 42.69699], [-71.29420499999999, 42.69699], [-71.288789, 42.702389], [-71.278488, 42.71175300000001], [-71.26790799999999, 42.72588599999999], [-71.266015, 42.72738100000001], [-71.258405, 42.734088000000014], [-71.255185, 42.73667], [-71.238103, 42.669490999999994], [-71.23445199999999, 42.67208999999999], [-71.229647, 42.677856999999996], [-71.22882299999999, 42.679044000000005], [-71.227113, 42.682186], [-71.226074, 42.684431999999994], [-71.22564899999999, 42.685783], [-71.22538899999999, 42.68686699999999], [-71.224807, 42.69342999999999], [-71.224649, 42.693856999999994], [-71.22117399999999, 42.69849599999998], [-71.22062199999999, 42.699116], [-71.219202, 42.700036], [-71.216723, 42.70100699999999], [-71.215138, 42.701207999999994], [-71.209942, 42.70062], [-71.20249, 42.698910000000005], [-71.195382, 42.698506], [-71.193534, 42.698206], [-71.190057, 42.69699899999999], [-71.188858, 42.696247000000014], [-71.191212, 42.71057000000001], [-71.172271, 42.721706000000005], [-71.170887, 42.72327000000001], [-71.168972, 42.722348000000004], [-71.134134, 42.721506999999995], [-71.134969, 42.720214], [-71.135121, 42.71950699999999], [-71.13492099999999, 42.71780100000001], [-71.133816, 42.714619000000006], [-71.13341, 42.712939], [-71.133436, 42.711638], [-71.134345, 42.70958400000001], [-71.13565299999999, 42.707935000000006], [-71.136996, 42.706882], [-71.137563, 42.706661], [-71.137525, 42.704806], [-71.13708299999999, 42.70435299999997], [-71.13932299999999, 42.70340400000001], [-71.140909, 42.703278], [-71.142372, 42.69938399999999], [-71.14277799999999, 42.698923000000015], [-71.144438, 42.699274], [-71.14585699999999, 42.69848099999999], [-71.145718, 42.698169000000014], [-71.14544599999999, 42.698194999999984], [-71.14546, 42.698062000000014], [-71.145005, 42.697947], [-71.144903, 42.697756999999996], [-71.143395, 42.697028], [-71.143163, 42.694199000000005], [-71.14170299999999, 42.694316999999984], [-71.141669, 42.694084], [-71.140947, 42.69391199999999], [-71.140411, 42.69346], [-71.139405, 42.69314699999999], [-71.139303, 42.69303199999998], [-71.139439, 42.692704], [-71.139312, 42.69257599999999], [-71.138442, 42.69271399999999], [-71.138172, 42.692488999999995], [-71.137981, 42.691942999999995], [-71.138234, 42.69133399999999], [-71.13759499999999, 42.69045599999998], [-71.13761099999999, 42.68974999999999], [-71.13795499999999, 42.689662999999996], [-71.138639, 42.690327999999994], [-71.139062, 42.690402000000006], [-71.139595, 42.69017599999999], [-71.140155, 42.68936299999999], [-71.14005999999999, 42.688987999999995], [-71.138603, 42.687842999999994], [-71.138627, 42.687695999999995], [-71.138977, 42.68760900000001], [-71.13919299999999, 42.68773800000001], [-71.139427, 42.687594999999995], [-71.139809, 42.68718599999999], [-71.139678, 42.68688200000001], [-71.13933999999999, 42.686717], [-71.137947, 42.686668000000026], [-71.138723, 42.685990999999994], [-71.138824, 42.685732], [-71.139478, 42.68545899999999], [-71.13933, 42.685156], [-71.138092, 42.68521300000001], [-71.137827, 42.684996000000005], [-71.13927699999999, 42.68440699999999], [-71.133686, 42.67953500000002], [-71.134529, 42.67683699999999], [-71.12882700000002, 42.67445], [-71.076133, 42.604077], [-71.13529, 42.599061], [-71.141528, 42.603386], [-71.143074, 42.604080999999994], [-71.145749, 42.60828000000001], [-71.14656, 42.609979999999986], [-71.148613, 42.61324899999999], [-71.154336, 42.615277000000006], [-71.156564, 42.61497700000001], [-71.15861699999999, 42.61294799999999], [-71.159517, 42.60765900000001], [-71.160667, 42.605318], [-71.163664, 42.60212999999999], [-71.165015, 42.59795899999999], [-71.175223, 42.59220699999999], [-71.192529, 42.56453799999997], [-71.216753, 42.575918999999985], [-71.29627099999999, 42.612674999999996], [-71.283427, 42.61529900000001], [-71.277791, 42.62084700000002], [-71.274709, 42.62885899999998], [-71.271271, 42.643918000000006], [-71.27146499999999, 42.64611100000001], [-71.271682, 42.646305], [-71.27170699999999, 42.64801799999999], [-71.272018, 42.64921600000001], [-71.275154, 42.656216], [-71.277749, 42.65533999999998], [-71.280406, 42.65412], [-71.28685999999999, 42.648867999999986], [-71.29956899999999, 42.66651499999999], [-71.357523, 42.654454000000044], [-71.368882, 42.661753000000004], [-71.366434, 42.66667799999999], [-71.369626, 42.66933399999999], [-71.37159799999999, 42.66403099999999], [-71.37336499999999, 42.666123], [-71.376676, 42.677953], [-71.378798, 42.68309199999998]]]}}