{"type": "Feature", "properties": {"district_name": "Second Middlesex", "chamber": "senate", "vintage": "2001-2010"}, "geometry": {"type": "Polygon", "coordinates": [[[-71.07419209412514, 42.390701965585876], [-71.07669608919448, 42.38709600403224], [-71.07679592241318, 42.38669574497811], [-71.07709592961476, 42.38649597223373], [-71.0786959707264, 42.38429614633177], [-71.07989592484219, 42.38469609644573], [-71.08079597863434, 42.38359596854761], [-71.08429606079645, 42.384596167271134], [-71.08369602672478, 42.3852962191244], [-71.0855960361324, 42.38589614009467], [-71.08599595812119, 42.38509576470609], [-71.08789598087213, 42.38569621039175], [-71.08912224221254, 42.38430081353258], [-71.09016521028687, 42.38254999545376], [-71.09149597457555, 42.383896102542536], [-71.09149601517238, 42.38359619567178], [-71.09049599375022, 42.38199576195027], [-71.08999600090286, 42.38059572713069], [-71.08979590782674, 42.380495982569826], [-71.0897960657371, 42.380296232508876], [-71.0912960738579, 42.379595973124395], [-71.09229592314341, 42.379395831434884], [-71.09589605141637, 42.37969606189324], [-71.10049599082161, 42.38139622122743], [-71.0992960730046, 42.38319599158058], [-71.10039595366848, 42.38419575540937], [-71.10169598197488, 42.38249591453063], [-71.10309603361327, 42.38289575233138], [-71.10429608422089, 42.38099578651737], [-71.09879592235598, 42.3793961759996], [-71.09719602974594, 42.37839577111439], [-71.0958960508202, 42.37779589884254], [-71.09559603703656, 42.37679609109063], [-71.09819607247044, 42.37669604221593], [-71.09959604137794, 42.37639595197183], [-71.1006960849784, 42.37419689065261], [-71.102695999286, 42.37399618703567], [-71.10549607511983, 42.37629592329448], [-71.10839608729208, 42.37909614995971], [-71.10769607246672, 42.37929576619906], [-71.10789608574858, 42.37959579244084], [-71.11049599181696, 42.381595938691476], [-71.11159694967134, 42.38179603505748], [-71.11709704571228, 42.38659609660494], [-71.11799693308171, 42.387996212486826], [-71.11739700686046, 42.3882958134645], [-71.11799696461993, 42.388996087661496], [-71.11689708553571, 42.38959618199215], [-71.1187969772021, 42.391296145615094], [-71.12049692002289, 42.393096136457416], [-71.12119705831627, 42.39349625475455], [-71.12179707944756, 42.39299575949513], [-71.12279693157751, 42.3924960097755], [-71.12499700876222, 42.39459578920031], [-71.12669698265863, 42.39659599844795], [-71.12729699506991, 42.39699575420205], [-71.1301969287661, 42.40039578450948], [-71.13359696785129, 42.403396145084336], [-71.13439808427405, 42.40379706556772], [-71.13449692558066, 42.404396063969244], [-71.13369700239107, 42.40709604001023], [-71.13219699699872, 42.409395964401504], [-71.13269690681037, 42.411696078149845], [-71.13229706862305, 42.415295903395815], [-71.13829690564079, 42.4155962484404], [-71.14239795520514, 42.419296247052266], [-71.14279802679624, 42.42059613379421], [-71.14219794566417, 42.4219958832988], [-71.14389797190313, 42.42249574192562], [-71.14849802701814, 42.43049472809644], [-71.14849791620597, 42.43109509595799], [-71.14979803045112, 42.43579509270933], [-71.15559795529201, 42.43579514325453], [-71.16439803342962, 42.43609514686459], [-71.17519896392913, 42.43599501794207], [-71.17669897061339, 42.43629520254538], [-71.17849892456772, 42.43609486838093], [-71.18199892698885, 42.43629476902332], [-71.18099898053444, 42.436994775154446], [-71.17769903571626, 42.44019504156597], [-71.17879899421968, 42.441095006390505], [-71.18239893473131, 42.44349520000167], [-71.18238701960544, 42.44420300180134], [-71.18319892107782, 42.44409495543913], [-71.18373103547931, 42.44448522058354], [-71.18427196902364, 42.44451821416612], [-71.18422096050811, 42.44484385821691], [-71.18587493995237, 42.44509201604394], [-71.18959891508176, 42.44979474757905], [-71.17989908450544, 42.453594886499616], [-71.17852403118113, 42.4540018025948], [-71.169398942594, 42.45789493653697], [-71.16309806529728, 42.46029501445221], [-71.16239791913794, 42.4594951058187], [-71.15609802843271, 42.45699511607811], [-71.15459800574139, 42.45999526060174], [-71.15229796347165, 42.46369517734317], [-71.14609804163148, 42.46579473002019], [-71.1463980953394, 42.46639488900496], [-71.14839803724783, 42.468495246209905], [-71.14909799003104, 42.469794883244376], [-71.15019792949512, 42.47109516793797], [-71.1504980516858, 42.47169475277697], [-71.14999807511234, 42.47249503047268], [-71.15149800088022, 42.474494780947396], [-71.15219790461754, 42.47489526121914], [-71.15399793937246, 42.4765948584674], [-71.15599804131298, 42.47779481710153], [-71.15489809443964, 42.47829511093648], [-71.15299806188474, 42.479495190264075], [-71.15169802246798, 42.47929489883156], [-71.15169809593407, 42.47969495198266], [-71.15119807121866, 42.48049523322813], [-71.14999798954369, 42.48039481646108], [-71.14909806303378, 42.47959478697788], [-71.14849795692025, 42.479694799846186], [-71.14849795118565, 42.481095266299135], [-71.14679806745328, 42.480994978562265], [-71.14309809387704, 42.48159519220532], [-71.14079807329301, 42.482195158224535], [-71.13899801970321, 42.48209500588221], [-71.1373980727287, 42.482195200378754], [-71.13689808289166, 42.4820951600903], [-71.13510599810662, 42.48117686075687], [-71.1329989744539, 42.480995744005554], [-71.13289807164988, 42.47929505569996], [-71.13249903822683, 42.47739592129373], [-71.13379903705987, 42.47129572286894], [-71.13389797038619, 42.46999515781844], [-71.12379802793536, 42.47349502733197], [-71.11209693757229, 42.473595205754684], [-71.11089705176356, 42.473894998630655], [-71.11109693496395, 42.47309500206552], [-71.1133970358392, 42.46769497182395], [-71.11409798935554, 42.46569592151238], [-71.1149970130737, 42.464295079094335], [-71.11719700842889, 42.45759486902784], [-71.11859691986149, 42.455195238356325], [-71.11919702573633, 42.45339500182315], [-71.11149702583187, 42.450994830748016], [-71.10979696215001, 42.45069480851495], [-71.10499698233944, 42.44909509911771], [-71.08569597381995, 42.444694735017016], [-71.08599601900103, 42.44029573793548], [-71.08649592150657, 42.43799621364719], [-71.08749593390625, 42.43119598702696], [-71.08809590977997, 42.429196150762756], [-71.08899591680432, 42.42899624270176], [-71.08919592465746, 42.42679578559405], [-71.08859603124196, 42.42479615862019], [-71.08709603374152, 42.42099612701448], [-71.08619598203917, 42.419595779129395], [-71.08589603971684, 42.41779583542588], [-71.08429593002154, 42.41659607586518], [-71.08199604294846, 42.415496161068326], [-71.07949595138626, 42.41519615307443], [-71.07809594126346, 42.413595850312454], [-71.07749607144852, 42.41339615152132], [-71.07679691032334, 42.41339695914469], [-71.0741960798889, 42.412596247855866], [-71.07354186652971, 42.41285772003526], [-71.07329582600117, 42.41229807283028], [-71.07357293504732, 42.41019413532187], [-71.07375817131155, 42.40977675433408], [-71.07341814323824, 42.40905358322042], [-71.07341816386307, 42.408431827851324], [-71.07276917353602, 42.407561213581815], [-71.07252290781062, 42.40667408628978], [-71.07256444170653, 42.40415289348915], [-71.0726997820569, 42.40384279930573], [-71.07313949287047, 42.40362780102637], [-71.07391086276647, 42.40219077314389], [-71.075361262897, 42.40143539665438], [-71.07619467711312, 42.400357568997585], [-71.07633485724303, 42.39841516573295], [-71.07678020710263, 42.39729370323347], [-71.07755168216543, 42.398117482110244], [-71.07770655999903, 42.399195574740155], [-71.07931131374671, 42.40038250837521], [-71.07983632021042, 42.400634254276326], [-71.08153331470244, 42.40065731767428], [-71.0825212868929, 42.40101764208735], [-71.08304573856661, 42.40052157569866], [-71.08347777563284, 42.40054058312556], [-71.08381745539657, 42.40075056458856], [-71.08409516083857, 42.40132212128013], [-71.0846816414994, 42.40172542669519], [-71.08465170122751, 42.40212256730344], [-71.08431157268913, 42.40275885015534], [-71.08557701333702, 42.40330358187617], [-71.08573178353112, 42.40369688617479], [-71.08610197766187, 42.40362732107611], [-71.08594702380095, 42.402711291563996], [-71.08610133544806, 42.4017541736662], [-71.08650287915985, 42.40150353863614], [-71.08887851479959, 42.401046154724455], [-71.09005146440985, 42.40124952592273], [-71.09335438623401, 42.40312594847039], [-71.09344792978469, 42.40369120433184], [-71.09249056022574, 42.40401473241176], [-71.09252156811097, 42.40423934937072], [-71.09326253520257, 42.404451285330346], [-71.09431165760464, 42.40547680501072], [-71.09631822736321, 42.40581865167011], [-71.09653485888, 42.40595839182872], [-71.09659665977753, 42.406416625264946], [-71.09752312938117, 42.40719242033815], [-71.09900483099159, 42.40766967561522], [-71.10014784397846, 42.409179367278476], [-71.10036426637187, 42.41007589534354], [-71.10033514286475, 42.41213011493026], [-71.10076744292178, 42.412932299149695], [-71.10197186700395, 42.414207548680125], [-71.10240425988724, 42.41448756612082], [-71.10283679478174, 42.41453407315045], [-71.10265132646583, 42.41405065969928], [-71.101261459835, 42.4128603013471], [-71.10098337465968, 42.41240638576373], [-71.10101252780629, 42.40989302471122], [-71.10073394606543, 42.40915945761931], [-71.10036327405726, 42.40849140282127], [-71.09851120511392, 42.40675979891009], [-71.09746103469017, 42.40639151793587], [-71.09619455683921, 42.405181270513], [-71.094929535575, 42.404610212011775], [-71.09474418036338, 42.40385670097181], [-71.09505218123695, 42.40330186259078], [-71.09434153481028, 42.40268435647315], [-71.09421772325143, 42.40157038651696], [-71.09187160801778, 42.39960454366919], [-71.09097559856355, 42.3986661961553], [-71.09020471367334, 42.398572300221964], [-71.08644041928912, 42.39964929916236], [-71.08551426975731, 42.39944115334082], [-71.084618871891, 42.39879985086715], [-71.08393952173583, 42.39907367045403], [-71.08356986122428, 42.39900818837837], [-71.08307577867522, 42.397981204372286], [-71.08258175814773, 42.39752195809019], [-71.08017385303314, 42.396764277087016], [-71.07875438591877, 42.39651938976962], [-71.07782858367207, 42.39601408995202], [-71.07650210138738, 42.39583084751833], [-71.07597718347617, 42.394894871844635], [-71.07591456838804, 42.394157534993624], [-71.07495860721102, 42.3924727302006], [-71.07419209412514, 42.390701965585876]]]}}