{"type": "Feature", "properties": {"district_name": "First Essex", "chamber": "senate", "vintage": "2001-2010"}, "geometry": {"type": "MultiPolygon", "coordinates": [[[[-70.84059593019391, 42.79679082925632], [-70.858396021299, 42.800090974494346], [-70.8638959331499, 42.80089097028771], [-70.89155491420915, 42.79450420803917], [-70.8925420585122, 42.794768193736815], [-70.89374503449298, 42.79479418863276], [-70.89728701895051, 42.79699281532111], [-70.89828999033953, 42.79724614411085], [-70.89798907805215, 42.798292172192205], [-70.90551999635625, 42.797381936890346], [-70.91803705483163, 42.787019095627656], [-70.93099808758085, 42.80299089454387], [-70.93166091428144, 42.80442487520248], [-70.93190208807839, 42.80625005070112], [-70.9317270743522, 42.80695077079967], [-70.93043003223387, 42.808633927301045], [-70.93012409324174, 42.80952922727228], [-70.93032100469424, 42.8101867645449], [-70.93167296390685, 42.812339207661026], [-70.93198905015724, 42.813235873257184], [-70.93110091713949, 42.81424477907656], [-70.93095209136655, 42.814539981851766], [-70.9310880301165, 42.81486583889627], [-70.93176304996176, 42.815241037740044], [-70.93340799571607, 42.81528285062835], [-70.9341999864008, 42.81586677322034], [-70.93478000617823, 42.81678103412624], [-70.93430705801073, 42.8179360162854], [-70.93465500328992, 42.8179540303084], [-70.93562599770681, 42.817609945583435], [-70.9360720756433, 42.817742080685306], [-70.9369409307852, 42.81881582891054], [-70.9389989173378, 42.820689739032396], [-70.94079891345883, 42.8229899490736], [-70.94472398562345, 42.8210841385034], [-70.9489430073682, 42.8199019840748], [-70.95275692535498, 42.8194750361768], [-70.95692703510949, 42.81932306118289], [-70.96052905668152, 42.819753968748884], [-70.96333009554607, 42.82037403168147], [-70.96969899260321, 42.82268979672093], [-70.97302103522965, 42.82361581522752], [-70.97908798752471, 42.8245209161063], [-70.98068609323222, 42.824552281464655], [-70.98199392813551, 42.824378101049554], [-70.98716006746037, 42.823256737511464], [-70.99069806205273, 42.822164005874555], [-70.99549798599999, 42.821634774345554], [-70.99883500110856, 42.81993499105542], [-70.99984805521507, 42.818827093103344], [-71.00060608569258, 42.81768601840909], [-71.00098492561682, 42.81569376728847], [-71.00057403381112, 42.81292396206509], [-71.00009290893256, 42.811734219173644], [-70.99939993304767, 42.81068983690765], [-70.99829993193995, 42.80799017753309], [-71.00269997045241, 42.80139003669522], [-71.0110000364257, 42.79708989123734], [-71.0155000697484, 42.79408982732333], [-71.01699994456588, 42.792589978935524], [-71.02090003661654, 42.78448992171626], [-71.02270007802535, 42.77759013642572], [-71.02649999935133, 42.77328991477273], [-71.03850002816884, 42.7584897832993], [-71.04013796385867, 42.75785998080707], [-71.04229994536051, 42.75729017824651], [-71.04169591807396, 42.75471324473524], [-71.04307808987194, 42.753803890844516], [-71.0433000899145, 42.75309080327754], [-71.04370009617621, 42.75249094093133], [-71.04469996836363, 42.74899088329094], [-71.04839995205506, 42.74609100774228], [-71.04889991818428, 42.74519107700356], [-71.05277603717612, 42.740059264860314], [-71.05807598495181, 42.73455918207645], [-71.05867597891226, 42.732559098739955], [-71.07216994320528, 42.73272286928739], [-71.07417909501416, 42.73465894903803], [-71.08191701556645, 42.736884766163584], [-71.08772294323063, 42.73639586391437], [-71.08955098916731, 42.73705275260462], [-71.09165104877273, 42.7370528688388], [-71.09542900952329, 42.736146817615], [-71.09744106253414, 42.735403861683025], [-71.1087749971344, 42.735663848513035], [-71.09071800820922, 42.71913904906425], [-71.08460893941967, 42.71320521048587], [-71.07524697390205, 42.70455627192843], [-71.06436305946637, 42.69472098376061], [-71.04669494807955, 42.678371072567025], [-71.03957604692374, 42.672807183184254], [-71.03778002726278, 42.6678280107883], [-71.02137092187132, 42.64093800513477], [-71.02265490593769, 42.64155715827895], [-71.0433589656124, 42.632457990823156], [-71.0547700072862, 42.62705898090809], [-71.05570905143077, 42.62279383042992], [-71.05989908080399, 42.62549311326956], [-71.06509894873464, 42.62969211008659], [-71.07609907827941, 42.636091961616394], [-71.07989896956254, 42.639591954978826], [-71.0885000078968, 42.64629185957737], [-71.08930001905215, 42.647292262014766], [-71.08539896643566, 42.64989177904771], [-71.08689992239341, 42.6509920460737], [-71.08580001822862, 42.65149223098206], [-71.08248792166212, 42.65151125597919], [-71.08041291850314, 42.65255418247165], [-71.07842707789177, 42.65208109132227], [-71.0781610923966, 42.65250378603357], [-71.07865101221151, 42.65304401674469], [-71.08054502330397, 42.65389092367162], [-71.08122209413541, 42.65391701014006], [-71.08205506779291, 42.65350873875086], [-71.08334701971788, 42.65334011239338], [-71.0833650838505, 42.65392194345249], [-71.08229998784142, 42.65459213649144], [-71.08137200110168, 42.65573205488894], [-71.08161095154261, 42.65650879520127], [-71.08486502472233, 42.658768822557704], [-71.08606393173505, 42.65940496251351], [-71.08680003811465, 42.65959214112633], [-71.08879994002774, 42.659591960172655], [-71.08890008906359, 42.66299175569668], [-71.0879999093698, 42.664192025091154], [-71.08511997546582, 42.66733416151583], [-71.08735106999042, 42.66760489858585], [-71.0878089706242, 42.668174792453044], [-71.08844308341082, 42.668381850724714], [-71.08900404973768, 42.66931219195366], [-71.0896469574412, 42.6692542744827], [-71.09095597664188, 42.66952672789254], [-71.09385293827879, 42.66941710292036], [-71.09550807138056, 42.66963783286104], [-71.0988000080844, 42.67239214077797], [-71.10110003307845, 42.67289184177172], [-71.10220002760217, 42.6732917257063], [-71.1036999162412, 42.673092079662815], [-71.10430006475346, 42.67429085410965], [-71.10720007855, 42.67699124957882], [-71.10920898281663, 42.67912986771237], [-71.11130092046331, 42.681890997473296], [-71.11250109331787, 42.683891238319426], [-71.11700093913328, 42.6860909240426], [-71.12200108263983, 42.687390737136106], [-71.1264009610669, 42.68989073198501], [-71.13170095351073, 42.69259090920793], [-71.12806706842166, 42.69242905566096], [-71.1273630067248, 42.69270191385325], [-71.12710095784914, 42.69329126569217], [-71.12670095970094, 42.69579085476373], [-71.12210105641988, 42.69649101284679], [-71.12000095506042, 42.697290938192204], [-71.1191009241706, 42.69779096582565], [-71.1180010874955, 42.69759098088458], [-71.1184010907164, 42.69889084511182], [-71.11790098501035, 42.69919076181629], [-71.12010100388959, 42.70049092672489], [-71.1250009943885, 42.7029909153428], [-71.12550098829774, 42.70069083133541], [-71.12660109339163, 42.70089074535508], [-71.1300010698699, 42.70219121290738], [-71.13020108870809, 42.702391022318054], [-71.13380103344329, 42.70039108933182], [-71.14060192400215, 42.700190750828426], [-71.14030195755463, 42.70099099777431], [-71.14040207709135, 42.70169121586048], [-71.1407419620354, 42.702349981850595], [-71.1401739468971, 42.70336713103588], [-71.13860197154993, 42.704490856140985], [-71.13680193371178, 42.70649097634114], [-71.1368020763797, 42.707391176856284], [-71.13510207732347, 42.70879126268847], [-71.13380200614367, 42.71359084025921], [-71.13420297117243, 42.72139119110551], [-71.1491020046674, 42.72208998557943], [-71.1655019886955, 42.72249020731461], [-71.1675019305611, 42.72239020005208], [-71.17060292476064, 42.72338984727727], [-71.17210303578676, 42.72208995309449], [-71.17390292973721, 42.72109019914053], [-71.17810307519846, 42.71818983357464], [-71.17800299980038, 42.71798982428009], [-71.17845504266238, 42.717811042714814], [-71.17860304190019, 42.71789022108599], [-71.18130296844181, 42.71619013347898], [-71.18200393761022, 42.715591182166825], [-71.18746308897008, 42.7123192212869], [-71.190693056034, 42.7106760433826], [-71.190403078727, 42.7075898416944], [-71.18960294290223, 42.703389959864076], [-71.18870200126813, 42.696191001734576], [-71.19525408134398, 42.69848821268414], [-71.1961539446464, 42.698649240893744], [-71.20121591065667, 42.698724882036274], [-71.20990299813963, 42.700490012041826], [-71.21510291640489, 42.70108975658661], [-71.22160298845779, 42.69819006835422], [-71.22483796987615, 42.693459946859946], [-71.22525105350604, 42.692044800820774], [-71.2253969239768, 42.69068921934963], [-71.22532504162662, 42.68785003726789], [-71.2256540531228, 42.68572296480926], [-71.22770804595532, 42.6808571573759], [-71.22963699716509, 42.677824057062466], [-71.23444795187889, 42.672077831217955], [-71.2381030311739, 42.66949076212786], [-71.23877501413959, 42.67199204423191], [-71.23944397322482, 42.675835182162466], [-71.24193695601411, 42.68587523229478], [-71.2558983750014, 42.735902348719335], [-71.25508389375835, 42.73657070416004], [-71.24543263160619, 42.742561428667464], [-71.2373688315057, 42.744908644964724], [-71.22374843394468, 42.746488263881055], [-71.1816362624329, 42.73739451660161], [-71.18612074520254, 42.790741904288666], [-71.16663922649967, 42.80888215283707], [-71.13277419600067, 42.82151710839902], [-71.06444463451041, 42.80622674128177], [-71.05392796489512, 42.83328405867737], [-71.04478163195976, 42.84869190565074], [-71.03116276787216, 42.85930675787516], [-71.01617669864889, 42.86173693770349], [-70.96704224082643, 42.86882234719354], [-70.95154000446102, 42.87510461228069], [-70.9293837250638, 42.88508227776354], [-70.91453333015036, 42.886739380982554], [-70.90362474702054, 42.88681826787585], [-70.88560422107658, 42.88286985025785], [-70.84773966105203, 42.86087795936546], [-70.83674514581152, 42.864740887642284], [-70.82965813731845, 42.86879421202725], [-70.82026215435927, 42.87185353354708], [-70.8159331960503, 42.872066059708395], [-70.81600849559968, 42.86263385051109], [-70.81638084025141, 42.856132863575034], [-70.81616304652842, 42.85147036409971], [-70.81451432248198, 42.83692219476136], [-70.81274260663771, 42.8252312758501], [-70.81227630414372, 42.822969046115176], [-70.81199724265208, 42.82227987315694], [-70.81212092799106, 42.8218907147928], [-70.81544553944492, 42.82266599705252], [-70.8181799286435, 42.82291954308712], [-70.81932954872988, 42.822873978918025], [-70.82159725658761, 42.82177498794447], [-70.82268484379856, 42.82223481846096], [-70.82377195388324, 42.82219053272293], [-70.82566777258018, 42.821088166147575], [-70.82669269166654, 42.82074755554807], [-70.82697219709547, 42.82140968964581], [-70.82728318943822, 42.82168380134439], [-70.82725228404392, 42.822053822573096], [-70.82703458334348, 42.82232767707855], [-70.82709662689945, 42.8229390371304], [-70.82684854695745, 42.8231232590479], [-70.82430042087674, 42.82365022578219], [-70.82408326431117, 42.82399609254873], [-70.82343084367314, 42.82435798452631], [-70.82358579835314, 42.82458956119047], [-70.82498472061064, 42.82474737444566], [-70.82495381169693, 42.82502737640148], [-70.82427041394828, 42.82547967345836], [-70.82442534746329, 42.825891285333654], [-70.82439495896118, 42.826513359522544], [-70.82529632282277, 42.82754369405465], [-70.8255753273202, 42.82850288692777], [-70.82554523300921, 42.82909851963722], [-70.8252342227329, 42.829463533133755], [-70.8243025313315, 42.82973941108621], [-70.82358741871676, 42.82975999416676], [-70.82234476462061, 42.82941966682877], [-70.82150463667877, 42.82955034081736], [-70.8202934781941, 42.82946166414801], [-70.81985889398725, 42.829711727886306], [-70.82007630632211, 42.83012258649931], [-70.82054214019472, 42.83030479248613], [-70.82243827039287, 42.83072435181303], [-70.82467580813238, 42.830994526994864], [-70.82638430603309, 42.8304896795883], [-70.8266325462309, 42.82999039645621], [-70.82703709124334, 42.82975926190183], [-70.826632229172, 42.828612554162774], [-70.82635189790089, 42.82668903594647], [-70.82669368307062, 42.82614303627088], [-70.82719071438311, 42.82589162163646], [-70.82740775496886, 42.82559132042669], [-70.8275014638804, 42.82497748952407], [-70.82771868981688, 42.82474864076108], [-70.82852596882405, 42.824591288714515], [-70.82858868427452, 42.82417644269347], [-70.82924132902008, 42.822967788192834], [-70.82958247939966, 42.822691830913264], [-70.83054538560296, 42.82248698034403], [-70.83119771438771, 42.82275573892878], [-70.83728774056765, 42.8230540339513], [-70.83843667766841, 42.82296326724029], [-70.84101538481349, 42.822002388721444], [-70.8432528527712, 42.82145304075642], [-70.8450849125244, 42.821170851138824], [-70.84660780089133, 42.82114625469607], [-70.84813005317403, 42.82085157989509], [-70.85378276697226, 42.81849832323299], [-70.85813222119336, 42.81764369710729], [-70.8588144099607, 42.8173897970799], [-70.85918760494062, 42.81712180691612], [-70.85937312831275, 42.816596788431596], [-70.85999398577106, 42.816154066459696], [-70.8637832776909, 42.81501088750432], [-70.86527456369134, 42.815148468559315], [-70.86648608907572, 42.81544428342884], [-70.87130289997167, 42.81695019667096], [-70.87186219187501, 42.81738250451121], [-70.87204913762832, 42.817793663215774], [-70.87192680734226, 42.81917421613457], [-70.87285914364547, 42.819447070280674], [-70.87329363092942, 42.819943958162426], [-70.87332682448726, 42.820772304018476], [-70.87363682437665, 42.82097427044039], [-70.87450659628252, 42.82108642809753], [-70.87446966219379, 42.81491660999249], [-70.87375552169735, 42.81482048327877], [-70.87217065786332, 42.81383745769626], [-70.87036844808239, 42.813272376680075], [-70.8642785708211, 42.81224666671166], [-70.86210345162493, 42.81156126001355], [-70.86169881378078, 42.81126197034149], [-70.86179203016405, 42.8107555673751], [-70.86166763787114, 42.81053264888918], [-70.86011265638149, 42.809251996060546], [-70.8598329863173, 42.80844591004545], [-70.85936641037479, 42.80796679486073], [-70.85784421243794, 42.80718983283925], [-70.85628963475095, 42.80607172474129], [-70.85408367898283, 42.80481043567345], [-70.85321371131307, 42.80414900708888], [-70.85228044617402, 42.80255158479018], [-70.84948454728885, 42.80084074879752], [-70.84845866009289, 42.80001074692952], [-70.84777518867413, 42.7998504923976], [-70.84625427111253, 42.80001070363612], [-70.84261990392895, 42.798871647636716], [-70.8392659116701, 42.79885368831624], [-70.83693515236446, 42.798524739480236], [-70.84059593019391, 42.79679082925632]]], [[[-70.82963933522083, 42.802118951293515], [-70.83297203478723, 42.80045314742421], [-70.83411094203754, 42.800981810910564], [-70.83414170078449, 42.80123347836601], [-70.8332723537232, 42.80201333080191], [-70.83339699477732, 42.80326362406218], [-70.83358346111217, 42.80358426426005], [-70.83414285098156, 42.80402576086008], [-70.83513622117314, 42.80436116107785], [-70.8371560191485, 42.80438230105538], [-70.83808818190836, 42.804818034138066], [-70.83833637855776, 42.8050478749728], [-70.8383365805364, 42.80528248775992], [-70.8379329078425, 42.80566726231027], [-70.83771640691644, 42.806724871121794], [-70.83616325156274, 42.80832619213615], [-70.83513877488359, 42.80882948551106], [-70.83228158217047, 42.809307592680824], [-70.83125574352374, 42.80939619501613], [-70.83038639437288, 42.809284275913235], [-70.82998250297172, 42.80898431597702], [-70.83013702602592, 42.808252118936146], [-70.82991972114894, 42.807796267077606], [-70.82985749492732, 42.806932288767825], [-70.8288006408267, 42.805922459364666], [-70.82876954428671, 42.80534672073547], [-70.82901862811406, 42.80484687088481], [-70.8283653613207, 42.80443406138878], [-70.82839729405586, 42.80409161185666], [-70.82904949336053, 42.803477636220514], [-70.82963933522083, 42.802118951293515]]], [[[-70.81644471120983, 42.808498452241125], [-70.82130098690088, 42.806194390520034], [-70.82140860498815, 42.80631148302956], [-70.82150198370786, 42.80749915471913], [-70.8222786926973, 42.80826154799272], [-70.82255821833121, 42.80981544564895], [-70.82258944513589, 42.81042719362326], [-70.82215543481558, 42.81088487610605], [-70.82004218613993, 42.81134171490766], [-70.81960758288606, 42.81095264496556], [-70.81907897063456, 42.811023804666085], [-70.81858213815967, 42.811599254260116], [-70.81811633183605, 42.81148061425351], [-70.8182094089403, 42.810614730841706], [-70.8180848093857, 42.81033718951601], [-70.81650122743882, 42.80929095214605], [-70.81644471120983, 42.808498452241125]]], [[[-70.81080904988347, 42.81433372916506], [-70.81085903768465, 42.813539048022086], [-70.81058703731117, 42.812942742887245], [-70.81069496016232, 42.81129097641608], [-70.81394459228457, 42.809800762238446], [-70.81445030805871, 42.810566666139295], [-70.81556856472254, 42.81148528175224], [-70.81591094416186, 42.81221870694067], [-70.81678083806509, 42.81317747687255], [-70.81848970519978, 42.81372652929741], [-70.81988775174072, 42.81450609278433], [-70.82054051970842, 42.81523457336105], [-70.82053970272929, 42.815945715989905], [-70.81737185852035, 42.81814042775093], [-70.81594221551283, 42.81871317843823], [-70.81532172412211, 42.81875846097858], [-70.81454492104854, 42.81814061609751], [-70.81401656374713, 42.81720298295447], [-70.81150023947077, 42.815468699507555], [-70.8105099227291, 42.81528558569478], [-70.81080904988347, 42.81433372916506]]]]}}