{"type": "Feature", "properties": {"district_name": "First Worcester", "chamber": "senate", "vintage": "2001-2010"}, "geometry": {"type": "Polygon", "coordinates": [[[-71.60629500909623, 42.39871605238581], [-71.60242296618016, 42.39695615768373], [-71.58021405502619, 42.38718107207391], [-71.5982950757363, 42.37599689100164], [-71.60791107896047, 42.37049321131578], [-71.60306290803004, 42.36750085998], [-71.60562304407026, 42.36388504756544], [-71.60587903781216, 42.36372501281697], [-71.60730294924018, 42.361469058387414], [-71.60778309413053, 42.36106911074308], [-71.6100550197527, 42.357693163135195], [-71.62597495818288, 42.34983707152209], [-71.62167094653012, 42.34602901365886], [-71.61837498426937, 42.34257311955898], [-71.62255102514449, 42.338397057654824], [-71.62429506687072, 42.33735704585636], [-71.62581501332718, 42.33673307138333], [-71.62727097530217, 42.334476819865664], [-71.63032694099587, 42.3309251490359], [-71.63096708323117, 42.329052953596914], [-71.63312696654428, 42.327709047005996], [-71.63634299282205, 42.325196855570375], [-71.6395429417705, 42.322989001483116], [-71.63931892171121, 42.32274900921199], [-71.63935109543874, 42.32238097798319], [-71.63803908306924, 42.32199712585238], [-71.63695093125251, 42.32134121809175], [-71.63648695201704, 42.32127706186932], [-71.63607108597853, 42.32102097315477], [-71.63586295742593, 42.32066898205112], [-71.6370149205003, 42.32025291980925], [-71.63741492637182, 42.31922892814492], [-71.63797492149934, 42.31847707988851], [-71.64003903990398, 42.31682874488593], [-71.64136704327937, 42.3160129211159], [-71.64338294228617, 42.31532507941166], [-71.64415197693137, 42.3140288274904], [-71.64495202355943, 42.31180523341209], [-71.64506402534464, 42.30799686839345], [-71.64480691086172, 42.30636485474939], [-71.64453496050223, 42.305948813016386], [-71.64397507235824, 42.3055809596517], [-71.64104706478165, 42.30391680343447], [-71.6391910732012, 42.304348955277206], [-71.63467898288565, 42.30399702970058], [-71.6328390328618, 42.30478073588707], [-71.63189504543664, 42.30538895635233], [-71.62879093159881, 42.30465311430696], [-71.62911108505246, 42.30441305280676], [-71.63003901582155, 42.304284840449824], [-71.63091898609049, 42.30369302581175], [-71.6314789998341, 42.30370926682985], [-71.63175092991948, 42.30306918657834], [-71.63256700807584, 42.302749207550505], [-71.63330306650731, 42.30114921486308], [-71.63397494644542, 42.300221133873436], [-71.63400703856685, 42.299805274571575], [-71.63443893276803, 42.29884483468104], [-71.63509491686328, 42.298301077106466], [-71.6346310452141, 42.29740526902078], [-71.63463107355261, 42.29697312908223], [-71.63504691126025, 42.296493235797584], [-71.63704705526418, 42.29657301898421], [-71.63747899596237, 42.296188753617805], [-71.63759097438518, 42.29505312652796], [-71.6383430811205, 42.293612881422796], [-71.63797500832146, 42.29303713702425], [-71.63831094413965, 42.29260515544577], [-71.63978308170842, 42.29190114557671], [-71.64005502516606, 42.29201278825403], [-71.6402470947726, 42.2925887411165], [-71.6409189517929, 42.29233302367746], [-71.6410629219599, 42.29198117023318], [-71.64067894216993, 42.29150110991049], [-71.640727017523, 42.29105315543378], [-71.64099905294435, 42.291037066754754], [-71.64144698683285, 42.2913088546541], [-71.6418310439607, 42.29122904285733], [-71.64163908150029, 42.29062101940904], [-71.64283907117927, 42.290589148773364], [-71.64325492137743, 42.290077152080244], [-71.64315894099208, 42.28935703734049], [-71.64362293238035, 42.28894119800124], [-71.64317498439655, 42.28815681403057], [-71.65829901036099, 42.28290288447029], [-71.66399202967895, 42.281277180671374], [-71.66896803319119, 42.27946881560747], [-71.67061201187144, 42.27859309885893], [-71.67361196847402, 42.28149318134429], [-71.67771196079124, 42.286093044216784], [-71.68021190636897, 42.30239289117974], [-71.68061195509934, 42.303993093444845], [-71.68701298579714, 42.314893246161624], [-71.68971297496678, 42.31889285576455], [-71.68791301125894, 42.32559282890053], [-71.69021306224622, 42.326292957809734], [-71.69091298165503, 42.32699289601153], [-71.69081303967572, 42.328992824020716], [-71.69731293700752, 42.32729325014817], [-71.69771299398462, 42.32919273082639], [-71.69541307634013, 42.33019316829369], [-71.69851301498466, 42.332093087896396], [-71.72991392436197, 42.32109326123402], [-71.73151399217647, 42.31799305358896], [-71.74151398865945, 42.31559289511227], [-71.74171396399149, 42.31599310396887], [-71.74091393001363, 42.31699298071024], [-71.74111409521413, 42.31739319009617], [-71.74311393292292, 42.31659278296938], [-71.74604199465637, 42.31596478867186], [-71.74631404571274, 42.31549324138897], [-71.7492140337436, 42.31459176275199], [-71.7560139152323, 42.311991854420015], [-71.76681490607429, 42.31329183937188], [-71.76691497226707, 42.311492148515704], [-71.76751492664516, 42.311292126528], [-71.76821503494571, 42.31129218269371], [-71.76301491192397, 42.30319312673167], [-71.76141503111259, 42.301193061648426], [-71.76031496736766, 42.299293125471316], [-71.75881396158495, 42.29719320384484], [-71.75841401883174, 42.296092931270444], [-71.75621405953319, 42.281693123590856], [-71.75581397037037, 42.280192769491144], [-71.75561402923626, 42.27829302389113], [-71.75492794037778, 42.27486103682288], [-71.75513395819574, 42.27427988684666], [-71.75448598216158, 42.272444152498835], [-71.75411396409568, 42.270692769370314], [-71.75281401647969, 42.26289285283491], [-71.75219907610676, 42.260080765446794], [-71.75901405931725, 42.259393182486974], [-71.76121396400093, 42.258792874687046], [-71.76231400844877, 42.25879318033287], [-71.76351403460856, 42.25929291334073], [-71.76431393425874, 42.259292762893445], [-71.76501395838879, 42.259093083038664], [-71.76671403488328, 42.25799302938456], [-71.76921406153737, 42.25719324120798], [-71.77001393378985, 42.25679297933909], [-71.77151500280377, 42.256392743905714], [-71.77421495106968, 42.256093166557406], [-71.77511503758886, 42.25619286008973], [-71.77781501886534, 42.25599279389589], [-71.77971493551254, 42.25609284126594], [-71.78501493379197, 42.25579283577403], [-71.78921502762385, 42.256392850773935], [-71.78911499303345, 42.25559295853484], [-71.79171492297351, 42.25539281717587], [-71.79161504745618, 42.254592926481656], [-71.79281500192937, 42.25459324861973], [-71.7951150067965, 42.255992958207706], [-71.79711493485436, 42.25399306581858], [-71.7978030470768, 42.254677201765645], [-71.7979010674573, 42.25518674426435], [-71.79773496566133, 42.2554212539685], [-71.79811497494696, 42.255293100081374], [-71.79891491711373, 42.255392867096546], [-71.79981503393591, 42.25589300197738], [-71.80041493268067, 42.25649294903782], [-71.80171501818187, 42.25719290194679], [-71.80471500684624, 42.259493131497976], [-71.80631507373911, 42.25829315923721], [-71.80701495437768, 42.258093223308414], [-71.80571501007682, 42.25669278144921], [-71.8062149737503, 42.25619290614565], [-71.8055150756097, 42.255992765028246], [-71.80751506943948, 42.25329326681621], [-71.80834498609588, 42.252822882835964], [-71.80941493320903, 42.253893054252444], [-71.81521499301431, 42.25049325744839], [-71.8155150123757, 42.250893068943775], [-71.81631503019743, 42.25029272754084], [-71.81701494077235, 42.250993034789964], [-71.81831500474907, 42.25039298564053], [-71.81941495754596, 42.25149280410798], [-71.81571496824212, 42.253592870082215], [-71.81831507566677, 42.25489282007294], [-71.81881506332981, 42.25389322046762], [-71.81971506261094, 42.25419288246551], [-71.81891500611074, 42.25599290237438], [-71.82291599650367, 42.25699287357454], [-71.82021505403442, 42.261293197486836], [-71.82251600410898, 42.261892774405204], [-71.82641604454113, 42.26229308023689], [-71.82761599041007, 42.262592952612785], [-71.82801599977695, 42.25989315109922], [-71.82911596819619, 42.26009313460521], [-71.82951597894622, 42.25879273643785], [-71.83071601662851, 42.25919273502054], [-71.83631606377207, 42.263291982769616], [-71.83351604238041, 42.26419201221427], [-71.83591601122447, 42.26549214435001], [-71.8364159608851, 42.265591964894845], [-71.83681590840457, 42.26519184572647], [-71.83621607544949, 42.26479184323822], [-71.83941594862121, 42.2630921101719], [-71.83861607815874, 42.262292076039245], [-71.84111597139604, 42.26139225073372], [-71.84141598800352, 42.26189215314505], [-71.84411600990124, 42.26169221619332], [-71.84381593525498, 42.26059193059428], [-71.84451591316174, 42.26039176562189], [-71.84531602132938, 42.26039217568403], [-71.84591591207575, 42.26059181314839], [-71.84821593488402, 42.262292063165596], [-71.84911599116246, 42.26269221632613], [-71.85021605993431, 42.26299215646366], [-71.85121600800836, 42.26289175702362], [-71.85301600872572, 42.26529173722282], [-71.85471593923118, 42.2701920271524], [-71.85431596573753, 42.273891817695244], [-71.85571594650719, 42.273692237097215], [-71.85821605945097, 42.27229181078803], [-71.85971599772814, 42.27209186940076], [-71.86131608402434, 42.26999195368964], [-71.8611160524057, 42.268692207078836], [-71.86121602781829, 42.267392079244075], [-71.86201598755459, 42.26599183836976], [-71.87671690866829, 42.266691806003855], [-71.88271704551194, 42.2781919169074], [-71.88461702256375, 42.28309221896311], [-71.88541707008437, 42.28459191623389], [-71.88931698219511, 42.28449211075738], [-71.88991705365281, 42.284292008961465], [-71.90231698785875, 42.283891941087504], [-71.94092593146654, 42.28220395381788], [-71.94262192993715, 42.2824118161335], [-71.96067007175778, 42.2815632120049], [-71.96723108175362, 42.31068292921353], [-71.9895029547849, 42.31015525903167], [-71.99375890956435, 42.31933926479047], [-71.97191891695158, 42.32887515268327], [-71.95374301207072, 42.333386797659145], [-71.94291000061177, 42.33788325559411], [-71.94159807976202, 42.33866705710971], [-71.92082992227786, 42.347355125355655], [-71.91836602627096, 42.347962810368244], [-71.92162994718467, 42.35423491997912], [-71.92838204918228, 42.368010839211394], [-71.88750201870596, 42.39465115809828], [-71.92081397194006, 42.41666584889843], [-71.93200002612865, 42.42481918501094], [-71.94311891022133, 42.43189023198117], [-71.95311901273581, 42.438690026624904], [-71.96531908690575, 42.44659023162666], [-71.94391909582428, 42.45989011469721], [-71.93711906639598, 42.46398983259303], [-71.93191904297782, 42.46688973820657], [-71.92051907466667, 42.47428989434425], [-71.93321899665115, 42.48229007942756], [-71.9287189763242, 42.485389745942435], [-71.91981892952681, 42.490990064669795], [-71.909719089839, 42.48438980302306], [-71.88461796218853, 42.50248991571521], [-71.87991806424326, 42.505390257441185], [-71.86451791734268, 42.51678992158018], [-71.86071807918691, 42.51649016012872], [-71.8567179094124, 42.5190902643789], [-71.84921801270622, 42.51778985500968], [-71.84691700796658, 42.51428976109431], [-71.84491498413612, 42.51413597313731], [-71.84181695790997, 42.5143899554042], [-71.84221693929832, 42.512589954080255], [-71.8221169572994, 42.50418999891142], [-71.82981697120157, 42.4918898780668], [-71.83571692401462, 42.48339016873361], [-71.83361692864537, 42.479790168935445], [-71.83191692654738, 42.47759000576839], [-71.82800809408657, 42.4718457242964], [-71.82785595008801, 42.47083111328411], [-71.8283740725319, 42.46918272252672], [-71.82800795696362, 42.468344271693525], [-71.82803897232559, 42.467329138412694], [-71.82821703617039, 42.46719021601339], [-71.82803908996519, 42.46698591327631], [-71.82787104538193, 42.46583405636154], [-71.82731702791894, 42.464989948006796], [-71.82698599646686, 42.463728270084395], [-71.82581105301293, 42.46304908751745], [-71.82478892087613, 42.461897949545516], [-71.82405607443062, 42.46147126322469], [-71.82388805864136, 42.46097490311692], [-71.8239040447898, 42.458868804783805], [-71.82361399643412, 42.45802280955531], [-71.82201194815623, 42.45625996877768], [-71.82210291741364, 42.45450476184372], [-71.82181295048788, 42.453666075692674], [-71.82021701605859, 42.45199096720946], [-71.82038198259974, 42.45137213893116], [-71.82107005129352, 42.45082781315888], [-71.82108609110193, 42.45050817427715], [-71.8209099882196, 42.45031623336972], [-71.81943704127481, 42.44991577124748], [-71.8191970852867, 42.44934026664551], [-71.81940503661039, 42.44862004033924], [-71.81926100215976, 42.448044269638615], [-71.81858900239236, 42.44687578484526], [-71.81817303762962, 42.44657196964513], [-71.8174999341141, 42.4462351021286], [-71.81690805936874, 42.44618721767664], [-71.81509992104287, 42.44557887266069], [-71.8134680180852, 42.44561089668391], [-71.81298801603539, 42.4449870798717], [-71.81257197899143, 42.444890868506924], [-71.83177300136612, 42.43161108479377], [-71.8264600492637, 42.420971002427144], [-71.81731591624596, 42.40389081001206], [-71.78761605620122, 42.39919121815452], [-71.78651604612207, 42.39869093327621], [-71.77721496829295, 42.40039103891726], [-71.76921509569362, 42.40059121132164], [-71.7635149535141, 42.40039227737805], [-71.74361496201689, 42.393591788019236], [-71.74141490865627, 42.392592055337374], [-71.74151496409053, 42.38679181875613], [-71.72572190771393, 42.390300074462054], [-71.72136991665997, 42.40927615739343], [-71.71810606392572, 42.410348084032286], [-71.71481000923549, 42.41314793387677], [-71.71387898711782, 42.413738219033704], [-71.71098601201992, 42.41660416432468], [-71.69892192448695, 42.427324200152654], [-71.69898598564428, 42.427468132096045], [-71.69823406459152, 42.428187954314176], [-71.69375301514535, 42.431788205666315], [-71.69055291079245, 42.434955726930916], [-71.68844105339569, 42.43673216059421], [-71.68810492780554, 42.43685987247934], [-71.68672909044278, 42.43666799230021], [-71.6873599688128, 42.43411528041244], [-71.68591305302624, 42.43407598842994], [-71.68692107705691, 42.43178824601403], [-71.68762498496635, 42.430956043666306], [-71.68797697218923, 42.42972379366819], [-71.68799305494832, 42.42861981639291], [-71.68754494200095, 42.42631586565021], [-71.68735303755898, 42.42345220436445], [-71.68846505740431, 42.42345207732608], [-71.6885530058676, 42.42034826120895], [-71.68708098415489, 42.420379921488724], [-71.68725707209678, 42.42021983766282], [-71.68741692926612, 42.419260229526415], [-71.68808893953509, 42.41834817468892], [-71.68594506359452, 42.41778786460924], [-71.68741702824734, 42.415004210114176], [-71.68237695843422, 42.41332373869219], [-71.68204097651368, 42.4136601834591], [-71.6815929257289, 42.41212424406498], [-71.68157706028683, 42.41023595353343], [-71.68071305105057, 42.41012421689759], [-71.67855305001996, 42.41058785080581], [-71.67565694566531, 42.41298814883187], [-71.67408905690665, 42.41516411739877], [-71.67296907619699, 42.41573972694783], [-71.66972091285344, 42.41650810192195], [-71.66876096451415, 42.4168921272183], [-71.6681210686522, 42.41684411146873], [-71.66762495168096, 42.41703614193471], [-71.66717694825812, 42.41740421531306], [-71.6661849632521, 42.4188280747897], [-71.66604100999746, 42.419532179218606], [-71.6623279240273, 42.41953184820647], [-71.6601200134556, 42.419323940210134], [-71.66045598339299, 42.41825215403868], [-71.65701595761409, 42.4171000535232], [-71.62976805730126, 42.409244269291605], [-71.60743096928829, 42.39932380574242], [-71.60703100319199, 42.3989398752924], [-71.60650301261708, 42.39893980246904], [-71.60629500909623, 42.39871605238581]]]}}