{"type": "Feature", "properties": {"district_name": "Cape and Islands District", "chamber": "senate", "vintage": "2022-present"}, "geometry": {"type": "Polygon", "coordinates": [[[-71.051854, 41.416729], [-70.999482, 41.442372], [-70.956821, 41.46247200000001], [-70.91481, 41.483092], [-70.879213, 41.500105999999995], [-70.763776, 41.55660700000001], [-70.758464, 41.560930999999975], [-70.749476, 41.55639], [-70.694657, 41.52556], [-70.691364, 41.517842], [-70.688353, 41.51678900000001], [-70.681397, 41.51755], [-70.674646, 41.519385], [-70.672253, 41.515773999999986], [-70.668001, 41.51198800000001], [-70.655122, 41.51512600000001], [-70.654494, 41.515417], [-70.653814, 41.516278], [-70.653835, 41.51663500000001], [-70.654295, 41.51760100000001], [-70.654302, 41.518052000000004], [-70.653778, 41.51976100000001], [-70.653493, 41.520243000000015], [-70.651561, 41.522163], [-70.650947, 41.52329300000001], [-70.650055, 41.52415499999999], [-70.650033, 41.52460499999999], [-70.649389, 41.525316999999994], [-70.649563, 41.52546600000002], [-70.649002, 41.52606500000001], [-70.6489, 41.526433000000004], [-70.64841, 41.526855], [-70.648366, 41.527173999999995], [-70.647752, 41.52772800000002], [-70.647185, 41.52793500000002], [-70.647387, 41.528093000000005], [-70.646217, 41.52938000000001], [-70.646224, 41.52971999999999], [-70.645639, 41.530543], [-70.642196, 41.533764999999995], [-70.640895, 41.534686], [-70.63863, 41.53601899999999], [-70.634697, 41.537708999999985], [-70.634741, 41.537851], [-70.633711, 41.538163999999995], [-70.633535, 41.53838300000002], [-70.632783, 41.53846499999999], [-70.632761, 41.53863500000001], [-70.631803, 41.538734000000005], [-70.631796, 41.53884899999999], [-70.629676, 41.539485000000006], [-70.62678300000002, 41.539911999999994], [-70.62641, 41.540192000000005], [-70.622991, 41.54122100000001], [-70.620544, 41.54134299999999], [-70.618082, 41.54185000000002], [-70.617826, 41.54150400000001], [-70.617636, 41.54153199999998], [-70.61776, 41.541799999999995], [-70.617585, 41.541828], [-70.617227, 41.54178999999998], [-70.617176, 41.54152100000001], [-70.616701, 41.541745999999996], [-70.616723, 41.542031999999985], [-70.616285, 41.54226199999999], [-70.615101, 41.542378000000014], [-70.61399, 41.542208999999986], [-70.613486, 41.542461], [-70.611412, 41.542950999999995], [-70.60946100000001, 41.542956999999994], [-70.608225, 41.54247999999999], [-70.607239, 41.54282100000001], [-70.606596, 41.542837999999996], [-70.603307, 41.541889000000005], [-70.603249, 41.542015000000006], [-70.602263, 41.54199400000001], [-70.601437, 41.542186000000015], [-70.597346, 41.54386199999999], [-70.597514, 41.54412599999999], [-70.596601, 41.544433000000005], [-70.596601, 41.54470800000001], [-70.595206, 41.54487800000001], [-70.59525, 41.545175], [-70.594512, 41.545027], [-70.59381, 41.54509800000001], [-70.593825, 41.54529599999999], [-70.592743, 41.54536800000001], [-70.59183, 41.54523599999999], [-70.591852, 41.545439], [-70.588958, 41.545177], [-70.588827, 41.545753000000005], [-70.588776, 41.54515500000001], [-70.588469, 41.545347], [-70.586415, 41.54543], [-70.581892, 41.544662], [-70.580555, 41.54424], [-70.580495, 41.54452500000001], [-70.580014, 41.54474200000001], [-70.578984, 41.544899], [-70.579035, 41.545036], [-70.578114, 41.54525600000001], [-70.57818, 41.545404], [-70.576595, 41.545745000000004], [-70.576646, 41.54592000000002], [-70.57631000000002, 41.54603600000001], [-70.57533, 41.546206], [-70.574366, 41.546162], [-70.574351, 41.54668399999998], [-70.573854, 41.54689799999999], [-70.571816, 41.54720499999999], [-70.570837, 41.547173000000015], [-70.57085200000002, 41.547337], [-70.570222, 41.54773300000003], [-70.569309, 41.54794700000001], [-70.568323, 41.54775500000001], [-70.568206, 41.547990999999996], [-70.567782, 41.54792], [-70.567782, 41.54802400000001], [-70.567373, 41.54798499999999], [-70.567351, 41.548106], [-70.566277, 41.54803500000001], [-70.566218, 41.548183], [-70.56518, 41.54823300000001], [-70.564764, 41.54811200000001], [-70.564654, 41.548303999999995], [-70.563668, 41.54824399999999], [-70.56358, 41.548364], [-70.561644, 41.54831], [-70.560942, 41.548013], [-70.56093500000001, 41.54825499999999], [-70.559568, 41.54831], [-70.558472, 41.548698999999985], [-70.556331, 41.54873799999999], [-70.556294, 41.548963], [-70.55514, 41.54892400000001], [-70.555169, 41.54907300000002], [-70.554745, 41.549155], [-70.553934, 41.549111], [-70.553963, 41.549302999999995], [-70.55283800000001, 41.549501], [-70.552889, 41.549665], [-70.552355, 41.549797000000005], [-70.551756, 41.54972], [-70.551793, 41.549884999999996], [-70.551391, 41.54995599999999], [-70.550426, 41.549808000000006], [-70.550455, 41.549989000000004], [-70.550178, 41.55009900000001], [-70.549425, 41.550039], [-70.549469, 41.55029700000001], [-70.54789, 41.550549], [-70.548007, 41.550776], [-70.54782, 41.55076600000001], [-70.547863, 41.550918], [-70.546519, 41.55209599999999], [-70.545003, 41.55158099999998], [-70.538821, 41.551256], [-70.535123, 41.550415], [-70.532851, 41.549569000000005], [-70.531894, 41.549009000000005], [-70.530301, 41.547691], [-70.529308, 41.54646099999998], [-70.528181, 41.547479], [-70.526961, 41.547547999999985], [-70.526852, 41.547394], [-70.525953, 41.548118], [-70.521911, 41.54902299999998], [-70.515277, 41.55010800000001], [-70.505107, 41.551467], [-70.501549, 41.55171000000001], [-70.500801, 41.55190900000001], [-70.496951, 41.552081], [-70.494658, 41.55176600000001], [-70.493626, 41.551869], [-70.489991, 41.55335000000001], [-70.487958, 41.553726999999995], [-70.486157, 41.55385999999999], [-70.483797, 41.555096], [-70.478945, 41.556905000000015], [-70.477601, 41.557591], [-70.47524100000001, 41.559129], [-70.473086, 41.561365], [-70.46982, 41.56410000000001], [-70.468782, 41.564615999999994], [-70.465012, 41.56795499999999], [-70.463945, 41.56922899999999], [-70.461907, 41.57117299999999], [-70.461994, 41.571239], [-70.461746, 41.571508], [-70.459057, 41.57399500000002], [-70.458355, 41.57498899999999], [-70.457376, 41.57599900000001], [-70.457537, 41.576223999999996], [-70.457237, 41.577321999999995], [-70.455929, 41.57844299999999], [-70.453912, 41.58072099999998], [-70.45098, 41.584406], [-70.450104, 41.586228], [-70.450102, 41.587701000000024], [-70.451448, 41.58704799999999], [-70.451697, 41.58741300000001], [-70.452076, 41.58747000000002], [-70.452308, 41.58698800000003], [-70.452153, 41.586725], [-70.453008, 41.58633600000002], [-70.458592, 41.588668000000006], [-70.464982, 41.59673999999998], [-70.46105, 41.606363000000016], [-70.45734, 41.610761999999994], [-70.452641, 41.615958000000006], [-70.450828, 41.61608499999999], [-70.450396, 41.61683999999999], [-70.450316, 41.617539999999984], [-70.450607, 41.61859200000001], [-70.450477, 41.61890700000001], [-70.449461, 41.618886999999994], [-70.449322, 41.619074], [-70.449431, 41.619358], [-70.449717, 41.61949100000002], [-70.449563, 41.620157000000006], [-70.44981200000001, 41.620694], [-70.4496, 41.62094099999999], [-70.449009, 41.62092100000002], [-70.448946, 41.621365000000004], [-70.448607, 41.621491000000006], [-70.449056, 41.622374], [-70.448739, 41.62260100000001], [-70.448965, 41.62280200000001], [-70.448842, 41.62294999999999], [-70.449238, 41.62312399999999], [-70.448956, 41.623345999999984], [-70.449705, 41.624086], [-70.449791, 41.624554], [-70.4501, 41.624635999999995], [-70.450295, 41.62506500000001], [-70.450622, 41.625273], [-70.450569, 41.62579], [-70.451053, 41.62650000000001], [-70.450997, 41.62704000000001], [-70.451266, 41.62729099999999], [-70.450957, 41.62805599999999], [-70.45148, 41.62868799999998], [-70.451394, 41.629018], [-70.45183900000002, 41.62924400000002], [-70.451889, 41.62956499999999], [-70.451802, 41.63005600000001], [-70.451419, 41.630436], [-70.45162, 41.630904], [-70.451991, 41.631231000000014], [-70.452009, 41.631384000000004], [-70.451698, 41.63158500000001], [-70.451895, 41.63201899999999], [-70.452516, 41.632561], [-70.452675, 41.63333], [-70.452466, 41.633616999999994], [-70.452459, 41.634111], [-70.452811, 41.634565], [-70.452677, 41.63484900000001], [-70.453509, 41.63493499999999], [-70.455991, 41.63432999999998], [-70.456488, 41.635029], [-70.460589, 41.633529000000024], [-70.464608, 41.632515], [-70.465705, 41.633044000000005], [-70.466495, 41.633706], [-70.467605, 41.63422], [-70.466304, 41.637082], [-70.458476, 41.637471000000005], [-70.454361, 41.639193999999996], [-70.452557, 41.638748000000014], [-70.453189, 41.639856], [-70.453063, 41.640488], [-70.453238, 41.641690000000004], [-70.45171200000001, 41.64248200000001], [-70.446514, 41.65033999999999], [-70.451059, 41.65691200000001], [-70.458737, 41.664041], [-70.389188, 41.733911000000006], [-70.383282, 41.740088], [-70.388911, 41.740659], [-70.390056, 41.740639000000016], [-70.393187, 41.741269], [-70.395896, 41.74156500000001], [-70.397683, 41.74249499999999], [-70.401834, 41.742883], [-70.404287, 41.743434000000015], [-70.406539, 41.743481], [-70.408357, 41.74375499999999], [-70.409289, 41.744059000000014], [-70.410029, 41.74404400000001], [-70.413692, 41.744842999999996], [-70.415609, 41.745660999999984], [-70.418966, 41.746086999999996], [-70.424798, 41.74732000000001], [-70.4255, 41.748019], [-70.425768, 41.748909999999995], [-70.426921, 41.75010199999999], [-70.426955, 41.74984100000002], [-70.427255, 41.750007], [-70.42906, 41.749718000000016], [-70.429928, 41.749765], [-70.43716, 41.75139899999999], [-70.446558, 41.75408199999999], [-70.446382, 41.7542], [-70.44656, 41.75435700000001], [-70.448893, 41.75535699999999], [-70.450571, 41.755666999999995], [-70.452861, 41.756429], [-70.457417, 41.75755900000001], [-70.459242, 41.75812800000002], [-70.460055, 41.758613000000004], [-70.462933, 41.759255999999986], [-70.466857, 41.76054800000001], [-70.467395, 41.76093699999999], [-70.47308, 41.762537], [-70.47376, 41.763232], [-70.474311, 41.76454799999999], [-70.474138, 41.764698], [-70.47450400000001, 41.764897000000005], [-70.473641, 41.76556899999999], [-70.488597, 41.775082000000005], [-70.491927, 41.77761499999999], [-70.494834, 41.77665699999999], [-70.49441, 41.77812599999999], [-70.49406, 41.77825], [-70.500849, 41.781447], [-70.508331, 41.78574499999999], [-70.512484, 41.787614000000005], [-70.515336, 41.78936599999997], [-70.518254, 41.79164], [-70.519442, 41.793254], [-70.522308, 41.795989], [-70.525652, 41.79832300000002], [-70.531446, 41.80344600000001], [-70.53245, 41.804472999999994], [-70.537005, 41.810277], [-70.537501, 41.810675], [-70.499473, 41.84411699999999], [-70.355004, 42.000104], [-70.346384, 42.019446000000016], [-70.337813, 42.044484], [-70.322522, 42.11791500000001], [-70.27743, 42.114344999999986], [-70.253194, 42.125102999999996], [-70.249472, 42.126926000000005], [-70.229175, 42.131189], [-70.215587, 42.132785000000005], [-70.206221, 42.13305399999999], [-70.1954, 42.13154900000001], [-70.184474, 42.13383700000001], [-70.172542, 42.13451500000001], [-70.150676, 42.131465], [-70.135694, 42.12734900000001], [-70.130377, 42.126929000000004], [-70.124471, 42.12604100000001], [-70.120691, 42.12510099999998], [-70.067098, 42.105326999999996], [-70.040302, 42.09163400000001], [-70.011591, 42.073378], [-69.996279, 42.059687], [-69.969482, 42.029254], [-69.954169, 42.00795500000001], [-69.94821, 42.000105999999995], [-69.940645, 41.992345], [-69.929109, 41.97847599999998], [-69.923027, 41.967760999999996], [-69.917706, 41.95924699999999], [-69.909178, 41.94206200000001], [-69.902402, 41.922145999999984], [-69.89530500000001, 41.90675300000001], [-69.880018, 41.86197800000001], [-69.877762, 41.85284599999999], [-69.876263, 41.84896999999999], [-69.874498, 41.842448000000005], [-69.87315, 41.838648000000006], [-69.872379, 41.831586], [-69.869499, 41.82662700000001], [-69.866525, 41.81701100000002], [-69.86557500000002, 41.80767099999999], [-69.865779, 41.795636], [-69.865595, 41.790980000000005], [-69.862511, 41.773522], [-69.862366, 41.76631799999999], [-69.860058, 41.758503000000005], [-69.859846, 41.75011000000002], [-69.85913000000001, 41.73649999999999], [-69.858861, 41.720383], [-69.85895, 41.706916], [-69.86054, 41.69232599999999], [-69.862098, 41.68497099999998], [-69.862876, 41.67315300000002], [-69.868125, 41.65679100000001], [-69.871064, 41.65256699999999], [-69.874459, 41.645026000000016], [-69.884485, 41.630303000000005], [-69.889012, 41.625195999999995], [-69.888835, 41.625113], [-69.88942, 41.622694], [-69.891662, 41.617186000000004], [-69.898562, 41.60609599999999], [-69.907546, 41.596033000000006], [-69.915399, 41.58924300000001], [-69.916197, 41.58428899999998], [-69.919766, 41.574033], [-69.921517, 41.57090000000001], [-69.921345, 41.562282], [-69.924632, 41.54464599999999], [-69.928994, 41.53215200000001], [-69.936401, 41.52193600000001], [-69.946613, 41.512152], [-69.958172, 41.50466], [-69.96743, 41.50011599999999], [-69.968606, 41.50011599999999], [-69.971289, 41.49887200000001], [-69.979776, 41.496567], [-69.988306, 41.49449599999999], [-69.994377, 41.493663], [-69.998169, 41.493399], [-69.999458, 41.49111800000001], [-69.999458, 41.490527], [-70.013862, 41.47743899999999], [-70.023677, 41.471948], [-70.040313, 41.46596], [-70.055437, 41.46410999999999], [-70.073742, 41.465019999999996], [-70.084904, 41.467493], [-70.101508, 41.474444], [-70.114394, 41.484083000000005], [-70.122595, 41.494499000000005], [-70.124461, 41.498521], [-70.124924, 41.500115], [-70.126677, 41.50369799999999], [-70.127962, 41.509674], [-70.128764, 41.51769199999999], [-70.128554, 41.52473200000001], [-70.126792, 41.530878000000016], [-70.122559, 41.537833], [-70.116719, 41.54499300000001], [-70.10952, 41.551482], [-70.102029, 41.556352000000004], [-70.086572, 41.562447999999996], [-70.080316, 41.564454], [-70.073586, 41.57770800000001], [-70.068572, 41.58522], [-70.063352, 41.59017299999999], [-70.064699, 41.59323000000001], [-70.068046, 41.602954000000004], [-70.068569, 41.610697], [-70.077934, 41.61252799999999], [-70.093772, 41.60832400000001], [-70.109368, 41.605591], [-70.124462, 41.600849], [-70.12695200000002, 41.600203], [-70.138491, 41.59869200000001], [-70.148926, 41.599133], [-70.160357, 41.59937], [-70.163439, 41.597952], [-70.170602, 41.595588000000006], [-70.1815, 41.593547000000015], [-70.189375, 41.59049600000001], [-70.198237, 41.58734200000001], [-70.20804, 41.584149999999994], [-70.220282, 41.57233699999998], [-70.22555800000002, 41.56856100000001], [-70.231947, 41.56559500000001], [-70.241092, 41.56210999999999], [-70.249463, 41.560146], [-70.255691, 41.559146], [-70.267429, 41.558372999999996], [-70.278898, 41.559315999999995], [-70.289965, 41.561639], [-70.299331, 41.565916999999985], [-70.31125400000002, 41.57106200000001], [-70.320214, 41.568946000000004], [-70.331549, 41.567898], [-70.346337, 41.56845300000001], [-70.351936, 41.566649000000005], [-70.364206, 41.562196000000014], [-70.387281, 41.557681], [-70.395164, 41.556722], [-70.397122, 41.554401999999996], [-70.405051, 41.546195000000004], [-70.411202, 41.540744], [-70.417304, 41.534822000000005], [-70.423896, 41.528732], [-70.432904, 41.52206300000001], [-70.440131, 41.517479], [-70.448567, 41.513093000000005], [-70.457634, 41.50934100000001], [-70.466436, 41.50616000000001], [-70.478689, 41.50350299999999], [-70.483967, 41.502545999999995], [-70.48974, 41.501856], [-70.498209, 41.502565], [-70.502832, 41.500635], [-70.50860300000001, 41.498965], [-70.504182, 41.494858], [-70.499472, 41.488233], [-70.494942, 41.479631999999995], [-70.49165800000002, 41.47100900000001], [-70.489689, 41.462976999999995], [-70.485385, 41.463802999999984], [-70.475994, 41.46614099999998], [-70.46395, 41.468], [-70.448007, 41.469355], [-70.436449, 41.46891900000001], [-70.421087, 41.46441600000002], [-70.405928, 41.457012999999996], [-70.392892, 41.44548], [-70.385874, 41.43372099999999], [-70.380807, 41.411996], [-70.380693, 41.385361], [-70.382163, 41.375117999999986], [-70.383449, 41.369933], [-70.370112, 41.36876899999999], [-70.367698, 41.37142700000001], [-70.362641, 41.375117999999986], [-70.353085, 41.381454999999995], [-70.338289, 41.38854999999999], [-70.323593, 41.391607], [-70.308734, 41.390693000000006], [-70.302438, 41.38962500000001], [-70.294179, 41.39144600000001], [-70.283214, 41.39288499999999], [-70.267283, 41.393426000000005], [-70.258549, 41.392106999999996], [-70.249463, 41.390049], [-70.247689, 41.38989099999999], [-70.238142, 41.38620499999999], [-70.233576, 41.38263999999998], [-70.224936, 41.37512000000002], [-70.221622, 41.371769], [-70.21733400000001, 41.364996999999995], [-70.215115, 41.360274999999994], [-70.208297, 41.35802499999999], [-70.198383, 41.35902500000001], [-70.187287, 41.358380000000004], [-70.174906, 41.357290000000006], [-70.159992, 41.35224200000002], [-70.148699, 41.345215999999986], [-70.13794, 41.346371000000005], [-70.132231, 41.348731], [-70.124461, 41.35132699999998], [-70.119335, 41.352638000000006], [-70.110095, 41.353592], [-70.101618, 41.35345000000001], [-70.09784400000001, 41.353584000000005], [-70.103251, 41.359705], [-70.107199, 41.365213000000004], [-70.111328, 41.37038899999998], [-70.11644, 41.38616500000001], [-70.116541, 41.39513199999999], [-70.112734, 41.408126], [-70.105819, 41.419866], [-70.094412, 41.43081], [-70.078847, 41.438015], [-70.06517400000001, 41.442687], [-70.044272, 41.44380099999999], [-70.025902, 41.441079], [-70.006467, 41.43389800000001], [-69.999458, 41.42843199999999], [-69.98922700000001, 41.421225], [-69.98177500000001, 41.41520800000001], [-69.974592, 41.40892200000001], [-69.969634, 41.403510999999995], [-69.957745, 41.38725], [-69.943801, 41.36671700000001], [-69.938456, 41.357645000000005], [-69.929837, 41.34532299999999], [-69.92644, 41.33879399999998], [-69.921579, 41.332398], [-69.91495, 41.32419500000001], [-69.910093, 41.317263], [-69.902948, 41.30520699999999], [-69.898321, 41.29700299999999], [-69.894885, 41.29037199999999], [-69.893789, 41.286925000000004], [-69.89295900000002, 41.28364299999999], [-69.89244500000001, 41.27909000000001], [-69.8925, 41.27621099999999], [-69.892209, 41.271323], [-69.893025, 41.266636999999996], [-69.894472, 41.25923999999999], [-69.896044, 41.254119], [-69.897743, 41.25012199999999], [-69.89901, 41.24553800000001], [-69.902992, 41.238416], [-69.910319, 41.226849], [-69.915842, 41.220939], [-69.922911, 41.21583999999999], [-69.930953, 41.21054300000001], [-69.942008, 41.204519999999995], [-69.953586, 41.19967199999999], [-69.973182, 41.193545000000015], [-69.983151, 41.191403], [-69.999457, 41.188305], [-70.012483, 41.18705299999999], [-70.025702, 41.187102], [-70.039705, 41.18819200000001], [-70.051647, 41.190908], [-70.072666, 41.19163400000001], [-70.109684, 41.189803000000005], [-70.12446, 41.19242200000001], [-70.135855, 41.194649], [-70.16117, 41.20068999999998], [-70.178851, 41.204530999999996], [-70.217017, 41.21817599999999], [-70.227997, 41.22266400000001], [-70.239982, 41.228463], [-70.285736, 41.242346000000005], [-70.294484, 41.246499000000014], [-70.314298, 41.260532000000005], [-70.33509000000001, 41.272779], [-70.344083, 41.27614600000001], [-70.357554, 41.27259600000002], [-70.374466, 41.26945800000001], [-70.386671, 41.27128199999999], [-70.396777, 41.273013999999996], [-70.408733, 41.277294000000005], [-70.414493, 41.273953], [-70.429075, 41.268651000000006], [-70.444758, 41.265513000000006], [-70.459851, 41.26525300000001], [-70.475635, 41.270219999999995], [-70.493308, 41.279975], [-70.499469, 41.28574100000001], [-70.512199, 41.298313], [-70.530599, 41.299198999999994], [-70.54521000000001, 41.299672000000015], [-70.571848, 41.30009399999999], [-70.593135, 41.299843999999986], [-70.606672, 41.29940999999999], [-70.62447, 41.298382], [-70.655087, 41.29616499999999], [-70.68502, 41.293176], [-70.686615, 41.292058999999995], [-70.689055, 41.290937000000014], [-70.692874, 41.28963900000001], [-70.700169, 41.289058000000004], [-70.703106, 41.28904], [-70.704591, 41.28483399999999], [-70.707362, 41.280218], [-70.711063, 41.27485699999999], [-70.716499, 41.26945200000001], [-70.721634, 41.265861], [-70.726731, 41.26311000000002], [-70.734843, 41.25923100000001], [-70.734065, 41.256147999999996], [-70.734045, 41.253327000000006], [-70.733667, 41.25011600000003], [-70.73475300000001, 41.24625999999999], [-70.738908, 41.236427], [-70.744307, 41.22603000000001], [-70.749473, 41.22017299999998], [-70.754188, 41.216091], [-70.767837, 41.20648999999999], [-70.783582, 41.201219], [-70.80595, 41.19874200000001], [-70.823645, 41.20064899999999], [-70.847746, 41.20581399999999], [-70.866343, 41.215397], [-70.874474, 41.221380999999994], [-70.877327, 41.224143999999995], [-70.884973, 41.23378399999999], [-70.890541, 41.24309099999999], [-70.89245700000001, 41.25011200000001], [-70.894203, 41.25943899999999], [-70.893595, 41.267993999999995], [-70.890337, 41.27736199999999], [-70.885683, 41.28506600000001], [-70.878182, 41.29214699999999], [-70.874475, 41.29496799999998], [-70.870027, 41.29706799999999], [-70.874474, 41.30134999999999], [-70.877963, 41.30370800000001], [-70.884472, 41.31016199999997], [-70.891363, 41.318817999999986], [-70.897722, 41.327411000000005], [-70.901005, 41.334613], [-70.903815, 41.346727], [-70.903739, 41.35508000000001], [-70.901866, 41.36177], [-70.896017, 41.37014800000001], [-70.902603, 41.36761300000002], [-70.918399, 41.363033], [-70.938664, 41.353986000000006], [-70.955752, 41.35016100000001], [-70.970521, 41.34918700000001], [-70.979229, 41.349643999999984], [-70.990748, 41.351288999999994], [-70.99948, 41.354103], [-71.006315, 41.357319], [-71.014799, 41.362019999999994], [-71.020472, 41.366723], [-71.026103, 41.37169300000001], [-71.032701, 41.38027300000001], [-71.037211, 41.388908000000015], [-71.039918, 41.398259], [-71.038114, 41.405453], [-71.033604, 41.41408500000001], [-71.051854, 41.416729]]]}}