{"type": "Feature", "properties": {"district_name": "Hampden District", "chamber": "senate", "vintage": "2022-present"}, "geometry": {"type": "Polygon", "coordinates": [[[-72.62861, 42.166227], [-72.628498, 42.171974000000006], [-72.628258, 42.173590000000004], [-72.627655, 42.17662800000001], [-72.627062, 42.17860599999999], [-72.625863, 42.18167300000001], [-72.625053, 42.18302099999999], [-72.623745, 42.184552], [-72.623113, 42.18508400000002], [-72.621249, 42.18596999999999], [-72.618778, 42.18661500000001], [-72.609859, 42.18979], [-72.608933, 42.188454000000014], [-72.609958, 42.188078000000004], [-72.61179, 42.186748], [-72.610037, 42.185413], [-72.61029600000002, 42.185223999999984], [-72.609575, 42.185234], [-72.610894, 42.182859000000015], [-72.607509, 42.18242900000002], [-72.606284, 42.18191300000001], [-72.605408, 42.181276000000004], [-72.605275, 42.182038000000006], [-72.605381, 42.18301899999997], [-72.606288, 42.18491999999999], [-72.603923, 42.187369], [-72.603648, 42.187142], [-72.60265, 42.18761], [-72.604432, 42.18430400000001], [-72.604444, 42.18379800000001], [-72.604134, 42.18296499999999], [-72.603156, 42.18200800000001], [-72.601301, 42.181452], [-72.595795, 42.180355999999996], [-72.590898, 42.18026], [-72.589213, 42.177957999999975], [-72.587123, 42.17451499999998], [-72.587386, 42.17421700000001], [-72.598091, 42.173112000000025], [-72.598856, 42.173184], [-72.602873, 42.17199499999998], [-72.60288, 42.171659], [-72.603251, 42.171596], [-72.60293, 42.169695999999995], [-72.597956, 42.17022400000001], [-72.596621, 42.170595000000006], [-72.593207, 42.16820899999999], [-72.593112, 42.168119999999995], [-72.594542, 42.16654200000001], [-72.595897, 42.16576000000002], [-72.595274, 42.165077000000004], [-72.59327100000002, 42.16407799999999], [-72.593076, 42.16383600000001], [-72.592926, 42.163044], [-72.59270800000002, 42.162802000000006], [-72.591946, 42.162287000000006], [-72.590334, 42.161593999999994], [-72.590161, 42.161271000000006], [-72.59025, 42.160949], [-72.589816, 42.16019000000001], [-72.588434, 42.15958899999999], [-72.588327, 42.160292999999996], [-72.581826, 42.160289000000006], [-72.581853, 42.15978699999999], [-72.575746, 42.15869], [-72.570232, 42.16109300000002], [-72.562332, 42.161193000000004], [-72.559332, 42.16059299999998], [-72.555632, 42.15709299999999], [-72.552483, 42.156667999999996], [-72.547942, 42.158428], [-72.544773, 42.159216], [-72.543963, 42.15938599999999], [-72.541931, 42.15919299999997], [-72.541228, 42.15836799999999], [-72.540815, 42.15754900000001], [-72.540703, 42.156206], [-72.540476, 42.15552900000002], [-72.539962, 42.15507799999999], [-72.538789, 42.154747], [-72.537975, 42.154807999999996], [-72.537366, 42.155172], [-72.536971, 42.155732], [-72.536463, 42.156963999999995], [-72.535801, 42.15747799999999], [-72.533377, 42.15736600000001], [-72.528736, 42.158305], [-72.524004, 42.160562], [-72.521499, 42.16121700000002], [-72.520146, 42.16128199999997], [-72.516782, 42.16082799999999], [-72.513414, 42.16090700000001], [-72.511565, 42.160484], [-72.510754, 42.16048299999998], [-72.509242, 42.160819], [-72.506221, 42.162046000000004], [-72.505275, 42.16220800000001], [-72.497045, 42.16133800000001], [-72.493145, 42.16122], [-72.490864, 42.161561999999996], [-72.489766, 42.16205899999999], [-72.489251, 42.16208600000001], [-72.48897, 42.16185999999999], [-72.488926, 42.16156500000002], [-72.489384, 42.16044100000001], [-72.489887, 42.159684], [-72.48972, 42.15921], [-72.489465, 42.159042], [-72.488898, 42.15906400000001], [-72.487629, 42.159946], [-72.486981, 42.159942], [-72.486686, 42.15967900000001], [-72.486662, 42.159351], [-72.487004, 42.15905999999998], [-72.487822, 42.15875100000001], [-72.48812200000002, 42.158305], [-72.4881, 42.15796200000001], [-72.487185, 42.157297], [-72.484595, 42.156524000000005], [-72.473804, 42.10318000000001], [-72.477358, 42.104475], [-72.478342, 42.10539500000001], [-72.479277, 42.10688999999999], [-72.480512, 42.10627100000001], [-72.481505, 42.10528099999999], [-72.481864, 42.10514], [-72.482796, 42.104312], [-72.484858, 42.10530700000001], [-72.485517, 42.10540100000001], [-72.486343, 42.10520999999999], [-72.488252, 42.106863], [-72.48947, 42.10970100000001], [-72.490095, 42.11066199999999], [-72.490409, 42.11082399999999], [-72.492532, 42.110959000000015], [-72.497667, 42.11033800000002], [-72.49918, 42.110380000000006], [-72.499327, 42.111125000000015], [-72.499261, 42.111774], [-72.498397, 42.11429], [-72.498557, 42.115320999999994], [-72.503705, 42.117373], [-72.508649, 42.117549000000004], [-72.50879, 42.11477900000002], [-72.508658, 42.113907], [-72.505674, 42.11394399999999], [-72.50333300000001, 42.11340100000002], [-72.508311, 42.10603900000002], [-72.509024, 42.105431999999986], [-72.510161, 42.10493199999999], [-72.521523, 42.103597000000015], [-72.521753, 42.104642999999996], [-72.522259, 42.10475699999999], [-72.523076, 42.10448199999997], [-72.524446, 42.104318], [-72.525315, 42.10377], [-72.526568, 42.10332400000001], [-72.528123, 42.103438000000004], [-72.529375, 42.103582], [-72.531276, 42.10433], [-72.532563, 42.105506000000005], [-72.533931, 42.107693999999995], [-72.542531, 42.10789400000001], [-72.543823, 42.10581199999999], [-72.546415, 42.105727], [-72.546119, 42.10514299999999], [-72.545434, 42.104890000000005], [-72.544265, 42.105005], [-72.54236400000002, 42.10491700000001], [-72.540206, 42.10513100000001], [-72.53939, 42.105028000000004], [-72.538149, 42.10444900000002], [-72.537572, 42.103831000000014], [-72.537277, 42.103137], [-72.537352, 42.102534999999996], [-72.538152, 42.10065599999998], [-72.538178, 42.099771999999994], [-72.540019, 42.09961], [-72.541366, 42.099134], [-72.540824, 42.095326], [-72.54201600000002, 42.094842999999976], [-72.54304, 42.094208000000016], [-72.544664, 42.09311300000002], [-72.545452, 42.092228000000006], [-72.542449, 42.09195600000001], [-72.542074, 42.08924800000001], [-72.531191, 42.091388999999985], [-72.531126, 42.091146], [-72.528996, 42.09111800000001], [-72.528978, 42.09072200000001], [-72.528548, 42.09011699999999], [-72.528273, 42.08844499999998], [-72.529409, 42.08846200000001], [-72.529224, 42.08668900000002], [-72.528275, 42.08258200000001], [-72.539409, 42.081222000000004], [-72.539973, 42.081404000000006], [-72.53985, 42.080522000000016], [-72.541913, 42.08035700000001], [-72.54206100000002, 42.08241199999999], [-72.54357400000002, 42.08350500000001], [-72.54444, 42.083704999999995], [-72.545017, 42.08240999999999], [-72.546171, 42.082244], [-72.545827, 42.08047700000001], [-72.547537, 42.08027899999998], [-72.546942, 42.079683999999986], [-72.546799, 42.07884], [-72.547337, 42.078435], [-72.546036, 42.07714199999999], [-72.54855, 42.07567099999999], [-72.547986, 42.07538300000001], [-72.548198, 42.07517700000001], [-72.548277, 42.07475600000001], [-72.548007, 42.074088], [-72.550066, 42.073938000000005], [-72.550221, 42.07379799999998], [-72.550675, 42.073950999999994], [-72.551245, 42.073863], [-72.551779, 42.074418000000016], [-72.554803, 42.075601], [-72.555782, 42.075613000000004], [-72.556065, 42.075830999999994], [-72.556454, 42.076557], [-72.556854, 42.07675499999999], [-72.55736, 42.076867], [-72.558295, 42.076681], [-72.558893, 42.076963], [-72.559167, 42.07811800000001], [-72.558276, 42.082702], [-72.55788000000001, 42.08299000000001], [-72.556053, 42.08341899999999], [-72.555272, 42.08377899999999], [-72.556394, 42.084898], [-72.55549, 42.085388], [-72.55592300000002, 42.085811], [-72.557763, 42.086267], [-72.558031, 42.086206000000004], [-72.564135, 42.087324], [-72.563317, 42.085123], [-72.567418, 42.084322], [-72.568004, 42.086041], [-72.569433, 42.085747], [-72.56908, 42.085075999999994], [-72.573704, 42.08423399999999], [-72.574053, 42.084188999999995], [-72.574119, 42.084394999999994], [-72.579722, 42.08351900000002], [-72.579576, 42.082922], [-72.579892, 42.082494], [-72.579985, 42.082026000000006], [-72.582693, 42.081557999999994], [-72.584112, 42.08699699999999], [-72.584912, 42.088843], [-72.585619, 42.09002000000001], [-72.588487, 42.09321200000001], [-72.592636, 42.097436999999985], [-72.596765, 42.100344], [-72.597949, 42.101017000000006], [-72.601077, 42.10246600000001], [-72.608958, 42.105598], [-72.610509, 42.10634499999998], [-72.61316, 42.107967], [-72.615425, 42.10970300000001], [-72.62072, 42.115925000000004], [-72.62112600000002, 42.116814], [-72.621987, 42.119718], [-72.62213100000001, 42.121424000000005], [-72.621481, 42.123788000000005], [-72.62089, 42.125092999999985], [-72.617701, 42.129653000000005], [-72.615794, 42.13334600000001], [-72.61501, 42.13682300000001], [-72.614968, 42.137589], [-72.615894, 42.13995200000001], [-72.618363, 42.143706], [-72.620208, 42.14536900000001], [-72.625357, 42.149189], [-72.627036, 42.15133500000001], [-72.627732, 42.153986999999994], [-72.62788, 42.155576], [-72.627843, 42.157833], [-72.627303, 42.16049000000001], [-72.627342, 42.16203200000001], [-72.628407, 42.165162], [-72.62861, 42.166227]]]}}