{"type": "Feature", "properties": {"district_name": "Second Suffolk and Middlesex", "chamber": "senate", "vintage": "2001-2010"}, "geometry": {"type": "Polygon", "coordinates": [[[-71.13439808427405, 42.40379706556772], [-71.13359696785129, 42.403396145084336], [-71.13107957319676, 42.401299714855796], [-71.13079699730142, 42.40079608432428], [-71.1301969287661, 42.40039578450948], [-71.12729699506991, 42.39699575420205], [-71.12669698265863, 42.39659599844795], [-71.12499700876222, 42.39459578920031], [-71.12279693157751, 42.3924960097755], [-71.12179707944756, 42.39299575949513], [-71.12119705831627, 42.39349625475455], [-71.12049692002289, 42.393096136457416], [-71.1187969772021, 42.391296145615094], [-71.11689708553571, 42.38959618199215], [-71.11799696461993, 42.388996087661496], [-71.11739700686046, 42.3882958134645], [-71.11799693308171, 42.387996212486826], [-71.11769695143661, 42.38739596619583], [-71.11949705278809, 42.38829602532176], [-71.11949692744066, 42.38809627496541], [-71.12179706039981, 42.38779607479355], [-71.12629704983759, 42.38639621126545], [-71.12689700789994, 42.387495938914], [-71.13099705964802, 42.38609571965388], [-71.13069696033195, 42.38549606966436], [-71.13169700362897, 42.38499624296219], [-71.13159703406214, 42.38479617293463], [-71.12959707602131, 42.383796065692835], [-71.13039698431255, 42.382896105522526], [-71.12909698139751, 42.38229604764319], [-71.12989705059967, 42.38149624760597], [-71.13129701197825, 42.3822958043895], [-71.13229703644778, 42.38149606571252], [-71.13319698245908, 42.3812958123174], [-71.13449704652069, 42.38139616757816], [-71.13619700879671, 42.38269627369436], [-71.13799705969332, 42.38329613748277], [-71.13839709324273, 42.381195800146784], [-71.14459700589472, 42.379896206908526], [-71.14439697352059, 42.37909602574425], [-71.14379698878548, 42.378095981597376], [-71.1414970938383, 42.37699611942355], [-71.14089698622656, 42.37609621556431], [-71.13859702790897, 42.37489613781068], [-71.13999695252554, 42.37489602595056], [-71.14069700981644, 42.37509627693875], [-71.14359704918371, 42.3752960457897], [-71.14389691964874, 42.374096221847324], [-71.1400969326706, 42.37359599199736], [-71.14009693060434, 42.37219605091687], [-71.14049701744375, 42.37059592193762], [-71.14299694842845, 42.366695911012684], [-71.14429708633925, 42.366496249622124], [-71.14379697244749, 42.36499572749588], [-71.14509704871375, 42.364496149435006], [-71.14679696873928, 42.3622962459782], [-71.14749701831045, 42.361795921832034], [-71.14604303760899, 42.36161027380732], [-71.14789705623532, 42.35879581922768], [-71.1492969937524, 42.3561971437994], [-71.1445169549986, 42.35484891741349], [-71.14638893275048, 42.351274921117934], [-71.14598105416856, 42.35065584362351], [-71.14333204096924, 42.35160815235592], [-71.14299696422846, 42.350897010506834], [-71.14039692999151, 42.3513970091082], [-71.14039692314448, 42.350397126645625], [-71.13972598951624, 42.34866084604096], [-71.13796205897172, 42.34854614584697], [-71.13655002924409, 42.34821308600863], [-71.13559794055308, 42.34829785086653], [-71.13319699505622, 42.34959676112579], [-71.13371400396747, 42.35024380353009], [-71.13343807961131, 42.350340830656194], [-71.13379691017325, 42.35069702521469], [-71.13419701900378, 42.3531971609859], [-71.12876106058933, 42.35264013044016], [-71.12849692907616, 42.353697116026446], [-71.12539696364777, 42.35319696523585], [-71.12519805066346, 42.3539598740533], [-71.12125105258352, 42.353500736739036], [-71.1209019590765, 42.3546620837515], [-71.1201970175644, 42.35459673754206], [-71.11779605504836, 42.35379709171242], [-71.11389592544504, 42.35169708083365], [-71.11339605618399, 42.35159693224432], [-71.11152290723479, 42.3518128784072], [-71.11104194292211, 42.35227827760479], [-71.1109959834848, 42.352597162101596], [-71.10879594378548, 42.35239726194562], [-71.09919597744137, 42.35279690443325], [-71.09129591473499, 42.35419718301373], [-71.08744496771173, 42.35541682924448], [-71.08392302165406, 42.34837624716205], [-71.08919602024038, 42.347103851359336], [-71.0898489419442, 42.34441093451963], [-71.08744498365047, 42.34412999577108], [-71.08709495882948, 42.3434580217596], [-71.08599505701484, 42.34329707811704], [-71.08679596319267, 42.34269676341561], [-71.09024994210463, 42.34319021804936], [-71.09039607828133, 42.34249695119222], [-71.0912959224953, 42.34089707053873], [-71.09259594931213, 42.33909716073584], [-71.09359603384908, 42.340797188844945], [-71.09629609127362, 42.33979724856433], [-71.09759594282971, 42.338297191733574], [-71.09579603470743, 42.33769724722073], [-71.09719592419525, 42.337097276250944], [-71.09812905984512, 42.33553009338367], [-71.09951095888526, 42.335964242920035], [-71.09939603986932, 42.33629695090566], [-71.1049960124435, 42.33409710630253], [-71.10951703316748, 42.33693496867043], [-71.11099605891833, 42.33549726423756], [-71.11129605976318, 42.33579706351247], [-71.11159594699808, 42.3371969061353], [-71.11059609228461, 42.340197122576065], [-71.10569593356936, 42.34399709455283], [-71.10719596490729, 42.347096978118074], [-71.10659591621206, 42.34969676521553], [-71.11409592779087, 42.350496991410644], [-71.11609595421449, 42.35089699986833], [-71.12259696996985, 42.35169726979958], [-71.12499708384684, 42.351197021416596], [-71.13469693223962, 42.34659682182459], [-71.13539709108208, 42.346097132866554], [-71.1360970688445, 42.34529696748354], [-71.14159695199352, 42.34109694862525], [-71.14189709379662, 42.340396783009275], [-71.14259694011082, 42.3399972062296], [-71.1447969852608, 42.339597205706], [-71.14659704209747, 42.338497084072586], [-71.14619705313741, 42.337396936921294], [-71.14869690917287, 42.336796906845535], [-71.14839701400449, 42.33579723018295], [-71.15049708289799, 42.33499674828195], [-71.14999703272466, 42.33449725360576], [-71.14979700884042, 42.334497207136586], [-71.15699706905345, 42.33009679808033], [-71.1596259253539, 42.33243974211451], [-71.1612719619908, 42.33339272265674], [-71.16249696739806, 42.333597202929816], [-71.1669979318452, 42.33319675799889], [-71.16769794692566, 42.333297252857925], [-71.1690980608963, 42.33819718010906], [-71.1667989896813, 42.33979811899779], [-71.1684329236505, 42.342140780287316], [-71.16946899578883, 42.34323086175245], [-71.17479792955939, 42.35009611970455], [-71.17479793522318, 42.3507960926338], [-71.17399797447682, 42.353195904252935], [-71.17119801320993, 42.35639576406645], [-71.1699990601011, 42.35739727370805], [-71.16969797034477, 42.358395726165305], [-71.16869792548917, 42.359396105031394], [-71.17259805353456, 42.358895799547895], [-71.17429797475428, 42.35909587564948], [-71.18259791861416, 42.36079586161425], [-71.18399791303506, 42.358896177804795], [-71.18859796092445, 42.35989622471024], [-71.18889798565155, 42.360096224567144], [-71.19069802968276, 42.36039592269575], [-71.1963990379382, 42.36209576934411], [-71.19289800833799, 42.36579620416161], [-71.19539996586144, 42.36769682675874], [-71.19870000226362, 42.36739717176741], [-71.20109895756661, 42.366296083443885], [-71.20489900328651, 42.36589626727511], [-71.20719902354625, 42.36449601660256], [-71.20899905708586, 42.36459623991788], [-71.21079891773574, 42.36419621513071], [-71.21329901159709, 42.36489625441113], [-71.21739901267321, 42.366696274461326], [-71.21189903671453, 42.371495760028814], [-71.20870006706714, 42.37399723654787], [-71.20319907542401, 42.37869614273652], [-71.20209897245822, 42.379796142092246], [-71.20059906064367, 42.38089621632495], [-71.19499903873418, 42.38569574971743], [-71.19439892987447, 42.38599575070831], [-71.19519895496897, 42.38669615145885], [-71.19569908795869, 42.38749590970988], [-71.19539893828461, 42.388196207217845], [-71.19689894731214, 42.39049587710253], [-71.19709890999951, 42.39149627443072], [-71.19799903451946, 42.39259585335798], [-71.19769898483455, 42.393196000469935], [-71.19649892418587, 42.39389618296976], [-71.19639908111574, 42.394295980153125], [-71.19679897479634, 42.39539593484318], [-71.19899904965771, 42.396995762535155], [-71.19939890961123, 42.398195862943616], [-71.20159899531345, 42.40139587894477], [-71.20239896895306, 42.403496153685516], [-71.21089907917482, 42.40619500982062], [-71.2080460112407, 42.409159273555154], [-71.20769901030003, 42.409695180782485], [-71.20273598059148, 42.41469305108124], [-71.19390008924957, 42.413196259749526], [-71.19478507325316, 42.41445674097659], [-71.1952800854705, 42.415614902621975], [-71.19161592067344, 42.41423110345472], [-71.18689899354636, 42.41279481291958], [-71.18330004380762, 42.411497013219346], [-71.18162206437246, 42.41106475406833], [-71.17862100059341, 42.41060177551848], [-71.17346001033687, 42.4092891664628], [-71.16619998822335, 42.40658720861929], [-71.16459909479956, 42.406197124054195], [-71.1636979174636, 42.405796122360314], [-71.16449796369571, 42.405295990900875], [-71.16052605587473, 42.40394912193017], [-71.15875394122408, 42.40305373284047], [-71.15819896440995, 42.40259688358589], [-71.15658498249726, 42.40268717058315], [-71.1554449702973, 42.40207326297553], [-71.15225996711595, 42.40086406405781], [-71.15210297598357, 42.401041957017625], [-71.14329708238456, 42.39699582121504], [-71.14277900548308, 42.397729066444725], [-71.14179707698395, 42.39859590811289], [-71.14008403033124, 42.39969903076002], [-71.13799708061052, 42.40019607800904], [-71.13629705016467, 42.40109605995139], [-71.13439808427405, 42.40379706556772]]]}}