{"type": "Feature", "properties": {"district_name": "First Middlesex", "chamber": "senate", "vintage": "2001-2010"}, "geometry": {"type": "Polygon", "coordinates": [[[-71.36913013556219, 42.698353236346264], [-71.37390696776112, 42.693490170450325], [-71.37410691918838, 42.692190166220506], [-71.37380706114031, 42.691489935918334], [-71.37411497032126, 42.68988173084314], [-71.37491595678287, 42.68853792925224], [-71.37578595384174, 42.68756777815009], [-71.37900696675248, 42.68308988983626], [-71.37701098015822, 42.67759374667809], [-71.37373100617853, 42.66649014394484], [-71.37181009417206, 42.66410586181764], [-71.37110607559029, 42.66596175187351], [-71.36950604336099, 42.66908985472372], [-71.36860593642957, 42.66849019927642], [-71.36650592548288, 42.66659004933076], [-71.36910593538644, 42.66159013146685], [-71.35920603289439, 42.655390133054425], [-71.35789393477776, 42.65433021966263], [-71.31331293628199, 42.66377017897745], [-71.30870491840585, 42.66459027117922], [-71.29944197442465, 42.66666304721422], [-71.29041601914771, 42.65421909677472], [-71.28646997968757, 42.649153250945666], [-71.28200399014312, 42.652691180287725], [-71.27880405517985, 42.65469088030132], [-71.27470409259394, 42.65599107713076], [-71.27150395162012, 42.64859124881098], [-71.27123104173616, 42.64346681062544], [-71.27463896704836, 42.62898679308002], [-71.27766300137544, 42.62090700472341], [-71.28323101670438, 42.61537110865019], [-71.29684794018287, 42.612635000925934], [-71.29662400208859, 42.61410703074819], [-71.31867205997601, 42.61413925431725], [-71.31856000916898, 42.60887503604022], [-71.31891197339911, 42.60812277806593], [-71.31940807436368, 42.6073707443823], [-71.32281893363047, 42.60718923251289], [-71.32330391996149, 42.60909113160419], [-71.3254050584509, 42.61169090305868], [-71.32490509502792, 42.61179085825431], [-71.32539309026174, 42.61346713264894], [-71.32820893448378, 42.61322717117089], [-71.32857704383122, 42.61378698002061], [-71.35188905746568, 42.62274714900991], [-71.35979392981152, 42.62620315740518], [-71.36199591494716, 42.63058198210737], [-71.36504190888297, 42.63754704781859], [-71.37230594424373, 42.638390815366435], [-71.37610606089906, 42.64108996341201], [-71.37900601985903, 42.64739001191862], [-71.3808069904338, 42.64889017042371], [-71.38251501795422, 42.649290262428046], [-71.3855869349381, 42.64961010619957], [-71.38950693074008, 42.64909798878196], [-71.39115493925402, 42.64865001089848], [-71.39283493542028, 42.64842596626325], [-71.39429109587611, 42.648506075969884], [-71.39565094193014, 42.64887414738006], [-71.39729891821992, 42.6498180304034], [-71.39880300871002, 42.6511617939236], [-71.39952300357233, 42.65240977360647], [-71.40238700543252, 42.651913738105016], [-71.40125100739884, 42.649321859482], [-71.39852797896093, 42.645529054717045], [-71.39933801971516, 42.644994138160584], [-71.40301096562189, 42.64677800787999], [-71.40337505136603, 42.64729199512433], [-71.40350291305518, 42.64778102832912], [-71.40417504899085, 42.64846124584463], [-71.40569908845477, 42.648266141559446], [-71.40970999202226, 42.648894990845896], [-71.41166100661617, 42.64857804993992], [-71.41195902603646, 42.64952180906305], [-71.41286700050293, 42.64977005477946], [-71.41781193919556, 42.65375372371432], [-71.41571508746925, 42.64661805906674], [-71.41457893875285, 42.64197776534112], [-71.40801904824333, 42.61921081116398], [-71.40795503939707, 42.61857104311957], [-71.4071070490245, 42.616190975714915], [-71.40690699596446, 42.615090860294565], [-71.4049149403043, 42.60869880470221], [-71.40145909667372, 42.60012298564124], [-71.40075409074487, 42.59442678090708], [-71.39924993381449, 42.58858695662321], [-71.39915399511283, 42.58751504143913], [-71.39880597349355, 42.587191218132055], [-71.39820997001247, 42.585306970476275], [-71.39827408629985, 42.584618916231506], [-71.3978419972042, 42.58391523237711], [-71.3976499330603, 42.58239480360706], [-71.39665807167694, 42.578795258995584], [-71.39380995355508, 42.56954787873381], [-71.39049799538319, 42.55746816639828], [-71.38836994064624, 42.550556262159525], [-71.38543791997336, 42.53818581517386], [-71.40553809132055, 42.53191810705739], [-71.40824198640331, 42.530876011358025], [-71.4185290770832, 42.52778409629356], [-71.42384400644504, 42.52581282449324], [-71.4266739331088, 42.52743621823006], [-71.4282170177342, 42.52876391906288], [-71.46797991602976, 42.55154375988113], [-71.4770440002639, 42.55636273465758], [-71.48007005783639, 42.55833199460262], [-71.4815560495777, 42.566779230021055], [-71.48358096251869, 42.5733309593441], [-71.4834290746623, 42.57340295596154], [-71.48386098614407, 42.573786739794514], [-71.49299698416269, 42.575770972175555], [-71.4988850906269, 42.57663483581842], [-71.50298401399459, 42.575429059242836], [-71.5064699344585, 42.57208625376243], [-71.511477987638, 42.56934916583374], [-71.60069194292656, 42.58342195841206], [-71.60083694240059, 42.58303811001614], [-71.60238293348176, 42.58223779730801], [-71.60426999869532, 42.58214495995644], [-71.60615802967398, 42.58296807221699], [-71.60659101796229, 42.58294516748927], [-71.60897200451248, 42.58118299929288], [-71.6105799962822, 42.5810908844992], [-71.61092090899987, 42.581318990177245], [-71.6107970625223, 42.58157117289255], [-71.60999303358192, 42.581983233413126], [-71.61002400630615, 42.58228027897834], [-71.61020993708834, 42.582371249624934], [-71.61126205625759, 42.58232522884149], [-71.61228196555021, 42.58193601804279], [-71.61311801410429, 42.58198077572469], [-71.61333403997645, 42.5821870535101], [-71.61327306146133, 42.583101969508256], [-71.61451207141324, 42.58408424515311], [-71.61460505460367, 42.58444987010063], [-71.61423407010169, 42.58497574531273], [-71.61426497489126, 42.58543314245755], [-71.61488500790557, 42.58609588151144], [-71.61519396669904, 42.586209789836914], [-71.61652391219528, 42.585981147721576], [-71.61729802786799, 42.58616322218969], [-71.61819508295534, 42.58582022099949], [-71.61921703061383, 42.585796101719424], [-71.61921706478849, 42.58611624478917], [-71.61869095384665, 42.58673400478123], [-71.61872203080934, 42.58696184263341], [-71.61909395554915, 42.587350807394245], [-71.62005409111266, 42.58744208599042], [-71.62048701463053, 42.58767006732795], [-71.62377006466335, 42.59066322069572], [-71.62376990966938, 42.59116622181358], [-71.62346093449219, 42.591647047920624], [-71.62349307263405, 42.59269802632504], [-71.62409297067008, 42.59320094631744], [-71.62451294971379, 42.59330514523484], [-71.6245129119028, 42.59318980397181], [-71.62498609157625, 42.593625901656345], [-71.62639005564206, 42.59360299275159], [-71.62680205291237, 42.593900740384434], [-71.62686293102117, 42.59454208351928], [-71.62612997325778, 42.5962510621898], [-71.62631392639682, 42.598647144085675], [-71.62828197712729, 42.60051575040276], [-71.62735094484856, 42.60239993440625], [-71.62768695488845, 42.603316102125056], [-71.62800705798641, 42.60323922879554], [-71.62884606828564, 42.60235382712316], [-71.62910605985415, 42.60240023573261], [-71.6302960015457, 42.603750920345774], [-71.62976209478192, 42.605039964235246], [-71.62989907950839, 42.60581793928834], [-71.63028105309826, 42.60646679365983], [-71.63003701280829, 42.60705390050458], [-71.63028099342725, 42.607359138041], [-71.63073908578933, 42.60761124482027], [-71.63195898725674, 42.607564846089964], [-71.63256997490134, 42.607808893833976], [-71.63293590880245, 42.608327788104056], [-71.63380592875676, 42.608595161559904], [-71.63528590910742, 42.61065381699095], [-71.6342330093024, 42.61117323500754], [-71.63351291353348, 42.61238880417866], [-71.63405002958903, 42.61261492478882], [-71.63551494118612, 42.61240110068938], [-71.63626196441952, 42.61291222163817], [-71.63707102080865, 42.61278298281974], [-71.63792502437133, 42.61361410653825], [-71.63856597219836, 42.613415853557655], [-71.63986293046057, 42.61414796896652], [-71.64061292660082, 42.61408910655461], [-71.64225899293551, 42.61473581114396], [-71.64325104260541, 42.61576589844305], [-71.64346399703746, 42.616620279468], [-71.642990951257, 42.61721501053055], [-71.64411398746238, 42.61728900788453], [-71.64413693786267, 42.618496959961284], [-71.6438470277909, 42.61881014728222], [-71.64383205514063, 42.61917587957774], [-71.64338903516881, 42.619664798778516], [-71.64328195541401, 42.62081721053446], [-71.64344997322367, 42.62116696158203], [-71.64407592578267, 42.62146494212623], [-71.64482304435982, 42.6215258976571], [-71.64479299137693, 42.62170879201962], [-71.64384698978166, 42.62229680333345], [-71.64404493611258, 42.62265495562486], [-71.64514402939264, 42.62279311329774], [-71.64552502756948, 42.6233192608932], [-71.64525106552092, 42.623699947438034], [-71.64416704993002, 42.62316623912851], [-71.64399901119013, 42.62331104612067], [-71.64445708726139, 42.623730762902206], [-71.6440760790072, 42.62427980845015], [-71.64418304592934, 42.62474609975002], [-71.64445690732028, 42.62489823174665], [-71.64471698168344, 42.624769062673714], [-71.64482305633985, 42.62426480835629], [-71.64566302680363, 42.624105088861846], [-71.64596809678653, 42.62473823126527], [-71.64558602002899, 42.62523383262873], [-71.64558595325143, 42.625699132101516], [-71.64627296541668, 42.62602009146196], [-71.64657800183811, 42.62638598026276], [-71.64691404578996, 42.62648907818903], [-71.64714296301928, 42.62614895515259], [-71.64670001836504, 42.625698847765655], [-71.64686804797522, 42.62538693427425], [-71.64671402561898, 42.625088933287465], [-71.64697495215181, 42.62483710353157], [-71.64721406823534, 42.62478897499713], [-71.64900396728807, 42.625783107000274], [-71.64904991992178, 42.62628716888185], [-71.64996607727326, 42.626759721812434], [-71.64995008826781, 42.62700392620499], [-71.64929405337072, 42.62730916157715], [-71.64930996971752, 42.6275150654149], [-71.64993508928968, 42.62822486357338], [-71.6501949156659, 42.62894919964838], [-71.650483923312, 42.629048972476205], [-71.65104905954497, 42.62983423547803], [-71.65170491821772, 42.63023903550124], [-71.65309401202417, 42.630506142106164], [-71.65413099537396, 42.63127613492232], [-71.65645097354425, 42.6325890176817], [-71.6577479067006, 42.63352685286572], [-71.6579919230298, 42.634435173253], [-71.65829690845098, 42.6344347557295], [-71.65895301340638, 42.63406926800274], [-71.65925792352097, 42.63411498402877], [-71.66041405244582, 42.635088991534495], [-71.65054504860817, 42.690723756655615], [-71.65161030427184, 42.70512325010922], [-71.49951009021974, 42.70178332451913], [-71.36913013556219, 42.698353236346264]]]}}