{"type": "Feature", "properties": {"district_name": "Norfolk and Middlesex District", "chamber": "senate", "vintage": "2022-present"}, "geometry": {"type": "MultiPolygon", "coordinates": [[[[-71.299888, 42.270361], [-71.298391, 42.271342], [-71.2976, 42.27236400000001], [-71.296687, 42.272622000000005], [-71.295653, 42.272484000000006], [-71.299745, 42.26961300000001], [-71.299888, 42.270361]]], [[[-71.32975, 42.312991000000004], [-71.327327, 42.313746], [-71.269958, 42.328086], [-71.27028000000001, 42.328731000000005], [-71.269763, 42.32976399999999], [-71.270279, 42.33052200000001], [-71.270246, 42.33098], [-71.269767, 42.33118100000001], [-71.26801, 42.33056], [-71.265666, 42.33127300000001], [-71.26513, 42.33182999999999], [-71.264726, 42.333944], [-71.264415, 42.334472999999996], [-71.263138, 42.334903000000004], [-71.26122, 42.334605], [-71.259933, 42.334825000000016], [-71.259204, 42.33541899999999], [-71.25893400000001, 42.336019], [-71.258964, 42.336579], [-71.256746, 42.338040000000014], [-71.255689, 42.339290999999996], [-71.255885, 42.340111], [-71.256864, 42.340648], [-71.258248, 42.341190000000005], [-71.26037, 42.34089900000001], [-71.261042, 42.341002], [-71.261596, 42.341353999999995], [-71.261884, 42.34186900000001], [-71.261236, 42.34428200000001], [-71.259759, 42.346111], [-71.259793, 42.34661000000002], [-71.260432, 42.34761200000001], [-71.260306, 42.348194], [-71.259963, 42.34855700000001], [-71.258747, 42.349107999999994], [-71.258624, 42.349360999999995], [-71.25863100000001, 42.350052], [-71.25914500000002, 42.35172399999999], [-71.260099, 42.353016], [-71.260358, 42.35365800000002], [-71.256465, 42.354905], [-71.256356, 42.354012000000004], [-71.255731, 42.353754], [-71.255217, 42.353928], [-71.254034, 42.35477], [-71.253146, 42.355897000000006], [-71.217061, 42.366569], [-71.21634100000001, 42.36584799999999], [-71.215534, 42.365608], [-71.21451, 42.36568200000001], [-71.21373, 42.36512400000001], [-71.211259, 42.36428499999996], [-71.209942, 42.364132], [-71.208812, 42.364577999999995], [-71.20745800000002, 42.36409999999999], [-71.206321, 42.36461299999999], [-71.205098, 42.365749], [-71.202866, 42.365686999999994], [-71.202029, 42.36582], [-71.200515, 42.366271999999995], [-71.198323, 42.367402000000006], [-71.197744, 42.36733999999999], [-71.19708, 42.36693900000001], [-71.196485, 42.367024000000015], [-71.19585400000001, 42.367694], [-71.19542200000001, 42.367825], [-71.195206, 42.36773399999999], [-71.19476500000002, 42.366871], [-71.192215, 42.36542399999999], [-71.196298, 42.361802000000004], [-71.18368, 42.358829], [-71.182126, 42.360681], [-71.17824, 42.359565999999994], [-71.175272, 42.359272], [-71.172754, 42.35933100000001], [-71.169381, 42.360136], [-71.167625, 42.360073000000014], [-71.173916, 42.35346499999999], [-71.17485, 42.350337], [-71.166683, 42.340104000000004], [-71.166808, 42.33928999999997], [-71.168633, 42.338629], [-71.169217, 42.33806800000001], [-71.168886, 42.33582599999999], [-71.16857, 42.335143], [-71.168191, 42.33479100000001], [-71.167565, 42.333441], [-71.162732, 42.333961], [-71.161295, 42.33378299999999], [-71.159325, 42.332767999999994], [-71.157036, 42.33039], [-71.149853, 42.334635], [-71.150461, 42.334968], [-71.15005900000001, 42.33539299999999], [-71.148295, 42.335806999999996], [-71.148742, 42.336866], [-71.146156, 42.33744200000002], [-71.146606, 42.33853700000002], [-71.146245, 42.338595], [-71.14421200000001, 42.34002199999999], [-71.141939, 42.340008], [-71.141326, 42.341048], [-71.13515500000001, 42.34602300000001], [-71.133381, 42.347122000000006], [-71.129281, 42.34906699999999], [-71.128583, 42.349833000000004], [-71.126854, 42.35008799999999], [-71.124067, 42.351552], [-71.122942, 42.35141599999997], [-71.122855, 42.351860999999985], [-71.10657, 42.349912], [-71.107213, 42.347049000000005], [-71.105516, 42.343812], [-71.106072, 42.34358299999999], [-71.10651400000002, 42.34310599999999], [-71.10802700000002, 42.34247799999999], [-71.10849, 42.34183699999999], [-71.109553, 42.34149399999999], [-71.110579, 42.340443], [-71.110885, 42.338884], [-71.111559, 42.33738100000001], [-71.110708, 42.336307999999995], [-71.11099, 42.335757], [-71.110533, 42.33532999999999], [-71.112192, 42.333801000000015], [-71.113212, 42.332458], [-71.113575, 42.330467000000006], [-71.11504, 42.32730800000001], [-71.115271, 42.326933999999994], [-71.115965, 42.32637900000001], [-71.115948, 42.325734999999995], [-71.116537, 42.32393900000002], [-71.116772, 42.323769999999996], [-71.118398, 42.323454999999996], [-71.118509, 42.323116], [-71.11887, 42.322858], [-71.119436, 42.322735], [-71.120112, 42.32283499999998], [-71.121528, 42.323882], [-71.12336700000002, 42.322571], [-71.123711, 42.32271600000002], [-71.124269, 42.321856], [-71.13186300000001, 42.31317800000001], [-71.13650200000001, 42.306204], [-71.140096, 42.302173000000025], [-71.146883, 42.29728], [-71.152113, 42.29458799999998], [-71.164702, 42.30382999999999], [-71.178636, 42.29459500000001], [-71.191247, 42.28299200000001], [-71.190886, 42.285823], [-71.192117, 42.28727700000001], [-71.19322, 42.288014], [-71.19429, 42.28828299999999], [-71.195006, 42.28816400000001], [-71.195524, 42.287572000000004], [-71.195793, 42.286196], [-71.196355, 42.28595699999998], [-71.200018, 42.287595], [-71.201344, 42.28855799999999], [-71.203375, 42.288621], [-71.204566, 42.289046000000006], [-71.20524, 42.289567999999996], [-71.205515, 42.290186000000006], [-71.205584, 42.29171099999999], [-71.206054, 42.293398], [-71.207538, 42.296858], [-71.210477, 42.29883100000001], [-71.211343, 42.29949500000001], [-71.211779, 42.300062000000004], [-71.211768, 42.30093599999999], [-71.211253, 42.302266], [-71.211235, 42.30288199999999], [-71.21148700000002, 42.30366300000001], [-71.212945, 42.305949], [-71.21369, 42.306288], [-71.21636, 42.30640899999998], [-71.218475, 42.306814], [-71.220855, 42.30640799999999], [-71.222776, 42.30715], [-71.22411, 42.30729999999999], [-71.225456, 42.30795200000001], [-71.226688, 42.30825000000001], [-71.22700300000001, 42.30849099999999], [-71.227209, 42.30900600000001], [-71.22631100000001, 42.31028400000001], [-71.226944, 42.311554000000015], [-71.227068, 42.31239800000001], [-71.226343, 42.313419999999994], [-71.22639300000002, 42.314323], [-71.227543, 42.31539999999999], [-71.228915, 42.31636], [-71.230214, 42.316506000000004], [-71.232254, 42.316390000000006], [-71.233006, 42.31626599999999], [-71.233635, 42.315837], [-71.294843, 42.27305200000001], [-71.29562, 42.273998999999996], [-71.296205, 42.274318], [-71.297199, 42.274497], [-71.298352, 42.27426100000002], [-71.299044, 42.274492], [-71.299641, 42.27500199999999], [-71.299775, 42.276139], [-71.297788, 42.27920799999999], [-71.297514, 42.280909], [-71.297945, 42.281523], [-71.299258, 42.28252599999999], [-71.299949, 42.282911000000006], [-71.300611, 42.282725000000035], [-71.30149, 42.28169700000002], [-71.302477, 42.28016], [-71.304636, 42.27835799999999], [-71.307341, 42.27710499999999], [-71.308875, 42.27667399999999], [-71.309302, 42.276378999999984], [-71.309496, 42.275704], [-71.309025, 42.27480799999999], [-71.309013, 42.27334200000002], [-71.308476, 42.27229400000001], [-71.308029, 42.27181099999999], [-71.308115, 42.271223], [-71.30846, 42.270709], [-71.323662, 42.297415], [-71.32975, 42.312991000000004]]]]}}