{"type": "Feature", "properties": {"district_name": "First Middlesex and Norfolk", "chamber": "senate", "vintage": "2001-2010"}, "geometry": {"type": "Polygon", "coordinates": [[[-71.11129605976318, 42.33579706351247], [-71.11079607880309, 42.33539699253037], [-71.11089599111597, 42.33499726324599], [-71.11279592603523, 42.33329706087492], [-71.11329594787476, 42.331796942819835], [-71.11339605030332, 42.330896986360784], [-71.11549593417969, 42.32689716042635], [-71.1166959775413, 42.32369724652007], [-71.1193959178627, 42.32259716828008], [-71.1193960439748, 42.322796921546306], [-71.12153808040547, 42.32333685629689], [-71.12178905142356, 42.323275224469214], [-71.12459600183058, 42.32159693722662], [-71.12709595412491, 42.3184968078966], [-71.13079595396695, 42.31449681282841], [-71.13269597621901, 42.31189710767348], [-71.13509702228052, 42.30819722447092], [-71.14009705503727, 42.30209716383696], [-71.1420969774201, 42.300496942334064], [-71.14419705772279, 42.29919690773385], [-71.1457969969959, 42.29789698195107], [-71.15019704086868, 42.295396942894136], [-71.15219702567678, 42.29459724789225], [-71.15319708082176, 42.295497193087975], [-71.15679706369988, 42.29789716856967], [-71.15689702966155, 42.298296974136306], [-71.15989692960217, 42.30049699142412], [-71.16469692503733, 42.30369702309669], [-71.16599699614693, 42.30249722604014], [-71.17059694433948, 42.2997972371732], [-71.1783979603615, 42.29449689537859], [-71.19119795170243, 42.28269703541751], [-71.19109801550128, 42.286097081919365], [-71.1941979186731, 42.28799712712263], [-71.19619803032225, 42.286097178583944], [-71.20469807631878, 42.289396989486924], [-71.20809807359088, 42.29709702322377], [-71.21179905276098, 42.30059726104054], [-71.21103993328357, 42.30300701876979], [-71.21289898618222, 42.30579696378802], [-71.21689905745508, 42.30649673838103], [-71.21889890918159, 42.30659674145314], [-71.22059901672152, 42.30629703874062], [-71.22379896372598, 42.30719719051633], [-71.22689905331545, 42.30859724075913], [-71.22619898502255, 42.3099972181272], [-71.22689900110944, 42.31159690292566], [-71.2267989412708, 42.31229720497948], [-71.22609999100584, 42.31399821852424], [-71.22749998065657, 42.315297966640536], [-71.22929902140665, 42.316196882829274], [-71.23069901686881, 42.316497267957466], [-71.23169908341481, 42.316397198837464], [-71.2333989100744, 42.315896991439146], [-71.24039892818175, 42.31119717715534], [-71.24239905920052, 42.30959690753967], [-71.24579991098129, 42.30749723419676], [-71.24829995956445, 42.3055969306618], [-71.25099994403631, 42.30389675825223], [-71.25880096719335, 42.298098066564975], [-71.26378701060183, 42.30015603047577], [-71.27409998396695, 42.30019702601211], [-71.27670009429758, 42.29979697679793], [-71.27880109506154, 42.29889680904022], [-71.27990104378233, 42.29879707574825], [-71.27940091152287, 42.29979712983737], [-71.27940093597853, 42.30049710754689], [-71.28010101914522, 42.30019685145238], [-71.280701030216, 42.30159682790437], [-71.28360105629608, 42.30099575418488], [-71.28450096656104, 42.3009957574691], [-71.28630101131759, 42.30199619321586], [-71.28640102497893, 42.30189622166359], [-71.2868009284663, 42.302496221394215], [-71.27850106681345, 42.30839600167525], [-71.27860104641344, 42.3093960802677], [-71.27940093003723, 42.310996197660366], [-71.2854009190075, 42.30819583766828], [-71.2902010797413, 42.30719581288698], [-71.29410094008036, 42.30659573297943], [-71.29440096375188, 42.306295797971494], [-71.29680107062605, 42.305896061516364], [-71.30990199288007, 42.30559606486538], [-71.31860300286633, 42.30469689725163], [-71.3260029693048, 42.30429702045646], [-71.3295019431003, 42.312896096507025], [-71.3265019723897, 42.313895991743664], [-71.31910304430312, 42.3155968209312], [-71.31880205603642, 42.31579609838362], [-71.31690190912897, 42.31619596614284], [-71.31160196562853, 42.317796103968654], [-71.30010107836333, 42.32039595352484], [-71.28170093694818, 42.32519590267994], [-71.26990005354742, 42.32799585096016], [-71.2696999153068, 42.329596274188845], [-71.27020004943164, 42.3308959396359], [-71.26909992048692, 42.33109573712946], [-71.2678000632037, 42.330596272811725], [-71.26600000627074, 42.330996064029634], [-71.2647000844348, 42.3317957916719], [-71.26430003281385, 42.33429608198618], [-71.26020005133486, 42.33479626495303], [-71.25819994224334, 42.336895932895125], [-71.25719994739583, 42.3375960487292], [-71.2559000519815, 42.33999593477696], [-71.25749995843263, 42.340896230145695], [-71.25959993804184, 42.341095889638765], [-71.2607000763143, 42.340496118661484], [-71.2621020799535, 42.34150397190382], [-71.2610159984269, 42.344104106450594], [-71.26110004038146, 42.34459606172601], [-71.26069996330776, 42.34759599076665], [-71.26000002262859, 42.34839578492225], [-71.25859990955088, 42.34939610817235], [-71.25860008378513, 42.350096079275154], [-71.26000001916677, 42.353596048152056], [-71.25608296538589, 42.35491684941775], [-71.25570000188806, 42.35399605975669], [-71.25535001010095, 42.35396774453401], [-71.25469993238013, 42.35429608840428], [-71.25269797329332, 42.356033848268055], [-71.23649996432908, 42.36079581995538], [-71.21739901267321, 42.366696274461326], [-71.21329901159709, 42.36489625441113], [-71.21079891773574, 42.36419621513071], [-71.20899905708586, 42.36459623991788], [-71.20719902354625, 42.36449601660256], [-71.20489900328651, 42.36589626727511], [-71.20109895756661, 42.366296083443885], [-71.19870000226362, 42.36739717176741], [-71.19539996586144, 42.36769682675874], [-71.19289800833799, 42.36579620416161], [-71.1963990379382, 42.36209576934411], [-71.19069802968276, 42.36039592269575], [-71.18889798565155, 42.360096224567144], [-71.18859796092445, 42.35989622471024], [-71.18399791303506, 42.358896177804795], [-71.18259791861416, 42.36079586161425], [-71.17429797475428, 42.35909587564948], [-71.17259805353456, 42.358895799547895], [-71.16869792548917, 42.359396105031394], [-71.16969797034477, 42.358395726165305], [-71.1699990601011, 42.35739727370805], [-71.17119801320993, 42.35639576406645], [-71.17399797447682, 42.353195904252935], [-71.17479793522318, 42.3507960926338], [-71.17479792955939, 42.35009611970455], [-71.16946899578883, 42.34323086175245], [-71.1684329236505, 42.342140780287316], [-71.1667989896813, 42.33979811899779], [-71.1690980608963, 42.33819718010906], [-71.16769794692566, 42.333297252857925], [-71.1669979318452, 42.33319675799889], [-71.16249696739806, 42.333597202929816], [-71.1612719619908, 42.33339272265674], [-71.1596259253539, 42.33243974211451], [-71.15699706905345, 42.33009679808033], [-71.14979700884042, 42.334497207136586], [-71.14999703272466, 42.33449725360576], [-71.15049708289799, 42.33499674828195], [-71.14839701400449, 42.33579723018295], [-71.14869690917287, 42.336796906845535], [-71.14619705313741, 42.337396936921294], [-71.14659704209747, 42.338497084072586], [-71.1447969852608, 42.339597205706], [-71.14259694011082, 42.3399972062296], [-71.14189709379662, 42.340396783009275], [-71.14159695199352, 42.34109694862525], [-71.1360970688445, 42.34529696748354], [-71.13539709108208, 42.346097132866554], [-71.13469693223962, 42.34659682182459], [-71.12499708384684, 42.351197021416596], [-71.12259696996985, 42.35169726979958], [-71.11609595421449, 42.35089699986833], [-71.11409592779087, 42.350496991410644], [-71.10659591621206, 42.34969676521553], [-71.10719596490729, 42.347096978118074], [-71.10569593356936, 42.34399709455283], [-71.11059609228461, 42.340197122576065], [-71.11159594699808, 42.3371969061353], [-71.11129605976318, 42.33579706351247]]]}}