{"type": "Feature", "properties": {"district_name": "Second Bristol and Plymouth District", "chamber": "senate", "vintage": "2022-present"}, "geometry": {"type": "Polygon", "coordinates": [[[-71.076675, 41.68746900000001], [-71.06663, 41.68561900000002], [-70.943305, 41.74451499999999], [-70.922222, 41.754840999999985], [-70.922385, 41.755119000000015], [-70.922739, 41.75508300000001], [-70.922696, 41.755358], [-70.923055, 41.755314000000006], [-70.92322, 41.75565199999999], [-70.923444, 41.755719000000006], [-70.923552, 41.755548], [-70.924052, 41.75565499999999], [-70.92453, 41.75596299999999], [-70.924611, 41.75624799999999], [-70.92489, 41.75630300000002], [-70.924913, 41.756590000000024], [-70.925381, 41.756609999999995], [-70.92538, 41.75680200000001], [-70.926146, 41.757017000000005], [-70.926424, 41.75761700000002], [-70.92624, 41.757977], [-70.926426, 41.758382], [-70.926261, 41.758579999999995], [-70.926316, 41.75884500000001], [-70.907184, 41.76354299999999], [-70.905211, 41.759819], [-70.904438, 41.75800000000001], [-70.886439, 41.760232], [-70.865003, 41.700164], [-70.843078, 41.701625000000014], [-70.843654, 41.70191800000001], [-70.843635, 41.702411000000005], [-70.844171, 41.702582], [-70.844291, 41.703076], [-70.84389, 41.703648], [-70.843985, 41.704279], [-70.84383, 41.704907], [-70.843491, 41.70512000000001], [-70.843458, 41.705344000000004], [-70.799073, 41.71010900000002], [-70.802937, 41.68708200000001], [-70.786075, 41.67443100000001], [-70.766074, 41.67694300000001], [-70.766133, 41.677052], [-70.76591, 41.67710200000001], [-70.765299, 41.677040999999996], [-70.763402, 41.677281], [-70.763038, 41.67733300000001], [-70.762947, 41.67759600000001], [-70.749206, 41.66850500000001], [-70.699574, 41.643719000000004], [-70.709133, 41.625106], [-70.729833, 41.59156900000001], [-70.749476, 41.568405999999996], [-70.763776, 41.55660700000001], [-70.879213, 41.500105999999995], [-70.91481, 41.483092], [-70.956821, 41.46247200000001], [-70.97450900000001, 41.454138], [-71.00413, 41.48403099999999], [-71.016759, 41.49829100000001], [-71.021757, 41.503716999999995], [-71.028694, 41.514045], [-71.029945, 41.517869000000005], [-71.032708, 41.52777300000001], [-71.026287, 41.53050700000001], [-71.028839, 41.536526999999985], [-71.029649, 41.538849], [-71.031438, 41.546380000000006], [-71.031352, 41.546766999999996], [-71.030188, 41.54816000000002], [-71.030175, 41.548604], [-71.030875, 41.550736], [-71.031015, 41.552057000000005], [-71.029599, 41.555243000000004], [-71.02904, 41.557363999999986], [-71.029115, 41.55822200000001], [-71.029731, 41.56055500000001], [-71.031578, 41.566058], [-71.032171, 41.56905299999999], [-71.03283, 41.570458], [-71.034574, 41.57332199999998], [-71.040947, 41.582268], [-71.04446, 41.586428], [-71.044898, 41.58730699999998], [-71.045045, 41.58807400000002], [-71.044813, 41.58989699999999], [-71.04109, 41.59294599999999], [-71.039601, 41.593837], [-71.039016, 41.59565600000001], [-71.037307, 41.597921], [-71.036814, 41.598175], [-71.038321, 41.608091], [-71.038072, 41.610203999999996], [-71.036822, 41.615254999999976], [-71.036531, 41.617643], [-71.037405, 41.621514], [-71.037817, 41.622256000000014], [-71.038538, 41.62290100000002], [-71.036637, 41.62409499999999], [-71.038517, 41.628043999999996], [-71.040675, 41.63042399999999], [-71.04221800000002, 41.63251999999999], [-71.043067, 41.633277], [-71.044718, 41.63643600000001], [-71.04505, 41.63676500000001], [-71.04642300000002, 41.63738200000001], [-71.048874, 41.64014799999999], [-71.049462, 41.64135999999999], [-71.051732, 41.64844999999999], [-71.053091, 41.65087599999999], [-71.053848, 41.65263699999999], [-71.055968, 41.655882999999996], [-71.059527, 41.66077399999999], [-71.061362, 41.663666000000006], [-71.063763, 41.666849], [-71.075118, 41.678069], [-71.076675, 41.68746900000001]]]}}