{"type": "Feature", "properties": {"district_name": "First Bristol & Plymouth District", "chamber": "senate", "vintage": "2012-2020"}, "geometry": {"type": "Polygon", "coordinates": [[[-71.31644399999999, 41.775560999999996], [-71.292456, 41.774879999999996], [-71.283588, 41.77480200000003], [-71.187776, 41.783156000000005], [-71.19353699999999, 41.816535999999985], [-71.176229, 41.815904], [-71.171145, 41.78937600000002], [-71.153188, 41.78959300000002], [-71.13094699999999, 41.790189], [-71.13124499999999, 41.790710999999995], [-71.1255, 41.791064000000006], [-71.12531299999999, 41.790889], [-71.124652, 41.791003999999994], [-71.124416, 41.79090199999998], [-71.11961, 41.790968000000014], [-71.11448899999999, 41.77880099999999], [-71.111583, 41.78156099999998], [-71.10898900000001, 41.784506], [-71.104686, 41.78798499999999], [-71.103084, 41.789587], [-71.102611, 41.790700999999984], [-71.102031, 41.79289800000001], [-71.101604, 41.79356199999999], [-71.09594299999999, 41.79704100000001], [-71.095443, 41.79916999999998], [-71.094111, 41.799818], [-71.09281399999999, 41.80074899999999], [-71.091044, 41.801504000000016], [-71.089091, 41.801786], [-71.087722, 41.802492000000036], [-71.086465, 41.80479000000001], [-71.086697, 41.80575199999999], [-71.08767300000001, 41.807959], [-71.08878899999999, 41.809134], [-71.090047, 41.809377000000005], [-71.090751, 41.80904899999999], [-71.090735, 41.80885199999997], [-71.091217, 41.80842899999998], [-71.091813, 41.808350000000004], [-71.092822, 41.808539], [-71.093082, 41.80898399999999], [-71.09270000000001, 41.809436999999996], [-71.093304, 41.81019200000001], [-71.09309, 41.81028099999999], [-71.093274, 41.810665], [-71.092617, 41.810857], [-71.093198, 41.811288], [-71.092939, 41.81161600000001], [-71.093008, 41.81176200000001], [-71.093197, 41.81173499999999], [-71.093149, 41.81285], [-71.08846199999999, 41.817786999999996], [-71.03657, 41.816525], [-71.007387, 41.83845500000002], [-71.000964, 41.843458999999996], [-70.995597, 41.84722300000002], [-70.99090199999999, 41.84979899999998], [-70.988846, 41.85113599999999], [-70.985779, 41.85405799999999], [-70.982407, 41.85558799999999], [-70.97980799999999, 41.85647300000001], [-70.978308, 41.85724599999999], [-70.973717, 41.86087899999999], [-70.976929, 41.873722], [-70.977181, 41.873791], [-70.97716299999999, 41.87514899999998], [-70.97971, 41.88318900000001], [-70.980942, 41.886084999999994], [-70.981706, 41.88891099999999], [-70.98733, 41.905839], [-70.986745, 41.906363999999996], [-70.985716, 41.90692199999999], [-70.985225, 41.907488999999984], [-70.98480599999999, 41.907419999999995], [-70.984157, 41.906561999999994], [-70.983671, 41.906399], [-70.983494, 41.906015000000004], [-70.98234599999999, 41.905750999999974], [-70.98183, 41.905314], [-70.981301, 41.90517500000001], [-70.980121, 41.90359199999998], [-70.97964999999999, 41.903542], [-70.978828, 41.903871], [-70.97843, 41.903684], [-70.977797, 41.903046999999994], [-70.977825, 41.90271799999999], [-70.977531, 41.902642], [-70.977457, 41.90229199999999], [-70.976661, 41.90157999999999], [-70.976661, 41.901382000000005], [-70.976308, 41.90118600000002], [-70.97577799999999, 41.901306999999996], [-70.975146, 41.901188000000005], [-70.97483799999999, 41.901351], [-70.974396, 41.90110200000001], [-70.972779, 41.901256000000004], [-70.971544, 41.901597], [-70.96838199999999, 41.90117300000001], [-70.96602, 41.900411999999996], [-70.964633, 41.899529], [-70.963911, 41.898134000000006], [-70.963275, 41.896377], [-70.91920499999999, 41.87902299999999], [-70.91637399999999, 41.876852], [-70.916555, 41.876512999999996], [-70.916151, 41.875240999999995], [-70.91645199999999, 41.872471], [-70.91626099999999, 41.872294], [-70.91492199999999, 41.872065000000006], [-70.914258, 41.87126099999998], [-70.913352, 41.87060899999997], [-70.913231, 41.87031], [-70.913437, 41.86976900000002], [-70.914624, 41.86904500000001], [-70.91492, 41.868431], [-70.915205, 41.86819199999999], [-70.916523, 41.86757100000003], [-70.916758, 41.867305999999985], [-70.916769, 41.867039999999996], [-70.916544, 41.86672799999999], [-70.915306, 41.866046000000004], [-70.91601, 41.86552599999998], [-70.915829, 41.86529899999999], [-70.915139, 41.865171000000004], [-70.914896, 41.86497200000001], [-70.91541500000001, 41.86417999999999], [-70.915043, 41.86393], [-70.914687, 41.86333199999999], [-70.914737, 41.862745999999994], [-70.91458999999999, 41.86222600000001], [-70.914003, 41.861835000000006], [-70.91300799999999, 41.86183800000001], [-70.912908, 41.861543000000005], [-70.91337399999999, 41.860575999999995], [-70.914185, 41.86034199999998], [-70.91427399999999, 41.859587999999995], [-70.9162, 41.859754], [-70.917523, 41.858650999999995], [-70.917239, 41.85790399999999], [-70.916799, 41.85742500000001], [-70.916754, 41.85706100000001], [-70.91710599999999, 41.85629400000002], [-70.91716699999999, 41.855536], [-70.9186, 41.853018], [-70.918689, 41.85204200000001], [-70.91511299999999, 41.848834999999994], [-70.910984, 41.844686], [-70.893973, 41.828881], [-70.893454, 41.82790100000001], [-70.893777, 41.82659100000002], [-70.89864399999999, 41.81487700000002], [-70.89604299999999, 41.79429399999998], [-70.771806, 41.80891400000001], [-70.771965, 41.80517299999998], [-70.772857, 41.80209500000001], [-70.774399, 41.80051999999998], [-70.776319, 41.79792899999999], [-70.77753799999999, 41.79708799999999], [-70.777771, 41.79676800000001], [-70.777968, 41.79598], [-70.77784799999999, 41.79456599999999], [-70.778359, 41.793033], [-70.778491, 41.79204399999999], [-70.77825899999999, 41.789570999999995], [-70.777365, 41.787726], [-70.777008, 41.786436], [-70.77649, 41.77997799999999], [-70.77550099999999, 41.77627399999999], [-70.775509, 41.77303699999999], [-70.77440399999999, 41.77045700000001], [-70.774389, 41.76959100000001], [-70.77610899999999, 41.76574999999999], [-70.777963, 41.762916], [-70.778752, 41.761246], [-70.78004899999999, 41.762792999999995], [-70.786605, 41.756779999999985], [-70.78749599999999, 41.74981199999999], [-70.785766, 41.747398000000004], [-70.793212, 41.743168000000004], [-70.793716, 41.734702000000006], [-70.79330399999999, 41.734119], [-70.79324, 41.73346300000001], [-70.79298399999999, 41.73335099999999], [-70.793016, 41.733143], [-70.792344, 41.733079000000004], [-70.792056, 41.732583000000005], [-70.792485, 41.731845999999976], [-70.794201, 41.730506000000005], [-70.794044, 41.730292], [-70.79414299999999, 41.730013], [-70.79512, 41.72864900000001], [-70.796188, 41.72835899999999], [-70.79907299999999, 41.710109], [-70.84327499999999, 41.705366], [-70.843801, 41.70429499999998], [-70.843673, 41.703783], [-70.843097, 41.70285500000001], [-70.843114, 41.70162399999999], [-70.864994, 41.700186], [-70.886439, 41.760232], [-70.904438, 41.75800000000001], [-70.905211, 41.759819], [-70.907184, 41.76354299999999], [-70.926104, 41.758907000000015], [-70.92605999999999, 41.758608], [-70.926309, 41.75843199999999], [-70.926424, 41.75761700000001], [-70.926146, 41.757017000000005], [-70.925292, 41.75659500000001], [-70.924913, 41.75658999999998], [-70.92488999999999, 41.756303], [-70.924611, 41.75624799999999], [-70.92455, 41.75602800000001], [-70.924052, 41.75565499999999], [-70.923552, 41.755548], [-70.923444, 41.755719000000006], [-70.92322, 41.75565199999999], [-70.92308, 41.755355], [-70.922696, 41.755358], [-70.92273899999999, 41.75508300000001], [-70.92249799999999, 41.755122], [-70.92232, 41.754799999999996], [-70.943305, 41.74451499999999], [-71.011896, 41.711777999999995], [-71.027727, 41.704077], [-71.027763, 41.704194], [-71.06663, 41.68561900000001], [-71.07667, 41.68748600000001], [-71.075118, 41.678069], [-71.063763, 41.666849], [-71.061362, 41.663666000000006], [-71.059527, 41.66077399999999], [-71.053905, 41.65280500000002], [-71.05319, 41.651150000000015], [-71.051658, 41.648340000000005], [-71.04946199999999, 41.64135999999999], [-71.048874, 41.64014799999999], [-71.04642299999999, 41.63738200000001], [-71.04505, 41.63676500000001], [-71.044718, 41.63643600000001], [-71.043067, 41.633277], [-71.04221799999999, 41.63251999999999], [-71.040675, 41.63042399999999], [-71.038517, 41.62804399999998], [-71.036637, 41.62409499999999], [-71.038538, 41.62290100000002], [-71.03781699999999, 41.622256000000014], [-71.03740499999999, 41.621514], [-71.036531, 41.617643], [-71.036822, 41.615254999999976], [-71.038072, 41.610203999999996], [-71.038321, 41.608090999999995], [-71.03681399999999, 41.598175], [-71.037307, 41.597921], [-71.03899899999999, 41.59573100000002], [-71.03960099999999, 41.593837], [-71.04109, 41.59294599999999], [-71.04481299999999, 41.58989699999999], [-71.045053, 41.58784300000001], [-71.04446, 41.586428], [-71.040947, 41.582268], [-71.03457399999999, 41.57332199999998], [-71.03282999999999, 41.570458], [-71.03217099999999, 41.56905299999999], [-71.031578, 41.566058], [-71.029731, 41.56055500000001], [-71.02911499999999, 41.55822200000001], [-71.02904, 41.557363999999986], [-71.02959899999999, 41.555243000000004], [-71.031015, 41.552057000000005], [-71.030875, 41.550736], [-71.030175, 41.548604], [-71.030188, 41.54816], [-71.031352, 41.546766999999996], [-71.031438, 41.546380000000006], [-71.02964899999999, 41.538849], [-71.02883899999999, 41.53652699999998], [-71.026287, 41.53050700000001], [-71.032708, 41.52777300000001], [-71.029945, 41.517869000000005], [-71.028694, 41.51404499999999], [-71.021757, 41.503716999999995], [-71.016759, 41.498290999999995], [-71.00413, 41.48403099999999], [-70.97450900000001, 41.454138], [-70.999482, 41.442372], [-71.05185399999999, 41.416729], [-71.053451, 41.41695899999999], [-71.07240399999999, 41.42557], [-71.085038, 41.433467], [-71.088571, 41.431315], [-71.116404, 41.484567999999996], [-71.121116, 41.492787000000014], [-71.119874, 41.49460399999998], [-71.120617, 41.497901000000006], [-71.122495, 41.52213899999998], [-71.125329, 41.54357699999999], [-71.126199, 41.551514999999995], [-71.126868, 41.55486099999999], [-71.12657999999999, 41.55570700000001], [-71.126989, 41.55579499999999], [-71.127862, 41.562781], [-71.12803199999999, 41.565512999999996], [-71.128222, 41.56565700000001], [-71.131727, 41.593762000000005], [-71.138464, 41.603635000000004], [-71.138688, 41.603902000000005], [-71.140078, 41.604665000000004], [-71.140442, 41.605298000000005], [-71.141598, 41.611089], [-71.141415, 41.61136399999998], [-71.14156, 41.612154000000004], [-71.141875, 41.612544000000014], [-71.14027, 41.62379199999999], [-71.135514, 41.628294000000004], [-71.134464, 41.644012], [-71.132721, 41.65945599999998], [-71.13250699999999, 41.660356], [-71.176017, 41.668269], [-71.17587999999999, 41.671541999999995], [-71.195555, 41.67515199999999], [-71.222471, 41.707679], [-71.226218, 41.71251199999999], [-71.249492, 41.738572999999995], [-71.260982, 41.752118], [-71.306279, 41.771266], [-71.30887899999999, 41.772079999999995], [-71.310366, 41.77299400000001], [-71.31644399999999, 41.775560999999996]]]}}