{"type": "Feature", "properties": {"district_name": "Third Middlesex", "chamber": "senate", "vintage": "2001-2010"}, "geometry": {"type": "Polygon", "coordinates": [[[-71.29684794018287, 42.612635000925934], [-71.29520395757089, 42.6075919795375], [-71.29422391083311, 42.60548427816173], [-71.3052640061349, 42.59263583953983], [-71.30641590841914, 42.59103593632527], [-71.31073603783648, 42.586171745220774], [-71.31627201354527, 42.579260181352495], [-71.31772793983293, 42.5779802250718], [-71.31977591615164, 42.575564072624864], [-71.32700395342353, 42.56659194847458], [-71.33359207846458, 42.56017509642369], [-71.32468403066441, 42.5559392404072], [-71.31979605772752, 42.55413686412607], [-71.31422891407584, 42.54951600867411], [-71.31836909457279, 42.54279219660654], [-71.30890994052228, 42.534013075182244], [-71.30693306213631, 42.53307972078365], [-71.30740197778934, 42.52980981303875], [-71.30459392800923, 42.52913890971283], [-71.30455393672862, 42.526700871479854], [-71.30646292653364, 42.52222481574079], [-71.30632794618327, 42.52047980266964], [-71.30377200303569, 42.519895948649285], [-71.2804460909214, 42.52633115392518], [-71.27791292158875, 42.52662507163586], [-71.26392498965674, 42.52397813484442], [-71.25657696634327, 42.523895901650334], [-71.2543689745812, 42.52242888317742], [-71.25003496318308, 42.52551978969473], [-71.24258803858541, 42.51976096263306], [-71.24179196159749, 42.52052889355522], [-71.24062202382696, 42.52000018611335], [-71.23995199706617, 42.51938313319252], [-71.23738695822573, 42.51204986473158], [-71.23276402000627, 42.508088834882976], [-71.2316350202919, 42.50654397129918], [-71.24074498869001, 42.48974923692954], [-71.25210203530506, 42.484494796723105], [-71.25340193555202, 42.48279497834413], [-71.2555019385383, 42.479394799041756], [-71.25650194489171, 42.47819507467828], [-71.26119694292811, 42.47618326238001], [-71.26515202052414, 42.47051527048101], [-71.26410102062393, 42.470793891240206], [-71.26360091074405, 42.47049409313825], [-71.26240104034474, 42.470493875592815], [-71.2621580341255, 42.46998697912485], [-71.26050099102608, 42.468593772886415], [-71.25790097209236, 42.471194023173965], [-71.24940097791567, 42.46719501797342], [-71.24893698149587, 42.46753779414504], [-71.24780107971598, 42.466995157748364], [-71.2467999261213, 42.4664938805913], [-71.24550004324573, 42.46549397908875], [-71.24430003604691, 42.4648937745525], [-71.24300008892337, 42.46369409894759], [-71.23990004329922, 42.462193834645184], [-71.24069996259615, 42.46369400861621], [-71.23760006632153, 42.462993789087434], [-71.2364000691914, 42.463194170734994], [-71.2325010539706, 42.46279525768895], [-71.2330999440346, 42.46219403485582], [-71.23050006321115, 42.459794975547986], [-71.23140008679565, 42.459094873824526], [-71.23189998448895, 42.4588951675474], [-71.23160000409636, 42.45809492417574], [-71.23079995228429, 42.45339481379846], [-71.23259996676818, 42.452894859558654], [-71.23450006931677, 42.451894899369144], [-71.23600001011843, 42.45059521635255], [-71.2368000800263, 42.44949478755656], [-71.23709996497962, 42.445394770475986], [-71.23920008150141, 42.443995132911375], [-71.24069991516208, 42.44149522078386], [-71.24209992205994, 42.43969502076647], [-71.24339996779104, 42.43929505617534], [-71.24299998984243, 42.43869492492952], [-71.24139997185426, 42.438195071409105], [-71.242600053888, 42.43659472411146], [-71.23939991315065, 42.434595124036534], [-71.24140001279228, 42.43419507596287], [-71.24039999383943, 42.433694865661344], [-71.23819998076154, 42.433994850015104], [-71.23570101190967, 42.43339609024318], [-71.23380000691995, 42.4333950870435], [-71.23359992255561, 42.432794821274456], [-71.23209991278814, 42.430794997750525], [-71.2293000675851, 42.43079520120108], [-71.22570002274244, 42.42979526077203], [-71.22510106208286, 42.42889581462675], [-71.2237010110839, 42.42869609228855], [-71.22040098560613, 42.42709577526411], [-71.21930100381934, 42.42539609127553], [-71.2198009983377, 42.4234960524281], [-71.21955902420889, 42.42257493728329], [-71.21650006106064, 42.41989589267619], [-71.21429903379945, 42.4186947789761], [-71.21490006511925, 42.41819605595919], [-71.21809895578006, 42.41709491249084], [-71.21899896235409, 42.41569494034703], [-71.21556400136411, 42.414558913584926], [-71.20948193585534, 42.410659048213574], [-71.20769901030003, 42.409695180782485], [-71.2080460112407, 42.409159273555154], [-71.21089907917482, 42.40619500982062], [-71.20239896895306, 42.403496153685516], [-71.20159899531345, 42.40139587894477], [-71.19939890961123, 42.398195862943616], [-71.19899904965771, 42.396995762535155], [-71.19679897479634, 42.39539593484318], [-71.19639908111574, 42.394295980153125], [-71.19649892418587, 42.39389618296976], [-71.19769898483455, 42.393196000469935], [-71.19799903451946, 42.39259585335798], [-71.19709890999951, 42.39149627443072], [-71.19689894731214, 42.39049587710253], [-71.19539893828461, 42.388196207217845], [-71.19569908795869, 42.38749590970988], [-71.19519895496897, 42.38669615145885], [-71.19439892987447, 42.38599575070831], [-71.19499903873418, 42.38569574971743], [-71.20059906064367, 42.38089621632495], [-71.20209897245822, 42.379796142092246], [-71.20319907542401, 42.37869614273652], [-71.20870006706714, 42.37399723654787], [-71.21189903671453, 42.371495760028814], [-71.21739901267321, 42.366696274461326], [-71.23649996432908, 42.36079581995538], [-71.25269797329332, 42.356033848268055], [-71.25469993238013, 42.35429608840428], [-71.25535001010095, 42.35396774453401], [-71.25570000188806, 42.35399605975669], [-71.25608296538589, 42.35491684941775], [-71.26000001916677, 42.353596048152056], [-71.25860008378513, 42.350096079275154], [-71.25859990955088, 42.34939610817235], [-71.26000002262859, 42.34839578492225], [-71.26069996330776, 42.34759599076665], [-71.26110004038146, 42.34459606172601], [-71.2610159984269, 42.344104106450594], [-71.2621020799535, 42.34150397190382], [-71.2607000763143, 42.340496118661484], [-71.25959993804184, 42.341095889638765], [-71.25749995843263, 42.340896230145695], [-71.2559000519815, 42.33999593477696], [-71.25719994739583, 42.3375960487292], [-71.25819994224334, 42.336895932895125], [-71.26020005133486, 42.33479626495303], [-71.26430003281385, 42.33429608198618], [-71.2647000844348, 42.3317957916719], [-71.26600000627074, 42.330996064029634], [-71.2678000632037, 42.330596272811725], [-71.26909992048692, 42.33109573712946], [-71.27020004943164, 42.3308959396359], [-71.2696999153068, 42.329596274188845], [-71.26990005354742, 42.32799585096016], [-71.28170093694818, 42.32519590267994], [-71.30010107836333, 42.32039595352484], [-71.31160196562853, 42.317796103968654], [-71.31690190912897, 42.31619596614284], [-71.31880205603642, 42.31579609838362], [-71.31910304430312, 42.3155968209312], [-71.32710201220137, 42.31369601903534], [-71.3268019480372, 42.317795819753094], [-71.3270019136308, 42.321195833586025], [-71.32840196939219, 42.32909626202425], [-71.3283659990458, 42.329777049682775], [-71.33206896050054, 42.361687979563136], [-71.33210391776733, 42.36309584268968], [-71.33482100945433, 42.38608103461144], [-71.3354040927949, 42.39359578044376], [-71.33235493061025, 42.39921414290752], [-71.36680005332207, 42.412651242090334], [-71.36758903217948, 42.41208385794226], [-71.3678350120324, 42.41064877483476], [-71.36992808424905, 42.40996301615803], [-71.37307891179269, 42.40855086065815], [-71.37445805321904, 42.40810673994937], [-71.37517995870266, 42.40722301049545], [-71.37510602975276, 42.40669289664828], [-71.37375005540758, 42.40524873505221], [-71.37048498469204, 42.40451420045276], [-71.3689879720594, 42.40370113759879], [-71.36880098273794, 42.40344322221777], [-71.36891005617521, 42.40292400303678], [-71.3699660873897, 42.40090184282253], [-71.36969206169263, 42.40042326396226], [-71.36847193070834, 42.40031103009042], [-71.36773195898255, 42.39993488151322], [-71.37008507500661, 42.3986912490534], [-71.37029196157262, 42.39803484699017], [-71.36984893831001, 42.3974210368286], [-71.36912797933951, 42.397132132261596], [-71.36701903644666, 42.396718965565505], [-71.36624503124895, 42.39630675684258], [-71.36493908071805, 42.39598619763841], [-71.36236798468484, 42.395971897892395], [-71.36199307364427, 42.39540821616545], [-71.36238303793886, 42.39350291919694], [-71.36226494875808, 42.39221988936049], [-71.36286394437627, 42.39209119057302], [-71.36385505838507, 42.39255094392714], [-71.36453698459779, 42.39242177186046], [-71.36516099171924, 42.39168709443786], [-71.36497397303121, 42.39146687094524], [-71.36516698850022, 42.390921869462346], [-71.36480505607533, 42.3901477725802], [-71.36526893764811, 42.389920997696045], [-71.36575106456802, 42.38976795209611], [-71.36751300660649, 42.39039399615576], [-71.36873005300735, 42.39034587601682], [-71.36916204987801, 42.39020626304134], [-71.37057894912037, 42.38893397884049], [-71.37194093520218, 42.38963715319608], [-71.37237596390037, 42.38968208752219], [-71.37277292641713, 42.38940681846727], [-71.3730169349217, 42.387811916114266], [-71.3732639242021, 42.38756292518688], [-71.37410692457438, 42.38817322328356], [-71.3747420678115, 42.38825325306342], [-71.37532397080949, 42.38810027590794], [-71.37606893498425, 42.38762393576347], [-71.37701592585609, 42.387367811235556], [-71.37774892347348, 42.386102019820385], [-71.37822795544756, 42.38575198367135], [-71.37852693356365, 42.38450204416173], [-71.38155793572386, 42.382868955835605], [-71.38367907457213, 42.38057823292604], [-71.38386894223179, 42.37988521302022], [-71.38337307601303, 42.379013132548835], [-71.38317695087979, 42.37816273606312], [-71.38333790836299, 42.3765817904511], [-71.38467203733192, 42.37647116386698], [-71.3875720921244, 42.3753042387677], [-71.38822899307947, 42.375461864501794], [-71.3875030590867, 42.37486416139997], [-71.38679794831238, 42.373451161454526], [-71.38813199414521, 42.372166759248536], [-71.38844192508027, 42.37165784128304], [-71.38828309139146, 42.371042122925225], [-71.3874230287667, 42.36983772670665], [-71.38955497920524, 42.36837121636207], [-71.39003500505383, 42.367662145165724], [-71.39026191824452, 42.366983215024796], [-71.39001300060244, 42.36558923481139], [-71.38975294375777, 42.365694768487934], [-71.3900240710976, 42.36718611298439], [-71.38981997901209, 42.36761186146109], [-71.38904295326108, 42.36698598431272], [-71.38885201806359, 42.36650583944316], [-71.38924214161234, 42.365787118900116], [-71.3896300292079, 42.36547577054885], [-71.38892702230822, 42.36516618594178], [-71.38731499599547, 42.36563107443087], [-71.3843050323262, 42.36593980740269], [-71.38395999120291, 42.36583480251416], [-71.38330510905342, 42.36279176223551], [-71.38592995603075, 42.361389960813334], [-71.38683603899624, 42.361599045367896], [-71.38829889121035, 42.36402897654704], [-71.38996096153119, 42.365517162807], [-71.39172695001761, 42.36097524661299], [-71.39112002822384, 42.357980120321265], [-71.39227105941286, 42.35811793421391], [-71.39260006756365, 42.35781889904233], [-71.39305101449769, 42.35786377057941], [-71.39368192496167, 42.3575869569707], [-71.39326094394198, 42.35731873387513], [-71.3936100529586, 42.357241970932336], [-71.39362294596503, 42.357019163675595], [-71.3938559365762, 42.356968175553625], [-71.39546296487998, 42.3572988122471], [-71.3956100241182, 42.35702604860542], [-71.39545608603423, 42.356755262230784], [-71.39608405144115, 42.3565268227479], [-71.39619008772729, 42.35674804968817], [-71.39651806516741, 42.35648388814516], [-71.3966669987073, 42.35656898595062], [-71.39667707382065, 42.35690322379247], [-71.39725499710323, 42.356772075683075], [-71.39767592280009, 42.356964885721204], [-71.3978239699078, 42.35748324071192], [-71.39854708094254, 42.35717609785974], [-71.39861798938628, 42.35671814319501], [-71.39896407738127, 42.35662673179186], [-71.39941806891812, 42.35678186529622], [-71.39889105297743, 42.35698621674859], [-71.39931702070943, 42.35735176631332], [-71.39937608288224, 42.35766072636748], [-71.39975591691973, 42.35758115828493], [-71.39996494271821, 42.357330950089555], [-71.4015159775261, 42.357471832082254], [-71.4024870952124, 42.357075973992764], [-71.40350804975363, 42.357322723947526], [-71.40363493914371, 42.357693070214786], [-71.40454091424697, 42.35797797642052], [-71.40502305062999, 42.357972186182614], [-71.40554696036499, 42.35768115225469], [-71.40614701496816, 42.35770977723844], [-71.40699597008229, 42.358342913044986], [-71.40732695547298, 42.35768316305675], [-71.40764404301041, 42.35770423709204], [-71.40800295850526, 42.35804606818537], [-71.4082180799532, 42.358018106343486], [-71.40832804807928, 42.35778187076425], [-71.40889902474494, 42.35798488729721], [-71.40987296437906, 42.357712194871496], [-71.41047400552651, 42.35838506030725], [-71.41152208442212, 42.35839712489149], [-71.4121879299831, 42.358995195400404], [-71.41301104176841, 42.3593058544723], [-71.41428293015485, 42.360168826374476], [-71.41442694225984, 42.36055098936192], [-71.41504206165338, 42.36054300528332], [-71.41628899705162, 42.3610959029019], [-71.41838306664323, 42.36222106789895], [-71.41892999249322, 42.36274586674098], [-71.41857605714515, 42.36318393960092], [-71.41879502535451, 42.36386211623997], [-71.41855408933849, 42.36418717125306], [-71.41916401139095, 42.364562904831445], [-71.41927592743279, 42.36500693286874], [-71.41886991210515, 42.36537125962864], [-71.41906696699324, 42.36583898009455], [-71.41950395408348, 42.36603115837998], [-71.41971300737208, 42.36691526431018], [-71.416183046635, 42.37392027397469], [-71.41501194203633, 42.376608988063296], [-71.41426004714384, 42.37887093397517], [-71.41327900567623, 42.38064092642107], [-71.41281491178952, 42.381884079648444], [-71.41225197461489, 42.3825599826599], [-71.41505296991626, 42.382928946529134], [-71.4183429508865, 42.38506891611314], [-71.41859991442314, 42.38709583851211], [-71.42086294998946, 42.39069400675171], [-71.42272092524955, 42.39224204967758], [-71.42393691595355, 42.392906810434916], [-71.42478798039846, 42.3935898883839], [-71.42447708501773, 42.39553708451913], [-71.4235449280412, 42.39849385913848], [-71.42369204246619, 42.3995692174205], [-71.42443192754666, 42.40045084523148], [-71.42772506304661, 42.39924603557806], [-71.43297704530187, 42.3991051708783], [-71.43481406037124, 42.3999727362945], [-71.43547795941141, 42.40052114990702], [-71.43621306522274, 42.40179881774622], [-71.4372050707499, 42.40453393206732], [-71.43782699874815, 42.40536814403535], [-71.43888702193755, 42.40581209427157], [-71.44212095862329, 42.40666114407462], [-71.4424940844911, 42.40691678236269], [-71.4351659563234, 42.42548820443005], [-71.4335789658612, 42.42881377674168], [-71.43027602890194, 42.43674595589325], [-71.41687899709297, 42.456712150377406], [-71.39696194145908, 42.48685908960176], [-71.390798078553, 42.495481186938214], [-71.38513301039583, 42.50445284309541], [-71.39142103256496, 42.506712930160205], [-71.39779104998019, 42.526121264056634], [-71.39911999440699, 42.531927863120956], [-71.39952702897315, 42.5338181597791], [-71.38543791997336, 42.53818581517386], [-71.38836994064624, 42.550556262159525], [-71.39049799538319, 42.55746816639828], [-71.39380995355508, 42.56954787873381], [-71.39665807167694, 42.578795258995584], [-71.3976499330603, 42.58239480360706], [-71.3978419972042, 42.58391523237711], [-71.39827408629985, 42.584618916231506], [-71.39820997001247, 42.585306970476275], [-71.39880597349355, 42.587191218132055], [-71.39915399511283, 42.58751504143913], [-71.39924993381449, 42.58858695662321], [-71.40075409074487, 42.59442678090708], [-71.40145909667372, 42.60012298564124], [-71.4049149403043, 42.60869880470221], [-71.40690699596446, 42.615090860294565], [-71.4071070490245, 42.616190975714915], [-71.40795503939707, 42.61857104311957], [-71.40801904824333, 42.61921081116398], [-71.41457893875285, 42.64197776534112], [-71.41571508746925, 42.64661805906674], [-71.41781193919556, 42.65375372371432], [-71.41286700050293, 42.64977005477946], [-71.41195902603646, 42.64952180906305], [-71.41166100661617, 42.64857804993992], [-71.40970999202226, 42.648894990845896], [-71.40569908845477, 42.648266141559446], [-71.40417504899085, 42.64846124584463], [-71.40350291305518, 42.64778102832912], [-71.40337505136603, 42.64729199512433], [-71.40301096562189, 42.64677800787999], [-71.39933801971516, 42.644994138160584], [-71.39852797896093, 42.645529054717045], [-71.40125100739884, 42.649321859482], [-71.40238700543252, 42.651913738105016], [-71.39952300357233, 42.65240977360647], [-71.39880300871002, 42.6511617939236], [-71.39729891821992, 42.6498180304034], [-71.39565094193014, 42.64887414738006], [-71.39429109587611, 42.648506075969884], [-71.39283493542028, 42.64842596626325], [-71.39115493925402, 42.64865001089848], [-71.38950693074008, 42.64909798878196], [-71.3855869349381, 42.64961010619957], [-71.38251501795422, 42.649290262428046], [-71.3808069904338, 42.64889017042371], [-71.37900601985903, 42.64739001191862], [-71.37610606089906, 42.64108996341201], [-71.37230594424373, 42.638390815366435], [-71.36504190888297, 42.63754704781859], [-71.36199591494716, 42.63058198210737], [-71.35979392981152, 42.62620315740518], [-71.35188905746568, 42.62274714900991], [-71.32857704383122, 42.61378698002061], [-71.32820893448378, 42.61322717117089], [-71.32539309026174, 42.61346713264894], [-71.32490509502792, 42.61179085825431], [-71.3254050584509, 42.61169090305868], [-71.32330391996149, 42.60909113160419], [-71.32281893363047, 42.60718923251289], [-71.31940807436368, 42.6073707443823], [-71.31891197339911, 42.60812277806593], [-71.31856000916898, 42.60887503604022], [-71.31867205997601, 42.61413925431725], [-71.29662400208859, 42.61410703074819], [-71.29684794018287, 42.612635000925934]]]}}