{"type": "Feature", "properties": {"district_name": "Second Essex and Middlesex District", "chamber": "senate", "vintage": "2022-present"}, "geometry": {"type": "Polygon", "coordinates": [[[-71.296294, 42.612671], [-71.283427, 42.61529900000001], [-71.277791, 42.62084700000002], [-71.274709, 42.62885899999998], [-71.271188, 42.644241999999984], [-71.271446, 42.64609200000002], [-71.271682, 42.646305], [-71.27170700000002, 42.64801799999999], [-71.272018, 42.64921600000001], [-71.275154, 42.656216], [-71.272607, 42.656664], [-71.26434700000001, 42.657667], [-71.261963, 42.657483], [-71.258482, 42.65692299999999], [-71.256733, 42.657001], [-71.254966, 42.657775], [-71.252879, 42.659544000000004], [-71.250763, 42.66078200000001], [-71.249479, 42.66110100000001], [-71.24682, 42.66101400000001], [-71.245454, 42.661195000000006], [-71.244172, 42.661514000000004], [-71.24249, 42.662345999999985], [-71.24189, 42.66289600000002], [-71.241409, 42.663685], [-71.240397, 42.66673], [-71.239285, 42.66819500000001], [-71.238103, 42.669490999999994], [-71.235607, 42.67116200000001], [-71.234094, 42.672518000000004], [-71.228663, 42.67921299999999], [-71.226074, 42.684431999999994], [-71.225649, 42.685783], [-71.225389, 42.68686699999999], [-71.224807, 42.69342999999999], [-71.224622, 42.693934], [-71.220524, 42.699235000000016], [-71.219821, 42.699806], [-71.218173, 42.700630000000004], [-71.214948, 42.701261], [-71.212079, 42.70108499999999], [-71.20249, 42.698910000000005], [-71.194549, 42.69838299999999], [-71.190985, 42.69742900000001], [-71.188862, 42.69626800000001], [-71.185503, 42.675868], [-71.151213, 42.681707], [-71.134452, 42.67677799999999], [-71.133584, 42.679428], [-71.139402, 42.684477], [-71.1383, 42.68470599999999], [-71.137787, 42.685046000000014], [-71.137998, 42.685323], [-71.139177, 42.68515], [-71.139465, 42.685344], [-71.139297, 42.685694], [-71.138824, 42.685732], [-71.138317, 42.68618099999999], [-71.138291, 42.686036], [-71.138121, 42.686044], [-71.137949, 42.686403], [-71.137679, 42.686438], [-71.137908, 42.686571], [-71.137981, 42.68690099999999], [-71.138333, 42.686848000000005], [-71.13844, 42.68664999999998], [-71.139202, 42.68673499999999], [-71.139457, 42.68678], [-71.139809, 42.68718599999999], [-71.139193, 42.68773800000001], [-71.138968, 42.687705], [-71.138868, 42.68745100000001], [-71.138499, 42.687594], [-71.138523, 42.688285], [-71.138385, 42.688325], [-71.138555, 42.68846000000001], [-71.138372, 42.68861299999999], [-71.138508, 42.688837], [-71.13828, 42.68907500000001], [-71.137936, 42.689021], [-71.137866, 42.68921999999999], [-71.137319, 42.689343000000015], [-71.13729, 42.689582], [-71.137428, 42.689485], [-71.137532, 42.689595000000004], [-71.137173, 42.689817], [-71.137222, 42.690036000000006], [-71.137392, 42.68995199999999], [-71.13745200000001, 42.69007299999999], [-71.137296, 42.69041299999999], [-71.137678, 42.69060900000001], [-71.137394, 42.690820000000016], [-71.137503, 42.691089999999996], [-71.13732, 42.691136], [-71.137637, 42.691286999999996], [-71.137522, 42.69140599999999], [-71.137599, 42.69164900000001], [-71.137897, 42.69153800000001], [-71.137922, 42.69182099999999], [-71.137712, 42.691880999999995], [-71.137863, 42.691925], [-71.137743, 42.69203900000001], [-71.13798, 42.69226], [-71.137818, 42.692282], [-71.138022, 42.692398000000004], [-71.137936, 42.69250700000001], [-71.138637, 42.692756], [-71.139296, 42.69274300000002], [-71.139219, 42.69320900000002], [-71.140009, 42.69351700000001], [-71.140169, 42.693419999999996], [-71.140264, 42.69366300000003], [-71.140418, 42.69358900000001], [-71.140597, 42.69385299999999], [-71.141674, 42.69412], [-71.141703, 42.694316999999984], [-71.143149, 42.69420000000001], [-71.143395, 42.69702800000001], [-71.144903, 42.697756999999996], [-71.145005, 42.697947], [-71.14546, 42.698062000000014], [-71.145446, 42.698194999999984], [-71.145718, 42.698169000000014], [-71.145857, 42.69848099999999], [-71.14547, 42.698757000000015], [-71.144976, 42.698746], [-71.144822, 42.69910999999999], [-71.144381, 42.699262999999995], [-71.142778, 42.698923000000015], [-71.142372, 42.69938399999999], [-71.14089, 42.703345000000006], [-71.139323, 42.70340400000001], [-71.137116, 42.70438700000002], [-71.137525, 42.704806], [-71.137559, 42.706525], [-71.136292, 42.707214], [-71.13455, 42.70941500000001], [-71.133956, 42.71041400000001], [-71.133454, 42.71248], [-71.133498, 42.713549000000015], [-71.133843, 42.715086], [-71.13475800000002, 42.717271000000004], [-71.134966, 42.718222], [-71.134909, 42.719891], [-71.134458, 42.721162], [-71.133696, 42.72199700000001], [-71.130706, 42.724451], [-71.12681, 42.72835700000001], [-71.124461, 42.731654], [-71.121623, 42.73384899999999], [-71.118606, 42.736622999999994], [-71.116448, 42.739085999999986], [-71.115819, 42.740261], [-71.115556, 42.74132900000001], [-71.115624, 42.742224], [-71.11644100000001, 42.74423800000001], [-71.119345, 42.747575], [-71.121389, 42.74954599999999], [-71.125581, 42.752044], [-71.127588, 42.754670000000004], [-71.124739, 42.757111000000016], [-71.123274, 42.759197], [-71.122617, 42.76097], [-71.120786, 42.768437000000006], [-71.114212, 42.76822000000001], [-71.109886, 42.766708000000015], [-71.10738200000002, 42.764497999999996], [-71.103702, 42.76259], [-71.099602, 42.76238999999999], [-71.095898, 42.763391], [-71.093587, 42.765892999999984], [-71.086961, 42.770597000000016], [-71.08618, 42.770813000000004], [-71.084101, 42.77179000000002], [-71.076184, 42.773669000000005], [-71.076382, 42.774454], [-71.074019, 42.774488999999996], [-71.071489, 42.774157], [-71.069759, 42.77375599999999], [-71.068271, 42.773036999999995], [-71.067803, 42.77336799999999], [-71.06906, 42.774366999999984], [-71.071118, 42.775539], [-71.070824, 42.775525000000016], [-71.070311, 42.776013000000006], [-71.069492, 42.777836], [-71.071544, 42.778256999999996], [-71.071191, 42.77905299999999], [-71.07126, 42.779484999999994], [-71.072959, 42.78405599999999], [-71.071965, 42.784876], [-71.076505, 42.789424999999994], [-71.077902, 42.79054399999999], [-71.078809, 42.790833], [-71.082555, 42.79145899999998], [-71.082847, 42.79207000000001], [-71.087406, 42.79011], [-71.087655, 42.78726600000001], [-71.087425, 42.786061], [-71.086788, 42.78448899999999], [-71.090349, 42.78353200000001], [-71.087857, 42.77916900000001], [-71.087162, 42.77758200000001], [-71.089343, 42.777463], [-71.090452, 42.778276999999996], [-71.091122, 42.780486999999994], [-71.092738, 42.78300599999999], [-71.094975, 42.782419999999995], [-71.094276, 42.780933000000005], [-71.094185, 42.780409000000006], [-71.095261, 42.780300000000025], [-71.095137, 42.778823999999986], [-71.098905, 42.779002000000006], [-71.10125, 42.77837599999999], [-71.107119, 42.774369], [-71.108485, 42.77373000000001], [-71.109126, 42.773680999999996], [-71.110354, 42.773907999999984], [-71.113089, 42.77500800000001], [-71.115637, 42.77557], [-71.11609, 42.772476000000005], [-71.117191, 42.773122999999984], [-71.118613, 42.773661], [-71.114635, 42.782955999999984], [-71.118788, 42.78405], [-71.121836, 42.78445800000001], [-71.127075, 42.784305], [-71.12832, 42.782078999999996], [-71.128656, 42.781049], [-71.12895800000001, 42.776794000000024], [-71.129146, 42.776622999999994], [-71.128766, 42.775231], [-71.128152, 42.77536800000001], [-71.128085, 42.77524699999999], [-71.128306, 42.774145], [-71.129399, 42.774222000000016], [-71.130376, 42.77386700000001], [-71.131282, 42.77302000000004], [-71.131519, 42.77218500000001], [-71.13160300000001, 42.770746], [-71.13143, 42.76985500000001], [-71.130806, 42.768259], [-71.130139, 42.767247], [-71.129769, 42.76629500000002], [-71.1298, 42.76445100000001], [-71.13006, 42.76270000000001], [-71.130426, 42.76218599999999], [-71.13065, 42.76079699999999], [-71.182398, 42.79433000000001], [-71.166647, 42.80888100000001], [-71.147939, 42.816176], [-71.132805, 42.821476000000004], [-71.064416, 42.80627499999997], [-71.054005, 42.83328199999999], [-71.04492, 42.848667000000006], [-71.031201, 42.859086999999995], [-71.023519, 42.860530999999995], [-71.016339, 42.86168200000001], [-70.967018, 42.86880000000001], [-70.948984, 42.87619099999999], [-70.929594, 42.885032000000045], [-70.914631, 42.88664799999999], [-70.899832, 42.847386000000014], [-70.904198, 42.83389], [-70.904946, 42.83372799999999], [-70.908311, 42.833645000000004], [-70.910336, 42.834024], [-70.912199, 42.834691], [-70.912901, 42.835152], [-70.913775, 42.836256], [-70.914559, 42.838791], [-70.915689, 42.840669], [-70.917638, 42.84128299999999], [-70.91931500000001, 42.841273000000015], [-70.920842, 42.84103900000001], [-70.922146, 42.84055699999999], [-70.923302, 42.839904], [-70.925222, 42.83846], [-70.928788, 42.83457200000001], [-70.931461, 42.83218899999999], [-70.932354, 42.831072000000006], [-70.933131, 42.829249000000004], [-70.933888, 42.828017], [-70.936991, 42.825631], [-70.938944, 42.823326000000016], [-70.940294, 42.822548000000005], [-70.945041, 42.82083000000001], [-70.948019, 42.82037100000001], [-70.953048, 42.819936], [-70.957867, 42.819714000000005], [-70.961458, 42.819894000000005], [-70.963576, 42.82033499999999], [-70.965749, 42.821015999999986], [-70.97242300000002, 42.823943], [-70.97872, 42.824589], [-70.981726, 42.824404000000015], [-70.986112, 42.82372999999999], [-70.99101000000002, 42.822168], [-70.99271, 42.82190699999999], [-70.99506, 42.82186], [-70.99694, 42.821246], [-70.998229, 42.820433], [-71.000323, 42.81864899999999], [-71.0008, 42.81810600000001], [-71.00122, 42.81701199999999], [-71.001354, 42.81496700000001], [-71.00096, 42.812779], [-70.999079, 42.80967400000001], [-70.998771, 42.80899900000001], [-70.998616, 42.808061], [-70.99875, 42.806964999999984], [-70.999834, 42.80503999999999], [-71.001711, 42.802800000000005], [-71.003435, 42.801100999999996], [-71.005525, 42.79979599999999], [-71.013256, 42.796008000000015], [-71.01703, 42.793288000000004], [-71.018708, 42.79160500000001], [-71.019301, 42.790701], [-71.019757, 42.78952599999999], [-71.020193, 42.78727], [-71.020381, 42.78429599999999], [-71.021904, 42.779633], [-71.024235, 42.77576000000001], [-71.026732, 42.772696999999994], [-71.030065, 42.769217], [-71.037965, 42.75894500000003], [-71.040017, 42.757721000000004], [-71.042567, 42.757041], [-71.042073, 42.755053999999994], [-71.041774, 42.754654000000016], [-71.041998, 42.754416000000006], [-71.04275, 42.75433799999999], [-71.042901, 42.753978], [-71.044096, 42.753214000000014], [-71.044524, 42.74903400000002], [-71.048341, 42.746144999999984], [-71.052849, 42.73988700000001], [-71.058116, 42.734209], [-71.058883, 42.73246300000001], [-71.072111, 42.73266800000001], [-71.07406, 42.73448599999999], [-71.08191, 42.736685], [-71.088064, 42.73614399999999], [-71.090078, 42.736969], [-71.092467, 42.737000000000016], [-71.097834, 42.73521999999999], [-71.108632, 42.735281], [-71.096463, 42.724097], [-71.095553, 42.72444600000001], [-71.096184, 42.72511000000001], [-71.095034, 42.725702000000005], [-71.095023, 42.726251999999995], [-71.093668, 42.726742000000016], [-71.091998, 42.725073], [-71.091669, 42.724538999999986], [-71.091753, 42.72427000000002], [-71.09531, 42.722057], [-71.095121, 42.72149500000001], [-71.092306, 42.71899900000002], [-71.09175, 42.71812199999999], [-71.090594, 42.71869899999999], [-71.046769, 42.678435999999984], [-71.049869, 42.676811], [-71.050658, 42.676289999999995], [-71.05101900000001, 42.67570099999998], [-71.051959, 42.675237], [-71.050673, 42.674423000000004], [-71.049534, 42.673444], [-71.04881400000001, 42.67257899999998], [-71.047855, 42.672456999999994], [-71.048162, 42.671901], [-71.050693, 42.67035800000001], [-71.050752, 42.669123], [-71.051833, 42.667649999999995], [-71.051629, 42.667027999999995], [-71.055471, 42.665818], [-71.058446, 42.66570699999999], [-71.061866, 42.66643999999996], [-71.0629, 42.666305], [-71.064617, 42.66554199999999], [-71.06557100000002, 42.66529799999999], [-71.06783300000001, 42.665209], [-71.070288, 42.66538700000002], [-71.072327, 42.665754], [-71.074569, 42.666411999999994], [-71.076464, 42.66763399999998], [-71.077661, 42.668138000000006], [-71.080258, 42.66879900000001], [-71.082643, 42.66906399999999], [-71.08471, 42.670038999999996], [-71.087397, 42.669539999999984], [-71.088579, 42.66916899999999], [-71.089703, 42.669062], [-71.090565, 42.669132], [-71.091953, 42.66958700000001], [-71.093732, 42.669515], [-71.095728, 42.66992700000001], [-71.098258, 42.67224500000001], [-71.100655, 42.672826999999984], [-71.101955, 42.670993], [-71.099913, 42.668128], [-71.09828800000001, 42.66637200000001], [-71.099025, 42.66567700000002], [-71.099396, 42.66555200000001], [-71.1001, 42.66544], [-71.101332, 42.66556600000002], [-71.101634, 42.66531300000001], [-71.102548, 42.665089], [-71.104872, 42.66492900000001], [-71.105793, 42.664222999999986], [-71.106962, 42.663893000000016], [-71.107273, 42.66274799999998], [-71.107185, 42.662323], [-71.10662, 42.66129999999999], [-71.105336, 42.659822000000005], [-71.105302, 42.659388], [-71.105486, 42.659106999999985], [-71.106025, 42.658836], [-71.114817, 42.66520599999999], [-71.115584, 42.66433800000001], [-71.117321, 42.66295499999998], [-71.118703, 42.66112599999999], [-71.118756, 42.66102299999999], [-71.076167, 42.60413599999999], [-71.135456, 42.59911600000001], [-71.130524, 42.583209999999994], [-71.136742, 42.55346399999999], [-71.131295, 42.53182000000002], [-71.170033, 42.515537], [-71.192952, 42.534519999999965], [-71.195119, 42.53566400000001], [-71.197738, 42.53841400000001], [-71.199747, 42.53949399999999], [-71.20503200000002, 42.54447299999999], [-71.205192, 42.544932], [-71.206629, 42.545909999999985], [-71.207057, 42.54581100000001], [-71.209808, 42.546016999999985], [-71.212372, 42.547544], [-71.210599, 42.547665], [-71.20983, 42.551444000000004], [-71.210608, 42.552732], [-71.211391, 42.553071], [-71.208872, 42.554536], [-71.218017, 42.56101799999999], [-71.218672, 42.56165099999999], [-71.21781500000002, 42.561493000000006], [-71.21753, 42.561851], [-71.217755, 42.562005], [-71.217697, 42.562176], [-71.216906, 42.561901], [-71.216437, 42.562079000000004], [-71.216754, 42.562439], [-71.215701, 42.562616000000006], [-71.215536, 42.56329800000001], [-71.215841, 42.56358099999999], [-71.215811, 42.563773], [-71.215314, 42.563938000000014], [-71.215376, 42.56425000000001], [-71.215248, 42.56441199999999], [-71.214635, 42.564603000000005], [-71.21528, 42.564949999999996], [-71.214835, 42.565055999999984], [-71.214425, 42.56495700000001], [-71.214262, 42.56514], [-71.214935, 42.56590600000001], [-71.214963, 42.566067999999994], [-71.214448, 42.566177999999994], [-71.21443, 42.56633599999999], [-71.215063, 42.566944], [-71.214973, 42.567747], [-71.215314, 42.57034500000001], [-71.214878, 42.570744999999974], [-71.214463, 42.57080799999999], [-71.214432, 42.57103000000001], [-71.213681, 42.571178], [-71.212635, 42.57232], [-71.21278900000001, 42.572508], [-71.212668, 42.572717], [-71.212004, 42.572595999999976], [-71.211705, 42.57318600000001], [-71.211389, 42.57304299999999], [-71.211127, 42.573312999999985], [-71.296294, 42.612671]]]}}