{"type": "Feature", "properties": {"district_name": "First Suffolk District", "chamber": "senate", "vintage": "2022-present"}, "geometry": {"type": "Polygon", "coordinates": [[[-71.085504, 42.28099100000003], [-71.082796, 42.28453300000002], [-71.079507, 42.28768500000002], [-71.078537, 42.289335000000015], [-71.078199, 42.290774000000006], [-71.078147, 42.29202200000001], [-71.078852, 42.296708], [-71.076289, 42.297312999999974], [-71.07543, 42.29881], [-71.072648, 42.29969900000001], [-71.072068, 42.30026899999999], [-71.071994, 42.301565], [-71.071591, 42.302353999999994], [-71.071426, 42.30340699999999], [-71.072692, 42.304500000000004], [-71.074161, 42.30491], [-71.073209, 42.30537799999999], [-71.072097, 42.30556299999999], [-71.071518, 42.306648], [-71.073912, 42.307681], [-71.072822, 42.309471], [-71.069165, 42.317066999999994], [-71.067507, 42.32329699999998], [-71.069136, 42.32505100000001], [-71.071479, 42.326687000000014], [-71.073511, 42.325539000000006], [-71.074903, 42.325206999999985], [-71.075076, 42.3253], [-71.075289, 42.326125], [-71.07499, 42.32907500000001], [-71.075614, 42.329224], [-71.077472, 42.33089799999999], [-71.074773, 42.33253100000001], [-71.07337, 42.33361000000001], [-71.080349, 42.339363], [-71.079637, 42.339749999999995], [-71.080751, 42.340828], [-71.082477, 42.342073], [-71.083151, 42.34162199999999], [-71.0849, 42.34273300000001], [-71.078699, 42.347697], [-71.07891900000001, 42.34769299999999], [-71.078718, 42.347834000000006], [-71.079508, 42.349508], [-71.071057, 42.35180299999998], [-71.0684, 42.352356], [-71.067533, 42.352513], [-71.064562, 42.35238300000001], [-71.064235, 42.353394000000016], [-71.062516, 42.353280000000005], [-71.062575, 42.35239899999999], [-71.060119, 42.35255800000001], [-71.058009, 42.35235], [-71.055354, 42.35309999999998], [-71.053847, 42.35388], [-71.053612, 42.35365499999999], [-71.051529, 42.35467200000001], [-71.05106, 42.355130999999986], [-71.049396, 42.354498], [-71.042596, 42.363798], [-71.026895, 42.353097999999996], [-71.010994, 42.34269800000001], [-70.988173, 42.34344700000002], [-70.975094, 42.34349900000001], [-70.972893, 42.35359699999999], [-70.968935, 42.35592500000001], [-70.96882, 42.35586600000001], [-70.967257, 42.35706900000001], [-70.967048, 42.356954], [-70.917892, 42.38599700000002], [-70.901292, 42.384098000000016], [-70.851436, 42.393209000000006], [-70.749487, 42.400820000000024], [-70.648072, 42.40562799999999], [-70.652005, 42.39293899999999], [-70.658723, 42.375097999999994], [-70.67569, 42.375097999999994], [-70.74947, 42.37333999999999], [-70.851191, 42.372499], [-70.894292, 42.372398999999994], [-70.905692, 42.316999], [-70.917091, 42.314198000000005], [-70.927191, 42.310097999999996], [-70.937091, 42.311097999999994], [-70.948991, 42.301298], [-70.960192, 42.29949800000001], [-70.975992, 42.300097999999984], [-70.981781, 42.308382], [-70.988693, 42.31359800000001], [-70.998593, 42.31199800000001], [-71.002093, 42.308697999999985], [-71.009991, 42.30518], [-71.015393, 42.30669799999998], [-71.022093, 42.305598], [-71.028395, 42.30879899999999], [-71.041694, 42.305298], [-71.041294, 42.300097999999984], [-71.03529400000001, 42.288798], [-71.03789400000001, 42.284898], [-71.039293, 42.28379899999999], [-71.04049400000001, 42.281898000000005], [-71.041594, 42.27809799999999], [-71.042433, 42.277328999999995], [-71.043042, 42.276893], [-71.044421, 42.276313], [-71.04488, 42.276266], [-71.047116, 42.277083], [-71.048583, 42.27791399999999], [-71.04923800000002, 42.278064], [-71.049802, 42.2781], [-71.052597, 42.277669], [-71.054401, 42.27701900000001], [-71.055245, 42.27634299999998], [-71.055585, 42.275709], [-71.055575, 42.27505200000002], [-71.054996, 42.274167999999996], [-71.054102, 42.27344299999999], [-71.053494, 42.272458], [-71.053691, 42.271816], [-71.06097900000002, 42.26745399999999], [-71.061828, 42.26720800000001], [-71.063102, 42.26734400000001], [-71.064695, 42.26860700000002], [-71.065033, 42.26928600000001], [-71.064781, 42.270167000000015], [-71.065458, 42.271007], [-71.066036, 42.27126800000001], [-71.067704, 42.271490000000014], [-71.068375, 42.270827], [-71.069011, 42.27066199999998], [-71.070415, 42.27061300000001], [-71.07168, 42.270855000000005], [-71.072431, 42.270686999999995], [-71.073042, 42.270331], [-71.075246, 42.27030000000002], [-71.07541, 42.27144899999998], [-71.077235, 42.27154300000001], [-71.077191, 42.272572999999994], [-71.078447, 42.275739999999985], [-71.077251, 42.27721700000001], [-71.078658, 42.27785700000001], [-71.08257, 42.280342000000005], [-71.085504, 42.28099100000003]]]}}