{"type": "Feature", "properties": {"district_name": "Second Worcester District", "chamber": "senate", "vintage": "2012-2020"}, "geometry": {"type": "Polygon", "coordinates": [[[-71.960633, 42.281420999999995], [-71.88564099999999, 42.28457900000001], [-71.876783, 42.266694], [-71.86234999999999, 42.265968], [-71.86125299999999, 42.267503], [-71.861234, 42.268347], [-71.86160799999999, 42.269826999999985], [-71.861392, 42.27063900000002], [-71.861023, 42.27118099999999], [-71.860074, 42.27188900000001], [-71.858162, 42.27255199999999], [-71.85674399999999, 42.273353000000014], [-71.854708, 42.27381600000001], [-71.854889, 42.273078], [-71.854708, 42.271538999999976], [-71.854869, 42.27004300000001], [-71.854395, 42.268724000000006], [-71.85401499999999, 42.26692899999999], [-71.851654, 42.263332999999975], [-71.851299, 42.26290500000001], [-71.850194, 42.26299300000001], [-71.848021, 42.26213999999998], [-71.845873, 42.260433], [-71.845382, 42.260221], [-71.844931, 42.260189], [-71.843953, 42.260456], [-71.844261, 42.261754999999994], [-71.841728, 42.262057000000006], [-71.841284, 42.261311], [-71.839015, 42.26218399999999], [-71.839614, 42.263095], [-71.83756699999999, 42.26396700000001], [-71.835118, 42.26209700000001], [-71.832915, 42.260118999999996], [-71.829895, 42.25878600000001], [-71.829571, 42.260176999999985], [-71.82852799999999, 42.26004699999999], [-71.828227, 42.26131599999998], [-71.828178, 42.262673], [-71.826713, 42.26243099999999], [-71.823774, 42.262257], [-71.820675, 42.26149300000001], [-71.82309599999999, 42.257009000000004], [-71.83163499999999, 42.249660999999996], [-71.83084199999999, 42.249603999999984], [-71.831053, 42.249027999999996], [-71.831141, 42.247166], [-71.833398, 42.24632299999999], [-71.832988, 42.245067999999996], [-71.831605, 42.245340000000006], [-71.83170199999999, 42.24510699999999], [-71.829185, 42.244125], [-71.825785, 42.243574000000024], [-71.824318, 42.243745999999994], [-71.820882, 42.24358899999999], [-71.82126699999999, 42.244188], [-71.81949399999999, 42.244240999999995], [-71.819379, 42.244678], [-71.815935, 42.246723], [-71.813923, 42.24503000000001], [-71.813665, 42.245036], [-71.809452, 42.251211999999995], [-71.808866, 42.251003], [-71.80802299999999, 42.252333000000014], [-71.807208, 42.25062], [-71.80602600000002, 42.251452], [-71.805425, 42.251591000000005], [-71.805938, 42.252651], [-71.79969899999999, 42.25277899999999], [-71.79787499999999, 42.255038000000006], [-71.797232, 42.254055999999984], [-71.795256, 42.255938], [-71.79276399999999, 42.254659999999994], [-71.791562, 42.25472099999998], [-71.791664, 42.25550199999999], [-71.789166, 42.255662999999984], [-71.789198, 42.25640399999998], [-71.784858, 42.255838999999995], [-71.772284, 42.25641999999998], [-71.767338, 42.25790000000001], [-71.765181, 42.25914099999998], [-71.764375, 42.25943499999999], [-71.763474, 42.259433], [-71.761686, 42.25887699999999], [-71.75886899999999, 42.25971800000001], [-71.752269, 42.260189], [-71.753514, 42.267493], [-71.754052, 42.269819999999996], [-71.754327, 42.272504999999995], [-71.758541, 42.296220999999996], [-71.768215, 42.31129199999999], [-71.767239, 42.31144299999999], [-71.76719899999999, 42.313226], [-71.756289, 42.312115999999996], [-71.741452, 42.317175], [-71.741745, 42.315726], [-71.731715, 42.318024], [-71.730071, 42.321187], [-71.7209, 42.324467], [-71.71955, 42.325074999999984], [-71.698673, 42.33240599999999], [-71.695477, 42.330268000000004], [-71.697643, 42.329179], [-71.697589, 42.327552], [-71.69096499999999, 42.328959], [-71.69113899999999, 42.326904999999975], [-71.689537, 42.325973000000005], [-71.687938, 42.32551599999999], [-71.68974399999999, 42.318861000000005], [-71.684362, 42.311370999999994], [-71.680421, 42.30517100000001], [-71.676996, 42.286148000000004], [-71.659142, 42.266796], [-71.670633, 42.26108199999999], [-71.676441, 42.25417199999998], [-71.67445500000001, 42.252365000000005], [-71.674172, 42.24859099999999], [-71.670932, 42.244701], [-71.649023, 42.247969], [-71.644438, 42.22662599999999], [-71.62107, 42.230869999999996], [-71.599318, 42.225958999999996], [-71.602221, 42.218101], [-71.58291000000001, 42.195558999999996], [-71.57154799999999, 42.19465299999999], [-71.572129, 42.19349], [-71.57233800000002, 42.192228000000014], [-71.556204, 42.191857000000006], [-71.556029, 42.191438999999995], [-71.556029, 42.190447999999996], [-71.555752, 42.190018], [-71.55582900000002, 42.18898500000001], [-71.55618199999999, 42.18871599999999], [-71.556067, 42.188497999999996], [-71.556167, 42.188329], [-71.556544, 42.18810400000001], [-71.556136, 42.187892999999995], [-71.556382, 42.187252], [-71.55635099999999, 42.186816000000015], [-71.556698, 42.18651600000001], [-71.556951, 42.185938000000014], [-71.55578299999999, 42.185748000000004], [-71.555475, 42.18543599999999], [-71.55561399999999, 42.184968999999995], [-71.555414, 42.184852], [-71.55512999999999, 42.184961], [-71.555522, 42.183453000000014], [-71.555898, 42.18280999999999], [-71.555491, 42.182381999999976], [-71.555798, 42.182159], [-71.554177, 42.18181700000001], [-71.553846, 42.18195999999999], [-71.55353099999999, 42.181502999999985], [-71.55284000000002, 42.18122100000001], [-71.552671, 42.18091400000001], [-71.552594, 42.17987999999999], [-71.55178699999999, 42.17949799999998], [-71.551626, 42.17930700000001], [-71.551626, 42.17884800000001], [-71.552125, 42.178193000000014], [-71.55233299999999, 42.177603000000005], [-71.552556, 42.177472000000016], [-71.553462, 42.178132000000005], [-71.553923, 42.178284], [-71.554853, 42.17806000000001], [-71.555376, 42.177391], [-71.556044, 42.17742099999999], [-71.557166, 42.17843199999999], [-71.558043, 42.17845800000001], [-71.558649, 42.179100999999996], [-71.55964900000001, 42.178858000000005], [-71.560417, 42.17899], [-71.561332, 42.178914999999996], [-71.561946, 42.17849600000001], [-71.561992, 42.17826099999999], [-71.561593, 42.177135000000014], [-71.561914, 42.176466], [-71.561677, 42.17457599999998], [-71.56183899999999, 42.17436500000001], [-71.562384, 42.174164], [-71.562422, 42.172790000000006], [-71.563022, 42.17242999999999], [-71.563114, 42.172219999999996], [-71.56215399999999, 42.17104399999999], [-71.561362, 42.170499000000014], [-71.56082599999999, 42.16901599999999], [-71.560499, 42.168695], [-71.560937, 42.167888], [-71.56220400000001, 42.168133999999995], [-71.56268, 42.168051999999996], [-71.56363300000001, 42.167179000000004], [-71.564193, 42.166338], [-71.56440599999999, 42.16437500000001], [-71.564135, 42.164069999999995], [-71.563728, 42.16399399999999], [-71.56350499999999, 42.16329200000001], [-71.56349, 42.16277900000003], [-71.56388199999999, 42.16239600000001], [-71.56356699999999, 42.161588], [-71.56384299999999, 42.161303], [-71.563498, 42.16053199999999], [-71.563113, 42.16047299999999], [-71.562906, 42.160194], [-71.562322, 42.160081], [-71.562376, 42.159696999999994], [-71.561999, 42.15948], [-71.561877, 42.159015], [-71.56110799999999, 42.158640000000005], [-71.56103100000001, 42.15833999999996], [-71.57140199999999, 42.151844999999994], [-71.571591, 42.14236699999999], [-71.570005, 42.13918400000001], [-71.573414, 42.135790000000014], [-71.592648, 42.121720999999994], [-71.596029, 42.12242200000001], [-71.597366, 42.123004], [-71.59910099999999, 42.123090999999995], [-71.599701, 42.123284999999996], [-71.601379, 42.12453000000001], [-71.60210099999999, 42.12466199999999], [-71.60338999999999, 42.124534], [-71.604041, 42.12503200000001], [-71.605423, 42.125534999999985], [-71.605797, 42.124907], [-71.60726799999999, 42.12635699999999], [-71.628053, 42.14999400000001], [-71.630441, 42.14739599999998], [-71.63300000000001, 42.14421400000001], [-71.63371, 42.14367200000001], [-71.63643499999999, 42.14244699999999], [-71.638391, 42.14068100000001], [-71.639072, 42.138922000000015], [-71.639563, 42.139106], [-71.64014999999999, 42.13811099999999], [-71.640542, 42.137043], [-71.64214799999999, 42.135403], [-71.642479, 42.134567000000004], [-71.64271099999999, 42.13273400000001], [-71.64260399999999, 42.13145800000001], [-71.641859, 42.13136700000001], [-71.640976, 42.131521999999975], [-71.639878, 42.131362999999986], [-71.636263, 42.129784], [-71.636256, 42.129186], [-71.636724, 42.128698000000014], [-71.636771, 42.12837199999999], [-71.63607999999999, 42.12769], [-71.636343, 42.125946000000006], [-71.636123, 42.125096000000006], [-71.635263, 42.12415199999997], [-71.635134, 42.122677999999986], [-71.634672, 42.12231500000001], [-71.634209, 42.121745000000004], [-71.63382399999999, 42.121641000000004], [-71.633096, 42.121738], [-71.633166, 42.121634000000014], [-71.634106, 42.12163800000001], [-71.635181, 42.12266199999999], [-71.63538199999999, 42.12427399999999], [-71.636297, 42.125096000000006], [-71.636521, 42.125509], [-71.63624999999999, 42.127647999999986], [-71.637027, 42.12824899999999], [-71.637019, 42.128510000000006], [-71.63645199999999, 42.129446000000016], [-71.636566, 42.129687], [-71.640148, 42.131268999999996], [-71.640744, 42.13136899999999], [-71.64260999999999, 42.13117999999999], [-71.642928, 42.131292], [-71.642983, 42.13209900000001], [-71.642515, 42.135111999999985], [-71.642141, 42.135762000000014], [-71.640601, 42.137223000000006], [-71.640275, 42.138476999999995], [-71.639622, 42.139132999999994], [-71.641893, 42.14030199999999], [-71.642588, 42.140300000000025], [-71.644375, 42.13993000000001], [-71.644987, 42.14003799999998], [-71.646642, 42.13785499999999], [-71.64714, 42.136629], [-71.648084, 42.13654700000001], [-71.648574, 42.13486899999999], [-71.650955, 42.13535599999999], [-71.65131099999999, 42.135715999999995], [-71.65140300000002, 42.13623900000001], [-71.653511, 42.135472], [-71.655897, 42.13400600000001], [-71.65828599999999, 42.133352999999985], [-71.65720999999999, 42.131653000000036], [-71.654781, 42.130292], [-71.653264, 42.128726], [-71.65201300000001, 42.128133000000005], [-71.651879, 42.127432], [-71.65204, 42.126693999999986], [-71.651691, 42.125938999999995], [-71.65148099999999, 42.124474000000006], [-71.64785300000001, 42.121941000000014], [-71.650802, 42.118741], [-71.652811, 42.116844], [-71.654018, 42.115166999999985], [-71.65556300000001, 42.113947999999986], [-71.657533, 42.11304500000001], [-71.664238, 42.11047800000001], [-71.664994, 42.110467], [-71.668365, 42.114647], [-71.669118, 42.11945999999998], [-71.670172, 42.120995], [-71.671137, 42.12338500000001], [-71.672765, 42.125894999999986], [-71.67294799999999, 42.12659999999999], [-71.676104, 42.125011], [-71.67805299999999, 42.124403], [-71.67903299999999, 42.124173], [-71.68043100000001, 42.12424], [-71.68285999999999, 42.123644], [-71.684769, 42.12204699999999], [-71.68638899999999, 42.12131199999999], [-71.68687, 42.120664999999995], [-71.68846599999999, 42.120030000000014], [-71.690338, 42.12102899999999], [-71.69135899999999, 42.121332999999986], [-71.693521, 42.121570000000006], [-71.694242, 42.121817], [-71.694132, 42.121126], [-71.704661, 42.125233000000016], [-71.693713, 42.136159], [-71.691369, 42.14937800000001], [-71.693596, 42.161289999999994], [-71.69131399999999, 42.163129999999995], [-71.691357, 42.16328999999999], [-71.69520399999999, 42.175788000000004], [-71.718614, 42.17296700000001], [-71.723535, 42.191484], [-71.733961, 42.18677499999999], [-71.73377099999999, 42.183504000000006], [-71.740533, 42.179206], [-71.744114, 42.18250499999999], [-71.829444, 42.144928000000014], [-71.82485199999999, 42.15533200000002], [-71.83048, 42.156082], [-71.834105, 42.154989999999984], [-71.834572, 42.157256000000004], [-71.825493, 42.15997700000001], [-71.825959, 42.165820000000004], [-71.831426, 42.164353000000006], [-71.83493899999999, 42.159887000000005], [-71.858096, 42.160706000000005], [-71.875802, 42.170120000000004], [-71.895135, 42.192425], [-71.939356, 42.189237999999996], [-71.958624, 42.27322900000001], [-71.960633, 42.281420999999995]]]}}