{"type": "Feature", "properties": {"district_name": "Worcester and Hampden District", "chamber": "senate", "vintage": "2022-present"}, "geometry": {"type": "Polygon", "coordinates": [[[-72.389044, 42.152416], [-72.386181, 42.15227899999999], [-72.383533, 42.152483000000004], [-72.382149, 42.15235099999998], [-72.378777, 42.152672999999986], [-72.373859, 42.153489000000015], [-72.37296, 42.15389900000002], [-72.372109, 42.154056999999995], [-72.37097, 42.154078999999996], [-72.370135, 42.15374099999999], [-72.369127, 42.15384000000002], [-72.367467, 42.154326000000005], [-72.366318, 42.154332999999994], [-72.365533, 42.154645999999985], [-72.364949, 42.155529], [-72.36069, 42.158643000000005], [-72.358946, 42.158778999999996], [-72.35744, 42.159223000000004], [-72.355077, 42.160845000000016], [-72.354257, 42.16094800000001], [-72.352328, 42.160726999999994], [-72.350396, 42.160992], [-72.348908, 42.16044800000001], [-72.348421, 42.16084700000001], [-72.3477, 42.16082099999999], [-72.346305, 42.161713], [-72.345326, 42.161331], [-72.345121, 42.160847000000004], [-72.345227, 42.160347], [-72.344828, 42.160075], [-72.34402400000002, 42.16042], [-72.343334, 42.16114400000001], [-72.342737, 42.161222], [-72.342094, 42.160664], [-72.341785, 42.15952600000001], [-72.341289, 42.15900100000001], [-72.340491, 42.159015], [-72.34003800000002, 42.15926600000002], [-72.338691, 42.159404000000016], [-72.33610100000001, 42.15918], [-72.335544, 42.15897699999998], [-72.33497500000001, 42.158628], [-72.334348, 42.15788800000001], [-72.333838, 42.157732], [-72.33367700000001, 42.15722199999999], [-72.332872, 42.156761], [-72.332479, 42.15628999999998], [-72.330657, 42.152475], [-72.330296, 42.152004], [-72.32894, 42.15157399999999], [-72.325892, 42.151376000000006], [-72.324545, 42.149608], [-72.323673, 42.149313], [-72.322707, 42.14969099999999], [-72.322094, 42.14948400000001], [-72.321721, 42.149199], [-72.321344, 42.148588], [-72.320811, 42.147219], [-72.31962, 42.146874], [-72.318883, 42.14635499999999], [-72.318625, 42.146317999999994], [-72.318232, 42.14654499999998], [-72.317125, 42.147941], [-72.316527, 42.148245], [-72.316166, 42.14822200000002], [-72.31569800000001, 42.147944], [-72.314059, 42.14605], [-72.314456, 42.14489600000001], [-72.31439800000001, 42.144366000000005], [-72.313359, 42.14374], [-72.31229, 42.143379999999986], [-72.311136, 42.143314], [-72.308739, 42.14473800000001], [-72.307668, 42.144918], [-72.30578, 42.14447100000001], [-72.303985, 42.144522], [-72.302322, 42.14415700000001], [-72.298385, 42.144735], [-72.297039, 42.14442900000001], [-72.295909, 42.143261], [-72.295102, 42.14332400000001], [-72.29382, 42.143895999999984], [-72.293115, 42.14382400000001], [-72.291684, 42.14246099999998], [-72.290954, 42.14213199999999], [-72.289561, 42.14203899999999], [-72.288329, 42.14174100000001], [-72.287017, 42.14189900000001], [-72.286267, 42.141691], [-72.285887, 42.141282], [-72.284928, 42.14115000000001], [-72.281641, 42.141469000000015], [-72.281347, 42.14169900000002], [-72.281309, 42.142435], [-72.280988, 42.14294999999999], [-72.280396, 42.14341500000002], [-72.279724, 42.143635], [-72.277309, 42.143441], [-72.274927, 42.143975], [-72.273395, 42.14290999999999], [-72.271573, 42.143096], [-72.270641, 42.14363199999999], [-72.269188, 42.145452], [-72.268998, 42.146155], [-72.269322, 42.14737000000001], [-72.268404, 42.148233000000005], [-72.267781, 42.14907200000002], [-72.267337, 42.150399], [-72.267298, 42.151597999999986], [-72.266741, 42.152682], [-72.266775, 42.153531], [-72.266269, 42.15410599999999], [-72.265537, 42.154317000000006], [-72.265273, 42.154624000000005], [-72.265554, 42.15575599999999], [-72.265897, 42.15612500000001], [-72.266434, 42.15614600000003], [-72.267156, 42.15646100000001], [-72.267631, 42.157063], [-72.267828, 42.15768099999998], [-72.268381, 42.15828900000001], [-72.26822, 42.15938800000001], [-72.26786400000002, 42.159831000000004], [-72.266821, 42.16052400000002], [-72.266676, 42.16095], [-72.26696, 42.16162499999998], [-72.267828, 42.16216199999999], [-72.268231, 42.162707000000005], [-72.268221, 42.16347299999999], [-72.266881, 42.166253999999995], [-72.265944, 42.166804000000006], [-72.264742, 42.16710600000001], [-72.264022, 42.16822000000001], [-72.262828, 42.16868100000001], [-72.262069, 42.16984500000002], [-72.261554, 42.17149400000002], [-72.262011, 42.172165000000035], [-72.263472, 42.173295], [-72.263938, 42.174739], [-72.263626, 42.17528400000004], [-72.262124, 42.175802], [-72.261654, 42.176926999999985], [-72.262078, 42.17785400000002], [-72.263352, 42.178940999999995], [-72.263481, 42.17985999999999], [-72.263951, 42.180707], [-72.263918, 42.180952999999995], [-72.263371, 42.181543999999995], [-72.263247, 42.182079], [-72.263924, 42.183831], [-72.20062600000001, 42.16128699999999], [-72.199348, 42.153707000000004], [-72.141977, 42.160989], [-72.111519, 42.164455], [-72.10868, 42.151588], [-72.086752, 42.154436000000004], [-72.089415, 42.167138999999985], [-72.0186, 42.175699], [-72.019886, 42.18376199999999], [-71.939356, 42.189237999999996], [-71.895135, 42.192425], [-71.875802, 42.170120000000004], [-71.858096, 42.160706000000005], [-71.834924, 42.159829000000016], [-71.831504, 42.16425300000001], [-71.825959, 42.165820000000004], [-71.825488, 42.15992000000001], [-71.834485, 42.157257], [-71.834105, 42.154989999999984], [-71.83048, 42.156082], [-71.824853, 42.15533200000002], [-71.829591, 42.14486], [-71.74415, 42.18243499999999], [-71.740533, 42.179206], [-71.733771, 42.183504000000006], [-71.733961, 42.18677499999999], [-71.723535, 42.191484], [-71.718614, 42.17296700000001], [-71.69520400000002, 42.17578899999999], [-71.691418, 42.163108], [-71.67901, 42.165789000000004], [-71.642168, 42.165662], [-71.646299, 42.172871000000015], [-71.640854, 42.17468], [-71.64129, 42.174875], [-71.649218, 42.18170099999999], [-71.637276, 42.18323899999999], [-71.644438, 42.226625999999996], [-71.62107, 42.230869999999996], [-71.599318, 42.225958999999996], [-71.602221, 42.218101], [-71.58291000000001, 42.195559], [-71.571548, 42.19465299999999], [-71.572085, 42.19362200000001], [-71.572271, 42.192733], [-71.556782, 42.192450000000015], [-71.556243, 42.191820999999976], [-71.55613, 42.19060600000002], [-71.555817, 42.189843], [-71.555953, 42.18908599999998], [-71.555848, 42.188854], [-71.556233, 42.188663], [-71.556092, 42.18832400000001], [-71.556673, 42.188097000000006], [-71.556608, 42.187918], [-71.556344, 42.18809099999999], [-71.556204, 42.187870000000004], [-71.556432, 42.187305], [-71.556447, 42.18661399999999], [-71.55669500000002, 42.186494999999994], [-71.557055, 42.18577399999999], [-71.556935, 42.18569000000001], [-71.556887, 42.185839], [-71.556262, 42.18594700000001], [-71.555485, 42.18540499999999], [-71.555421, 42.185244], [-71.555605, 42.184988], [-71.555508, 42.184779], [-71.55518, 42.184934], [-71.555067, 42.18447599999999], [-71.555203, 42.18410599999998], [-71.555468, 42.183951], [-71.555435, 42.183527999999995], [-71.555725, 42.182819], [-71.555995, 42.18268200000001], [-71.55551, 42.18238699999999], [-71.555527, 42.182229000000014], [-71.555732, 42.18230000000002], [-71.555929, 42.18217], [-71.55431800000001, 42.18177099999999], [-71.55382, 42.18182500000001], [-71.553646, 42.18140600000001], [-71.552866, 42.18109799999999], [-71.552548, 42.180443], [-71.55259, 42.179984], [-71.552368, 42.180015], [-71.552008, 42.17977499999998], [-71.551666, 42.17857100000001], [-71.552525, 42.177408], [-71.553781, 42.178242999999995], [-71.554898, 42.17811300000002], [-71.555079, 42.17761], [-71.555367, 42.17752500000001], [-71.555382, 42.17732899999999], [-71.555819, 42.177402000000015], [-71.555944, 42.177251999999996], [-71.556468, 42.17763799999998], [-71.556382, 42.17778099999999], [-71.556969, 42.178049], [-71.557187, 42.178342000000015], [-71.557472, 42.178469000000014], [-71.557946, 42.178312000000005], [-71.558352, 42.17873000000001], [-71.558832, 42.17884199999999], [-71.55981500000001, 42.17893599999999], [-71.560263, 42.178805999999994], [-71.560888, 42.178976999999996], [-71.56146, 42.17887], [-71.561498, 42.178672999999996], [-71.562017, 42.178614000000024], [-71.561626, 42.17673799999998], [-71.561972, 42.176491000000006], [-71.562029, 42.17593699999999], [-71.561861, 42.17579499999998], [-71.561985, 42.175444000000006], [-71.561736, 42.174715000000006], [-71.561874, 42.174305000000004], [-71.562516, 42.17409799999998], [-71.562689, 42.173175], [-71.562578, 42.17269600000003], [-71.563197, 42.172366999999994], [-71.563269, 42.171969999999995], [-71.562327, 42.171448999999996], [-71.561759, 42.17034899999999], [-71.56055200000002, 42.16873800000001], [-71.560504, 42.16852200000002], [-71.561227, 42.167786], [-71.561056, 42.167598000000005], [-71.560765, 42.16764599999999], [-71.560462, 42.16804200000001], [-71.560155, 42.168027], [-71.559783, 42.167623], [-71.559809, 42.167108], [-71.562839, 42.167838999999994], [-71.564288, 42.165958], [-71.564463, 42.165096], [-71.564259, 42.16448599999998], [-71.564441, 42.164204], [-71.564029, 42.164054], [-71.563466, 42.163285], [-71.563522, 42.162384], [-71.563847, 42.16220700000001], [-71.563532, 42.16152999999999], [-71.563714, 42.161172999999984], [-71.56350400000001, 42.16068399999999], [-71.563003, 42.16051300000001], [-71.562817, 42.160155], [-71.562372, 42.159995], [-71.562295, 42.159512], [-71.561999, 42.159344999999995], [-71.561914, 42.15896299999999], [-71.560954, 42.158315], [-71.560792, 42.157764000000014], [-71.561035, 42.15750499999999], [-71.561055, 42.157181999999985], [-71.560878, 42.15552799999999], [-71.561213, 42.155302], [-71.562083, 42.15544200000001], [-71.562251, 42.155230999999986], [-71.562156, 42.15491099999997], [-71.562305, 42.15466399999998], [-71.563266, 42.15380299999999], [-71.563222, 42.15339800000001], [-71.541478, 42.139692000000004], [-71.539302, 42.138359], [-71.538114, 42.13801600000001], [-71.528687, 42.131298000000015], [-71.519237, 42.124190999999996], [-71.509843, 42.12392299999999], [-71.509651, 42.12358499999998], [-71.509038, 42.12330799999999], [-71.508707, 42.12271599999998], [-71.507126, 42.12129300000001], [-71.507262, 42.120307000000004], [-71.506011, 42.118748], [-71.505632, 42.11875800000001], [-71.505288, 42.11827499999998], [-71.503661, 42.11814999999999], [-71.502796, 42.117412000000016], [-71.50214800000002, 42.11761400000002], [-71.501594, 42.11739500000001], [-71.501756, 42.117202], [-71.50135, 42.11685399999999], [-71.501498, 42.116589000000005], [-71.501319, 42.11635199999999], [-71.501628, 42.116102], [-71.501029, 42.11523099999999], [-71.501553, 42.11458300000002], [-71.501104, 42.11364300000001], [-71.501235, 42.113329], [-71.500355, 42.11284800000001], [-71.500552, 42.11246500000001], [-71.501132, 42.112124], [-71.501385, 42.11157400000001], [-71.501965, 42.111657000000015], [-71.502217, 42.11103], [-71.502984, 42.110640000000004], [-71.503078, 42.11028499999998], [-71.502807, 42.10977600000001], [-71.502909, 42.10942800000002], [-71.502292, 42.109337], [-71.502423, 42.108864000000004], [-71.5016, 42.108410999999975], [-71.501469, 42.108077], [-71.50071900000002, 42.107735000000005], [-71.500842, 42.10761699999998], [-71.500599, 42.10745699999998], [-71.500617, 42.10730300000001], [-71.501001, 42.106892], [-71.501384, 42.106767000000005], [-71.501363, 42.106286000000004], [-71.500926, 42.105722], [-71.50068, 42.10505899999999], [-71.500309, 42.104726], [-71.500281, 42.104196000000016], [-71.499878, 42.10385499999999], [-71.499512, 42.10304899999999], [-71.49786900000001, 42.102447000000005], [-71.496703, 42.10225000000001], [-71.496703, 42.10208500000001], [-71.497225, 42.101983], [-71.497294, 42.10178599999999], [-71.496629, 42.10155000000001], [-71.496338, 42.10162099999999], [-71.496623, 42.10120400000002], [-71.49628, 42.100854999999996], [-71.495837, 42.10071700000001], [-71.49609000000001, 42.10035900000002], [-71.49572, 42.100245], [-71.495652, 42.10002099999999], [-71.495282, 42.09995800000001], [-71.496111, 42.09818000000002], [-71.496511, 42.097989], [-71.496493, 42.097195], [-71.497095, 42.09691899999999], [-71.497058, 42.09672599999999], [-71.497457, 42.09644300000001], [-71.497494, 42.095841999999976], [-71.49703, 42.09569700000001], [-71.497744, 42.09483400000001], [-71.497791, 42.09419899999998], [-71.49812700000001, 42.093414999999986], [-71.498025, 42.09257100000001], [-71.49824, 42.091412], [-71.498262, 42.03133299999999], [-71.497901, 42.031513], [-71.497939, 42.029952], [-71.498178, 42.030001999999996], [-71.498178, 42.02929100000001], [-71.497957, 42.029244000000006], [-71.497967, 42.02879100000001], [-71.498195, 42.028758], [-71.497993, 42.02773599999999], [-71.498259, 42.02781300000001], [-71.498259, 42.02530199999999], [-71.498031, 42.025275], [-71.498261, 42.02428400000001], [-71.49825600000001, 42.022433], [-71.498073, 42.02241099999999], [-71.498076, 42.02226699999999], [-71.49825600000001, 42.02229099999999], [-71.498367, 42.02103799999999], [-71.49825600000001, 42.021010999999994], [-71.498259, 42.01727199999999], [-71.527702, 42.015094999999995], [-71.771427, 42.009481000000015], [-71.799188, 42.008053], [-71.799709, 42.015629000000004], [-71.800671, 42.02351400000001], [-71.903251, 42.02458400000001], [-71.98768, 42.026884], [-72.071826, 42.027637], [-72.143151, 42.030522000000005], [-72.338809, 42.03215999999999], [-72.353705, 42.03255800000001], [-72.366991, 42.03270499999999], [-72.379439, 42.103134], [-72.389044, 42.152416]]]}}