{"type": "Feature", "properties": {"district_name": "First Essex District", "chamber": "senate", "vintage": "2012-2020"}, "geometry": {"type": "Polygon", "coordinates": [[[-71.25517099999999, 42.73668], [-71.251522, 42.739129000000005], [-71.248718, 42.740581], [-71.245504, 42.74258899999999], [-71.23342, 42.74548499999998], [-71.223917, 42.74668900000001], [-71.208604, 42.74339], [-71.202186, 42.74183400000001], [-71.181803, 42.737590000000004], [-71.182706, 42.75118700000003], [-71.18330499999999, 42.75450099999999], [-71.186103, 42.790673999999996], [-71.185208, 42.791685], [-71.17440100000002, 42.80171599999999], [-71.166665, 42.808337999999985], [-71.149706, 42.815489], [-71.132503, 42.82138800000001], [-71.118802, 42.818087999999996], [-71.115894, 42.817690000000006], [-71.112993, 42.817088999999996], [-71.10779099999999, 42.815788999999995], [-71.101794, 42.814587], [-71.0651, 42.806289], [-71.064201, 42.806289], [-71.060564, 42.81597899999999], [-71.058099, 42.82198899999999], [-71.05780299999999, 42.823091999999995], [-71.053601, 42.833088999999994], [-71.047501, 42.844089000000004], [-71.044394, 42.84879600000001], [-71.03930199999999, 42.852687], [-71.03793900000001, 42.85405999999999], [-71.031201, 42.859086999999995], [-71.017101, 42.86148900000001], [-70.99275999999999, 42.865205999999986], [-70.974777, 42.867438], [-70.96940000000001, 42.86828899999998], [-70.9665, 42.868988999999985], [-70.955299, 42.873489000000006], [-70.949197, 42.876090000000005], [-70.930798, 42.884588], [-70.92757, 42.885330999999994], [-70.914538, 42.886618999999996], [-70.905502, 42.88678999999999], [-70.90277, 42.886531], [-70.88561, 42.882496], [-70.875044, 42.876106], [-70.87305599999999, 42.875088], [-70.856754, 42.865424999999995], [-70.848625, 42.860939], [-70.83737599999999, 42.86499599999999], [-70.83289599999999, 42.867790000000014], [-70.830795, 42.868918], [-70.82594399999999, 42.87048599999999], [-70.82479599999999, 42.870989999999985], [-70.820894, 42.872075999999986], [-70.792495, 42.87329100000001], [-70.749494, 42.87469399999999], [-70.735005, 42.87468500000001], [-70.738642, 42.869254999999995], [-70.746282, 42.860842999999996], [-70.74883, 42.85883099999999], [-70.747134, 42.853712], [-70.746262, 42.850166000000016], [-70.746166, 42.84755500000001], [-70.745522, 42.844442999999984], [-70.743971, 42.843174000000005], [-70.74146, 42.839664000000006], [-70.739038, 42.83581799999999], [-70.737393, 42.83260699999999], [-70.736248, 42.82919400000001], [-70.735789, 42.82701900000001], [-70.73487399999999, 42.824477], [-70.734409, 42.818552999999994], [-70.734312, 42.81517300000001], [-70.73442, 42.812269999999984], [-70.80847899999999, 42.821505], [-70.807341, 42.818661], [-70.809952, 42.81861999999999], [-70.80842299999999, 42.81590800000001], [-70.808578, 42.814685000000004], [-70.80860899999999, 42.811510000000006], [-70.841045, 42.795908], [-70.862965, 42.801550000000006], [-70.874836, 42.79807799999999], [-70.890802, 42.7943], [-70.892832, 42.794883000000006], [-70.89366799999999, 42.794938000000016], [-70.895708, 42.796115], [-70.89636, 42.79672100000001], [-70.897221, 42.797081000000006], [-70.898029, 42.797197999999995], [-70.89803599999999, 42.79836000000003], [-70.90512199999999, 42.797441], [-70.917423, 42.787495], [-70.925044, 42.796363], [-70.930809, 42.802690999999996], [-70.931668, 42.805209], [-70.931776, 42.80596099999999], [-70.931603, 42.806536], [-70.930393, 42.80800600000001], [-70.929836, 42.80910199999999], [-70.93016899999999, 42.81028699999999], [-70.930767, 42.81073500000001], [-70.931246, 42.811465999999996], [-70.931617, 42.813178000000015], [-70.93150299999999, 42.813567000000006], [-70.930695, 42.814315], [-70.930663, 42.814595000000004], [-70.931085, 42.81493900000001], [-70.931834, 42.815120999999984], [-70.93278699999999, 42.81506700000001], [-70.933719, 42.815667000000005], [-70.934604, 42.816527], [-70.934558, 42.816962000000004], [-70.934089, 42.81760099999998], [-70.934201, 42.817849], [-70.934685, 42.81791499999999], [-70.93554, 42.817626999999995], [-70.93585, 42.81773099999999], [-70.936183, 42.818456000000005], [-70.93782999999999, 42.819615999999975], [-70.940294, 42.822548000000005], [-70.94453899999999, 42.820972999999995], [-70.946343, 42.82058299999999], [-70.94995399999999, 42.820158], [-70.957867, 42.819714000000005], [-70.961755, 42.81996499999999], [-70.963574, 42.82032299999996], [-70.965749, 42.821015999999986], [-70.969191, 42.822500000000005], [-70.970635, 42.82292299999998], [-70.97207999999999, 42.823632], [-70.97432599999999, 42.824217], [-70.976056, 42.82449799999999], [-70.980704, 42.824577999999995], [-70.985907, 42.82382200000001], [-70.99101000000002, 42.822168], [-70.992709, 42.82190699999999], [-70.994868, 42.821996999999996], [-70.996541, 42.82144099999999], [-70.9979, 42.82075200000001], [-70.99856299999999, 42.820338], [-71.00074099999999, 42.818189999999994], [-71.001256, 42.816719], [-71.00134899999999, 42.81496699999999], [-71.00119300000001, 42.813680999999995], [-71.000844, 42.812515999999995], [-70.999079, 42.80967400000001], [-70.99877099999999, 42.80899900000001], [-70.998616, 42.808061], [-70.99875, 42.806964999999984], [-70.99983399999999, 42.80503999999999], [-71.001711, 42.802800000000005], [-71.003435, 42.801100999999996], [-71.00552499999999, 42.79979599999999], [-71.012312, 42.796542], [-71.015575, 42.794535999999994], [-71.01735099999999, 42.79301499999999], [-71.018708, 42.79160500000001], [-71.019301, 42.790701], [-71.019757, 42.789525999999974], [-71.02019299999999, 42.78727], [-71.020381, 42.78429599999999], [-71.02190399999999, 42.779633], [-71.02423499999999, 42.77576000000001], [-71.025711, 42.77387699999999], [-71.02896400000002, 42.770427], [-71.032443, 42.76622], [-71.037965, 42.75894500000003], [-71.04001699999999, 42.757721000000004], [-71.04256699999999, 42.757041], [-71.042073, 42.755053999999994], [-71.041812, 42.754835000000014], [-71.041774, 42.754654], [-71.04199799999999, 42.754416000000006], [-71.042847, 42.754335], [-71.042901, 42.753978], [-71.044096, 42.753214000000014], [-71.044524, 42.74903400000002], [-71.048341, 42.746144999999984], [-71.052849, 42.739886999999996], [-71.058116, 42.734209], [-71.058883, 42.732462999999996], [-71.07211099999999, 42.73266800000001], [-71.074, 42.73446600000001], [-71.08191, 42.736685], [-71.088064, 42.73614399999999], [-71.09007799999999, 42.73696899999999], [-71.092467, 42.737000000000016], [-71.09783399999999, 42.73521999999999], [-71.108632, 42.735281], [-71.096463, 42.724097], [-71.095553, 42.72444600000001], [-71.096184, 42.72511000000001], [-71.095034, 42.725702000000005], [-71.095023, 42.726251999999995], [-71.093668, 42.726742000000016], [-71.091669, 42.724538999999986], [-71.091753, 42.72427000000002], [-71.095362, 42.722025], [-71.09512, 42.72142800000001], [-71.092306, 42.71899900000002], [-71.09174999999999, 42.71812199999999], [-71.090594, 42.71869899999999], [-71.064491, 42.69471699999999], [-71.066987, 42.69475799999999], [-71.06853199999999, 42.694184000000014], [-71.069332, 42.694626], [-71.071466, 42.695327000000006], [-71.07335499999999, 42.694925999999995], [-71.074764, 42.694987999999995], [-71.07611399999999, 42.69527799999998], [-71.080083, 42.696701], [-71.08193299999999, 42.69700400000001], [-71.08272900000001, 42.69677900000001], [-71.08381, 42.69668199999998], [-71.084011, 42.696800999999994], [-71.085132, 42.69600499999999], [-71.089557, 42.694494999999996], [-71.0976, 42.687993999999996], [-71.099317, 42.686122999999995], [-71.099443, 42.68525899999999], [-71.099103, 42.683862000000005], [-71.098968, 42.68247600000001], [-71.098587, 42.68140999999998], [-71.099593, 42.67924599999999], [-71.099569, 42.678197000000026], [-71.09993200000001, 42.676075999999995], [-71.099569, 42.67448100000002], [-71.101955, 42.670993], [-71.103939, 42.674378], [-71.105119, 42.67572099999999], [-71.107157, 42.677296999999996], [-71.10812899999999, 42.67836700000001], [-71.108403, 42.678962000000006], [-71.10875399999999, 42.67872799999999], [-71.10909, 42.678743999999995], [-71.110863, 42.679991999999984], [-71.11177099999999, 42.679882], [-71.11303699999999, 42.67862799999999], [-71.113492, 42.678892000000005], [-71.113844, 42.679788], [-71.114938, 42.679344], [-71.116118, 42.679295], [-71.116332, 42.679438000000005], [-71.116018, 42.67883600000001], [-71.11744, 42.67689699999999], [-71.117815, 42.67586899999999], [-71.11900299999999, 42.67762200000001], [-71.12038000000001, 42.677036], [-71.12195, 42.67853199999999], [-71.12497200000001, 42.676952], [-71.12596599999999, 42.673234000000015], [-71.12683500000001, 42.671814999999995], [-71.12882700000002, 42.67445], [-71.134529, 42.67683699999999], [-71.133686, 42.67953500000002], [-71.13927699999999, 42.68440699999999], [-71.137827, 42.684996000000005], [-71.138092, 42.68521300000001], [-71.13933, 42.685156], [-71.139478, 42.68545899999999], [-71.138824, 42.685732], [-71.138723, 42.685990999999994], [-71.137947, 42.686668000000026], [-71.13933999999999, 42.686717], [-71.139678, 42.68688200000001], [-71.139809, 42.68718599999999], [-71.139427, 42.687594999999995], [-71.13919299999999, 42.68773800000001], [-71.138977, 42.68760900000001], [-71.138627, 42.687695999999995], [-71.138603, 42.687842999999994], [-71.14005999999999, 42.688987999999995], [-71.140155, 42.68936299999999], [-71.139595, 42.69017599999999], [-71.139062, 42.690402000000006], [-71.138639, 42.690327999999994], [-71.13795499999999, 42.689662999999996], [-71.13761099999999, 42.68974999999999], [-71.13759499999999, 42.69045599999998], [-71.138234, 42.69133399999999], [-71.137981, 42.691942999999995], [-71.138172, 42.692488999999995], [-71.138442, 42.69271399999999], [-71.139312, 42.69257599999999], [-71.139439, 42.692704], [-71.139303, 42.69303199999998], [-71.139405, 42.69314699999999], [-71.140411, 42.69346], [-71.140947, 42.69391199999999], [-71.141669, 42.694084], [-71.14170299999999, 42.694316999999984], [-71.143163, 42.694199000000005], [-71.143395, 42.697028], [-71.144903, 42.697756999999996], [-71.145005, 42.697947], [-71.14546, 42.698062000000014], [-71.14544599999999, 42.698194999999984], [-71.145718, 42.698169000000014], [-71.14585699999999, 42.69848099999999], [-71.144438, 42.699274], [-71.14277799999999, 42.698923000000015], [-71.142372, 42.69938399999999], [-71.140909, 42.703278], [-71.13932299999999, 42.70340400000001], [-71.13708299999999, 42.70435299999997], [-71.137525, 42.704806], [-71.137563, 42.706661], [-71.136996, 42.706882], [-71.13565299999999, 42.707935000000006], [-71.134345, 42.70958400000001], [-71.133436, 42.711638], [-71.13341, 42.712939], [-71.133816, 42.714619000000006], [-71.13492099999999, 42.71780100000001], [-71.135121, 42.71950699999999], [-71.134969, 42.720214], [-71.134134, 42.721506999999995], [-71.168972, 42.722348000000004], [-71.170887, 42.72327000000001], [-71.172271, 42.721706000000005], [-71.191212, 42.71057000000001], [-71.188858, 42.696247000000014], [-71.190703, 42.697256], [-71.192624, 42.69794399999997], [-71.194361, 42.69836700000002], [-71.202328, 42.69888700000001], [-71.209942, 42.70062], [-71.215138, 42.701207999999994], [-71.216723, 42.70100699999999], [-71.218046, 42.700542999999996], [-71.219447, 42.699904], [-71.22062199999999, 42.699116], [-71.224649, 42.693856999999994], [-71.224807, 42.69342999999999], [-71.225402, 42.686771], [-71.226074, 42.684431999999994], [-71.227721, 42.68090000000001], [-71.229647, 42.677856999999996], [-71.23376300000001, 42.672824000000006], [-71.23445199999999, 42.67208999999999], [-71.238103, 42.669490999999994], [-71.25517099999999, 42.73668]]]}}