{"type": "Feature", "properties": {"district_name": "Middlesex, Suffolk, and Essex", "chamber": "senate", "vintage": "2001-2010"}, "geometry": {"type": "MultiPolygon", "coordinates": [[[[-71.11709704571228, 42.38659609660494], [-71.11159694967134, 42.38179603505748], [-71.11049599181696, 42.381595938691476], [-71.10789608574858, 42.37959579244084], [-71.10769607246672, 42.37929576619906], [-71.10839608729208, 42.37909614995971], [-71.10549607511983, 42.37629592329448], [-71.102695999286, 42.37399618703567], [-71.1006960849784, 42.37419689065261], [-71.09959604137794, 42.37639595197183], [-71.09819607247044, 42.37669604221593], [-71.09559603703656, 42.37679609109063], [-71.0958960508202, 42.37779589884254], [-71.09719602974594, 42.37839577111439], [-71.09879592235598, 42.3793961759996], [-71.10429608422089, 42.38099578651737], [-71.10309603361327, 42.38289575233138], [-71.10169598197488, 42.38249591453063], [-71.10039595366848, 42.38419575540937], [-71.0992960730046, 42.38319599158058], [-71.10049599082161, 42.38139622122743], [-71.09589605141637, 42.37969606189324], [-71.09229592314341, 42.379395831434884], [-71.0912960738579, 42.379595973124395], [-71.08987639665197, 42.38029955826702], [-71.09049599375022, 42.38199576195027], [-71.09149601517238, 42.38359619567178], [-71.09149597457555, 42.383896102542536], [-71.09016521028687, 42.38254999545376], [-71.08912224221254, 42.38430081353258], [-71.08789598087213, 42.38569621039175], [-71.08599595812119, 42.38509576470609], [-71.0855960361324, 42.38589614009467], [-71.08369602672478, 42.3852962191244], [-71.08429606079645, 42.384596167271134], [-71.08079597863434, 42.38359596854761], [-71.07989592484219, 42.38469609644573], [-71.0786959707264, 42.38429614633177], [-71.07709592961476, 42.38649597223373], [-71.07679592241318, 42.38669574497811], [-71.07669608919448, 42.38709600403224], [-71.07419209412514, 42.390701965585876], [-71.07366163100487, 42.389839668125624], [-71.07313705097962, 42.389569888909584], [-71.07230405042144, 42.38799073651473], [-71.07181063381563, 42.387549450268395], [-71.06980369531013, 42.386612983283584], [-71.06977303883507, 42.38643337447916], [-71.07023600496434, 42.385767768930855], [-71.07002038019975, 42.38558240500367], [-71.06915600169289, 42.38517460607659], [-71.0682302515216, 42.385308429110374], [-71.06773639868648, 42.38565993645975], [-71.06508359693392, 42.38514915590834], [-71.06422014499591, 42.38524548275623], [-71.06317004700497, 42.3850845134471], [-71.06391122863404, 42.38400810848049], [-71.06397293572083, 42.38378214571638], [-71.06360255200497, 42.38361756474079], [-71.06307788484933, 42.38400550947954], [-71.06199765146759, 42.38526742802266], [-71.06094889807056, 42.38524148629482], [-71.06076385952638, 42.38510967602711], [-71.06104148683377, 42.384969503354526], [-71.06165834193781, 42.383959034367166], [-71.06119573548673, 42.38382335350324], [-71.06128837617524, 42.383461341949676], [-71.06098031471699, 42.38339489615386], [-71.06008514210312, 42.38469857855205], [-71.05952961925065, 42.384744843465846], [-71.0603016425161, 42.38338892836476], [-71.06002337649524, 42.38334903975283], [-71.05860410941456, 42.38489659573748], [-71.05829541371284, 42.384920168880846], [-71.04999531335025, 42.384005724488254], [-71.04996522696813, 42.38375408943402], [-71.04968785593485, 42.38366916501203], [-71.04903977288892, 42.38389676219496], [-71.04777456342357, 42.383550250084134], [-71.04765151532297, 42.38316545671644], [-71.0471884809069, 42.382750066265515], [-71.0471271713984, 42.38240884150161], [-71.04759002437373, 42.38178833953741], [-71.04904029290302, 42.38201460351402], [-71.04925613799078, 42.381839330849054], [-71.04925628144188, 42.38163282822166], [-71.04749755342746, 42.381267497724565], [-71.04752835727506, 42.38078090141909], [-71.04783680994503, 42.3800725756506], [-71.05780247289601, 42.38149775274682], [-71.05817175255, 42.38149073133549], [-71.05835707249032, 42.38117240404748], [-71.05811081871039, 42.38092444248417], [-71.05712342772107, 42.38062692736947], [-71.05422322607166, 42.380075554494226], [-71.04792826729522, 42.37962054092807], [-71.04737230925515, 42.376922557420485], [-71.04823830782543, 42.37664349628078], [-71.04879467637866, 42.376921955520714], [-71.04910252574689, 42.37682581897534], [-71.04916452730653, 42.37664487913075], [-71.04891751579571, 42.37629786282712], [-71.04978087907048, 42.37609361616291], [-71.04975003557497, 42.37586898624133], [-71.04950363610395, 42.37572903968618], [-71.04950342054161, 42.37535992090626], [-71.04999728596104, 42.375063070905284], [-71.0504918954279, 42.37407356274492], [-71.05163274150128, 42.37307138061959], [-71.0524973260593, 42.372767524019814], [-71.053669419391, 42.37362003645467], [-71.05400892083222, 42.373713070041426], [-71.05370074542628, 42.37313287719156], [-71.05410179055916, 42.37286490876085], [-71.05447114584092, 42.372839893942086], [-71.05511984785811, 42.37334150166636], [-71.05567432110995, 42.373430860087005], [-71.05570480565744, 42.37325035760115], [-71.05428661372295, 42.37210488167384], [-71.05444074590297, 42.37190403933048], [-71.05487270558419, 42.37190514899787], [-71.05641511437766, 42.3726791653935], [-71.05740216875174, 42.37211184732973], [-71.05638392744969, 42.371580693805825], [-71.05638386333257, 42.37140063593888], [-71.05780335927551, 42.37089743876953], [-71.05900582821732, 42.371398338839946], [-71.05959178114281, 42.371351630592144], [-71.06002391620632, 42.37119066977173], [-71.06005504206412, 42.37037040134262], [-71.05968465496373, 42.36975566278432], [-71.05996253520232, 42.369706084947666], [-71.06059500817823, 42.37019690910111], [-71.06159493902463, 42.370196785746124], [-71.06159504857554, 42.36949681212755], [-71.06279497862164, 42.369597034854856], [-71.0642950739561, 42.36949694297732], [-71.06709495819887, 42.37189721566159], [-71.07069508933213, 42.372396863153384], [-71.07299502762774, 42.373396864670774], [-71.07379496396918, 42.373296860970555], [-71.07509598272823, 42.37369723744515], [-71.07949602399954, 42.37429690399106], [-71.08259595787769, 42.37369712463934], [-71.08459591378082, 42.37349673567876], [-71.08579599262005, 42.373996783123616], [-71.08659591594352, 42.37299696700291], [-71.08689604139359, 42.37299691984724], [-71.08969596222914, 42.37399725536549], [-71.0940960701049, 42.3741968613889], [-71.09459607530974, 42.3729967432348], [-71.09639592385864, 42.369897085558705], [-71.09569608033048, 42.36939721958377], [-71.0962960379704, 42.36839719536203], [-71.09709591358252, 42.368797251380144], [-71.09759599690949, 42.367897027348235], [-71.10009601086999, 42.36879702998911], [-71.10119608927586, 42.36939672631368], [-71.1019960909724, 42.36839680339246], [-71.10709599821448, 42.37009674628448], [-71.10909592112034, 42.368396955809075], [-71.11059596497758, 42.368996795221264], [-71.11129593452885, 42.36779671840183], [-71.11359593858145, 42.368396968585444], [-71.11359598990815, 42.370096257861675], [-71.11309597004073, 42.36999723371835], [-71.11589697257601, 42.37239575266693], [-71.11569694481652, 42.3715960816778], [-71.11619709205736, 42.371395750077305], [-71.11709698578288, 42.37159624912845], [-71.11659692585974, 42.37259615042204], [-71.11808196175573, 42.37310187383978], [-71.1194979391534, 42.373296751396694], [-71.12329694044352, 42.36899576545796], [-71.11849697569622, 42.368397010726305], [-71.11719702932129, 42.3671969998116], [-71.11692894761231, 42.35871596893758], [-71.11709595720392, 42.355597027550985], [-71.1109959834848, 42.352597162101596], [-71.11104194292211, 42.35227827760479], [-71.11152290723479, 42.3518128784072], [-71.11339605618399, 42.35159693224432], [-71.11389592544504, 42.35169708083365], [-71.11779605504836, 42.35379709171242], [-71.1201970175644, 42.35459673754206], [-71.1209019590765, 42.3546620837515], [-71.12125105258352, 42.353500736739036], [-71.12519805066346, 42.3539598740533], [-71.12539696364777, 42.35319696523585], [-71.12849692907616, 42.353697116026446], [-71.12876106058933, 42.35264013044016], [-71.13419701900378, 42.3531971609859], [-71.13379691017325, 42.35069702521469], [-71.13343807961131, 42.350340830656194], [-71.13371400396747, 42.35024380353009], [-71.13319699505622, 42.34959676112579], [-71.13559794055308, 42.34829785086653], [-71.13655002924409, 42.34821308600863], [-71.13796205897172, 42.34854614584697], [-71.13972598951624, 42.34866084604096], [-71.14039692314448, 42.350397126645625], [-71.14039692999151, 42.3513970091082], [-71.14299696422846, 42.350897010506834], [-71.14333204096924, 42.35160815235592], [-71.14598105416856, 42.35065584362351], [-71.14638893275048, 42.351274921117934], [-71.1445169549986, 42.35484891741349], [-71.1492969937524, 42.3561971437994], [-71.14789705623532, 42.35879581922768], [-71.14604303760899, 42.36161027380732], [-71.14749701831045, 42.361795921832034], [-71.14679696873928, 42.3622962459782], [-71.14509704871375, 42.364496149435006], [-71.14379697244749, 42.36499572749588], [-71.14429708633925, 42.366496249622124], [-71.14299694842845, 42.366695911012684], [-71.14049701744375, 42.37059592193762], [-71.14009693060434, 42.37219605091687], [-71.1400969326706, 42.37359599199736], [-71.14389691964874, 42.374096221847324], [-71.14359704918371, 42.3752960457897], [-71.14069700981644, 42.37509627693875], [-71.13999695252554, 42.37489602595056], [-71.13859702790897, 42.37489613781068], [-71.14089698622656, 42.37609621556431], [-71.1414970938383, 42.37699611942355], [-71.14379698878548, 42.378095981597376], [-71.14439697352059, 42.37909602574425], [-71.14459700589472, 42.379896206908526], [-71.13839709324273, 42.381195800146784], [-71.13799705969332, 42.38329613748277], [-71.13619700879671, 42.38269627369436], [-71.13449704652069, 42.38139616757816], [-71.13319698245908, 42.3812958123174], [-71.13229703644778, 42.38149606571252], [-71.13129701197825, 42.3822958043895], [-71.12989705059967, 42.38149624760597], [-71.12909698139751, 42.38229604764319], [-71.13039698431255, 42.382896105522526], [-71.12959707602131, 42.383796065692835], [-71.13159703406214, 42.38479617293463], [-71.13169700362897, 42.38499624296219], [-71.13069696033195, 42.38549606966436], [-71.13099705964802, 42.38609571965388], [-71.12689700789994, 42.387495938914], [-71.12629704983759, 42.38639621126545], [-71.12179706039981, 42.38779607479355], [-71.11949692744066, 42.38809627496541], [-71.11949705278809, 42.38829602532176], [-71.11769695143661, 42.38739596619583], [-71.11709704571228, 42.38659609660494]]], [[[-70.98631938574627, 42.459432473396184], [-70.98605049455576, 42.4594188952434], [-70.98617372268681, 42.459146549651955], [-70.98710026766368, 42.458391635971076], [-70.98768617083094, 42.457544047552936], [-70.98833303248286, 42.45493837935663], [-70.98731284921378, 42.45427214140721], [-70.98644871463766, 42.45436788466648], [-70.98586106615099, 42.45480133346691], [-70.98573839788237, 42.455145703430254], [-70.98558479834966, 42.45693206151228], [-70.98447381785873, 42.45798716699086], [-70.98401076124651, 42.45813926552463], [-70.98357851381937, 42.45798484460584], [-70.98283644350522, 42.45713300720547], [-70.98169254358683, 42.456359819326316], [-70.98036618468696, 42.45604043540685], [-70.98024058981716, 42.455836181660764], [-70.98224828251303, 42.45546767110732], [-70.98323605191948, 42.45509961836718], [-70.9838844826199, 42.4545297260846], [-70.9842856093678, 42.454072382772566], [-70.98456238585845, 42.4525814163352], [-70.98400513847967, 42.451735476089624], [-70.98286244241872, 42.4507558031289], [-70.98280083665134, 42.4505315829877], [-70.98048367276468, 42.45030171215845], [-70.9796191127282, 42.45073106682452], [-70.97918620001542, 42.45054961758115], [-70.9795874902089, 42.449912235714834], [-70.97807414403344, 42.44909176329451], [-70.97714625535883, 42.44815351803336], [-70.97597207347955, 42.44732667914033], [-70.97461322803817, 42.446783135577455], [-70.97464438746458, 42.446485061007266], [-70.975662852093, 42.44625169170065], [-70.97695992967688, 42.446616012463835], [-70.97702163747391, 42.44643511200257], [-70.97655871509185, 42.446281087219376], [-70.976527796504, 42.44604687470713], [-70.97711484441231, 42.44602815996861], [-70.97816447419261, 42.44638853007146], [-70.9788747897671, 42.44623194728636], [-70.97970925352445, 42.44682089993452], [-70.98004900770613, 42.44673353202388], [-70.9797703476566, 42.44625231367053], [-70.97878170039753, 42.44556700923678], [-70.97899763538494, 42.4454999028783], [-70.97905914046642, 42.445066360182466], [-70.98063398647552, 42.444471975619116], [-70.98088067007254, 42.44415236417209], [-70.98091122095441, 42.44364722137209], [-70.98081853673588, 42.44336996833508], [-70.98023104045971, 42.4429385611819], [-70.97890330185736, 42.442430093530476], [-70.97911843620076, 42.442228504359996], [-70.98118883462713, 42.44270599465181], [-70.98177569213324, 42.442984346924], [-70.98174539542094, 42.44338989799075], [-70.982270092303, 42.4443713092815], [-70.98273390379175, 42.44474138160559], [-70.98310461105926, 42.44469915756582], [-70.98261022417122, 42.44421247605672], [-70.98226994541669, 42.44329997898597], [-70.98257851644004, 42.44288948901231], [-70.98263958166255, 42.44215828807836], [-70.98220688804172, 42.44188682281611], [-70.98199096186818, 42.44207040861356], [-70.98220735299894, 42.4425715983799], [-70.98192989298134, 42.442638996653415], [-70.97982873465247, 42.44167579352941], [-70.97902570551959, 42.44163558966904], [-70.97902512194061, 42.44096938147171], [-70.97883989164177, 42.44058536255105], [-70.97853075448671, 42.440671740187284], [-70.97840790107018, 42.44089906665212], [-70.9780678934145, 42.44085982698425], [-70.97775868638443, 42.44033401318957], [-70.97649393660026, 42.44190488233761], [-70.97701963983535, 42.44291389391212], [-70.97714188150768, 42.44161411039971], [-70.97741952524392, 42.44124907010763], [-70.97822316446428, 42.44197349905951], [-70.97822390843275, 42.44255024277881], [-70.97995403137952, 42.443573694097665], [-70.97995380021082, 42.44376331393703], [-70.97847183882418, 42.444058767768894], [-70.97800884558777, 42.44453550504735], [-70.97754633730328, 42.44451652756128], [-70.97760829379779, 42.44515487999735], [-70.97708238855702, 42.445245334346936], [-70.97655777376468, 42.44506514637206], [-70.97519936754138, 42.44550291335985], [-70.97473576540676, 42.44529486143508], [-70.97479728711109, 42.4450683847006], [-70.97529128864144, 42.44477185700548], [-70.97529133760922, 42.44453722246488], [-70.97492042095931, 42.44419286383145], [-70.97467344926129, 42.44426938644173], [-70.97306871070015, 42.44627811355602], [-70.97254391711827, 42.446233510752144], [-70.97254333104433, 42.446007876114706], [-70.97325335358754, 42.44511309928125], [-70.9732532028565, 42.44474398488168], [-70.97244872006851, 42.443190699634386], [-70.97315977652262, 42.443124745916336], [-70.97393145446294, 42.44255265850725], [-70.9748564185269, 42.44117664156798], [-70.97510315300939, 42.44053294225162], [-70.97599931833773, 42.44085943568771], [-70.97556555039523, 42.43937200194849], [-70.97547247605524, 42.438481990300744], [-70.97562616585051, 42.4381552138996], [-70.9769230142682, 42.43740318998549], [-70.97862073726635, 42.4357977022744], [-70.97942297723125, 42.43470299144841], [-70.97979366400513, 42.434633207074], [-70.98075063162167, 42.43520245162504], [-70.98090538266639, 42.43501971751062], [-70.98028779835806, 42.4345617280606], [-70.98019446723194, 42.434203445770535], [-70.98034864632432, 42.4338130828588], [-70.9829722739376, 42.431930368068954], [-70.98352783344961, 42.43182145181452], [-70.98380530384601, 42.43197911967067], [-70.98402219279573, 42.43241672736391], [-70.98788358489972, 42.43467284764529], [-70.9888720502599, 42.435042977825276], [-70.9908484110884, 42.43538708750227], [-70.99193011483824, 42.436115464042], [-70.9929799930071, 42.43634009707761], [-70.99387643456103, 42.436802057148306], [-70.99347450722745, 42.437097381519564], [-70.99347463172862, 42.43748450150228], [-70.99384535438945, 42.437505262538316], [-70.99480232925707, 42.43647977234928], [-70.9954194542802, 42.43622589904328], [-70.99548131922877, 42.436017418182544], [-70.99486332199086, 42.43592918238211], [-70.99372152966986, 42.436273588259205], [-70.99338094467873, 42.43600031886713], [-70.99236168862379, 42.4356756685071], [-70.9951386907067, 42.43345631294518], [-70.99560158675621, 42.43265596837174], [-70.99701249556162, 42.43108046323508], [-70.99748359555734, 42.43093847565635], [-70.99771733733694, 42.43117863214537], [-70.99745288833951, 42.43169570119935], [-70.99850346445555, 42.43206489465226], [-70.99949543786792, 42.432162614815475], [-71.0008609565317, 42.43192040320878], [-71.00129388902825, 42.43156160509796], [-71.00262173392088, 42.43098891978458], [-71.0030545914752, 42.430396042266445], [-71.00475235230923, 42.43034821536912], [-71.00481450144017, 42.43005026538323], [-71.00467961258444, 42.43003505564241], [-71.00949391220468, 42.42629587682459], [-71.00819400314357, 42.425495834762735], [-71.01039405436198, 42.42409627451803], [-71.01259390543342, 42.421996141045646], [-71.01409397937981, 42.420096139254056], [-71.01339403116144, 42.419695934003066], [-71.01479396594523, 42.41789621792581], [-71.01442193848101, 42.4177877409008], [-71.01489392594695, 42.416695889648814], [-71.01639404296122, 42.41719623074426], [-71.01679408190383, 42.416595847871015], [-71.01889601111421, 42.41719714913852], [-71.0191950356919, 42.41659577311958], [-71.02008596955815, 42.41669627111952], [-71.0245840962768, 42.41763491019771], [-71.02949592358658, 42.418997070457124], [-71.03039599863048, 42.41779718431295], [-71.03071004866742, 42.41705010738951], [-71.03089593819237, 42.417097004413634], [-71.03099605625525, 42.41639688198869], [-71.03081399469649, 42.41634606198734], [-71.03080796046629, 42.415010809253985], [-71.03109606598794, 42.41509694718383], [-71.03099198342946, 42.41428514539899], [-71.03196107316707, 42.414545107123004], [-71.0318230844959, 42.41433691879072], [-71.03257000398828, 42.41393820412846], [-71.03219491487427, 42.41339594931752], [-71.02729498502615, 42.408996062104315], [-71.0271950460143, 42.40649624325743], [-71.02639496420636, 42.406296016947884], [-71.02589500890393, 42.40639580302863], [-71.02489503439793, 42.40589596136298], [-71.0232950908751, 42.405496034583024], [-71.0226950862109, 42.40509573530181], [-71.02229402658327, 42.40539622881157], [-71.02179405132617, 42.40479602695184], [-71.02036305585844, 42.40480020040402], [-71.02139391940095, 42.40399592501124], [-71.0209939934323, 42.403495729273715], [-71.01889399263682, 42.403596129135174], [-71.01819400186709, 42.40329610723169], [-71.01779391972292, 42.40269574294194], [-71.01616600455436, 42.40261913856812], [-71.0135939501277, 42.40289695026077], [-71.01338908437974, 42.40268395480323], [-71.01158943951798, 42.402037692321024], [-71.01089003190617, 42.401349943143686], [-71.00987136431179, 42.40103444841861], [-71.01024229036847, 42.40048741658668], [-71.01076733720711, 42.4002083108575], [-71.01360663389114, 42.39954625800429], [-71.01521197817392, 42.39943712019945], [-71.01697161999341, 42.39843338720218], [-71.01678727305247, 42.39737365319772], [-71.01780640312047, 42.39687883256736], [-71.0179607875574, 42.396344372424394], [-71.01848531718744, 42.39607423218437], [-71.0190731667303, 42.394839360914716], [-71.01897995837072, 42.39454356517259], [-71.01805446142544, 42.39406422939973], [-71.0176227810043, 42.39355882329673], [-71.01771667626592, 42.39291776323515], [-71.01830322310086, 42.39172734121314], [-71.01879740448044, 42.390926466214275], [-71.02018617550182, 42.390793846682946], [-71.02040219760492, 42.39060962593501], [-71.01984676387207, 42.39013353384836], [-71.01978557217518, 42.389720272107915], [-71.02154552702687, 42.38797767193642], [-71.02342878400162, 42.386629993529105], [-71.02379929167162, 42.38601089231369], [-71.02697822871008, 42.384739408698586], [-71.02929228794457, 42.384779283932325], [-71.02919964913326, 42.38560041660643], [-71.03105109186467, 42.38590113353813], [-71.031328611053, 42.38540091723104], [-71.03222420249828, 42.38560993977294], [-71.03237809754916, 42.38581425517962], [-71.03530861223837, 42.386356734595076], [-71.03703629048756, 42.38692975423242], [-71.0379927336659, 42.38684075675649], [-71.03820841222051, 42.38698060424007], [-71.03898026617611, 42.38688579344273], [-71.03898081993525, 42.38670573847907], [-71.03919624435696, 42.38659406571233], [-71.04036877398583, 42.38677093538683], [-71.04184961991155, 42.38642966882656], [-71.04255939431681, 42.38578653782235], [-71.04271400291275, 42.38545067054208], [-71.04376330746537, 42.38521569776021], [-71.04512013298616, 42.38588503089866], [-71.04552178161472, 42.38652638363848], [-71.04771232575483, 42.38739703874229], [-71.04897744555866, 42.38752748213535], [-71.04900804607982, 42.38712134837017], [-71.04931592671659, 42.387160816877035], [-71.04944013561096, 42.38746514959714], [-71.05126027483865, 42.387144221310734], [-71.05212489172636, 42.38737209875346], [-71.05329597440007, 42.38853970683832], [-71.05320378943068, 42.388829690730965], [-71.05264850494778, 42.3896141568611], [-71.05178435805776, 42.39038616395356], [-71.05085810276803, 42.3906818967188], [-71.0501489151391, 42.3914601230098], [-71.04937662622491, 42.39171705825451], [-71.04885224971609, 42.392122382137906], [-71.04875998268135, 42.39292552396139], [-71.04953093560476, 42.39416362163268], [-71.04983937214514, 42.39405004247502], [-71.05027204625948, 42.39338496158511], [-71.05054986577073, 42.39239854805841], [-71.05104368137, 42.39193964289197], [-71.0526168414477, 42.391487750579024], [-71.05471540844331, 42.38928906893335], [-71.05542515268972, 42.388258174185516], [-71.0560120818365, 42.38782492776683], [-71.05949812997767, 42.38828453031109], [-71.06030049797043, 42.38873830419246], [-71.0613494247195, 42.388692792186546], [-71.06172018573548, 42.38853271656046], [-71.06496010975637, 42.389059862123574], [-71.06662654246092, 42.38903857951373], [-71.0696186952244, 42.38967832092103], [-71.07026729540684, 42.389567646988134], [-71.07048155994597, 42.389675918369825], [-71.06890782385858, 42.391880228828136], [-71.06712312396533, 42.39369829002313], [-71.0669411283404, 42.394058843746535], [-71.06695175683129, 42.39458498649951], [-71.06716230513025, 42.39493295016912], [-71.06747150866828, 42.39506352842688], [-71.06774898211063, 42.395005489995725], [-71.06903320779713, 42.393976107115826], [-71.06958916815151, 42.3944339560729], [-71.07020610679149, 42.394549359995594], [-71.07205789936265, 42.392930688702194], [-71.073353097981, 42.39326747750819], [-71.0734769367536, 42.39358922496518], [-71.07193493839975, 42.39503126584847], [-71.0717191696203, 42.39567416485418], [-71.0720580436162, 42.39571312488907], [-71.07249017362466, 42.39526402729858], [-71.07286025110962, 42.39512248176772], [-71.07390958187821, 42.39503127968069], [-71.0742488921359, 42.39528686530206], [-71.0742487898778, 42.395583958038365], [-71.07338561968521, 42.39578838881144], [-71.07347806644525, 42.39629120143682], [-71.07394043842422, 42.396084724054106], [-71.07437223406995, 42.396698513679034], [-71.07428012990208, 42.39848298146679], [-71.07381806758082, 42.39962631663871], [-71.07397205322566, 42.40065883409934], [-71.07236804879217, 42.40223681691266], [-71.07165804690877, 42.40225893425434], [-71.07122587766005, 42.40250996625739], [-71.07131862007589, 42.40268811720533], [-71.07221386629632, 42.40280735951962], [-71.07218246595109, 42.40298786161246], [-71.07171999630022, 42.403284359506], [-71.07209055218685, 42.40358395581034], [-71.0720903575888, 42.40380902521875], [-71.07175071246573, 42.40415774593086], [-71.0712878808244, 42.40559759666219], [-71.07134911934317, 42.40605584226264], [-71.07178232084057, 42.4068046872205], [-71.07162779301045, 42.40781580158799], [-71.07227585124865, 42.40809279702053], [-71.07255326105197, 42.40875384500066], [-71.07230691708077, 42.41000994484813], [-71.0716288374312, 42.41049076059673], [-71.07085672472164, 42.411567093926685], [-71.07159796244363, 42.4115450974475], [-71.07162879233765, 42.41259797566023], [-71.07138177517459, 42.41305282215175], [-71.07230754044117, 42.413144042832684], [-71.07258542244226, 42.41337352066014], [-71.0727597200569, 42.414885509847345], [-71.07109695963848, 42.41479717595829], [-71.06229598544185, 42.41549608568941], [-71.06079606420941, 42.415795904561314], [-71.05909608706567, 42.416796029707456], [-71.05889598787525, 42.41709573102945], [-71.05469503532717, 42.420096051588146], [-71.05439495610479, 42.419896266599956], [-71.05249505414588, 42.421296143693525], [-71.05048891850426, 42.422458126311696], [-71.04959506712186, 42.42269601966216], [-71.03662595952788, 42.423683808190816], [-71.02809604236693, 42.42409704838041], [-71.02679497169632, 42.42659616983122], [-71.02619598116213, 42.42729704856851], [-71.02519496813173, 42.4296961037356], [-71.02269494229641, 42.43359578343871], [-71.02239494048943, 42.434495941514776], [-71.02179507059982, 42.4350960744297], [-71.02089497466189, 42.4371961660774], [-71.02009509206965, 42.438296236052075], [-71.0229949625643, 42.44149582241315], [-71.02329506504357, 42.44209574792693], [-71.02469509258749, 42.44379573910304], [-71.02529496560146, 42.44489598527226], [-71.02479492217853, 42.44539582583753], [-71.02349507593776, 42.44609604476614], [-71.02309491450146, 42.44659572844334], [-71.02239501920165, 42.446996263312386], [-71.0202949151801, 42.44889611534809], [-71.01849500618609, 42.45009609628697], [-71.01829500725049, 42.449596170906915], [-71.01679491115353, 42.44819615082886], [-71.01459507814648, 42.44559579831468], [-71.01459499670376, 42.44869611743452], [-71.0148960617342, 42.4507972742018], [-71.01639503456052, 42.455695997724696], [-71.01559492567525, 42.45559585640993], [-71.01319494643373, 42.455696021747904], [-71.01069509637884, 42.45669598533282], [-71.01029508033322, 42.45759624565759], [-71.00959495391132, 42.45819588670434], [-71.00889507192335, 42.458396028801936], [-71.0081950358609, 42.458395855462896], [-71.00819509151069, 42.458095952548675], [-71.00709496263391, 42.458195906898034], [-71.00709508437947, 42.45759610101755], [-71.00639505718823, 42.45759591673967], [-71.0063949545926, 42.4571958577393], [-71.00409503442592, 42.45719610716174], [-71.0043949995072, 42.45639615548699], [-71.00399493588684, 42.456396121471435], [-71.00342501491387, 42.455240191169985], [-71.00209493127538, 42.455695839283344], [-71.00159502533002, 42.45609598679934], [-71.00089508580916, 42.454596251799735], [-71.00059500377557, 42.453196151028685], [-70.99979491829149, 42.45319605521749], [-70.9996939912771, 42.45279612034962], [-71.00019499194985, 42.45249614103793], [-70.99989398060744, 42.452296211497746], [-71.00076204106881, 42.451817768098586], [-71.00044701527212, 42.45079627900904], [-71.00129493975258, 42.45079601490133], [-71.00119504534443, 42.4500961817032], [-70.99909406848695, 42.45009606623449], [-70.99569398392563, 42.44979595413565], [-70.99389401996481, 42.450395744184995], [-70.99199409629556, 42.45229596215357], [-70.99449404756682, 42.45369619687381], [-70.99559407669666, 42.45419617005714], [-70.99649402122382, 42.454395917126035], [-70.99469403937259, 42.45519603033912], [-70.99319392350979, 42.45519619168554], [-70.99289395056724, 42.45569621134266], [-70.99099395451158, 42.455696270918345], [-70.99149394661886, 42.45609572508652], [-70.99129397480829, 42.45679593015497], [-70.99049408832938, 42.45789579241206], [-70.98949404956288, 42.45759596246531], [-70.98899392951812, 42.45939597941583], [-70.9883939719678, 42.460196247339645], [-70.98859407872632, 42.459695796397405], [-70.98809396411653, 42.458396056270175], [-70.9872940870153, 42.458596185667794], [-70.98631938574627, 42.459432473396184]]]]}}