{"type": "Feature", "properties": {"district_name": "Second Worcester District", "chamber": "senate", "vintage": "2022-present"}, "geometry": {"type": "Polygon", "coordinates": [[[-71.895135, 42.192425], [-71.87621800000001, 42.214982000000006], [-71.86601, 42.225983000000014], [-71.856632, 42.22667600000002], [-71.835261, 42.22878200000001], [-71.83536, 42.23035300000001], [-71.833866, 42.231901], [-71.833771, 42.233392999999985], [-71.832965, 42.23746099999999], [-71.83267100000002, 42.23830900000001], [-71.832081, 42.23923400000002], [-71.832149, 42.239794000000025], [-71.83342, 42.24202600000001], [-71.833325, 42.242850000000004], [-71.832761, 42.24383700000002], [-71.833183, 42.244113], [-71.833523, 42.244982], [-71.833049, 42.24412000000001], [-71.832728, 42.24387899999999], [-71.831702, 42.24510699999999], [-71.829185, 42.244125], [-71.826158, 42.243603000000014], [-71.824925, 42.24358399999999], [-71.823937, 42.243952], [-71.823603, 42.244437], [-71.819264, 42.24716199999998], [-71.818536, 42.246638], [-71.816916, 42.247595999999994], [-71.814882, 42.24576499999999], [-71.813923, 42.24503000000001], [-71.813665, 42.245036], [-71.814661, 42.24357400000002], [-71.81201, 42.24361400000002], [-71.810968, 42.243829000000005], [-71.812283, 42.24140899999998], [-71.811313, 42.242066000000015], [-71.810188, 42.24248000000001], [-71.806755, 42.24271400000001], [-71.80567, 42.242931999999996], [-71.804783, 42.24329500000001], [-71.80384, 42.24396699999999], [-71.802981, 42.242064], [-71.80191, 42.240493000000015], [-71.797002, 42.236437], [-71.796691, 42.236658999999996], [-71.796854, 42.23703], [-71.796522, 42.237591], [-71.795855, 42.23739699999998], [-71.79611100000001, 42.237795], [-71.796279, 42.238778999999994], [-71.796722, 42.239609], [-71.795464, 42.239607000000014], [-71.795021, 42.240717], [-71.795844, 42.240899], [-71.795339, 42.242142], [-71.794757, 42.24201699999998], [-71.794454, 42.242739], [-71.795541, 42.24313200000002], [-71.794152, 42.244999], [-71.795415, 42.245573], [-71.794834, 42.246461], [-71.794709, 42.24843099999999], [-71.794825, 42.25019799999999], [-71.795537, 42.251654], [-71.797232, 42.254055999999984], [-71.794638, 42.25658100000001], [-71.794034, 42.257481], [-71.793669, 42.258370000000006], [-71.793482, 42.259557999999984], [-71.793699, 42.26363800000001], [-71.793346, 42.26734999999999], [-71.791594, 42.267144000000016], [-71.791763, 42.265743], [-71.791255, 42.26512699999999], [-71.79034800000001, 42.26503100000001], [-71.790227, 42.264398], [-71.788175, 42.264544], [-71.78151000000001, 42.26798400000001], [-71.782514, 42.26907599999999], [-71.77942400000002, 42.270672], [-71.777883, 42.270628999999985], [-71.778196, 42.273500000000006], [-71.766942, 42.27370699999998], [-71.75474, 42.274387000000004], [-71.758541, 42.296220999999996], [-71.768267, 42.31126], [-71.767239, 42.31144299999999], [-71.767199, 42.313226], [-71.756514, 42.31213500000001], [-71.741419, 42.31731799999999], [-71.741745, 42.315726], [-71.731824, 42.317927000000005], [-71.730213, 42.32113799999999], [-71.698673, 42.33240599999999], [-71.695477, 42.330268000000004], [-71.697643, 42.329179], [-71.697589, 42.327552], [-71.690965, 42.328959], [-71.691139, 42.326904999999975], [-71.689537, 42.325973000000005], [-71.687879, 42.32550200000001], [-71.689715, 42.318819999999995], [-71.684362, 42.311370999999994], [-71.680421, 42.30517100000001], [-71.676996, 42.286148000000004], [-71.670115, 42.27876299999999], [-71.642704, 42.28819599999999], [-71.643012, 42.289262], [-71.64235, 42.290549], [-71.63797300000002, 42.292626000000006], [-71.637691, 42.293192000000005], [-71.637648, 42.294305], [-71.637161, 42.294515999999994], [-71.636996, 42.29487199999999], [-71.63697800000001, 42.29555700000001], [-71.637165, 42.296204], [-71.634937, 42.296682000000004], [-71.634181, 42.297025], [-71.634325, 42.298314], [-71.633209, 42.30056099999998], [-71.580033, 42.305892], [-71.542738, 42.269743], [-71.542937, 42.26718], [-71.550115, 42.266023], [-71.550755, 42.26625500000001], [-71.551729, 42.26632599999999], [-71.552012, 42.266979], [-71.55251, 42.26749699999999], [-71.554498, 42.26788400000001], [-71.554861, 42.26754799999999], [-71.555284, 42.26746], [-71.555463, 42.26783399999999], [-71.555813, 42.26776999999999], [-71.556584, 42.268134], [-71.557291, 42.26779299999998], [-71.557285, 42.26759400000001], [-71.557729, 42.26767200000001], [-71.557879, 42.267400000000016], [-71.558335, 42.267390999999996], [-71.558581, 42.267867999999986], [-71.559781, 42.26758200000002], [-71.560584, 42.267864], [-71.562194, 42.267651], [-71.586759, 42.25954500000002], [-71.599318, 42.225958999999996], [-71.62107, 42.230869999999996], [-71.644438, 42.226625999999996], [-71.637276, 42.18323899999999], [-71.649218, 42.18170099999999], [-71.64129, 42.174875], [-71.640854, 42.17468], [-71.646299, 42.172871000000015], [-71.642168, 42.165662], [-71.67901, 42.165789000000004], [-71.691418, 42.163108], [-71.69520400000002, 42.17578899999999], [-71.718614, 42.17296700000001], [-71.723535, 42.191484], [-71.733961, 42.18677499999999], [-71.733771, 42.183504000000006], [-71.740533, 42.179206], [-71.74415, 42.18243499999999], [-71.829591, 42.14486], [-71.824853, 42.15533200000002], [-71.83048, 42.156082], [-71.834105, 42.154989999999984], [-71.834485, 42.157257], [-71.825488, 42.15992000000001], [-71.825959, 42.165820000000004], [-71.831504, 42.16425300000001], [-71.834924, 42.159829000000016], [-71.858096, 42.160706000000005], [-71.875802, 42.170120000000004], [-71.895135, 42.192425]]]}}