{"type": "Feature", "properties": {"district_name": "Norfolk and Plymouth District", "chamber": "senate", "vintage": "2022-present"}, "geometry": {"type": "Polygon", "coordinates": [[[-71.093189, 42.21393600000002], [-71.053021, 42.229173], [-71.06109, 42.242383999999994], [-71.032078, 42.25834900000001], [-71.03138800000002, 42.25921200000001], [-71.041672, 42.26642699999999], [-71.04185, 42.267550000000014], [-71.041635, 42.26839], [-71.042782, 42.277102], [-71.041594, 42.27809799999999], [-71.04049400000001, 42.281898000000005], [-71.039293, 42.28379899999999], [-71.03789400000001, 42.284898], [-71.03529400000001, 42.288798], [-71.041294, 42.300097999999984], [-71.041694, 42.305298], [-71.028395, 42.30879899999999], [-71.022093, 42.305598], [-71.015393, 42.30669799999998], [-71.009991, 42.30518], [-71.002093, 42.308697999999985], [-70.998593, 42.31199800000001], [-70.988693, 42.31359800000001], [-70.981781, 42.308382], [-70.975992, 42.300097999999984], [-70.960192, 42.29949800000001], [-70.960255, 42.29579399999999], [-70.959975, 42.295584], [-70.960257, 42.29566100000001], [-70.960392, 42.28769900000001], [-70.937691, 42.277499], [-70.938091, 42.266399], [-70.959491, 42.24779899999999], [-70.960191, 42.24679900000001], [-70.960909, 42.24609100000001], [-70.962086, 42.24642399999998], [-70.961641, 42.245782], [-70.963479, 42.245967], [-70.962194, 42.24645499999999], [-70.96541, 42.24679099999998], [-70.967, 42.244582], [-70.968591, 42.2404], [-70.967991, 42.237998999999995], [-70.960491, 42.23509899999997], [-70.960191, 42.23129899999999], [-70.960384, 42.22871499999999], [-70.960596, 42.228539000000005], [-70.960891, 42.226899], [-70.962891, 42.225499], [-70.963728, 42.224694000000014], [-70.964283, 42.224585], [-70.965414, 42.22389899999999], [-70.967022, 42.223353], [-70.968066, 42.22169000000002], [-70.968016, 42.221201], [-70.967684, 42.22066199999997], [-70.9687, 42.219877999999994], [-70.98127, 42.135511], [-70.893516, 42.169814], [-70.890291, 42.17173600000001], [-70.884311, 42.153719], [-70.847246, 42.15830799999999], [-70.847174, 42.157083], [-70.84653, 42.15650699999998], [-70.846459, 42.156003000000005], [-70.846171, 42.155679], [-70.84583100000002, 42.155598], [-70.845349, 42.154666999999996], [-70.844949, 42.15455700000001], [-70.844922, 42.15432499999999], [-70.844614, 42.15415200000001], [-70.84457, 42.153902000000016], [-70.844989, 42.15359400000001], [-70.844275, 42.152867], [-70.843501, 42.152606999999996], [-70.842934, 42.152162000000004], [-70.842703, 42.15170899999999], [-70.84258600000001, 42.15085400000001], [-70.84213, 42.150823], [-70.841327, 42.15047], [-70.841281, 42.150085999999995], [-70.840275, 42.14942299999999], [-70.840351, 42.148133], [-70.839002, 42.14741999999998], [-70.839169, 42.147056], [-70.838726, 42.146125], [-70.838606, 42.145422999999994], [-70.837467, 42.145457], [-70.83749, 42.14504800000002], [-70.837225, 42.144716], [-70.837119, 42.144203999999995], [-70.837139, 42.1429], [-70.83685, 42.142315999999994], [-70.837163, 42.141957999999995], [-70.83699500000002, 42.14129400000001], [-70.836746, 42.14090100000001], [-70.836396, 42.140884000000014], [-70.836134, 42.140606000000005], [-70.835782, 42.140548], [-70.834987, 42.139663000000006], [-70.834758, 42.138797000000025], [-70.834833, 42.138215], [-70.835, 42.13804600000001], [-70.834622, 42.137823], [-70.834892, 42.137702000000004], [-70.834736, 42.137462], [-70.834865, 42.13712700000001], [-70.834454, 42.136956], [-70.834267, 42.137109], [-70.833894, 42.13689000000001], [-70.833985, 42.136364999999984], [-70.83421900000002, 42.136237000000015], [-70.834079, 42.13616999999999], [-70.83416, 42.13586600000001], [-70.83471, 42.13545100000001], [-70.834718, 42.135096999999995], [-70.834331, 42.13487599999999], [-70.834709, 42.13444], [-70.834441, 42.134275], [-70.833511, 42.134285999999996], [-70.833358, 42.13392600000001], [-70.8329, 42.13387999999999], [-70.832351, 42.133013000000005], [-70.830482, 42.13238700000001], [-70.829479, 42.132278], [-70.829088, 42.13261899999999], [-70.828756, 42.13221900000001], [-70.828266, 42.13236100000002], [-70.827529, 42.13192100000001], [-70.826111, 42.131878000000015], [-70.825418, 42.132131], [-70.824819, 42.132079999999995], [-70.824118, 42.132802], [-70.823272, 42.132475], [-70.822794, 42.13254199999999], [-70.822547, 42.132327], [-70.822262, 42.132615999999985], [-70.82238, 42.13280900000001], [-70.822163, 42.132955], [-70.82114, 42.13319899999998], [-70.820788, 42.132983], [-70.820139, 42.13307700000002], [-70.819001, 42.13289600000001], [-70.819064, 42.132695000000005], [-70.819716, 42.132302], [-70.819772, 42.132079000000004], [-70.819088, 42.132001], [-70.818153, 42.131465999999996], [-70.817053, 42.13166499999999], [-70.81664, 42.131572999999996], [-70.816503, 42.131451999999996], [-70.816407, 42.130688], [-70.816599, 42.130084000000004], [-70.81601, 42.128554], [-70.815297, 42.128142000000004], [-70.814975, 42.12767099999999], [-70.814371, 42.127433], [-70.813904, 42.12694799999999], [-70.81173200000002, 42.126642000000004], [-70.811371, 42.12631600000001], [-70.810923, 42.1254], [-70.80952900000001, 42.124799999999986], [-70.809036, 42.124415], [-70.80914000000001, 42.122729], [-70.808996, 42.122502], [-70.808545, 42.122342], [-70.808692, 42.12164199999999], [-70.808169, 42.12096999999999], [-70.808208, 42.120177999999996], [-70.808495, 42.119857999999994], [-70.808911, 42.119975], [-70.809356, 42.119727], [-70.809178, 42.119269], [-70.809804, 42.118646999999996], [-70.810148, 42.11795599999999], [-70.809667, 42.117552999999994], [-70.809465, 42.11715100000001], [-70.809009, 42.11588700000002], [-70.80907, 42.115713000000014], [-70.80875300000001, 42.11511200000001], [-70.80873, 42.11465399999999], [-70.808313, 42.114582000000006], [-70.807391, 42.114784999999976], [-70.80679, 42.114701], [-70.806691, 42.11446599999999], [-70.805895, 42.11463200000001], [-70.804983, 42.11440100000001], [-70.805172, 42.11384400000001], [-70.805025, 42.11364300000001], [-70.80416100000001, 42.113259], [-70.804208, 42.11258699999999], [-70.80375, 42.112116], [-70.80385, 42.111477000000015], [-70.804954, 42.111172999999994], [-70.807167, 42.10846500000001], [-70.809417, 42.106767999999974], [-70.810896, 42.105107], [-70.812157, 42.104149], [-70.812278, 42.103410000000004], [-70.811968, 42.10253100000001], [-70.809883, 42.100731], [-70.809885, 42.10046200000001], [-70.810536, 42.10023399999999], [-70.810623, 42.10000800000001], [-70.80961100000002, 42.099388999999995], [-70.809817, 42.098982], [-70.810316, 42.098834000000004], [-70.810717, 42.09831600000001], [-70.811166, 42.098043], [-70.813176, 42.098186999999996], [-70.814103, 42.098862999999994], [-70.814937, 42.098824], [-70.816277, 42.099433999999995], [-70.81702800000001, 42.099061000000006], [-70.818601, 42.099670999999994], [-70.819482, 42.099714999999996], [-70.819649, 42.09947099999999], [-70.819864, 42.09948700000001], [-70.820592, 42.09992499999998], [-70.821025, 42.10065300000002], [-70.82175, 42.100765], [-70.823542, 42.100413], [-70.826652, 42.100326], [-70.828893, 42.099622999999994], [-70.831448, 42.098516999999994], [-70.833717, 42.097935000000014], [-70.834162, 42.097589], [-70.835504, 42.09732199999997], [-70.835995, 42.097132], [-70.836247, 42.096774], [-70.837165, 42.09691], [-70.83791000000001, 42.096738000000016], [-70.838504, 42.09609900000002], [-70.839157, 42.09495800000001], [-70.84008, 42.094538000000014], [-70.84059200000002, 42.094535000000015], [-70.8419, 42.09493999999999], [-70.843157, 42.094743000000015], [-70.844731, 42.095003000000005], [-70.845142, 42.09516499999999], [-70.845405, 42.09548200000001], [-70.846571, 42.095859], [-70.847401, 42.096335999999994], [-70.84835, 42.09622000000002], [-70.850642, 42.094927999999996], [-70.851153, 42.094953], [-70.852084, 42.09531900000001], [-70.853039, 42.095264], [-70.853573, 42.09544700000002], [-70.854537, 42.09482299999999], [-70.855137, 42.094166], [-70.854976, 42.093339], [-70.855486, 42.09242300000001], [-70.857481, 42.09137200000001], [-70.858824, 42.09104199999999], [-70.859452, 42.090667], [-70.85965800000001, 42.09023100000001], [-70.861101, 42.089653], [-70.861281, 42.089225], [-70.862187, 42.089162], [-70.863102, 42.089544999999994], [-70.864303, 42.089794000000005], [-70.864512, 42.090412], [-70.865295, 42.090624000000005], [-70.8657, 42.09048599999999], [-70.86616, 42.08964999999999], [-70.867077, 42.08905399999999], [-70.867686, 42.08826900000002], [-70.870011, 42.087303], [-70.87433, 42.08847899999999], [-70.874653, 42.08873299999998], [-70.874945, 42.089667000000006], [-70.902412, 42.08589700000001], [-70.915908, 42.100123], [-70.946838, 42.094534], [-70.975411, 42.087467], [-70.974989, 42.08796500000001], [-70.975176, 42.088082], [-70.975373, 42.089085999999995], [-70.975788, 42.089346], [-70.975864, 42.08990000000001], [-70.975465, 42.09011900000001], [-70.975587, 42.090594], [-70.97525, 42.09069400000002], [-70.975356, 42.091229000000006], [-70.975226, 42.09170700000001], [-70.975703, 42.092348999999984], [-70.975458, 42.09283400000001], [-70.975437, 42.09418100000001], [-70.97518, 42.094816], [-70.975243, 42.09508500000002], [-70.975533, 42.09531500000001], [-70.975188, 42.09572699999999], [-70.97507200000001, 42.096228999999994], [-70.975954, 42.09830799999999], [-70.976674, 42.098707], [-70.976737, 42.09915099999999], [-70.977174, 42.09978000000001], [-70.977144, 42.100253000000016], [-70.976733, 42.100534999999994], [-70.977058, 42.10109900000001], [-70.976895, 42.101199], [-70.976969, 42.101314], [-70.976688, 42.10185799999999], [-70.976725, 42.10265900000001], [-70.976855, 42.103358000000014], [-70.97742, 42.10417000000002], [-70.977374, 42.10434299999999], [-70.977603, 42.104369999999996], [-70.977875, 42.104768000000014], [-70.977364, 42.10577299999999], [-70.977479, 42.10611999999999], [-70.977925, 42.10649799999999], [-70.97813, 42.107862], [-70.978747, 42.108461], [-70.980512, 42.10902000000001], [-70.980663, 42.109255], [-70.980539, 42.10992600000001], [-70.980925, 42.110632], [-70.980818, 42.11118199999998], [-70.979873, 42.11162399999999], [-70.979301, 42.11267600000001], [-70.978863, 42.11298599999999], [-70.978774, 42.11339699999999], [-70.979117, 42.114076999999995], [-70.998594, 42.111636], [-71.001974, 42.12652599999999], [-71.021859, 42.118745], [-71.026953, 42.123734], [-71.027521, 42.126414999999994], [-71.027576, 42.12759600000001], [-71.02721, 42.13293899999998], [-71.035093, 42.13563400000001], [-71.027565, 42.15632099999999], [-71.021994, 42.16900499999999], [-71.012054, 42.16849499999999], [-71.00645, 42.168319], [-71.00433, 42.16841], [-71.0044, 42.17035], [-71.00684, 42.17032999999999], [-71.00703, 42.17302000000001], [-71.00753, 42.17421], [-71.00706, 42.17636000000001], [-71.00803, 42.17827999999999], [-71.00705, 42.17851999999999], [-71.00632, 42.177740000000014], [-71.005582, 42.17729899999999], [-70.99962, 42.17634999999999], [-70.99947, 42.17587], [-70.998435, 42.17653599999999], [-70.997879, 42.177198999999995], [-70.99734, 42.17872], [-70.99667, 42.18259], [-70.99625, 42.1833], [-70.99509, 42.18447], [-70.99162000000001, 42.186600000000006], [-70.98695, 42.18845], [-70.98624, 42.18894000000001], [-70.98595, 42.189740000000015], [-70.98553, 42.19247000000001], [-70.984059, 42.195046], [-70.984188, 42.196235999999985], [-70.98497, 42.19771], [-70.98516, 42.19913], [-70.98693, 42.19892000000001], [-70.98722, 42.19906000000001], [-70.98724, 42.19950000000001], [-70.98694, 42.20039], [-70.98753, 42.20052000000001], [-70.98766, 42.20077], [-70.98707, 42.20286], [-70.98701, 42.20297999999999], [-70.985318, 42.20255300000002], [-70.98492, 42.202593000000014], [-70.98489, 42.204010000000004], [-70.984323, 42.20419499999999], [-70.982771, 42.205140000000014], [-70.98195, 42.205814], [-70.98117, 42.20770000000001], [-70.981139, 42.208137], [-70.981481, 42.20892], [-70.981, 42.20965999999999], [-70.98103, 42.21093], [-70.98089, 42.21144], [-70.9804, 42.21254000000001], [-70.97929, 42.214169999999996], [-70.978423, 42.217800999999994], [-70.97681, 42.21748], [-70.97665, 42.21804000000001], [-70.97616, 42.21791], [-70.97569, 42.220740000000006], [-70.97475, 42.220859999999995], [-70.97356, 42.22212999999999], [-70.97507000000002, 42.22458], [-70.97644, 42.22792], [-70.97738, 42.229119999999995], [-70.97827, 42.23063], [-70.97995, 42.23277], [-70.98039, 42.234460000000006], [-70.981151, 42.235742000000016], [-71.00217, 42.232208], [-71.01079, 42.228667999999985], [-71.033, 42.227884], [-71.044938, 42.215384], [-71.044883, 42.206483999999996], [-71.045454, 42.20627799999998], [-71.046978, 42.206561], [-71.047857, 42.20626], [-71.048928, 42.206665999999984], [-71.049741, 42.20669000000001], [-71.050275, 42.20642999999999], [-71.051896, 42.20618100000001], [-71.052152, 42.205922], [-71.05305600000001, 42.20569200000003], [-71.055194, 42.205981999999985], [-71.055591, 42.205868], [-71.055926, 42.205974], [-71.056191, 42.20583], [-71.056889, 42.205980000000004], [-71.057306, 42.205904000000004], [-71.058126, 42.206193999999996], [-71.059422, 42.20595600000001], [-71.060388, 42.20631400000001], [-71.070493, 42.204433], [-71.07411, 42.204187], [-71.074795, 42.204347], [-71.075143, 42.20473899999998], [-71.076997, 42.20452000000001], [-71.07776, 42.204789], [-71.079186, 42.20461399999999], [-71.080747, 42.204948], [-71.081612, 42.20466], [-71.082244, 42.20474900000001], [-71.082475, 42.20437400000001], [-71.08272700000002, 42.204289999999986], [-71.093189, 42.21393600000002]]]}}