{"type": "Feature", "properties": {"district_name": "Norfolk and Plymouth", "chamber": "senate", "vintage": "2001-2010"}, "geometry": {"type": "MultiPolygon", "coordinates": [[[[-70.98713241172165, 42.306413877197016], [-70.98722459015968, 42.305889860937434], [-70.98787063408501, 42.30502338501908], [-70.9903662496202, 42.30401544787972], [-70.99175243447647, 42.30373911689947], [-70.99341608545589, 42.30364686731608], [-70.99455676460913, 42.30380719323028], [-70.99600446528152, 42.30339434781778], [-70.99732891393845, 42.30274967925331], [-71.00816532038844, 42.30159298050829], [-71.00751866527861, 42.301019079934285], [-71.00530111661986, 42.300031034820556], [-71.0050855147861, 42.29971049805214], [-71.00505569405725, 42.29884663937203], [-71.00539534898535, 42.297840885507384], [-71.00539627964352, 42.29699403970722], [-71.00527345600727, 42.29646514405726], [-71.00462693427046, 42.295593563238], [-71.0045976084578, 42.2949097670045], [-71.00502914022161, 42.29431686233947], [-71.00684771578538, 42.29317679277965], [-71.00706422360547, 42.29230836377984], [-71.00734174364443, 42.29209629416399], [-71.00912912574906, 42.29156938834944], [-71.01113136739276, 42.291209925973966], [-71.01359752263127, 42.28999597761372], [-71.01498396919489, 42.28995344805338], [-71.01627779367409, 42.29045294623059], [-71.0161539780166, 42.29118448613216], [-71.01667765784424, 42.291508549871445], [-71.0163997159496, 42.29235085417919], [-71.01679927881295, 42.29319938539662], [-71.01673677073927, 42.293768002997574], [-71.01701431868742, 42.29377254630087], [-71.01723011824166, 42.29342627304776], [-71.01723082655438, 42.292786496415985], [-71.01692305600875, 42.2924228296686], [-71.01692344633507, 42.292197754889614], [-71.01756966788047, 42.29233045202102], [-71.01800159656379, 42.29221466258618], [-71.01753934879356, 42.29180871008981], [-71.01757083401046, 42.291555631316655], [-71.01834070390936, 42.29129889839844], [-71.01723169026752, 42.29095831669681], [-71.01680069780635, 42.291002082700565], [-71.01680143201412, 42.29073199400316], [-71.01720220396076, 42.29052660861656], [-71.01803394824432, 42.29050309193447], [-71.01849545930864, 42.290755987491345], [-71.0191110852093, 42.29047496979929], [-71.02028233118097, 42.29045398288263], [-71.02074501824578, 42.289400868084165], [-71.02117684087771, 42.28896995920522], [-71.02228652556283, 42.28849122736124], [-71.02234820381989, 42.28807565495748], [-71.02219393137807, 42.28778128850413], [-71.02080863632136, 42.28652690579798], [-71.01970147075237, 42.285177448808035], [-71.01951707064335, 42.28481149067359], [-71.0193634663872, 42.28350821635421], [-71.01868631805722, 42.28252066991305], [-71.01705504953848, 42.28082912232499], [-71.01594565513659, 42.28009238960797], [-71.01419141425086, 42.27911433865958], [-71.01071164904805, 42.2775814225782], [-71.00498442901811, 42.27570055669719], [-71.00181276651483, 42.274855744675605], [-70.99941846985497, 42.27313474495311], [-70.99856122493449, 42.27222000381335], [-70.9973911711367, 42.271582983738334], [-70.99705150334012, 42.27085055697604], [-70.99661832900125, 42.26911049632094], [-70.99652521741007, 42.268147880579185], [-70.99680270308609, 42.26769275151076], [-70.99680195209372, 42.267215020502576], [-70.99633935812258, 42.26684499024674], [-70.99630859386997, 42.266593330781966], [-70.9970479958437, 42.26575759370285], [-70.99600066819134, 42.265470529036286], [-70.9954154435704, 42.26547133519969], [-70.99338308172123, 42.26599300826117], [-70.99202799235162, 42.266061860450755], [-70.9879312568885, 42.26439496857128], [-70.98651312817408, 42.26336565573673], [-70.98592891896214, 42.26354704325459], [-70.98552864483622, 42.264049425736175], [-70.9841440853563, 42.26485743452547], [-70.98149513626772, 42.265245580751404], [-70.97986327764967, 42.26476947548], [-70.97798303993552, 42.263847688400396], [-70.97444164773952, 42.26326039839842], [-70.97271748928029, 42.26353327955528], [-70.97210161782331, 42.26389563962255], [-70.9710250163094, 42.26502226682313], [-70.96942436514047, 42.266302330520695], [-70.96773071859391, 42.2670788908666], [-70.96532855314217, 42.268543682843635], [-70.96311252953555, 42.26937457427368], [-70.9608949358003, 42.26978226848962], [-70.9583386867168, 42.27071781996959], [-70.9563367033817, 42.27113094471478], [-70.9541199174509, 42.272619450965124], [-70.95344244692392, 42.273468712929], [-70.95335021629454, 42.27403772199044], [-70.95415094765586, 42.27539312510757], [-70.95538384863458, 42.27861478121245], [-70.95621575797958, 42.27948358497665], [-70.95618518263667, 42.27969107463698], [-70.95553851408937, 42.28008077214096], [-70.95449071147993, 42.28026092719883], [-70.95399834730624, 42.28019725401066], [-70.95378285493179, 42.28001166550343], [-70.95307397845461, 42.27790662605594], [-70.95258077229605, 42.27713169581411], [-70.95181051512158, 42.276415086982475], [-70.95091743564933, 42.27612440889684], [-70.95042379038246, 42.27575404496055], [-70.9497153469854, 42.274838523179525], [-70.94943806217485, 42.273789454759125], [-70.94956135886736, 42.27335508185782], [-70.95048512359615, 42.27191562779382], [-70.95070068305725, 42.27097526853074], [-70.95069991740681, 42.26752481127256], [-70.95094608330896, 42.26624135230884], [-70.95223888740838, 42.26413853914347], [-70.95254628221835, 42.26260215456232], [-70.95137560226905, 42.26143290979803], [-70.95119106444919, 42.26104883120297], [-70.95128384664524, 42.26056929392287], [-70.95152958030631, 42.26040334688392], [-70.95220793988297, 42.26029235760176], [-70.95393270742268, 42.2610917250899], [-70.95479430697719, 42.26132033539338], [-70.95590311569683, 42.26140943661173], [-70.95839705151762, 42.26214091604904], [-70.95947518126466, 42.262032331423974], [-70.96006049999798, 42.26228379711479], [-70.9612615852152, 42.261479155360895], [-70.96206099500695, 42.26058258849207], [-70.96230828887315, 42.26049709146529], [-70.96421759502338, 42.2605183956597], [-70.96480206658633, 42.26031011012169], [-70.9673266636333, 42.26014966439592], [-70.96843546947689, 42.260238644617594], [-70.96920560581341, 42.26085554642652], [-70.96994550034216, 42.26096925278778], [-70.96985291006065, 42.260718425439066], [-70.96895908813163, 42.2599681596389], [-70.96649542239334, 42.25937097192901], [-70.966371930044, 42.259688321704445], [-70.96597175825315, 42.259758486429256], [-70.96449381029443, 42.25898239667434], [-70.96452431859714, 42.2587113190787], [-70.96483190859333, 42.25852593777415], [-70.96649502001615, 42.25795691305947], [-70.96652521519218, 42.25776686181625], [-70.96446172887619, 42.25724407626128], [-70.96326149075398, 42.2573369438153], [-70.96279951235022, 42.256858741551156], [-70.96150553813725, 42.25606096513474], [-70.96048856344427, 42.25587162625637], [-70.95965826559409, 42.25630887647007], [-70.95854929948817, 42.25658049928985], [-70.9573793216655, 42.25552835876866], [-70.95694740603885, 42.25479706068569], [-70.95694751152828, 42.25436490941607], [-70.95719394629879, 42.25409035291086], [-70.95867163387283, 42.253587525483034], [-70.95928810252532, 42.25310819853675], [-70.96073464416618, 42.251209707554274], [-70.9607035812619, 42.25049887424897], [-70.96094999802493, 42.25008926204069], [-70.96094880013082, 42.24913942222495], [-70.96297990392351, 42.24808656729298], [-70.96322608342872, 42.24808209162609], [-70.96414993523946, 42.248723944325626], [-70.96618204160163, 42.24940977409243], [-70.96685991724307, 42.24940673440488], [-70.96701497496346, 42.25008381702621], [-70.96729199131003, 42.250240969991665], [-70.96852348714775, 42.25017465232546], [-70.96978602154839, 42.25063008542635], [-70.9700330253822, 42.251139341718314], [-70.96990922439181, 42.2514296847419], [-70.9694793454518, 42.251752938211276], [-70.96753829911944, 42.25182216735095], [-70.96713833113179, 42.25209940962453], [-70.96716916233407, 42.252396094267816], [-70.9683095467461, 42.253286504010255], [-70.9683089487932, 42.253673636957075], [-70.96750933750361, 42.254615262537726], [-70.96747827679408, 42.254886338509046], [-70.96904930084722, 42.255417485293044], [-70.97018900573165, 42.25617226238739], [-70.97206767117092, 42.2569236756804], [-70.97391441506146, 42.25662154356243], [-70.97539349620888, 42.25660467781143], [-70.97908892076609, 42.25840525043535], [-70.98142914440356, 42.258337628764004], [-70.98287670930227, 42.25863675933254], [-70.98330747416523, 42.25817897583688], [-70.98296867166563, 42.25799569986288], [-70.98324448846306, 42.25700884695847], [-70.98370730981651, 42.2569377785006], [-70.98389193528365, 42.25724077642168], [-70.98413868642285, 42.25726326775331], [-70.9843537674783, 42.256872597301154], [-70.98330530047497, 42.255728423759756], [-70.9847835522005, 42.25513523231852], [-70.98601586883024, 42.25605063550172], [-70.98623065158175, 42.255975070097485], [-70.98589149941304, 42.254971952515014], [-70.9860452559116, 42.25476219243942], [-70.98647619884939, 42.254673526584], [-70.98656890188221, 42.25435658039856], [-70.98746094980412, 42.254241837112886], [-70.98974081343762, 42.25499475111196], [-70.99143372927355, 42.25503714944091], [-70.9922043651296, 42.255564430418744], [-70.99155753169102, 42.255773704274176], [-70.99155747416717, 42.256016788720075], [-70.99245087122881, 42.25601905338612], [-70.99288211882487, 42.25631806239408], [-70.99334456438834, 42.25629196916761], [-70.99349802011403, 42.256046185390744], [-70.99291263556536, 42.255722864807026], [-70.99272676249446, 42.255239813217116], [-70.99134095149682, 42.25439920365262], [-70.991033136691, 42.25403546313142], [-70.99069420678583, 42.25391523123168], [-70.98992392877103, 42.25398271145821], [-70.989647205813, 42.253780036439], [-70.98964654049924, 42.25254604019791], [-70.98930702543915, 42.25245281095412], [-70.98915405500586, 42.25259055376106], [-70.98906219153963, 42.25343925396047], [-70.98838433792356, 42.25350488433125], [-70.98564365456224, 42.25298564919093], [-70.98511997134865, 42.25309359042204], [-70.98317980937657, 42.25286598419833], [-70.98293397658902, 42.25266343188554], [-70.98259441259725, 42.25185837105716], [-70.98219445656459, 42.251910586791965], [-70.9817020217809, 42.25234220406497], [-70.98013175207707, 42.25268510195751], [-70.97890112832094, 42.25314768684182], [-70.97763799437541, 42.25318752530468], [-70.97674586723555, 42.25280701861863], [-70.97674475615243, 42.25147398421675], [-70.97461898802023, 42.24982232529302], [-70.97443363760364, 42.24856441077858], [-70.97403268753214, 42.24803082531797], [-70.97372461329755, 42.24791912472076], [-70.97320129036179, 42.248009006919176], [-70.97307763766547, 42.247669132744434], [-70.96922920316497, 42.24682592662783], [-70.9686138224872, 42.24725973339465], [-70.96849086020498, 42.24794678097621], [-70.9675365680264, 42.24815224513389], [-70.96642858809813, 42.24772057583366], [-70.96664355686586, 42.24719488945638], [-70.96658194202917, 42.246889620852976], [-70.96688962428502, 42.246460586082435], [-70.96741256437134, 42.246325715026], [-70.96768944747484, 42.24606872082787], [-70.96833647732699, 42.24515677211918], [-70.96848916150661, 42.24437926756326], [-70.96876584536405, 42.244212301529515], [-70.97175232911104, 42.243755104838435], [-70.9726136011316, 42.242614536818316], [-70.9728283561904, 42.24210628133588], [-70.96968841755324, 42.24213345807299], [-70.96965760872862, 42.24162970063323], [-70.97045739724503, 42.24059802773232], [-70.97322837946693, 42.24094614566686], [-70.97338172643376, 42.24071839373047], [-70.97334999920433, 42.24002556637876], [-70.97085654806305, 42.239455902177205], [-70.97110284435594, 42.238866203692254], [-70.97479693189155, 42.23918083307701], [-70.97504157221935, 42.23759795564249], [-70.97409445413953, 42.23702867056006], [-70.97370088687565, 42.237119711942576], [-70.97233255787245, 42.23687203190574], [-70.97190168071297, 42.23651048569633], [-70.97079333480856, 42.23600739232065], [-70.96805265512262, 42.23586530255562], [-70.96685249304679, 42.235435458909585], [-70.96531308738902, 42.234336098598106], [-70.96488187886015, 42.23428963575032], [-70.96414334598029, 42.23450057863737], [-70.96325072904084, 42.23421843427817], [-70.96223477578185, 42.23417260163669], [-70.96189566017675, 42.233647138942395], [-70.96177258569035, 42.23293756028301], [-70.96177253453004, 42.23216328519493], [-70.96195691737738, 42.23191656180373], [-70.96248022337288, 42.231547069258255], [-70.96291122564398, 42.23145905502977], [-70.96281875430583, 42.231046163280794], [-70.96232571568024, 42.230838469108534], [-70.96223326374982, 42.2292636013978], [-70.96263186514817, 42.22786040623185], [-70.9626314145479, 42.227310646004696], [-70.96238561308624, 42.22685595837531], [-70.96740048549287, 42.22390490774671], [-70.96816985513799, 42.22383757562644], [-70.96955425842964, 42.223191813416534], [-70.97038514389652, 42.222601439458536], [-70.97247770054977, 42.22236686592946], [-70.97232379588193, 42.22223448644885], [-70.97035377381954, 42.22205209904339], [-70.96813853831404, 42.2231711931981], [-70.96780015945838, 42.223167936312386], [-70.96795370498839, 42.22259807000859], [-70.96710737649478, 42.223176538045216], [-70.9680910333513, 42.22129886830183], [-70.96919107360341, 42.216499059525624], [-70.96919102797523, 42.2141987368104], [-70.96989094659169, 42.21189883579361], [-70.9715899517218, 42.19989917409338], [-70.9736900652932, 42.18689913096574], [-70.97388996304903, 42.18409890787941], [-70.97468999933523, 42.17809908268544], [-70.97659109798079, 42.16820079135132], [-70.97649092037078, 42.16620104112019], [-70.97669101522692, 42.16560098492773], [-70.97809093349659, 42.153500742147266], [-70.98028999435843, 42.14060110384722], [-70.98028999176098, 42.13940084794739], [-70.9809890402122, 42.13530018590967], [-70.97728898420533, 42.136900029461316], [-70.97238900165691, 42.13860002514403], [-70.96778896272195, 42.14070016558312], [-70.96030798260841, 42.14338700194235], [-70.92518993911713, 42.15730086659615], [-70.91367197260061, 42.16164404374698], [-70.89836595270708, 42.16778380350407], [-70.8930360685809, 42.16976795942403], [-70.89014805296644, 42.1715752493589], [-70.88405792438022, 42.15353090943359], [-70.89986102280798, 42.15144492530163], [-70.89099500434551, 42.122721232742286], [-70.88982892474975, 42.11959084346799], [-70.88936001780078, 42.115985851665634], [-70.8875879872329, 42.08770220655694], [-70.89498791848162, 42.0865018801928], [-70.90238702734979, 42.08590092761935], [-70.91578694976731, 42.10009984161476], [-70.92668800875799, 42.09799973492024], [-70.94675896835315, 42.09446726230445], [-70.95028807111815, 42.09369983477922], [-70.95888808695625, 42.09139990816187], [-70.96558801637578, 42.08980006690588], [-70.96748808777099, 42.08949998922171], [-70.97518797524864, 42.087400043260004], [-70.97578791625102, 42.089399857516874], [-70.97488792559489, 42.09530027199819], [-70.97678890699812, 42.10049998683438], [-70.97828907139686, 42.10780012736042], [-70.98008898969573, 42.10889996966471], [-70.98048908363474, 42.110799807233434], [-70.97838900270152, 42.113000027292735], [-70.97958905976321, 42.11399979417153], [-70.98718900197873, 42.11320013114107], [-70.99858908090474, 42.11099975843743], [-70.99988894107922, 42.116299973113], [-71.00109002155284, 42.12279999522205], [-71.0019899848619, 42.126400179666156], [-71.01248998112914, 42.12240002818857], [-71.0163569354773, 42.12063994757721], [-71.02228991508034, 42.11859913833058], [-71.02719003582334, 42.123699028212314], [-71.02779109567689, 42.12949907941248], [-71.02719104002607, 42.13259880787745], [-71.03049093899779, 42.13409904656622], [-71.03505405923013, 42.13547602438556], [-71.02920609051198, 42.150568112532895], [-71.02798391473627, 42.154276938752474], [-71.02510792492566, 42.1617591591408], [-71.0205920608859, 42.17170022310353], [-71.02059207689003, 42.173199827639266], [-71.02099206215267, 42.17370005433977], [-71.0205909831724, 42.17709879292961], [-71.01949100445852, 42.1786990176417], [-71.01999200715949, 42.18009999482807], [-71.01879208431758, 42.18239979588011], [-71.01859193357144, 42.18399984426379], [-71.01439205944361, 42.18440022567349], [-71.01179093301587, 42.184098827819625], [-71.00869196150883, 42.18599990808273], [-71.00749102114149, 42.18699918116005], [-71.00699106795872, 42.18889896727697], [-71.00689098243538, 42.189899021652714], [-71.00729100765336, 42.19019897293765], [-71.00779102526016, 42.19189879197161], [-71.00779101474086, 42.193899197167035], [-71.00519108612666, 42.195798946320586], [-71.00739091386791, 42.196699171225504], [-71.00809097647955, 42.1972992017539], [-71.00649103586919, 42.19809924346764], [-71.00739197286775, 42.19989982124683], [-71.00729092345311, 42.201899227098366], [-71.00779092231691, 42.203198961882975], [-71.00939109080224, 42.20509874154735], [-71.01419197766238, 42.208699070988686], [-71.01359191719796, 42.209098859121845], [-71.01299207885847, 42.20909912800402], [-71.0125919806789, 42.20979911597867], [-71.01129203252312, 42.210998889619034], [-71.00989207682221, 42.210098787578744], [-71.00969194476895, 42.211998733203444], [-71.00789201158179, 42.211799146625644], [-71.00819206249878, 42.21319874253019], [-71.0043909640128, 42.21369894533832], [-71.00459094471806, 42.213098845378], [-71.00389101722845, 42.21139928023529], [-71.00339106047947, 42.20929880777366], [-71.00409095654015, 42.20719902324306], [-71.0031910705486, 42.20779890773616], [-71.00129107368689, 42.20859926525481], [-70.99989208974094, 42.20880024944264], [-70.99809196855523, 42.209500266048344], [-70.99649108418497, 42.21219927859319], [-70.99589103097752, 42.211699216533425], [-70.99559091800107, 42.21119878217095], [-70.99439094556037, 42.21089920801513], [-70.99389106943545, 42.21119917431999], [-70.99389105999855, 42.21259917326291], [-70.99369206824687, 42.21329998280375], [-70.99389105056125, 42.2139991718558], [-70.99359098634115, 42.21519921303384], [-70.99379098412437, 42.21709920848857], [-70.99529099468656, 42.22039873539665], [-70.99239107327674, 42.220698805136124], [-70.99269102429629, 42.22249908227809], [-70.98329094339479, 42.222099264302074], [-70.98339108087855, 42.222399071510495], [-70.9852909955484, 42.22429884270797], [-70.98639094322297, 42.22729901998677], [-70.98719205757148, 42.22820010769448], [-70.9844910250901, 42.228899258700565], [-70.98459108973931, 42.229698740921506], [-70.98519108122738, 42.230799259637934], [-70.98502296924734, 42.23180404842174], [-70.9859909616164, 42.2315990637], [-70.98779100883492, 42.231798991428654], [-70.98959195252193, 42.23250025934984], [-70.9890920173018, 42.23409891240253], [-71.00209196102301, 42.232299139611435], [-71.00369204056841, 42.23159875835747], [-71.00639205290527, 42.23079899158561], [-71.00819296283397, 42.22959973534819], [-71.0108089346875, 42.22870778501145], [-71.0188920657228, 42.228399271528204], [-71.02009191626497, 42.22849882835708], [-71.02639300102048, 42.22800000713082], [-71.03109300737773, 42.22809920962493], [-71.03309305957629, 42.227799005762364], [-71.03379408835961, 42.226700093969754], [-71.03419304218237, 42.226499142841895], [-71.03619302621007, 42.2246987330695], [-71.03849406181901, 42.22179998786287], [-71.04449401909068, 42.21549979824967], [-71.04459409264204, 42.21149997176969], [-71.04500696307704, 42.20638780170782], [-71.04949305276693, 42.206599073892654], [-71.05539294441341, 42.20589902180562], [-71.05799301273602, 42.206699097738294], [-71.05919295596611, 42.20629913411208], [-71.0605930164671, 42.20669895672691], [-71.06949306715514, 42.204699106847954], [-71.07409396697234, 42.20459980124715], [-71.07759403179496, 42.204899155180115], [-71.08269396212205, 42.20449917211989], [-71.08369408624779, 42.205598941505365], [-71.09309394069956, 42.213998848899365], [-71.0855940940858, 42.21689915633575], [-71.0758949521971, 42.220400267895116], [-71.07349404765704, 42.22149875664667], [-71.06069299460144, 42.226299224074246], [-71.05319308971998, 42.22929926625211], [-71.0534929585785, 42.23009889968959], [-71.05709396084913, 42.23569986226529], [-71.05779401027222, 42.23729892912236], [-71.06109395028162, 42.24219916570643], [-71.04459398215107, 42.25130006949487], [-71.04391093350527, 42.25194108062906], [-71.04264807009383, 42.25239915448607], [-71.04129303067515, 42.25339872105682], [-71.03929408843824, 42.25430003162079], [-71.03809290874653, 42.25529905231663], [-71.03719296327495, 42.25559872055883], [-71.03299302119423, 42.257898889971564], [-71.03139307689884, 42.25909878792987], [-71.03249297431113, 42.26019883694068], [-71.0380930564971, 42.26379910732921], [-71.0394929878962, 42.26499876528287], [-71.04139296993797, 42.26619815299481], [-71.04169295170949, 42.26669789664605], [-71.04169408459177, 42.26779796589604], [-71.04149394006747, 42.26849771958604], [-71.04260186822738, 42.27650699900155], [-71.04200646970344, 42.27651250402189], [-71.0403738627342, 42.277838999359474], [-71.0396647185304, 42.279184368873175], [-71.03932655460633, 42.27913630966407], [-71.03957283278372, 42.277466102498025], [-71.03932741841545, 42.27703803526024], [-71.0388644668249, 42.276803222997195], [-71.03754011073241, 42.27676357394208], [-71.03723238565304, 42.27760693519855], [-71.03633905284524, 42.278046170987004], [-71.03680083350316, 42.27818195487345], [-71.03729339375126, 42.27802019687541], [-71.03831044779562, 42.27729053934304], [-71.03883342900919, 42.277397863787236], [-71.03904899694452, 42.27797042409077], [-71.03846311431728, 42.27991779829881], [-71.03895640204357, 42.27991752861641], [-71.0396342031049, 42.2804638073447], [-71.03954111794252, 42.28094284741276], [-71.03929455017989, 42.28124458674154], [-71.03938745506808, 42.28170242749195], [-71.03901667424705, 42.28217753966886], [-71.03855458852837, 42.283275183158366], [-71.03796888921106, 42.28391598490476], [-71.03642887610697, 42.28453830635432], [-71.03572023359474, 42.284604655362955], [-71.03491802619801, 42.285699783423404], [-71.03436369619381, 42.2869619046388], [-71.03365450317459, 42.28689319290818], [-71.03319278051362, 42.28661334815523], [-71.03294636099635, 42.28670800400846], [-71.03297760536753, 42.287121146286715], [-71.03266941773734, 42.287370290446454], [-71.0320220646387, 42.28744474374299], [-71.03214411192518, 42.288055197931115], [-71.03165100403709, 42.2894058975477], [-71.03131299845575, 42.28963691034505], [-71.03131209887204, 42.29114097902328], [-71.03189689838358, 42.29089634218067], [-71.03202068029441, 42.290272822508356], [-71.03282184186564, 42.2895654049599], [-71.03349932853186, 42.28972402344554], [-71.03340645989856, 42.29155407892481], [-71.03371436938747, 42.29178265605132], [-71.03433108429192, 42.29183523697272], [-71.03571490917007, 42.29574590781599], [-71.03623901653914, 42.296547606962356], [-71.03639291408835, 42.2971120432698], [-71.03747075042502, 42.29850679361058], [-71.03894869165654, 42.29994871729534], [-71.03904161815159, 42.300433002976526], [-71.03891760359816, 42.30091304202971], [-71.0386711874022, 42.30105272523071], [-71.03596013431789, 42.30132596631532], [-71.03047468174552, 42.30054123724921], [-71.03053653915232, 42.300044635063074], [-71.03035201322201, 42.299885765156226], [-71.0303519429205, 42.29958866470538], [-71.02961312645587, 42.29933130659854], [-71.02868844937883, 42.29940179229475], [-71.02844209604105, 42.30009063913664], [-71.02819548281111, 42.30020329006009], [-71.02569873821153, 42.29974285869305], [-71.02517543620536, 42.2998335411145], [-71.02483638463444, 42.30100140890895], [-71.02520552785663, 42.30148122115835], [-71.02927263659494, 42.30230991634016], [-71.0292419781941, 42.30250842010593], [-71.02461992672278, 42.30168980846463], [-71.02431171709046, 42.30127214249659], [-71.02446701159279, 42.29972032407099], [-71.02412746610062, 42.29946458241058], [-71.02033882827311, 42.298829306521306], [-71.02030810371326, 42.298532640517145], [-71.02076968627952, 42.29843440786525], [-71.02172524977212, 42.29871467045066], [-71.02375858823288, 42.29862464588298], [-71.023297377731, 42.29764196430805], [-71.0233599310463, 42.29565030011442], [-71.0226836626717, 42.29514894873444], [-71.02296124648436, 42.294369649860805], [-71.02286873655856, 42.29407385312953], [-71.0224058659553, 42.294046046097804], [-71.02098850745149, 42.29500797317765], [-71.02040227599821, 42.295856315602514], [-71.01824451698202, 42.29679485884047], [-71.01676513312965, 42.29774859604181], [-71.01617904833904, 42.29893903312886], [-71.01534624401248, 42.299556733309394], [-71.01457497051824, 42.30072331036721], [-71.01337294531858, 42.301888621272305], [-71.01337199467334, 42.30255484225844], [-71.01371002480033, 42.30305369129722], [-71.01518966319814, 42.30275721669207], [-71.01552853890891, 42.30285036446905], [-71.01568283375293, 42.30321676333918], [-71.01448091996991, 42.30340019210349], [-71.01164486145858, 42.30452199366939], [-71.00982673362007, 42.30454520010071], [-71.00865561497135, 42.30497965912778], [-71.00911887582254, 42.30406220375299], [-71.00979689009814, 42.303626762768744], [-71.00989030180992, 42.30296768850324], [-71.0096131096916, 42.30259400496682], [-71.00908930138885, 42.30227947518116], [-70.9971763969444, 42.3035092068712], [-70.99551268626209, 42.304466365925336], [-70.99218686029836, 42.30684821459391], [-70.99147865145216, 42.30774369908102], [-70.99123195259335, 42.30778424617219], [-70.99043038050846, 42.30730240767771], [-70.98713241172165, 42.306413877197016]]], [[[-70.94869708538693, 42.262469511189416], [-70.94900499716275, 42.262581277724315], [-70.94900517318753, 42.26314903989587], [-70.94863580803484, 42.26330876099713], [-70.94611041603186, 42.263171688593204], [-70.94749614478862, 42.26260722683622], [-70.94869708538693, 42.262469511189416]]]]}}