{"type": "Feature", "properties": {"district_name": "Hampden", "chamber": "senate", "vintage": "2001-2010"}, "geometry": {"type": "Polygon", "coordinates": [[[-72.54103103858345, 42.15749321041208], [-72.5415309648082, 42.15749317114445], [-72.54913196962708, 42.15419317522343], [-72.5501320065831, 42.15389308189524], [-72.55723203855754, 42.15069279344694], [-72.57873299867134, 42.14159325451668], [-72.5813330268682, 42.140293014048986], [-72.58793296309412, 42.13779274504116], [-72.59153304710819, 42.135993183234696], [-72.59563302553292, 42.13449317196716], [-72.60913301486478, 42.12859290320813], [-72.60841298743972, 42.12378895414434], [-72.60803299296649, 42.12289279837932], [-72.60563300134274, 42.12109324933614], [-72.6047329856352, 42.119092927140784], [-72.60253300373957, 42.11689296100575], [-72.60063298582001, 42.118292773496236], [-72.59973301561263, 42.11759291907284], [-72.59813301245188, 42.1186932416884], [-72.59653300473506, 42.117493036587796], [-72.59613299888933, 42.117593094207656], [-72.5957329976614, 42.11809326261132], [-72.59513303232396, 42.118492921527434], [-72.59443296785622, 42.11869319609744], [-72.59423300758556, 42.11899279860267], [-72.59073295875885, 42.120592858445065], [-72.5887330415602, 42.12169291456432], [-72.58803296185141, 42.12149303800067], [-72.58783298009564, 42.12109313726002], [-72.58710101076933, 42.120989224484155], [-72.58569298237374, 42.12006110466079], [-72.58493296897291, 42.118193239126875], [-72.57883204032963, 42.12019288544699], [-72.57393201932774, 42.12259288016831], [-72.56903201868691, 42.125492939238164], [-72.56723202687216, 42.12599311598418], [-72.56163203683303, 42.1283929017808], [-72.54653200559163, 42.13329316419149], [-72.54563104076131, 42.129192820971774], [-72.54563098658302, 42.12579274156902], [-72.54713202518674, 42.12429283358292], [-72.54673201982108, 42.12399317126247], [-72.5453309879544, 42.12199416303062], [-72.54453097727557, 42.12129409396828], [-72.5440310299883, 42.12149392223079], [-72.54303097384866, 42.122494018267886], [-72.54013102349572, 42.12389403284835], [-72.5377309940779, 42.12529394762845], [-72.5363309936769, 42.12679281615767], [-72.53463095883973, 42.13049300049945], [-72.53103095808655, 42.129192883337474], [-72.52993102087055, 42.129292813929474], [-72.52893099392837, 42.12409420692827], [-72.52783104740416, 42.124194118286525], [-72.52703097987549, 42.12069373618402], [-72.52613103904102, 42.12089425727529], [-72.52613098629298, 42.12039398204823], [-72.52443095589071, 42.1180940846995], [-72.52643104300391, 42.11829396230378], [-72.52893103153247, 42.117694164337166], [-72.52943096078405, 42.117294066607485], [-72.53053095556704, 42.11709397045207], [-72.53213098436179, 42.1156940984459], [-72.53433097127822, 42.115194237786916], [-72.53483103666113, 42.114794114630136], [-72.53573103993115, 42.11489402716304], [-72.53683104730234, 42.11459426458774], [-72.53723103845546, 42.11419391098833], [-72.53773096857527, 42.114394221065645], [-72.53883101711999, 42.113693766849025], [-72.53969097924427, 42.11372591959489], [-72.53978704552208, 42.11324615461745], [-72.5411310098505, 42.11199422757168], [-72.5425310372534, 42.10789373613822], [-72.54383095741758, 42.105794122925346], [-72.54643100524582, 42.10569386507946], [-72.55643202242355, 42.09869381483183], [-72.55753200931355, 42.09819407528883], [-72.56143196656606, 42.09739378890186], [-72.56355999504954, 42.097193967505014], [-72.56376803538532, 42.09698325693016], [-72.56323201399208, 42.09629380758446], [-72.56163195630127, 42.09629402033182], [-72.5566320097265, 42.0944938976546], [-72.55293197901047, 42.09339404797195], [-72.55058802427865, 42.09294118269459], [-72.54443100693338, 42.088694202057965], [-72.53303104389073, 42.09079422685459], [-72.53213098244873, 42.09109384374933], [-72.53103099358584, 42.09089385005588], [-72.52913104025365, 42.09089405878509], [-72.52913098124118, 42.09049394938355], [-72.52863104634281, 42.089994224036204], [-72.52843097813343, 42.08829372473674], [-72.52943095962888, 42.08819413750688], [-72.52833103323854, 42.08229409497158], [-72.53343102976918, 42.08159426808372], [-72.53443100998922, 42.08159424171468], [-72.53653095908896, 42.08119427222133], [-72.53963100219802, 42.080993965190075], [-72.53895502295612, 42.07625391625927], [-72.53733096465534, 42.06779483456066], [-72.536831010083, 42.06359509568004], [-72.54133098644002, 42.064195211982565], [-72.5434310252547, 42.06469493894309], [-72.55209097785847, 42.06606305181124], [-72.56103195944347, 42.06729397436475], [-72.5644320089416, 42.067993979181765], [-72.56953195077125, 42.068693770535624], [-72.57386796975048, 42.069645862706864], [-72.58053204243757, 42.07039407285962], [-72.58723299217874, 42.07159399627166], [-72.58806097516593, 42.071901831560105], [-72.5892329998754, 42.071994231575076], [-72.60583296136654, 42.04899526018181], [-72.60753299467697, 42.04329502023813], [-72.60793300843864, 42.03079521600676], [-72.6079903914567, 42.030964049060266], [-72.64010457969545, 42.03208691509848], [-72.69888713838097, 42.036965043674584], [-72.7141560960778, 42.03695371926048], [-72.71422499247454, 42.03716683788408], [-72.71283700210331, 42.0391951238149], [-72.71233698096144, 42.044293982862094], [-72.70973596150347, 42.05119395389043], [-72.70763603878812, 42.06159400148321], [-72.70573599147374, 42.07329410865245], [-72.70613596212544, 42.07349417681179], [-72.70553599679745, 42.08059407164759], [-72.6948360367725, 42.10469317562402], [-72.69403597361723, 42.10619282129629], [-72.69113596137954, 42.119892889095695], [-72.68993600462441, 42.128792925862], [-72.68623602943438, 42.1354920307115], [-72.68653602560784, 42.1384917701728], [-72.68703596849492, 42.14009212402595], [-72.68683603144196, 42.14069183732287], [-72.68713599231947, 42.14229201029787], [-72.68673597530464, 42.14369177729853], [-72.68903601120027, 42.1461918785809], [-72.68803595931415, 42.14909197750222], [-72.68653598267834, 42.15079182932296], [-72.68483604276975, 42.162991831035704], [-72.64953499731894, 42.16239175621068], [-72.64733502148465, 42.1621920730084], [-72.64573404050985, 42.162291933957164], [-72.62763404066487, 42.161991941713836], [-72.62773400533517, 42.153992100984844], [-72.6260340090461, 42.149993062650324], [-72.62253396705387, 42.1467927339781], [-72.62123404192782, 42.148793074972204], [-72.61903397799685, 42.14999296423792], [-72.61403902850856, 42.14938996387853], [-72.61143299384193, 42.15049291951221], [-72.60763298306243, 42.150093015148975], [-72.60763300482714, 42.1507930684043], [-72.60493301932604, 42.150793241964585], [-72.60193296938844, 42.15239273999016], [-72.60283298225242, 42.1535928566913], [-72.60673301776762, 42.1546931343848], [-72.60633295202669, 42.15519277333839], [-72.60603297012422, 42.15679217100133], [-72.60123300609133, 42.157892963924944], [-72.59893300186145, 42.15819303102879], [-72.59923304443005, 42.15969211387706], [-72.59933302097004, 42.16199220839241], [-72.59593300800523, 42.1657917553539], [-72.59493297548264, 42.16639218903617], [-72.5921330067755, 42.166192111000214], [-72.58983297474248, 42.16369179242203], [-72.58893304084631, 42.16429178487879], [-72.588232980999, 42.163492024228105], [-72.58693303758952, 42.162593278702275], [-72.58613297990115, 42.161792765268075], [-72.58203301846845, 42.16069311174573], [-72.58203298180332, 42.159792726673366], [-72.57583202213713, 42.15869296913332], [-72.57023202486593, 42.161093138958385], [-72.5623319561841, 42.161193068306794], [-72.55933202392166, 42.160592812131064], [-72.55563203507931, 42.157092943074815], [-72.55243204787003, 42.156692997236725], [-72.5482319787058, 42.15839324779584], [-72.54396303799058, 42.159386045007864], [-72.54193098132208, 42.1591929431697], [-72.54103103858345, 42.15749321041208]]]}}