{"type": "Feature", "properties": {"district_name": "First Hampden and Hampshire", "chamber": "senate", "vintage": "2001-2010"}, "geometry": {"type": "Polygon", "coordinates": [[[-72.34451101707614, 42.28245984912296], [-72.34342300206997, 42.28166204171562], [-72.34051595756738, 42.28136204352189], [-72.33927504298951, 42.28087199320601], [-72.33884398287128, 42.2803011773539], [-72.33859697840923, 42.279637857075684], [-72.33853499170856, 42.278175261730425], [-72.33875001467474, 42.277031951285494], [-72.33871902297972, 42.275614145804994], [-72.33834896983934, 42.27440420506311], [-72.33762602116708, 42.27387321627166], [-72.33674702856582, 42.27358082411102], [-72.3333910040498, 42.272986806919036], [-72.33280600128826, 42.27273614247754], [-72.3320669164084, 42.27211801579222], [-72.33163602276954, 42.27134121932973], [-72.33163603590457, 42.27013026474242], [-72.33237400361939, 42.268459855208775], [-72.33295793774887, 42.2675232081029], [-72.33406603094065, 42.266493843362916], [-72.33443500519157, 42.26587724415678], [-72.33443497859915, 42.26521380696503], [-72.3337580049591, 42.26434483256551], [-72.33366507130226, 42.26338495778127], [-72.33381909700672, 42.26281324928662], [-72.33412602968046, 42.262606755531586], [-72.33483409405552, 42.262516077533604], [-72.33584999648356, 42.26256101926076], [-72.33658897233236, 42.26228722386204], [-72.33729598809207, 42.26173792756033], [-72.33781895632247, 42.26100596278248], [-72.3378809987301, 42.26054915007659], [-72.33772601698551, 42.26022897193694], [-72.33643396221262, 42.259612092100035], [-72.33643396882411, 42.25938306796865], [-72.33806499344423, 42.25915396767537], [-72.33831096355318, 42.258994049764546], [-72.33837204298587, 42.25865091162426], [-72.33646402532993, 42.25785114468126], [-72.33658603805246, 42.25670794837512], [-72.3347069875584, 42.25085590159224], [-72.33447000423232, 42.24918017504343], [-72.33480606022601, 42.24773999802775], [-72.3341819420779, 42.24657183904446], [-72.33354200963689, 42.24588378648068], [-72.3337500513222, 42.245276232645395], [-72.33458196984316, 42.245116003754504], [-72.33490208312496, 42.24479574248818], [-72.33488592790489, 42.24390001888356], [-72.33458205563676, 42.24319602207446], [-72.33459801510374, 42.24182006924544], [-72.33435803905644, 42.241179756527565], [-72.3333819266731, 42.23962812810215], [-72.33285396658736, 42.23764388895474], [-72.33290204637579, 42.2346037536613], [-72.33367000412443, 42.233131742136464], [-72.33395807113996, 42.2306677690128], [-72.33382991360111, 42.22937220324133], [-72.33459799055669, 42.22876395153568], [-72.33555801252285, 42.22761183893216], [-72.33534999389416, 42.22670006507329], [-72.33655003579076, 42.22393176262028], [-72.33654998896193, 42.22313214276511], [-72.3355099862503, 42.2221082601509], [-72.33539804025824, 42.22169210215331], [-72.33563803200792, 42.22015582618914], [-72.33632604823836, 42.219356257489004], [-72.3370939987757, 42.219036098958405], [-72.3401339575963, 42.219035827682546], [-72.34237396108986, 42.21860411985583], [-72.34355797445895, 42.217979808667195], [-72.34555802825925, 42.216411986568986], [-72.3459739819788, 42.215836073731126], [-72.34602198492212, 42.21541987122996], [-72.34541400088948, 42.21263608445359], [-72.34557402706528, 42.211772258092495], [-72.34607000714598, 42.21095603633643], [-72.34690197530637, 42.21009175235388], [-72.34923795635028, 42.20991579839986], [-72.34957401940201, 42.20900395675053], [-72.35134998797731, 42.20732401792044], [-72.35237396120402, 42.20690788050236], [-72.35347796331016, 42.20695594464601], [-72.35386197298682, 42.207291844241375], [-72.35477499097712, 42.20873179660747], [-72.35594301436542, 42.20902020411216], [-72.35707901957474, 42.20866790164612], [-72.35912701558708, 42.20607589039769], [-72.35983103558816, 42.205484824653716], [-72.36051903397924, 42.205212936832304], [-72.36093503271901, 42.20521319200435], [-72.36170297734127, 42.20564522248996], [-72.3628229789562, 42.20598006365351], [-72.36282299704037, 42.206363838566524], [-72.3617830148922, 42.20694000256419], [-72.36207101413751, 42.207260277301536], [-72.36287104122586, 42.20746809646726], [-72.36357503371136, 42.20740427656399], [-72.36413498880559, 42.20716428054552], [-72.36458297410738, 42.206747868811846], [-72.36474304439265, 42.206060143832076], [-72.36445501899402, 42.20289307384114], [-72.36312696351737, 42.20162907476092], [-72.36242304095533, 42.19945326418215], [-72.36231095385997, 42.19839675464127], [-72.36277496398546, 42.19791720375197], [-72.36355896536578, 42.19753315575636], [-72.36349498258821, 42.19719713031162], [-72.36307899516319, 42.19690877161629], [-72.36171902473806, 42.19703716773017], [-72.36071096813006, 42.19690912052529], [-72.3599429982684, 42.19639717742097], [-72.35947901759735, 42.195308976580456], [-72.35887098323302, 42.19438110254919], [-72.35925500267538, 42.194092926887386], [-72.36096696612275, 42.19438114508533], [-72.36144698133747, 42.194141198145935], [-72.36144701831918, 42.19351714012915], [-72.36077498977596, 42.191052964600296], [-72.36042302556098, 42.19023684591233], [-72.35850298154301, 42.18988490229063], [-72.35802295744818, 42.18966115496771], [-72.3623749695075, 42.189308888825146], [-72.37333499841395, 42.18798121398123], [-72.37461496277797, 42.18796527023965], [-72.3955600177586, 42.18580483540367], [-72.39508000394876, 42.18406076114608], [-72.38064701685863, 42.109790152027095], [-72.38050297625797, 42.10823812438305], [-72.3766470167797, 42.08687774273826], [-72.37452599489062, 42.07754979992979], [-72.37452598166857, 42.07463315861154], [-72.36706832918178, 42.032698151132635], [-72.39745412286958, 42.033065392750615], [-72.458373217055, 42.034216190672176], [-72.50924336646274, 42.03428691106104], [-72.53162461343271, 42.034484586346714], [-72.57276987848346, 42.03020519147248], [-72.58212395754805, 42.02471692870006], [-72.60688345445787, 42.025159268862716], [-72.60795851881802, 42.030797219958615], [-72.60753299467697, 42.04329502023813], [-72.60583296136654, 42.04899526018181], [-72.5892329998754, 42.071994231575076], [-72.58806097516593, 42.071901831560105], [-72.58723299217874, 42.07159399627166], [-72.58053204243757, 42.07039407285962], [-72.57386796975048, 42.069645862706864], [-72.56953195077125, 42.068693770535624], [-72.5644320089416, 42.067993979181765], [-72.56103195944347, 42.06729397436475], [-72.55209097785847, 42.06606305181124], [-72.5434310252547, 42.06469493894309], [-72.54133098644002, 42.064195211982565], [-72.536831010083, 42.06359509568004], [-72.53733096465534, 42.06779483456066], [-72.53895502295612, 42.07625391625927], [-72.53963100219802, 42.080993965190075], [-72.53653095908896, 42.08119427222133], [-72.53443100998922, 42.08159424171468], [-72.53343102976918, 42.08159426808372], [-72.52833103323854, 42.08229409497158], [-72.52943095962888, 42.08819413750688], [-72.52843097813343, 42.08829372473674], [-72.52863104634281, 42.089994224036204], [-72.52913098124118, 42.09049394938355], [-72.52913104025365, 42.09089405878509], [-72.53103099358584, 42.09089385005588], [-72.53213098244873, 42.09109384374933], [-72.53303104389073, 42.09079422685459], [-72.54443100693338, 42.088694202057965], [-72.55058802427865, 42.09294118269459], [-72.55293197901047, 42.09339404797195], [-72.5566320097265, 42.0944938976546], [-72.56163195630127, 42.09629402033182], [-72.56323201399208, 42.09629380758446], [-72.56376803538532, 42.09698325693016], [-72.56355999504954, 42.097193967505014], [-72.56143196656606, 42.09739378890186], [-72.55753200931355, 42.09819407528883], [-72.55643202242355, 42.09869381483183], [-72.54643100524582, 42.10569386507946], [-72.54383095741758, 42.105794122925346], [-72.5425310372534, 42.10789373613822], [-72.5411310098505, 42.11199422757168], [-72.53978704552208, 42.11324615461745], [-72.53969097924427, 42.11372591959489], [-72.53883101711999, 42.113693766849025], [-72.53773096857527, 42.114394221065645], [-72.53723103845546, 42.11419391098833], [-72.53683104730234, 42.11459426458774], [-72.53573103993115, 42.11489402716304], [-72.53483103666113, 42.114794114630136], [-72.53433097127822, 42.115194237786916], [-72.53213098436179, 42.1156940984459], [-72.53053095556704, 42.11709397045207], [-72.52943096078405, 42.117294066607485], [-72.52893103153247, 42.117694164337166], [-72.52643104300391, 42.11829396230378], [-72.52443095589071, 42.1180940846995], [-72.52613098629298, 42.12039398204823], [-72.52613103904102, 42.12089425727529], [-72.52703097987549, 42.12069373618402], [-72.52783104740416, 42.124194118286525], [-72.52893099392837, 42.12409420692827], [-72.52993102087055, 42.129292813929474], [-72.53103095808655, 42.129192883337474], [-72.53463095883973, 42.13049300049945], [-72.5363309936769, 42.12679281615767], [-72.5377309940779, 42.12529394762845], [-72.54013102349572, 42.12389403284835], [-72.54303097384866, 42.122494018267886], [-72.5440310299883, 42.12149392223079], [-72.54453097727557, 42.12129409396828], [-72.5453309879544, 42.12199416303062], [-72.54673201982108, 42.12399317126247], [-72.54713202518674, 42.12429283358292], [-72.54563098658302, 42.12579274156902], [-72.54563104076131, 42.129192820971774], [-72.54653200559163, 42.13329316419149], [-72.56163203683303, 42.1283929017808], [-72.56723202687216, 42.12599311598418], [-72.56903201868691, 42.125492939238164], [-72.57393201932774, 42.12259288016831], [-72.57883204032963, 42.12019288544699], [-72.58493296897291, 42.118193239126875], [-72.58569298237374, 42.12006110466079], [-72.58710101076933, 42.120989224484155], [-72.58783298009564, 42.12109313726002], [-72.58803296185141, 42.12149303800067], [-72.5887330415602, 42.12169291456432], [-72.59073295875885, 42.120592858445065], [-72.59423300758556, 42.11899279860267], [-72.59443296785622, 42.11869319609744], [-72.59513303232396, 42.118492921527434], [-72.5957329976614, 42.11809326261132], [-72.59613299888933, 42.117593094207656], [-72.59653300473506, 42.117493036587796], [-72.59813301245188, 42.1186932416884], [-72.59973301561263, 42.11759291907284], [-72.60063298582001, 42.118292773496236], [-72.60253300373957, 42.11689296100575], [-72.6047329856352, 42.119092927140784], [-72.60563300134274, 42.12109324933614], [-72.60803299296649, 42.12289279837932], [-72.60841298743972, 42.12378895414434], [-72.60913301486478, 42.12859290320813], [-72.59563302553292, 42.13449317196716], [-72.59153304710819, 42.135993183234696], [-72.58793296309412, 42.13779274504116], [-72.5813330268682, 42.140293014048986], [-72.57873299867134, 42.14159325451668], [-72.5415309648082, 42.15749317114445], [-72.54103103858345, 42.15749321041208], [-72.54093097937692, 42.15569279521528], [-72.53843096348413, 42.15509308235405], [-72.53583098702484, 42.15719310774912], [-72.52803102527066, 42.15869323805531], [-72.5223310209123, 42.1610930737415], [-72.51613095561252, 42.160992882254625], [-72.51603101026362, 42.16119297645365], [-72.51653098979405, 42.1624929648229], [-72.51663095824053, 42.16369295551982], [-72.51883102316891, 42.173992858438396], [-72.51413103408422, 42.17459275596591], [-72.5141309997933, 42.174992860165645], [-72.51703096137331, 42.18889201771797], [-72.5171309639181, 42.19059227226697], [-72.5192310376697, 42.19799213236525], [-72.52093102184288, 42.205392133678096], [-72.52213100976398, 42.20929186956284], [-72.52283098367083, 42.21339188050272], [-72.52423102068931, 42.21889190180674], [-72.52783101688273, 42.218392081747695], [-72.54633202926598, 42.2164922112577], [-72.55197997400606, 42.234586988523], [-72.55538797872431, 42.24628301072045], [-72.5556280315645, 42.250043216226224], [-72.55633196655042, 42.256290917033105], [-72.55853198734393, 42.2802912641509], [-72.55377195211503, 42.2823467807227], [-72.54730803130127, 42.28481098965473], [-72.541435985227, 42.28626725198402], [-72.54069997898638, 42.28714727103991], [-72.54045997893502, 42.2886671128402], [-72.53999597291124, 42.28943493142996], [-72.53991596169149, 42.28975472037197], [-72.54015597619092, 42.29156283064138], [-72.5397880083886, 42.292763075445016], [-72.53853999192685, 42.29372311662346], [-72.53812401055546, 42.294233890266085], [-72.53652395876516, 42.2946670039846], [-72.5350519843977, 42.29541913079292], [-72.53324404545623, 42.29737004630103], [-72.53255601400765, 42.297738062695814], [-72.53125998444987, 42.29796184974014], [-72.52791504418451, 42.29988200921331], [-72.52772301508509, 42.30153025138666], [-72.52485904259022, 42.303034102746615], [-72.52132303858227, 42.302267086953286], [-72.50693895801119, 42.30642705954002], [-72.5035630084653, 42.305466770671316], [-72.50252300941602, 42.30532278960425], [-72.50125903605922, 42.30530680020518], [-72.5002510178982, 42.30548326990901], [-72.4995149798538, 42.30569112830961], [-72.49897101592983, 42.306043056457504], [-72.4966349897057, 42.30434704911499], [-72.4933229617689, 42.3024427898561], [-72.48785003989852, 42.30473071920783], [-72.4830340156035, 42.30545122360738], [-72.47924199744729, 42.307019258885894], [-72.4641860192412, 42.30801091247106], [-72.45829798129975, 42.28013925899996], [-72.45727402032287, 42.27978709492927], [-72.45625000053391, 42.27889077313821], [-72.45564195540321, 42.27858690126807], [-72.44789702849434, 42.27797919563728], [-72.44492104240081, 42.27738697900443], [-72.43837697647352, 42.27839500146263], [-72.43384899944242, 42.27975485464585], [-72.4328730341049, 42.27989896315797], [-72.43152895277497, 42.27973880598256], [-72.42986496464769, 42.28076292885653], [-72.42759297694953, 42.28154715699426], [-72.42597702705704, 42.28316281182558], [-72.42527302726849, 42.2836428547112], [-72.42464897513483, 42.28385102048123], [-72.42458502370592, 42.284122764392606], [-72.42432902722783, 42.283899175583564], [-72.42338497199431, 42.284139170305394], [-72.42234502674555, 42.28503492839252], [-72.42092100476908, 42.28546726531069], [-72.41688898330526, 42.28095502929464], [-72.41466503146926, 42.27951476443048], [-72.41156003001859, 42.278075263011274], [-72.41007198586618, 42.27701902905698], [-72.40887204867512, 42.27570727428873], [-72.40815195084795, 42.27401075502055], [-72.40610399677014, 42.27497116807084], [-72.40303199961077, 42.27577078560545], [-72.40184799024391, 42.2762510817444], [-72.39844002296294, 42.2785871737296], [-72.39792804220612, 42.27930695061216], [-72.3977520041664, 42.28029926713753], [-72.3974159681089, 42.280682850882314], [-72.39640802721566, 42.281211232505015], [-72.39354401799653, 42.28205905012952], [-72.39221603833106, 42.28338724916446], [-72.3913520220069, 42.283803050121605], [-72.38936795248947, 42.284266912081826], [-72.38599201106456, 42.28393117662715], [-72.38205595456382, 42.282810720922235], [-72.38087203510972, 42.282235147413175], [-72.3772720178582, 42.279723175283046], [-72.37624801618782, 42.27921104499034], [-72.36664101137579, 42.276518765411446], [-72.36236095938514, 42.27597195055268], [-72.35925198805349, 42.27606502863656], [-72.35371102727838, 42.27670676311578], [-72.35214101742967, 42.276685222472736], [-72.35075696858395, 42.27869704842907], [-72.34943396111507, 42.2797720532475], [-72.34635601178469, 42.280642217966424], [-72.34451101707614, 42.28245984912296]]]}}