{"type": "Feature", "properties": {"district_name": "First Plymouth and Norfolk District", "chamber": "senate", "vintage": "2022-present"}, "geometry": {"type": "Polygon", "coordinates": [[[-70.98127, 42.135511], [-70.9687, 42.219877999999994], [-70.967684, 42.22066199999997], [-70.968016, 42.221201], [-70.968066, 42.22169000000002], [-70.967022, 42.223353], [-70.965414, 42.22389899999999], [-70.964283, 42.224585], [-70.963728, 42.224694000000014], [-70.962891, 42.225499], [-70.960891, 42.226899], [-70.960596, 42.228539000000005], [-70.960384, 42.22871499999999], [-70.960191, 42.23129899999999], [-70.960491, 42.23509899999997], [-70.967991, 42.237998999999995], [-70.968591, 42.2404], [-70.967, 42.244582], [-70.96541, 42.24679099999998], [-70.962194, 42.24645499999999], [-70.963479, 42.245967], [-70.961641, 42.245782], [-70.962086, 42.24642399999998], [-70.960909, 42.24609100000001], [-70.960191, 42.24679900000001], [-70.959491, 42.24779899999999], [-70.938091, 42.266399], [-70.937691, 42.277499], [-70.960392, 42.28769900000001], [-70.960257, 42.29566100000001], [-70.959975, 42.295584], [-70.960255, 42.29579399999999], [-70.960192, 42.29949800000001], [-70.948991, 42.301298], [-70.937091, 42.311097999999994], [-70.927191, 42.310097999999996], [-70.917091, 42.314198000000005], [-70.905692, 42.316999], [-70.894292, 42.372398999999994], [-70.851191, 42.372499], [-70.74947, 42.37333999999999], [-70.67569, 42.375097999999994], [-70.658723, 42.375097999999994], [-70.690393, 42.27899900000001], [-70.689025, 42.27238999999998], [-70.688773, 42.268331], [-70.688704, 42.263468], [-70.68406100000001, 42.25383599999999], [-70.676029, 42.250102000000005], [-70.66281, 42.24485099999999], [-70.648622, 42.23736000000001], [-70.640113, 42.22837199999999], [-70.63633, 42.21638599999999], [-70.63633, 42.20290299999999], [-70.639165, 42.19091899999998], [-70.642946, 42.178185], [-70.624482, 42.15722500000002], [-70.62258, 42.154424], [-70.608381, 42.13847900000001], [-70.499477, 42.130739000000005], [-70.414803, 42.125097999999994], [-70.411454, 42.125099], [-70.374474, 42.12155], [-70.374474, 42.07333800000001], [-70.633127, 42.088227999999965], [-70.631049, 42.08310599999999], [-70.629803, 42.077186000000005], [-70.628724, 42.073549], [-70.626033, 42.06655999999999], [-70.622529, 42.06013200000001], [-70.614905, 42.049111], [-70.608105, 42.037786000000004], [-70.602953, 42.025846999999985], [-70.598554, 42.01367700000001], [-70.609301, 42.01358299999998], [-70.60889800000001, 42.01319999999998], [-70.612821, 42.01321499999998], [-70.612653, 42.01355099999999], [-70.6415, 42.013155000000005], [-70.64202, 42.012396999999986], [-70.643583, 42.007777], [-70.645899, 42.002459], [-70.64839, 41.997844], [-70.649808, 41.99604200000001], [-70.652348, 41.990216999999994], [-70.653511, 41.987113], [-70.662497, 41.988123000000016], [-70.66525300000002, 41.988588], [-70.667055, 41.989205], [-70.668339, 41.989996999999995], [-70.669137, 41.99087800000001], [-70.6701, 41.992642999999994], [-70.671066, 41.99651000000001], [-70.671738, 41.998325000000015], [-70.672635, 41.999658], [-70.673269, 42.00023000000001], [-70.682081, 42.001403999999994], [-70.698582, 42.00670300000001], [-70.705902, 42.004456], [-70.711225, 42.00314900000001], [-70.711264, 42.002403000000015], [-70.721793, 42.00281699999999], [-70.722223, 42.004259], [-70.722814, 42.004639999999995], [-70.724657, 42.007039], [-70.724022, 42.009288], [-70.730136, 42.01623100000001], [-70.73124000000001, 42.017707], [-70.769492, 42.022063], [-70.76987, 42.02257099999999], [-70.769636, 42.022926], [-70.769594, 42.02337200000001], [-70.76916, 42.023694], [-70.768766, 42.02489599999999], [-70.768833, 42.025467000000006], [-70.768063, 42.02669299999999], [-70.76737800000001, 42.027252000000004], [-70.766805, 42.028152], [-70.766065, 42.028499], [-70.765734, 42.030581999999995], [-70.765381, 42.031315], [-70.764308, 42.03132099999999], [-70.763126, 42.031065000000005], [-70.761169, 42.03160200000002], [-70.759635, 42.032988000000024], [-70.75926, 42.03374500000002], [-70.759229, 42.034437], [-70.759646, 42.035087999999995], [-70.760918, 42.03549400000001], [-70.760839, 42.035847000000004], [-70.761128, 42.036135000000016], [-70.761074, 42.036476], [-70.761258, 42.03683400000001], [-70.76252, 42.03740799999999], [-70.762745, 42.038064], [-70.763954, 42.038269], [-70.764588, 42.038086999999976], [-70.76499, 42.038352], [-70.765114, 42.03867900000001], [-70.764749, 42.03965800000001], [-70.765336, 42.040329], [-70.76607600000001, 42.041769], [-70.767394, 42.04259200000001], [-70.767661, 42.043157], [-70.767724, 42.04402600000001], [-70.768333, 42.04430200000001], [-70.768667, 42.045125000000006], [-70.781445, 42.04678], [-70.749716, 42.096977000000024], [-70.762328, 42.10331399999999], [-70.759468, 42.109598000000005], [-70.765907, 42.109849999999994], [-70.766549, 42.114028000000005], [-70.775978, 42.11285500000002], [-70.776169, 42.11343900000001], [-70.777281, 42.113406], [-70.775617, 42.11461399999999], [-70.775089, 42.115333], [-70.777121, 42.11675500000001], [-70.779003, 42.11558599999999], [-70.77978, 42.115862], [-70.78094, 42.116752999999996], [-70.78143, 42.116845], [-70.782603, 42.11665], [-70.782991, 42.11620300000002], [-70.782959, 42.115931999999994], [-70.78228200000001, 42.11497500000001], [-70.782077, 42.11432000000001], [-70.782142, 42.11409800000001], [-70.782928, 42.113381999999994], [-70.782892, 42.11222800000001], [-70.783007, 42.112005999999994], [-70.783777, 42.111738999999965], [-70.785199, 42.11202000000001], [-70.786326, 42.111307], [-70.786716, 42.111290999999994], [-70.787823, 42.11165100000001], [-70.788332, 42.11160400000001], [-70.788547, 42.11128299999999], [-70.787988, 42.11047800000001], [-70.788167, 42.11008299999999], [-70.788682, 42.110057000000005], [-70.789682, 42.11069000000001], [-70.790234, 42.11061799999999], [-70.7905, 42.11032899999999], [-70.790528, 42.110082999999996], [-70.78995, 42.10896299999999], [-70.790052, 42.108698], [-70.790507, 42.108691], [-70.791741, 42.10924399999999], [-70.79226, 42.10906499999999], [-70.792173, 42.108528], [-70.790935, 42.107648], [-70.789293, 42.106812], [-70.789398, 42.106516], [-70.789704, 42.10642299999999], [-70.791001, 42.10643700000001], [-70.792276, 42.10611699999998], [-70.792674, 42.10617], [-70.793718, 42.106833], [-70.795047, 42.10940699999999], [-70.798034, 42.11214999999999], [-70.798861, 42.112508], [-70.79947300000002, 42.11246], [-70.79992, 42.112061], [-70.80057, 42.109708], [-70.800978, 42.109631], [-70.802292, 42.110922], [-70.802809, 42.111227000000014], [-70.80385, 42.111477000000015], [-70.80375, 42.112116], [-70.804208, 42.11258699999999], [-70.80416100000001, 42.113259], [-70.805025, 42.11364300000001], [-70.805172, 42.11384400000001], [-70.804983, 42.11440100000001], [-70.805895, 42.11463200000001], [-70.806691, 42.11446599999999], [-70.80679, 42.114701], [-70.807391, 42.114784999999976], [-70.808313, 42.114582000000006], [-70.808782, 42.114708], [-70.80875300000001, 42.11511200000001], [-70.80907, 42.115713000000014], [-70.809009, 42.11588700000002], [-70.809465, 42.11715100000001], [-70.809667, 42.117552999999994], [-70.810148, 42.11795599999999], [-70.809804, 42.118646999999996], [-70.809178, 42.119269], [-70.809356, 42.119727], [-70.808911, 42.119975], [-70.808495, 42.119857999999994], [-70.808208, 42.120177999999996], [-70.808169, 42.12096999999999], [-70.808692, 42.12164199999999], [-70.808545, 42.122342], [-70.808996, 42.122502], [-70.80914000000001, 42.122729], [-70.809036, 42.124415], [-70.80952900000001, 42.124799999999986], [-70.810923, 42.1254], [-70.811371, 42.12631600000001], [-70.81173200000002, 42.126642000000004], [-70.813904, 42.12694799999999], [-70.814371, 42.127433], [-70.814975, 42.12767099999999], [-70.815297, 42.128142000000004], [-70.81601, 42.128554], [-70.816599, 42.130084000000004], [-70.816407, 42.130688], [-70.816503, 42.131451999999996], [-70.81664, 42.131572999999996], [-70.817053, 42.13166499999999], [-70.818153, 42.131465999999996], [-70.819088, 42.132001], [-70.819772, 42.132079000000004], [-70.819716, 42.132302], [-70.819064, 42.132695000000005], [-70.819001, 42.13289600000001], [-70.820139, 42.13307700000002], [-70.820788, 42.132983], [-70.82114, 42.13319899999998], [-70.822163, 42.132955], [-70.82238, 42.13280900000001], [-70.822262, 42.132615999999985], [-70.822547, 42.132327], [-70.822794, 42.13254199999999], [-70.823272, 42.132475], [-70.824118, 42.132802], [-70.824819, 42.132079999999995], [-70.825418, 42.132131], [-70.826111, 42.131878000000015], [-70.827529, 42.13192100000001], [-70.828266, 42.13236100000002], [-70.828756, 42.13221900000001], [-70.829088, 42.13261899999999], [-70.829479, 42.132278], [-70.830482, 42.13238700000001], [-70.832351, 42.133013000000005], [-70.8329, 42.13387999999999], [-70.833358, 42.13392600000001], [-70.833511, 42.134285999999996], [-70.834441, 42.134275], [-70.834709, 42.13444], [-70.834331, 42.13487599999999], [-70.834718, 42.135096999999995], [-70.83471, 42.13545100000001], [-70.83416, 42.13586600000001], [-70.834079, 42.13616999999999], [-70.83421900000002, 42.136237000000015], [-70.833985, 42.136364999999984], [-70.833894, 42.13689000000001], [-70.834267, 42.137109], [-70.834454, 42.136956], [-70.834865, 42.13712700000001], [-70.834736, 42.137462], [-70.834892, 42.137702000000004], [-70.834622, 42.137823], [-70.835, 42.13804600000001], [-70.834833, 42.138215], [-70.834758, 42.138797000000025], [-70.834987, 42.139663000000006], [-70.835782, 42.140548], [-70.836134, 42.140606000000005], [-70.836396, 42.140884000000014], [-70.836746, 42.14090100000001], [-70.83699500000002, 42.14129400000001], [-70.837163, 42.141957999999995], [-70.83685, 42.142315999999994], [-70.837139, 42.1429], [-70.837119, 42.144203999999995], [-70.837225, 42.144716], [-70.83749, 42.14504800000002], [-70.837467, 42.145457], [-70.838606, 42.145422999999994], [-70.838726, 42.146125], [-70.839169, 42.147056], [-70.839002, 42.14741999999998], [-70.840351, 42.148133], [-70.840275, 42.14942299999999], [-70.841281, 42.150085999999995], [-70.841327, 42.15047], [-70.84213, 42.150823], [-70.84258600000001, 42.15085400000001], [-70.842703, 42.15170899999999], [-70.842934, 42.152162000000004], [-70.843501, 42.152606999999996], [-70.844275, 42.152867], [-70.844989, 42.15359400000001], [-70.84457, 42.153902000000016], [-70.844614, 42.15415200000001], [-70.844922, 42.15432499999999], [-70.844949, 42.15455700000001], [-70.845349, 42.154666999999996], [-70.84583100000002, 42.155598], [-70.846171, 42.155679], [-70.846459, 42.156003000000005], [-70.84653, 42.15650699999998], [-70.847174, 42.157083], [-70.847246, 42.15830799999999], [-70.884311, 42.153719], [-70.890291, 42.17173600000001], [-70.893516, 42.169814], [-70.98127, 42.135511]]]}}