{"type": "Feature", "properties": {"district_name": "First Suffolk District", "chamber": "senate", "vintage": "2012-2020"}, "geometry": {"type": "Polygon", "coordinates": [[[-71.12530699999999, 42.255653], [-71.124495, 42.25806200000001], [-71.123565, 42.26220599999999], [-71.120345, 42.260630000000006], [-71.11894099999999, 42.25952699999999], [-71.11764699999999, 42.260940000000005], [-71.118957, 42.26192299999999], [-71.118038, 42.263905], [-71.118251, 42.26404499999998], [-71.115493, 42.264587], [-71.110828, 42.266065000000005], [-71.111649, 42.267483999999996], [-71.110159, 42.27070099999997], [-71.11219299999999, 42.271962999999985], [-71.110374, 42.275065], [-71.109191, 42.274363], [-71.10858, 42.275395], [-71.107742, 42.27750499999999], [-71.10743599999999, 42.27874400000001], [-71.105959, 42.28020699999999], [-71.104108, 42.281165], [-71.10051, 42.28184000000002], [-71.099632, 42.28233600000001], [-71.09806499999999, 42.281423], [-71.095396, 42.278622], [-71.093576, 42.27724799999999], [-71.09349, 42.27842100000001], [-71.093164, 42.27944099999999], [-71.093621, 42.279849999999996], [-71.093681, 42.28059000000001], [-71.093465, 42.28158899999998], [-71.094409, 42.28118], [-71.095227, 42.28130200000002], [-71.095726, 42.281470999999996], [-71.096226, 42.28194399999999], [-71.096547, 42.282573999999975], [-71.096518, 42.28311999999999], [-71.09607500000001, 42.283850000000015], [-71.095373, 42.28436800000001], [-71.094318, 42.28477699999999], [-71.096316, 42.285817999999985], [-71.096105, 42.28604299999999], [-71.093415, 42.28650999999999], [-71.09319599999999, 42.285934999999995], [-71.091258, 42.28558800000001], [-71.09114699999999, 42.28542999999999], [-71.08923300000001, 42.291222000000005], [-71.08876099999999, 42.291112000000005], [-71.088388, 42.290463], [-71.08697099999999, 42.289426], [-71.087989, 42.28834700000001], [-71.086356, 42.28774199999998], [-71.08599099999999, 42.28672999999999], [-71.08329499999999, 42.28733], [-71.08292999999999, 42.286423000000006], [-71.08106, 42.28684199999999], [-71.08055499999999, 42.28662300000002], [-71.07950699999999, 42.28768499999998], [-71.078537, 42.289335000000015], [-71.078199, 42.290774000000006], [-71.078147, 42.292022], [-71.079534, 42.292439], [-71.079276, 42.291905], [-71.07915299999999, 42.291006], [-71.078792, 42.29026], [-71.08145999999999, 42.28966199999999], [-71.08111099999999, 42.28997000000001], [-71.081937, 42.29094199999999], [-71.081446, 42.29105799999999], [-71.08061, 42.292747], [-71.083074, 42.293473], [-71.083247, 42.293856999999996], [-71.080253, 42.29443599999999], [-71.080773, 42.29575300000001], [-71.08403299999999, 42.295124], [-71.08432599999999, 42.29590799999998], [-71.08225, 42.296305], [-71.083192, 42.29861100000001], [-71.08140999999999, 42.299002], [-71.081775, 42.29981], [-71.08282100000001, 42.30041200000001], [-71.079719, 42.30125199999999], [-71.079027, 42.30299300000001], [-71.079419, 42.302839000000006], [-71.08068999999999, 42.303892], [-71.079561, 42.30462199999999], [-71.080563, 42.30543999999998], [-71.079708, 42.305873000000005], [-71.078407, 42.306152999999995], [-71.077141, 42.30532499999999], [-71.076185, 42.30504599999998], [-71.074161, 42.30491], [-71.07320899999999, 42.30537799999999], [-71.072097, 42.30556299999999], [-71.07153199999999, 42.30667199999998], [-71.07391199999999, 42.307681], [-71.072822, 42.30947099999999], [-71.069165, 42.317066999999994], [-71.067341, 42.323910999999995], [-71.066655, 42.32584500000003], [-71.06058399999999, 42.335446], [-71.060042, 42.33656399999998], [-71.059697, 42.336801], [-71.060025, 42.34059499999998], [-71.059952, 42.342320000000015], [-71.059685, 42.34321], [-71.05825, 42.345506], [-71.054469, 42.34677800000001], [-71.054788, 42.34687100000001], [-71.054771, 42.347253], [-71.05218599999999, 42.350922], [-71.05218800000002, 42.351121], [-71.049595, 42.35449699999999], [-71.049396, 42.354498], [-71.042596, 42.363797999999996], [-71.026895, 42.353097999999996], [-71.010994, 42.34269800000001], [-70.988173, 42.34344700000002], [-70.975094, 42.34349900000001], [-70.972893, 42.35359699999999], [-70.968935, 42.35592500000001], [-70.96882, 42.35586600000001], [-70.967257, 42.357069], [-70.96704799999999, 42.356953999999995], [-70.917892, 42.385997], [-70.901292, 42.384098000000016], [-70.85143599999999, 42.393209000000006], [-70.749487, 42.400819999999996], [-70.648072, 42.40562799999999], [-70.652005, 42.39293899999999], [-70.658723, 42.375097999999994], [-70.67569, 42.375097999999994], [-70.74947, 42.37333999999999], [-70.851191, 42.372499], [-70.894292, 42.372398999999994], [-70.905692, 42.316998999999996], [-70.917091, 42.314198000000005], [-70.927191, 42.310097999999996], [-70.937091, 42.311097999999994], [-70.94899099999999, 42.301298], [-70.96019199999999, 42.29949800000001], [-70.97599199999999, 42.300097999999984], [-70.981781, 42.30838199999999], [-70.988693, 42.31359800000001], [-70.998593, 42.311997999999996], [-71.002093, 42.308697999999985], [-71.00979099999999, 42.305198999999995], [-71.015393, 42.30669799999998], [-71.022093, 42.305597999999975], [-71.028395, 42.30879899999999], [-71.037094, 42.306598], [-71.04169399999999, 42.305298], [-71.041313, 42.300282999999986], [-71.03529400000001, 42.288798], [-71.03789400000001, 42.284898], [-71.039293, 42.28379899999999], [-71.04049400000001, 42.281898000000005], [-71.041594, 42.27809799999999], [-71.042794, 42.27699799999999], [-71.04469399999999, 42.276198], [-71.048794, 42.277699000000005], [-71.053094, 42.27732099999999], [-71.055494, 42.27569799999999], [-71.053395, 42.272296999999995], [-71.061593, 42.267299], [-71.063893, 42.26799800000002], [-71.064308, 42.268860000000004], [-71.064679, 42.269107999999996], [-71.06465399999999, 42.269582], [-71.065297, 42.27078700000001], [-71.065904, 42.27115900000001], [-71.067404, 42.271459], [-71.06778, 42.271421], [-71.06841399999999, 42.270806], [-71.069011, 42.27066199999998], [-71.070415, 42.27061300000001], [-71.071742, 42.270812], [-71.0724, 42.270686000000005], [-71.073042, 42.270331], [-71.07592199999999, 42.27033199999998], [-71.076972, 42.269973000000014], [-71.07976, 42.269529999999996], [-71.080809, 42.26897400000001], [-71.082323, 42.268744999999996], [-71.082968, 42.268496000000006], [-71.08551899999999, 42.269007999999985], [-71.085948, 42.26929199999999], [-71.08915, 42.26974200000001], [-71.089704, 42.26962799999999], [-71.09022999999999, 42.269141000000005], [-71.090201, 42.268417000000014], [-71.08986399999999, 42.267728000000005], [-71.090424, 42.266466000000015], [-71.092553, 42.26668999999998], [-71.09356, 42.26709599999999], [-71.094334, 42.26696999999999], [-71.095256, 42.265786], [-71.096571, 42.264511000000006], [-71.097425, 42.263039], [-71.09888, 42.262494], [-71.100298, 42.26123000000001], [-71.102691, 42.259884], [-71.103382, 42.259722000000004], [-71.10396399999999, 42.259791], [-71.105076, 42.260679], [-71.105547, 42.26085699999999], [-71.107461, 42.26065199999999], [-71.109128, 42.26127499999999], [-71.110537, 42.261064999999995], [-71.111612, 42.260578], [-71.113277, 42.258911999999995], [-71.112938, 42.258641000000004], [-71.11698, 42.255825], [-71.11937, 42.253657], [-71.120277, 42.255021], [-71.12125999999999, 42.255869], [-71.122207, 42.256024000000004], [-71.122328, 42.25673899999999], [-71.123933, 42.25657199999999], [-71.12413099999999, 42.255818999999995], [-71.12530699999999, 42.255653]]]}}