{"type": "Feature", "properties": {"district_name": "Third Bristol and Plymouth District", "chamber": "senate", "vintage": "2022-present"}, "geometry": {"type": "Polygon", "coordinates": [[[-71.347545, 41.82324600000001], [-71.345198, 41.82767599999998], [-71.335417, 41.83564500000001], [-71.34255, 41.84465599999999], [-71.33404, 41.862604000000005], [-71.34089, 41.88180400000001], [-71.338787, 41.898592999999984], [-71.300719, 41.90366099999999], [-71.222494, 41.91224400000001], [-71.208162, 41.90885199999999], [-71.193893, 41.910765], [-71.15567, 41.937999], [-71.125751, 41.96699100000001], [-71.100854, 41.993151], [-71.054718, 41.985057000000005], [-71.049485, 41.963093999999984], [-71.043908, 41.96028499999999], [-71.02605900000002, 41.949574000000005], [-71.022269, 41.94710400000001], [-71.016588, 41.943865], [-71.010567, 41.940079], [-70.999773, 41.929671], [-70.9995, 41.929819999999985], [-70.998752, 41.92982599999999], [-70.998295, 41.930214000000014], [-70.99869, 41.932138000000016], [-70.998288, 41.93378700000001], [-70.99790100000001, 41.93427400000001], [-70.997524, 41.93424300000001], [-70.996707, 41.93356499999999], [-70.995957, 41.93318600000001], [-70.99373900000002, 41.93245000000001], [-70.992609, 41.932260999999976], [-70.991521, 41.93162199999999], [-70.990037, 41.931674999999984], [-70.989546, 41.932007000000006], [-70.987902, 41.934198], [-70.987436, 41.935585999999994], [-70.987311, 41.93737], [-70.987123, 41.937616], [-70.986658, 41.937873000000025], [-70.984656, 41.938238], [-70.980529, 41.940224000000015], [-70.979717, 41.940450000000006], [-70.978749, 41.940325], [-70.976063, 41.939395000000005], [-70.974859, 41.939621], [-70.97406, 41.94014799999999], [-70.973391, 41.940052000000016], [-70.970843, 41.938982999999986], [-70.968518, 41.93850799999998], [-70.965905, 41.936823], [-70.960725, 41.935921], [-70.960429, 41.935816999999986], [-70.95931, 41.934791000000004], [-70.956929, 41.93404399999999], [-70.956095, 41.93402299999999], [-70.95496, 41.934514], [-70.954297, 41.93461500000003], [-70.952348, 41.93429400000001], [-70.949245, 41.934431], [-70.94798900000002, 41.93399700000001], [-70.947019, 41.932747000000006], [-70.94622000000001, 41.932677], [-70.943689, 41.93492499999999], [-70.942806, 41.93651100000001], [-70.942561, 41.937495000000006], [-70.940745, 41.93870999999999], [-70.939757, 41.94013700000001], [-70.938793, 41.941163000000024], [-70.938068, 41.943347], [-70.936674, 41.945453000000015], [-70.936373, 41.946306], [-70.936913, 41.94903599999999], [-70.93677600000001, 41.949980999999994], [-70.936094, 41.95183500000001], [-70.93597, 41.953334999999996], [-70.934607, 41.95483600000002], [-70.934193, 41.955763], [-70.933914, 41.95708300000001], [-70.933443, 41.95782600000001], [-70.932602, 41.958669], [-70.93127, 41.959497], [-70.929175, 41.960219], [-70.925791, 41.959768], [-70.924274, 41.959053], [-70.923596, 41.959071000000016], [-70.922778, 41.95966699999999], [-70.922683, 41.960859000000006], [-70.921789, 41.962478], [-70.92068, 41.96309300000001], [-70.92001, 41.962975], [-70.920133, 41.962301999999994], [-70.919622, 41.96206], [-70.917567, 41.961936], [-70.915205, 41.96107700000001], [-70.913994, 41.96107399999999], [-70.913548, 41.961305999999986], [-70.913434, 41.96155900000001], [-70.914439, 41.96166800000001], [-70.914832, 41.962005000000005], [-70.914153, 41.96297599999999], [-70.913435, 41.96335799999999], [-70.913025, 41.96307600000001], [-70.912483, 41.963127], [-70.910999, 41.963749], [-70.910054, 41.96396700000001], [-70.909836, 41.964431], [-70.910697, 41.965379000000006], [-70.910827, 41.966009000000014], [-70.909753, 41.966072999999994], [-70.908533, 41.966387000000005], [-70.869128, 41.94827700000001], [-70.860882, 41.95498799999999], [-70.845645, 41.942721999999996], [-70.829827, 41.92769900000002], [-70.771717, 41.946146999999996], [-70.758692, 41.947506999999995], [-70.753527, 41.933241], [-70.750718, 41.92601900000002], [-70.680699, 41.845587], [-70.682197, 41.845550999999986], [-70.682837, 41.84537100000001], [-70.683788, 41.844801999999994], [-70.685402, 41.843579], [-70.687926, 41.841232999999995], [-70.689502, 41.840091], [-70.689703, 41.839690000000004], [-70.689827, 41.838232999999995], [-70.690928, 41.83806499999999], [-70.692503, 41.836706], [-70.693733, 41.836261000000015], [-70.694192, 41.835607], [-70.694542, 41.83469899999998], [-70.694818, 41.83450200000001], [-70.694834, 41.833869000000014], [-70.695261, 41.83262400000002], [-70.695643, 41.832349000000015], [-70.695682, 41.83201499999999], [-70.696093, 41.831888000000006], [-70.696503, 41.83130000000001], [-70.697274, 41.830908], [-70.697547, 41.830324999999995], [-70.697287, 41.829840999999995], [-70.697318, 41.829481], [-70.69757, 41.82940099999998], [-70.69840400000001, 41.829676], [-70.699068, 41.829544000000006], [-70.699726, 41.829722], [-70.699986, 41.829517], [-70.699869, 41.829003000000014], [-70.700711, 41.828714], [-70.701758, 41.828751], [-70.703912, 41.829288000000005], [-70.705433, 41.829412999999995], [-70.706359, 41.82906400000001], [-70.706869, 41.82850400000001], [-70.707499, 41.827357], [-70.708287, 41.82683200000001], [-70.707867, 41.825784], [-70.708284, 41.82524200000002], [-70.708229, 41.824752000000004], [-70.708555, 41.82392599999999], [-70.709319, 41.823183], [-70.709785, 41.822965], [-70.710205, 41.822376], [-70.711309, 41.82156899999999], [-70.711873, 41.82074000000002], [-70.712629, 41.82017000000001], [-70.71247, 41.819872999999994], [-70.712788, 41.819662000000015], [-70.712796, 41.819413000000004], [-70.713056, 41.819292999999995], [-70.71308500000002, 41.81907599999999], [-70.713677, 41.81896199999999], [-70.713733, 41.818697999999976], [-70.714155, 41.81832200000001], [-70.714455, 41.818296000000004], [-70.714664, 41.81767500000001], [-70.715094, 41.81739699999999], [-70.714855, 41.817139], [-70.71476, 41.816697], [-70.714509, 41.816525], [-70.71512600000001, 41.816095999999995], [-70.71538400000001, 41.81530799999999], [-70.715898, 41.81503199999999], [-70.71586, 41.81476299999999], [-70.715518, 41.814457], [-70.715834, 41.81388599999999], [-70.715252, 41.81286599999998], [-70.715912, 41.812231], [-70.71633, 41.811251000000006], [-70.717225, 41.80985799999999], [-70.717192, 41.809399000000006], [-70.71658, 41.808486000000016], [-70.71742100000002, 41.807846000000005], [-70.71777300000001, 41.80652500000001], [-70.71778, 41.80587899999999], [-70.717608, 41.805408], [-70.716849, 41.804317000000005], [-70.716925, 41.804083000000006], [-70.71777300000001, 41.80381400000001], [-70.717849, 41.80356799999999], [-70.717666, 41.80313900000001], [-70.717788, 41.80290499999998], [-70.717641, 41.80242499999999], [-70.717837, 41.802133], [-70.717536, 41.80150999999999], [-70.631892, 41.80633], [-70.616634, 41.805410000000016], [-70.627312, 41.787843], [-70.627395, 41.787342], [-70.628123, 41.787048], [-70.629093, 41.786998000000004], [-70.63018, 41.78717499999999], [-70.630636, 41.78688], [-70.630735, 41.786588], [-70.630515, 41.785867], [-70.630042, 41.785598], [-70.629828, 41.78503200000001], [-70.630578, 41.78429400000001], [-70.630718, 41.78389200000001], [-70.630534, 41.783111], [-70.630971, 41.78203599999999], [-70.63075, 41.781612999999986], [-70.630804, 41.781155000000005], [-70.630453, 41.780617], [-70.630424, 41.780273999999984], [-70.629408, 41.77996999999998], [-70.629058, 41.779397999999986], [-70.629457, 41.77779100000001], [-70.63075, 41.777143], [-70.630908, 41.77662699999998], [-70.630194, 41.775338], [-70.630279, 41.774686], [-70.63008, 41.774486], [-70.630433, 41.77378800000002], [-70.633054, 41.77244699999999], [-70.633016, 41.77174900000001], [-70.633483, 41.77104600000002], [-70.634439, 41.770424], [-70.635371, 41.77018499999999], [-70.636007, 41.769823], [-70.63631, 41.768958999999995], [-70.635886, 41.76853], [-70.635543, 41.76705299999998], [-70.634641, 41.766262], [-70.634572, 41.765375], [-70.633968, 41.76506899999997], [-70.633791, 41.76463899999999], [-70.632877, 41.763859], [-70.632629, 41.763504000000005], [-70.63246400000001, 41.76273900000001], [-70.632126, 41.76253400000002], [-70.631471, 41.76271], [-70.63155, 41.762419], [-70.631129, 41.762158], [-70.631157, 41.761855000000004], [-70.63, 41.76125600000001], [-70.630081, 41.76089899999998], [-70.629673, 41.760217000000004], [-70.62501200000001, 41.75404000000001], [-70.625156, 41.75114399999999], [-70.621622, 41.748972], [-70.621014, 41.74830300000001], [-70.620785, 41.747530000000005], [-70.62195, 41.746058999999995], [-70.623193, 41.745614999999994], [-70.625988, 41.74496899999999], [-70.632676, 41.73788100000002], [-70.633268, 41.73546499999999], [-70.63258, 41.733656999999994], [-70.639332, 41.72904900000002], [-70.639476, 41.726473000000006], [-70.640756, 41.72485700000001], [-70.640276, 41.723609], [-70.642244, 41.71922500000001], [-70.6437, 41.717465000000004], [-70.67440400000001, 41.68960899999999], [-70.676629, 41.691129], [-70.686196, 41.669800999999985], [-70.699574, 41.643719000000004], [-70.749206, 41.66850500000001], [-70.762947, 41.67759600000001], [-70.763038, 41.67733300000001], [-70.763402, 41.677281], [-70.765299, 41.677040999999996], [-70.76591, 41.67710200000001], [-70.766133, 41.677052], [-70.766074, 41.67694300000001], [-70.786075, 41.67443100000001], [-70.802937, 41.68708200000001], [-70.796188, 41.72835899999999], [-70.795003, 41.728605], [-70.793839, 41.730067999999996], [-70.793994, 41.73045599999998], [-70.793336, 41.731151], [-70.792084, 41.73202400000001], [-70.791736, 41.732585], [-70.793716, 41.734702000000006], [-70.793212, 41.743168000000004], [-70.785766, 41.747398000000004], [-70.787496, 41.74981199999999], [-70.786627, 41.756862999999996], [-70.780049, 41.762792999999995], [-70.778752, 41.761246], [-70.777963, 41.762916], [-70.776109, 41.76574999999999], [-70.77435, 41.769738000000004], [-70.774404, 41.77045700000001], [-70.775509, 41.773037], [-70.775501, 41.77627399999999], [-70.77649, 41.77997799999999], [-70.777008, 41.786436], [-70.777365, 41.787726], [-70.778259, 41.78957100000002], [-70.778491, 41.79204399999999], [-70.778359, 41.793033], [-70.777848, 41.79456599999999], [-70.777968, 41.79598], [-70.777771, 41.79676800000001], [-70.777538, 41.79708799999999], [-70.776319, 41.79792899999999], [-70.774399, 41.80051999999998], [-70.772857, 41.80209500000001], [-70.7719, 41.80559600000001], [-70.771806, 41.80891400000001], [-70.8964, 41.794320000000006], [-70.89864400000002, 41.81487700000002], [-70.893777, 41.82659100000002], [-70.893454, 41.82790100000001], [-70.893973, 41.828881], [-70.91870500000002, 41.851943], [-70.918897, 41.852728000000006], [-70.917131, 41.85577700000002], [-70.917189, 41.856527000000014], [-70.916815, 41.85720000000001], [-70.916899, 41.857502], [-70.917264, 41.85780599999998], [-70.917181, 41.85814499999999], [-70.917709, 41.85852100000001], [-70.917748, 41.858715999999994], [-70.916262, 41.85992999999999], [-70.914541, 41.859591], [-70.914116, 41.86029399999999], [-70.914382, 41.86048300000001], [-70.914321, 41.860587], [-70.913448, 41.860685], [-70.912876, 41.861726999999995], [-70.913065, 41.86192999999999], [-70.914098, 41.861943000000004], [-70.914447, 41.862132], [-70.914595, 41.86352], [-70.91361, 41.86364900000001], [-70.913508, 41.86385900000001], [-70.913827, 41.86409999999999], [-70.915349, 41.86441399999999], [-70.914689, 41.86527500000001], [-70.914928, 41.86545599999999], [-70.915936, 41.86566900000002], [-70.915988, 41.865806000000006], [-70.915093, 41.866055999999986], [-70.915041, 41.866310999999996], [-70.915509, 41.86667299999999], [-70.916738, 41.86716700000001], [-70.916472, 41.86768299999998], [-70.91492, 41.868431], [-70.914624, 41.86904500000001], [-70.913182, 41.86993699999999], [-70.912968, 41.87024399999999], [-70.913035, 41.870596000000006], [-70.914616, 41.872081], [-70.915066, 41.872316], [-70.91605800000002, 41.872350999999995], [-70.916327, 41.87257], [-70.916096, 41.874833], [-70.916611, 41.87652900000001], [-70.916411, 41.87691699999999], [-70.919205, 41.87902299999999], [-70.963344, 41.89638599999999], [-70.963492, 41.897118], [-70.964219, 41.898187000000014], [-70.964761, 41.899394], [-70.967133, 41.90125400000001], [-70.970408, 41.90132000000001], [-70.971963, 41.90172900000002], [-70.972261, 41.901644000000005], [-70.97221, 41.901456], [-70.972505, 41.90133399999999], [-70.974738, 41.90137], [-70.97513, 41.90117900000001], [-70.975369, 41.901379], [-70.975803, 41.90137300000001], [-70.976046, 41.90115], [-70.976282, 41.90115099999999], [-70.976379, 41.901339], [-70.976661, 41.901382000000005], [-70.9772, 41.902115], [-70.977862, 41.902534], [-70.977982, 41.90288400000001], [-70.978203, 41.903025], [-70.978316, 41.90352899999999], [-70.978737, 41.903892], [-70.980102, 41.903608000000006], [-70.981114, 41.90497], [-70.982452, 41.905790999999994], [-70.983494, 41.906015000000004], [-70.983802, 41.906487000000006], [-70.984095, 41.906569000000005], [-70.984874, 41.907451], [-70.985165, 41.907454], [-70.985761, 41.90689], [-70.986745, 41.90636400000001], [-70.987256, 41.905808], [-70.977163, 41.87514899999998], [-70.977169, 41.874696], [-70.973717, 41.86087899999999], [-70.978308, 41.857246], [-70.979808, 41.85647300000001], [-70.982407, 41.85558799999999], [-70.985779, 41.854057999999995], [-70.988846, 41.85113599999999], [-70.990902, 41.84979899999998], [-70.995597, 41.84722300000002], [-71.000964, 41.843459], [-71.03657, 41.816525], [-71.088462, 41.817786999999996], [-71.093149, 41.81285], [-71.093197, 41.81173499999999], [-71.092887, 41.811676999999996], [-71.093115, 41.81159099999999], [-71.093014, 41.81142599999998], [-71.093348, 41.811413], [-71.093231, 41.81119], [-71.092844, 41.811074], [-71.092973, 41.81092000000001], [-71.092617, 41.810857], [-71.092902, 41.81075300000001], [-71.093349, 41.810927000000014], [-71.093385, 41.81075300000001], [-71.093078, 41.810383], [-71.0934, 41.81026500000001], [-71.093317, 41.81003400000001], [-71.092932, 41.809901999999994], [-71.093056, 41.809554999999996], [-71.09269900000001, 41.80942100000001], [-71.093161, 41.809025999999996], [-71.092829, 41.808467000000014], [-71.091933, 41.80839699999999], [-71.091723, 41.80822400000001], [-71.091531, 41.808374], [-71.091251, 41.80830999999999], [-71.090664, 41.808848], [-71.090699, 41.80905700000001], [-71.090047, 41.809377000000005], [-71.088713, 41.80911600000001], [-71.08767300000001, 41.807959], [-71.086697, 41.80575199999999], [-71.086465, 41.80479000000001], [-71.087722, 41.802492000000036], [-71.089091, 41.801786], [-71.091044, 41.801504000000016], [-71.092814, 41.800748999999996], [-71.094111, 41.79981800000002], [-71.095443, 41.79916999999998], [-71.095943, 41.79704100000001], [-71.101604, 41.79356199999999], [-71.102031, 41.79289800000001], [-71.102611, 41.790700999999984], [-71.103084, 41.789587], [-71.104686, 41.78798499999999], [-71.10898900000001, 41.784506], [-71.111583, 41.781560999999996], [-71.114489, 41.778800999999966], [-71.11961, 41.790968000000014], [-71.124416, 41.79090199999998], [-71.124652, 41.791003999999994], [-71.125313, 41.790889], [-71.1255, 41.791064000000006], [-71.131216, 41.790713000000004], [-71.130989, 41.790534], [-71.130839, 41.790201], [-71.130947, 41.790189], [-71.153164, 41.78955299999999], [-71.171145, 41.789370000000005], [-71.176229, 41.81590400000001], [-71.193537, 41.816535999999985], [-71.187776, 41.783156000000005], [-71.283588, 41.77480200000003], [-71.292456, 41.77488000000002], [-71.316366, 41.77555899999999], [-71.328472, 41.780694000000004], [-71.328787, 41.781352], [-71.329096, 41.782719000000014], [-71.329315, 41.782593], [-71.329418, 41.781884000000005], [-71.329582, 41.781836000000006], [-71.329803, 41.782038], [-71.329896, 41.78262600000001], [-71.329663, 41.783077000000006], [-71.329854, 41.783406], [-71.329869, 41.784315], [-71.330232, 41.78471799999999], [-71.330391, 41.785381000000015], [-71.329627, 41.78701800000002], [-71.329652, 41.78773799999999], [-71.329457, 41.788327], [-71.330415, 41.78865399999999], [-71.330235, 41.78888299999999], [-71.330514, 41.789115], [-71.331059, 41.789100000000005], [-71.331035, 41.789565], [-71.331534, 41.789319], [-71.331603, 41.78962400000001], [-71.332743, 41.79016000000001], [-71.332811, 41.790580999999996], [-71.33248, 41.790655000000015], [-71.332497, 41.79084400000001], [-71.332196, 41.790977000000005], [-71.333155, 41.792572], [-71.333112, 41.793044], [-71.333572, 41.793192], [-71.333442, 41.793366000000006], [-71.333917, 41.793568999999984], [-71.333678, 41.79378299999999], [-71.334154, 41.793938], [-71.334229, 41.794244], [-71.334112, 41.79438799999999], [-71.334421, 41.794449], [-71.334645, 41.794835], [-71.335304, 41.795028], [-71.33561, 41.795457999999996], [-71.336191, 41.795505], [-71.336463, 41.795731], [-71.336875, 41.795744], [-71.337223, 41.79548399999998], [-71.337887, 41.795572000000014], [-71.337913, 41.795725000000004], [-71.338838, 41.79593500000001], [-71.339157, 41.796338000000006], [-71.340097, 41.796633], [-71.340224, 41.796745], [-71.340103, 41.79709499999999], [-71.340481, 41.797033], [-71.34036, 41.797558], [-71.339842, 41.79774799999999], [-71.340043, 41.79821599999998], [-71.340777, 41.79840100000002], [-71.341201, 41.799774], [-71.340801, 41.80002300000001], [-71.340635, 41.80052599999999], [-71.340596, 41.80089900000001], [-71.340808, 41.801051000000015], [-71.340643, 41.801258000000004], [-71.340745, 41.801674], [-71.340339, 41.80238400000001], [-71.340597, 41.802606], [-71.340511, 41.80322599999999], [-71.340185, 41.80379899999999], [-71.33990700000001, 41.80390400000002], [-71.339231, 41.80516], [-71.339088, 41.805782999999984], [-71.339675, 41.80634], [-71.33942, 41.806732999999994], [-71.33942800000001, 41.807328000000005], [-71.33922, 41.80766900000002], [-71.339195, 41.80799], [-71.339379, 41.808077999999995], [-71.339332, 41.80852700000002], [-71.347545, 41.82324600000001]]]}}