{"type": "Feature", "properties": {"district_name": "Second Middlesex & Norfolk District", "chamber": "senate", "vintage": "2012-2020"}, "geometry": {"type": "Polygon", "coordinates": [[[-71.602221, 42.218101], [-71.586759, 42.25954500000002], [-71.564917, 42.26689400000001], [-71.56219399999999, 42.267651], [-71.56058399999999, 42.267864], [-71.55983499999999, 42.267582999999995], [-71.559483, 42.267754999999994], [-71.55872099999999, 42.267803000000036], [-71.558506, 42.26749699999999], [-71.558122, 42.267407], [-71.557113, 42.26780300000002], [-71.556859, 42.26807899999999], [-71.555605, 42.267855], [-71.55545099999999, 42.267587999999996], [-71.554596, 42.267805], [-71.552903, 42.267604], [-71.55222599999999, 42.267312999999994], [-71.55176300000001, 42.26635799999999], [-71.55148799999999, 42.266234000000004], [-71.550755, 42.26625500000001], [-71.55011499999999, 42.266023], [-71.54814, 42.26603099999999], [-71.547748, 42.265661000000016], [-71.547186, 42.26563299999997], [-71.546971, 42.26526], [-71.546601, 42.26550700000001], [-71.545917, 42.26521999999999], [-71.546078, 42.264906], [-71.545994, 42.26478200000001], [-71.544901, 42.264514], [-71.544624, 42.264847999999986], [-71.54437, 42.26485000000001], [-71.544131, 42.264714999999995], [-71.54417, 42.264448999999985], [-71.543716, 42.26398599999998], [-71.542993, 42.263917000000006], [-71.54251599999999, 42.26408500000001], [-71.5417, 42.26398099999997], [-71.541223, 42.263334], [-71.540054, 42.262716], [-71.53963, 42.262780000000014], [-71.539061, 42.263180000000006], [-71.53839099999999, 42.264203], [-71.53790599999999, 42.264615], [-71.537052, 42.264643000000014], [-71.53514299999999, 42.265058999999994], [-71.53197999999999, 42.266127999999995], [-71.52797, 42.26642400000001], [-71.52654, 42.266333], [-71.525054, 42.26582600000001], [-71.523646, 42.265889000000016], [-71.523146, 42.265998999999994], [-71.52259099999999, 42.26641199999999], [-71.52097499999999, 42.26651], [-71.520152, 42.266839], [-71.519205, 42.267544], [-71.51748800000001, 42.26778499999999], [-71.516426, 42.267556], [-71.515002, 42.267704], [-71.51328699999999, 42.267268999999985], [-71.51171699999999, 42.266367], [-71.511464, 42.266056999999996], [-71.510256, 42.26610600000001], [-71.510102, 42.265834999999996], [-71.510295, 42.26549800000001], [-71.510226, 42.26523399999999], [-71.50879499999999, 42.264517000000005], [-71.507926, 42.26430200000001], [-71.50761000000001, 42.264026], [-71.50608799999999, 42.264423000000015], [-71.505928, 42.266578], [-71.505882, 42.272937999999996], [-71.486125, 42.310885000000006], [-71.485585, 42.314076], [-71.485007, 42.320994000000006], [-71.485187, 42.322061], [-71.485109, 42.323164], [-71.486796, 42.33018899999998], [-71.48329799999999, 42.353129999999986], [-71.415469, 42.343683999999996], [-71.396704, 42.340883], [-71.394932, 42.33888799999998], [-71.394825, 42.338454000000006], [-71.394971, 42.336526000000006], [-71.39485599999999, 42.336065999999995], [-71.39429299999999, 42.335556], [-71.392681, 42.33568899999999], [-71.391212, 42.336960999999995], [-71.389938, 42.337465999999985], [-71.38902399999999, 42.337568999999995], [-71.38853999999999, 42.33743299999999], [-71.388345, 42.336948], [-71.388832, 42.336269], [-71.381757, 42.32846899999999], [-71.37768700000001, 42.314668999999995], [-71.374935, 42.31155699999999], [-71.374426, 42.31118300000001], [-71.373981, 42.310405999999986], [-71.373395, 42.30985500000002], [-71.37177, 42.309880000000014], [-71.37074900000002, 42.310199], [-71.370425, 42.310848], [-71.369723, 42.31121900000001], [-71.369117, 42.311977000000006], [-71.368753, 42.312837], [-71.36675699999999, 42.31395], [-71.36518, 42.31523900000001], [-71.364093, 42.31590600000001], [-71.363171, 42.31581099999998], [-71.35991, 42.317149], [-71.355199, 42.31717], [-71.345998, 42.314803999999995], [-71.345888, 42.31492900000001], [-71.34553, 42.31485299999999], [-71.346057, 42.314755], [-71.346093, 42.314012999999996], [-71.347032, 42.313158000000016], [-71.347726, 42.311691], [-71.347372, 42.310123], [-71.348038, 42.30953399999998], [-71.349018, 42.309355000000004], [-71.348553, 42.30788200000001], [-71.351248, 42.30687700000003], [-71.352749, 42.30659099999998], [-71.352522, 42.304956999999995], [-71.351012, 42.30510400000001], [-71.34937599999999, 42.305552000000006], [-71.34943500000001, 42.303535000000004], [-71.349088, 42.30304299999998], [-71.34907799999999, 42.30110599999999], [-71.359887, 42.29993300000002], [-71.35949, 42.299015999999995], [-71.35916, 42.297432], [-71.350725, 42.296699000000004], [-71.35003999999999, 42.296243], [-71.34976499999999, 42.295078], [-71.348164, 42.293915000000005], [-71.348319, 42.290945999999984], [-71.347605, 42.285889], [-71.347634, 42.285247999999996], [-71.347276, 42.28378299999999], [-71.34729, 42.280741000000006], [-71.35145399999999, 42.275978999999985], [-71.35493799999999, 42.271545], [-71.352546, 42.269633999999996], [-71.351643, 42.26855099999999], [-71.35146399999999, 42.266073999999996], [-71.35073299999999, 42.264443], [-71.350428, 42.26295199999999], [-71.350624, 42.261156], [-71.350464, 42.259133], [-71.354796, 42.259716000000004], [-71.356304, 42.25959300000001], [-71.356534, 42.260176999999985], [-71.356526, 42.26128999999999], [-71.356939, 42.261780999999985], [-71.35646, 42.262632999999994], [-71.356656, 42.263314], [-71.35690699999999, 42.263495], [-71.37683299999999, 42.269489], [-71.390365, 42.27191600000001], [-71.397769, 42.261527999999984], [-71.419298, 42.25728099999999], [-71.418429, 42.246900999999994], [-71.41931699999999, 42.241543], [-71.420075, 42.23812300000001], [-71.419826, 42.238145], [-71.41984699999999, 42.238006000000006], [-71.41969499999999, 42.237989999999996], [-71.418733, 42.23811], [-71.417407, 42.23787600000001], [-71.417197, 42.237480000000005], [-71.415989, 42.236357], [-71.415452, 42.23564800000001], [-71.414492, 42.235326], [-71.413715, 42.23454999999999], [-71.41340000000001, 42.233697], [-71.413595, 42.232662000000005], [-71.413203, 42.23200800000002], [-71.413032, 42.23133200000001], [-71.413228, 42.22958899999998], [-71.412807, 42.228909], [-71.412598, 42.22796400000003], [-71.41234899999999, 42.227609], [-71.411265, 42.226856999999995], [-71.410324, 42.22650799999998], [-71.410056, 42.22599099999999], [-71.409615, 42.225586], [-71.409301, 42.22455700000001], [-71.409311, 42.22431799999999], [-71.409908, 42.22388200000001], [-71.40920899999999, 42.222906], [-71.409134, 42.222097], [-71.409502, 42.220949999999995], [-71.409263, 42.220541000000004], [-71.41028399999999, 42.21959199999999], [-71.410083, 42.219151000000004], [-71.410186, 42.218753], [-71.408256, 42.218444999999996], [-71.407961, 42.217656], [-71.407331, 42.218164], [-71.40195299999999, 42.21541999999999], [-71.40376599999999, 42.214842999999995], [-71.403701, 42.21438099999999], [-71.402469, 42.213452], [-71.402278, 42.21313199999998], [-71.40115399999999, 42.21295800000001], [-71.40010099999999, 42.211723], [-71.398805, 42.211227999999984], [-71.398095, 42.21077499999999], [-71.39753, 42.21008899999999], [-71.397302, 42.20949900000001], [-71.397323, 42.20874200000001], [-71.397131, 42.208562], [-71.39711299999999, 42.20822400000002], [-71.39731499999999, 42.207926999999984], [-71.393923, 42.20708899999999], [-71.391706, 42.20974200000001], [-71.38848899999999, 42.20800499999999], [-71.388206, 42.204302999999996], [-71.38018199999999, 42.201758999999996], [-71.38482599999999, 42.19189099999999], [-71.404381, 42.188215], [-71.402185, 42.178640000000016], [-71.385358, 42.151512], [-71.375618, 42.13545399999999], [-71.376834, 42.13561], [-71.37822, 42.135429], [-71.378989, 42.13579099999999], [-71.37967900000001, 42.135682], [-71.379978, 42.135160000000006], [-71.379994, 42.13459100000001], [-71.379218, 42.13344099999998], [-71.37953399999999, 42.13313799999998], [-71.380248, 42.132966], [-71.380231, 42.132636000000005], [-71.38075800000001, 42.132756], [-71.38109299999999, 42.1326], [-71.381029, 42.13226399999999], [-71.380417, 42.131578], [-71.380398, 42.131375999999996], [-71.38074499999999, 42.13101299999998], [-71.381743, 42.13086600000001], [-71.381841, 42.13028800000001], [-71.38218700000002, 42.129858000000006], [-71.382072, 42.129715999999995], [-71.38132399999999, 42.129586999999994], [-71.380798, 42.12907100000001], [-71.38051399999999, 42.128051], [-71.380074, 42.127384], [-71.379982, 42.126549999999995], [-71.37396799999999, 42.117098], [-71.37335, 42.11475], [-71.37366, 42.11153], [-71.37648, 42.11193000000001], [-71.37687, 42.11074000000001], [-71.38132499999999, 42.11196399999999], [-71.3823, 42.11203], [-71.37978, 42.10883000000001], [-71.39471999999999, 42.10719000000001], [-71.395723, 42.11242499999999], [-71.395849, 42.113907], [-71.396202, 42.11394], [-71.396689, 42.114943999999994], [-71.397132, 42.114734999999996], [-71.39771, 42.11517999999999], [-71.39799, 42.114360000000005], [-71.39854, 42.114149999999995], [-71.39936999999999, 42.11422000000001], [-71.40128, 42.11504], [-71.40186, 42.11484000000001], [-71.40232, 42.11404], [-71.40414, 42.11458], [-71.40598, 42.114440000000016], [-71.40652, 42.11588999999999], [-71.40714, 42.1167], [-71.40737, 42.11802], [-71.40732, 42.118710000000014], [-71.40760999999999, 42.11905999999999], [-71.40838, 42.11949], [-71.40953, 42.120920000000005], [-71.40991799999999, 42.122649], [-71.410288, 42.12284999999999], [-71.41157, 42.12285999999999], [-71.411333, 42.12378899999999], [-71.41147, 42.12451000000001], [-71.41273, 42.123949999999994], [-71.41721, 42.12356999999999], [-71.42304, 42.120990000000006], [-71.42824999999999, 42.11987], [-71.42914, 42.11931999999999], [-71.4299, 42.11766], [-71.43002, 42.11647999999999], [-71.42988, 42.11390999999999], [-71.428936, 42.11049100000002], [-71.42904899999999, 42.10835], [-71.42851999999999, 42.10478], [-71.42654, 42.10355999999999], [-71.42358, 42.10259], [-71.42126999999999, 42.10620000000001], [-71.41537, 42.10595], [-71.41456, 42.105639999999994], [-71.41412000000001, 42.10523], [-71.4114, 42.10539000000001], [-71.41058, 42.10559000000001], [-71.40836, 42.10391], [-71.40693999999999, 42.102439999999994], [-71.40643, 42.101670000000006], [-71.40765, 42.10117999999999], [-71.40885399999999, 42.09942300000001], [-71.40972, 42.09905199999998], [-71.41090799999999, 42.09889800000002], [-71.41183, 42.09854000000001], [-71.41232, 42.09781], [-71.410319, 42.09722600000002], [-71.408716, 42.096357000000005], [-71.40371, 42.09139999999999], [-71.40319, 42.09064000000001], [-71.40205, 42.08948999999999], [-71.40111, 42.08954000000001], [-71.40113, 42.0891], [-71.40088, 42.08830999999999], [-71.39970000000001, 42.08583000000002], [-71.39716, 42.082789999999996], [-71.39719199999999, 42.08250300000001], [-71.412154, 42.07267899999999], [-71.40923, 42.070663999999994], [-71.41066, 42.06907], [-71.41301, 42.065729999999995], [-71.41341, 42.06475999999999], [-71.414413, 42.06309099999999], [-71.41485999999999, 42.06191], [-71.41517999999999, 42.060359999999974], [-71.4161, 42.058949999999996], [-71.41618799999999, 42.058592], [-71.417123, 42.05805600000001], [-71.41884, 42.056702], [-71.41996, 42.056197999999995], [-71.42429, 42.05553], [-71.43105, 42.05618], [-71.43083, 42.05755999999999], [-71.43041199999999, 42.057832999999995], [-71.42988799999999, 42.057819], [-71.429778, 42.057969], [-71.42975799999999, 42.059059000000005], [-71.430184, 42.05954200000002], [-71.43043899999999, 42.060401], [-71.42894799999999, 42.06072999999999], [-71.428797, 42.061129], [-71.42808, 42.06146800000002], [-71.42842499999999, 42.062034999999995], [-71.432053, 42.060108], [-71.434405, 42.05922899999998], [-71.437523, 42.05838999999998], [-71.438863, 42.05820400000001], [-71.441437, 42.058066000000004], [-71.44328399999999, 42.058176], [-71.45206, 42.059177999999996], [-71.45485699999999, 42.059008], [-71.45496, 42.06312800000001], [-71.455872, 42.063187], [-71.45527400000002, 42.07275300000001], [-71.453698, 42.072621], [-71.45197399999999, 42.08373300000001], [-71.44659, 42.102137], [-71.44400999999999, 42.117312], [-71.442553, 42.13165000000001], [-71.44197500000001, 42.131709999999984], [-71.441761, 42.13188199999998], [-71.442414, 42.13213], [-71.44206799999999, 42.132747], [-71.442252, 42.133136], [-71.44203399999999, 42.133525], [-71.44275999999999, 42.134085000000006], [-71.442529, 42.13447899999999], [-71.441816, 42.134605999999984], [-71.441346, 42.13489200000001], [-71.441885, 42.135287999999996], [-71.442345, 42.13533199999999], [-71.44247899999999, 42.135726], [-71.44294099999999, 42.135762000000014], [-71.461441, 42.13364099999999], [-71.478521, 42.13142099999998], [-71.478028, 42.165743000000006], [-71.492429, 42.16608600000001], [-71.497378, 42.166643000000015], [-71.50262599999999, 42.191416], [-71.506894, 42.188927], [-71.539498, 42.189733999999994], [-71.555568, 42.182592], [-71.555898, 42.18280999999999], [-71.555522, 42.183453000000014], [-71.55512999999999, 42.184961], [-71.555414, 42.184852], [-71.55561399999999, 42.184968999999995], [-71.555475, 42.18543599999999], [-71.55578299999999, 42.185748000000004], [-71.556951, 42.185938000000014], [-71.556698, 42.18651600000001], [-71.55635099999999, 42.186816000000015], [-71.556382, 42.187252], [-71.556136, 42.187892999999995], [-71.556544, 42.18810400000001], [-71.556167, 42.188329], [-71.556067, 42.188497999999996], [-71.55618199999999, 42.18871599999999], [-71.55582900000002, 42.18898500000001], [-71.555752, 42.190018], [-71.556029, 42.190447999999996], [-71.556029, 42.191438999999995], [-71.556204, 42.191857000000006], [-71.57233800000002, 42.192228000000014], [-71.572129, 42.19349], [-71.57154799999999, 42.19465299999999], [-71.58291000000001, 42.195558999999996], [-71.602221, 42.218101]]]}}