{"type": "Feature", "properties": {"district_name": "Norfolk, Bristol, and Middlesex", "chamber": "senate", "vintage": "2001-2010"}, "geometry": {"type": "Polygon", "coordinates": [[[-71.3905500487333, 42.35493100713812], [-71.39172695001761, 42.36097524661299], [-71.38996096153119, 42.365517162807], [-71.38829889121035, 42.36402897654704], [-71.38683603899624, 42.361599045367896], [-71.38592995603075, 42.361389960813334], [-71.38330510905342, 42.36279176223551], [-71.38395999120291, 42.36583480251416], [-71.3843050323262, 42.36593980740269], [-71.38731499599547, 42.36563107443087], [-71.38892702230822, 42.36516618594178], [-71.3896300292079, 42.36547577054885], [-71.38924214161234, 42.365787118900116], [-71.38885201806359, 42.36650583944316], [-71.38904295326108, 42.36698598431272], [-71.38981997901209, 42.36761186146109], [-71.3900240710976, 42.36718611298439], [-71.38975294375777, 42.365694768487934], [-71.39001300060244, 42.36558923481139], [-71.39026191824452, 42.366983215024796], [-71.39003500505383, 42.367662145165724], [-71.38955497920524, 42.36837121636207], [-71.3874230287667, 42.36983772670665], [-71.38828309139146, 42.371042122925225], [-71.38844192508027, 42.37165784128304], [-71.38813199414521, 42.372166759248536], [-71.38679794831238, 42.373451161454526], [-71.3875030590867, 42.37486416139997], [-71.38822899307947, 42.375461864501794], [-71.3875720921244, 42.3753042387677], [-71.38467203733192, 42.37647116386698], [-71.38333790836299, 42.3765817904511], [-71.38317695087979, 42.37816273606312], [-71.38337307601303, 42.379013132548835], [-71.38386894223179, 42.37988521302022], [-71.38367907457213, 42.38057823292604], [-71.38155793572386, 42.382868955835605], [-71.37852693356365, 42.38450204416173], [-71.37822795544756, 42.38575198367135], [-71.37774892347348, 42.386102019820385], [-71.37701592585609, 42.387367811235556], [-71.37606893498425, 42.38762393576347], [-71.37532397080949, 42.38810027590794], [-71.3747420678115, 42.38825325306342], [-71.37410692457438, 42.38817322328356], [-71.3732639242021, 42.38756292518688], [-71.3730169349217, 42.387811916114266], [-71.37277292641713, 42.38940681846727], [-71.37237596390037, 42.38968208752219], [-71.37194093520218, 42.38963715319608], [-71.37057894912037, 42.38893397884049], [-71.36916204987801, 42.39020626304134], [-71.36873005300735, 42.39034587601682], [-71.36751300660649, 42.39039399615576], [-71.36575106456802, 42.38976795209611], [-71.36526893764811, 42.389920997696045], [-71.36480505607533, 42.3901477725802], [-71.36516698850022, 42.390921869462346], [-71.36497397303121, 42.39146687094524], [-71.36516099171924, 42.39168709443786], [-71.36453698459779, 42.39242177186046], [-71.36385505838507, 42.39255094392714], [-71.36286394437627, 42.39209119057302], [-71.36226494875808, 42.39221988936049], [-71.36238303793886, 42.39350291919694], [-71.36199307364427, 42.39540821616545], [-71.36236798468484, 42.395971897892395], [-71.36493908071805, 42.39598619763841], [-71.36624503124895, 42.39630675684258], [-71.36701903644666, 42.396718965565505], [-71.36968207778325, 42.39734882626461], [-71.37029196157262, 42.39803484699017], [-71.37008507500661, 42.3986912490534], [-71.36773195898255, 42.39993488151322], [-71.36847193070834, 42.40031103009042], [-71.36969206169263, 42.40042326396226], [-71.3699660873897, 42.40090184282253], [-71.36891005617521, 42.40292400303678], [-71.36880098273794, 42.40344322221777], [-71.3689879720594, 42.40370113759879], [-71.37048498469204, 42.40451420045276], [-71.37375005540758, 42.40524873505221], [-71.37510602975276, 42.40669289664828], [-71.37517995870266, 42.40722301049545], [-71.37445805321904, 42.40810673994937], [-71.37307891179269, 42.40855086065815], [-71.36992808424905, 42.40996301615803], [-71.3678350120324, 42.41064877483476], [-71.36758903217948, 42.41208385794226], [-71.36680005332207, 42.412651242090334], [-71.33235493061025, 42.39921414290752], [-71.3354040927949, 42.39359578044376], [-71.33482100945433, 42.38608103461144], [-71.33210391776733, 42.36309584268968], [-71.33206896050054, 42.361687979563136], [-71.3283659990458, 42.329777049682775], [-71.32840196939219, 42.32909626202425], [-71.3270019136308, 42.321195833586025], [-71.3268019480372, 42.317795819753094], [-71.32710201220137, 42.31369601903534], [-71.3295019431003, 42.312896096507025], [-71.3260029693048, 42.30429702045646], [-71.31860300286633, 42.30469689725163], [-71.30990199288007, 42.30559606486538], [-71.29680107062605, 42.305896061516364], [-71.29440096375188, 42.306295797971494], [-71.29410094008036, 42.30659573297943], [-71.2902010797413, 42.30719581288698], [-71.2854009190075, 42.30819583766828], [-71.27940093003723, 42.310996197660366], [-71.27860104641344, 42.3093960802677], [-71.27850106681345, 42.30839600167525], [-71.2868009284663, 42.302496221394215], [-71.28640102497893, 42.30189622166359], [-71.28630101131759, 42.30199619321586], [-71.28450096656104, 42.3009957574691], [-71.28360105629608, 42.30099575418488], [-71.280701030216, 42.30159682790437], [-71.28010101914522, 42.30019685145238], [-71.27940093597853, 42.30049710754689], [-71.27940091152287, 42.29979712983737], [-71.27990104378233, 42.29879707574825], [-71.27880109506154, 42.29889680904022], [-71.27670009429758, 42.29979697679793], [-71.27409998396695, 42.30019702601211], [-71.26378701060183, 42.30015603047577], [-71.25880096719335, 42.298098066564975], [-71.25099994403631, 42.30389675825223], [-71.24829995956445, 42.3055969306618], [-71.24579991098129, 42.30749723419676], [-71.24239905920052, 42.30959690753967], [-71.24039892818175, 42.31119717715534], [-71.2333989100744, 42.315896991439146], [-71.23169908341481, 42.316397198837464], [-71.23069901686881, 42.316497267957466], [-71.22929902140665, 42.316196882829274], [-71.22749998065657, 42.315297966640536], [-71.22609999100584, 42.31399821852424], [-71.2267989412708, 42.31229720497948], [-71.22689900110944, 42.31159690292566], [-71.22619898502255, 42.3099972181272], [-71.22689905331545, 42.30859724075913], [-71.22379896372598, 42.30719719051633], [-71.22059901672152, 42.30629703874062], [-71.21889890918159, 42.30659674145314], [-71.21689905745508, 42.30649673838103], [-71.21289898618222, 42.30579696378802], [-71.21103993328357, 42.30300701876979], [-71.21179905276098, 42.30059726104054], [-71.20809807359088, 42.29709702322377], [-71.20469807631878, 42.289396989486924], [-71.19619803032225, 42.286097178583944], [-71.1941979186731, 42.28799712712263], [-71.19109801550128, 42.286097081919365], [-71.19119795170243, 42.28269703541751], [-71.18809794241774, 42.2801970815354], [-71.19699804360594, 42.26899810095316], [-71.19829800158259, 42.26849791752809], [-71.20229794903976, 42.267197855489336], [-71.204698038329, 42.267098266929175], [-71.20749802570006, 42.26779810194775], [-71.21059807106354, 42.267297848799856], [-71.21779892623867, 42.268598135361046], [-71.21809902768229, 42.267597850797245], [-71.21809898676084, 42.26679827117403], [-71.21879908367784, 42.264898102036504], [-71.21999992175597, 42.26319890447335], [-71.2226999176241, 42.26259887835516], [-71.22490009530777, 42.26369916169923], [-71.22889897610185, 42.263997893761605], [-71.23149906649356, 42.25929824103857], [-71.23229907142442, 42.258197802130375], [-71.23689991253892, 42.25979915672002], [-71.23994901127007, 42.25928617872373], [-71.24489891282022, 42.259297845186396], [-71.24679892575328, 42.258097897835846], [-71.24859892910169, 42.255597889617306], [-71.2515989869414, 42.25529775406201], [-71.25289992083214, 42.254898238925705], [-71.25710006587414, 42.25469675594146], [-71.26219991559348, 42.25769699430364], [-71.26285096343558, 42.25885804075347], [-71.26559995686301, 42.259697026141104], [-71.2643000255526, 42.25559687090975], [-71.26500001575741, 42.25469687910534], [-71.27024505317404, 42.25750180370783], [-71.27100104633136, 42.25879805870698], [-71.27090004753337, 42.26169682389191], [-71.27320003413399, 42.26169688818789], [-71.27589994999555, 42.26079682504126], [-71.27680004679605, 42.260796890116325], [-71.27749994330495, 42.259996981448616], [-71.27839994204531, 42.25969712135532], [-71.27929992632912, 42.25999707909835], [-71.28410100768592, 42.263296801693905], [-71.28460102260752, 42.2643972311032], [-71.28590096790299, 42.26579681355364], [-71.28680098778125, 42.265896958198944], [-71.28750094535752, 42.265396901675835], [-71.29090105335209, 42.266997234396605], [-71.2925009437948, 42.26679700652147], [-71.29470107785221, 42.26499698757469], [-71.29500098728292, 42.26519727713301], [-71.29490100442035, 42.26659706288458], [-71.29820101866707, 42.266996789807735], [-71.29872697205633, 42.26657682337008], [-71.300602078854, 42.26719792420556], [-71.29982301724276, 42.2691429006977], [-71.29580093667265, 42.27219683172862], [-71.29480091485468, 42.27229689548349], [-71.29450100116495, 42.27319721929544], [-71.29640097739828, 42.274497031062644], [-71.29810105032746, 42.27429690271163], [-71.2994009279148, 42.27569689129446], [-71.29700108074384, 42.28039672327697], [-71.29790090651319, 42.28169698673735], [-71.29990091586374, 42.282797160750626], [-71.30380104975626, 42.27859725682343], [-71.30910095903366, 42.27579726346365], [-71.3078009897259, 42.27179721467496], [-71.30820109108414, 42.27089702358561], [-71.30590207394656, 42.26249788071706], [-71.3025749886508, 42.248054206496455], [-71.33210292546194, 42.24869819969903], [-71.33215792912364, 42.24730393924975], [-71.32942101826652, 42.245367071190024], [-71.32889505283107, 42.2445301335309], [-71.32918795560138, 42.242486885021336], [-71.32999308057177, 42.24151800495758], [-71.33047608491648, 42.24008104941683], [-71.33073002728844, 42.23764273008257], [-71.33071990971716, 42.23675310359198], [-71.33051098510603, 42.23594983771313], [-71.32940700733867, 42.234113834766184], [-71.32918397717911, 42.23349679532662], [-71.32922908090252, 42.23312605000328], [-71.3301009624796, 42.23220622098268], [-71.33211501789576, 42.230697237349865], [-71.33327303404992, 42.23005914707644], [-71.33648809413762, 42.22723287927944], [-71.33815991668624, 42.226431164817775], [-71.34017292901912, 42.22481118725262], [-71.34050208675984, 42.2244262023124], [-71.34119301080204, 42.222344080415425], [-71.34147196703596, 42.221970839566104], [-71.3424310356819, 42.221322252784674], [-71.34280391470003, 42.22054118680597], [-71.34274807826988, 42.22000993022606], [-71.34247707164256, 42.219628054158875], [-71.3414869526467, 42.21892895402879], [-71.3408610956952, 42.218103745516764], [-71.33965597227473, 42.21757989057167], [-71.33843002155315, 42.21669699660908], [-71.33802406063732, 42.216117977704904], [-71.33801097492582, 42.21501789774777], [-71.33888099729357, 42.21393706715717], [-71.3395769105676, 42.213598739298895], [-71.34563898137655, 42.21508299414734], [-71.34678894484418, 42.2151751286934], [-71.34963308788008, 42.21346324537795], [-71.35045498660529, 42.212555010225024], [-71.35190608622463, 42.21049406517785], [-71.35207003490396, 42.21013527940142], [-71.35198493512316, 42.20978911425728], [-71.35141497706326, 42.20923300079848], [-71.35127995992018, 42.20887382850098], [-71.35188307735042, 42.207139829610114], [-71.3515630219211, 42.206533959363135], [-71.35055894225894, 42.20562109467025], [-71.34950601795904, 42.20489271999443], [-71.34872103097481, 42.20456082452779], [-71.3479219557027, 42.20442697267462], [-71.34638107278238, 42.20450088318368], [-71.34627199243575, 42.20407309090309], [-71.34648405929232, 42.20330473708381], [-71.34609597307968, 42.20253782997225], [-71.34555791729534, 42.20190407777071], [-71.34430400434759, 42.20132674827459], [-71.34393500232302, 42.20097006241283], [-71.34379799280114, 42.20059906144958], [-71.34468595817061, 42.19933195759675], [-71.34475106890308, 42.19877891865369], [-71.34435506605215, 42.19848296825783], [-71.34373792426638, 42.1984101045486], [-71.34355793634647, 42.19874522420643], [-71.3436269307971, 42.199153270617664], [-71.3422960003257, 42.199144133619384], [-71.34259109545278, 42.19847493436436], [-71.34250394847352, 42.19829475300351], [-71.34212190787157, 42.198019070971746], [-71.34015705890575, 42.19777607999215], [-71.3397389494662, 42.19748008276454], [-71.339701985078, 42.19698486118944], [-71.33916800646413, 42.19672696298697], [-71.33896807658701, 42.196190998583965], [-71.33829795092235, 42.195985798236755], [-71.33816306368784, 42.19576390686836], [-71.33822801673666, 42.19544213793611], [-71.3385589889041, 42.1951809518463], [-71.3399890884239, 42.19506591548598], [-71.34020291501928, 42.19474379029467], [-71.34018405166543, 42.194421903417634], [-71.3399340818608, 42.194298887712144], [-71.33908590893839, 42.194411927743296], [-71.33888493895988, 42.19413986472547], [-71.33974503853545, 42.19357274924291], [-71.33916106201899, 42.19319886609172], [-71.3393400723155, 42.19258015408544], [-71.33901992726398, 42.19201082200179], [-71.33921097323058, 42.190747842672934], [-71.33880993997245, 42.19052614114217], [-71.33751594156348, 42.19108700908124], [-71.3359190475024, 42.19121528073116], [-71.33555090775224, 42.19100486873699], [-71.33536607699014, 42.19064673034575], [-71.33515295623985, 42.188655050555376], [-71.33471897187034, 42.18845804577412], [-71.33225892338737, 42.188761142563735], [-71.33162502803954, 42.188626855254554], [-71.3304549309215, 42.187763084195936], [-71.33032096785274, 42.1875659431351], [-71.3303479438697, 42.18667411273608], [-71.3301140781962, 42.18648920284582], [-71.32864909240419, 42.18641893746388], [-71.32841504377522, 42.186234023818926], [-71.32847897993275, 42.185813224096584], [-71.329240091491, 42.185192019862804], [-71.32927099770545, 42.18488314664255], [-71.32898691969051, 42.184734734762515], [-71.32752306438742, 42.1847511115475], [-71.32751902675427, 42.184218796488906], [-71.3273349721999, 42.18394673807717], [-71.32598694543735, 42.184012223983935], [-71.32588605323748, 42.18376504794068], [-71.32622798566621, 42.182675064360666], [-71.3261259400193, 42.18236599030506], [-71.32544106597777, 42.18202114342038], [-71.32510507340776, 42.181501826923096], [-71.32467201446367, 42.1814780951815], [-71.32382608113205, 42.18179021978556], [-71.32374205063526, 42.181604964076435], [-71.32408800248045, 42.18112101500826], [-71.32383698088314, 42.18099796220387], [-71.3231220245362, 42.181073950914715], [-71.32123392608705, 42.17991524782165], [-71.32013506942559, 42.17964624946664], [-71.32011601984709, 42.17936093318953], [-71.32065805680031, 42.178294912202894], [-71.32049006755436, 42.17811008534051], [-71.32020694081149, 42.17811076718139], [-71.31939605062477, 42.17874421312253], [-71.31889702587456, 42.17864720525021], [-71.31792594177625, 42.177757734494996], [-71.31883201555397, 42.17644415059205], [-71.31891297033951, 42.17610891201197], [-71.31895804610286, 42.175490018212344], [-71.31868898198194, 42.17500792576163], [-71.31848295559472, 42.174043139631095], [-71.31854600168407, 42.17362178039431], [-71.31951391372455, 42.17407796602405], [-71.3199419345814, 42.17325991680317], [-71.32160699596889, 42.17348984835405], [-71.32258807447465, 42.1734379143891], [-71.32301901880872, 42.17311503035838], [-71.32216602664295, 42.172473925663354], [-71.3223140870391, 42.172276086306496], [-71.32276403515662, 42.172324049109186], [-71.3233319519975, 42.172656915977406], [-71.32358108368521, 42.17263085285487], [-71.32344296302234, 42.171976225170035], [-71.3235079845679, 42.17171579714334], [-71.32373995339809, 42.171604177504086], [-71.32400692760969, 42.17168899194751], [-71.32402709325297, 42.17212286130195], [-71.32522402676976, 42.172032972565546], [-71.3253960849449, 42.17280018887881], [-71.32556195782789, 42.17286121246421], [-71.3258280370069, 42.17272375650865], [-71.32612292474197, 42.172079917531136], [-71.32752206987685, 42.17238588631136], [-71.32795408063951, 42.17228581280667], [-71.32901092556803, 42.171056778201255], [-71.32955901250908, 42.17089497515188], [-71.3300219314578, 42.170546790960636], [-71.33107105008399, 42.17063105768662], [-71.3314529611839, 42.17051908056342], [-71.33183192818817, 42.16994793809081], [-71.3328109518227, 42.16957517709545], [-71.33297496416043, 42.16926480802672], [-71.33287296559101, 42.16900525660435], [-71.33250593661353, 42.1688567320142], [-71.33204108374487, 42.16894495796233], [-71.33195707087074, 42.168822167157536], [-71.33195605133393, 42.168635913314915], [-71.33253705368959, 42.16838692637364], [-71.33278398448897, 42.16804010335889], [-71.33254992923457, 42.16787883072246], [-71.33138805945374, 42.168327847465775], [-71.33108791024594, 42.16820473796023], [-71.33106993688385, 42.16799482587751], [-71.33184691490617, 42.167361246903134], [-71.3331260924847, 42.1669500969009], [-71.33368796809732, 42.16641578932737], [-71.33345108164093, 42.16582180103812], [-71.33258707032958, 42.16598597536191], [-71.33238595544117, 42.16581293379851], [-71.33289793897029, 42.165266740431534], [-71.33251000244162, 42.16445082747515], [-71.33273904120439, 42.16385582912646], [-71.33258705061947, 42.16348479037542], [-71.33205408299827, 42.16346206572301], [-71.33135794598151, 42.163934271518805], [-71.33084293063553, 42.16398528087294], [-71.33075794551222, 42.16366273042257], [-71.33136498478441, 42.16242400463315], [-71.33219199556049, 42.16179105912572], [-71.33091002576933, 42.16158379127068], [-71.33092492336604, 42.161385744039244], [-71.33172207101337, 42.16117309216982], [-71.3318540959855, 42.16101179195264], [-71.33166992448108, 42.160802198533375], [-71.33088700718326, 42.16064292854652], [-71.33041706076207, 42.160112174056344], [-71.33064793616552, 42.159751826729064], [-71.33121302833742, 42.15962717872925], [-71.33153008858092, 42.15977507164913], [-71.33184906855587, 42.16026902498162], [-71.3322320448708, 42.16023075999641], [-71.3327560462634, 42.159053801336825], [-71.33271996894541, 42.1586818061045], [-71.3321510799487, 42.158101959506354], [-71.3313510207899, 42.15793085083639], [-71.33121695600148, 42.15779504357076], [-71.33131408596071, 42.15738723124633], [-71.33166307920315, 42.157324159492106], [-71.3323469378084, 42.15760707282222], [-71.33276198270917, 42.15751877294131], [-71.33380503021034, 42.15673589027346], [-71.33395196559364, 42.1562898844681], [-71.33357593304326, 42.154843207613155], [-71.33360594029453, 42.15428618095046], [-71.33386901770672, 42.15381502223358], [-71.33439905937239, 42.15347873351729], [-71.33596003985264, 42.153055016120476], [-71.33595697264062, 42.15255927538858], [-71.33830496942419, 42.15123183222269], [-71.3386670606134, 42.1508339526325], [-71.3393450635981, 42.14923290503073], [-71.30339092636568, 42.14940307737189], [-71.3033369628924, 42.1488211549499], [-71.30293500020923, 42.148476093301376], [-71.30236991374959, 42.14855221002101], [-71.30227306419816, 42.14893580313763], [-71.30198991413687, 42.14898595717703], [-71.30173899434108, 42.1487638203633], [-71.30165293543256, 42.14835515259132], [-71.30125199711186, 42.148109121656695], [-71.30040404409708, 42.14808626566447], [-71.30030198507268, 42.147839063360415], [-71.30051596488296, 42.14754176857853], [-71.30044898423583, 42.147380720270746], [-71.29988401179851, 42.14754291777599], [-71.29968308841059, 42.14729610494047], [-71.30019098027604, 42.14623011533709], [-71.29995500922776, 42.14564899893435], [-71.30025095721484, 42.14525224995422], [-71.30023294256121, 42.14502995264431], [-71.29997805857263, 42.14421303249652], [-71.29966095731724, 42.14406617701712], [-71.29954291906238, 42.14379418719094], [-71.30003695870775, 42.143037095091884], [-71.29989803963832, 42.14213372114768], [-71.2996130269868, 42.141824864232326], [-71.29916301224624, 42.141752051074846], [-71.29910998353273, 42.141306863345335], [-71.29937295587082, 42.14087292045323], [-71.29863695399996, 42.14026785370692], [-71.2990140919783, 42.13947511012959], [-71.2989030428502, 42.13884975666627], [-71.29952702714851, 42.13841194458631], [-71.30012592779963, 42.13849401934121], [-71.30102706237832, 42.1376701078127], [-71.30116803029784, 42.13713691365199], [-71.30162901676621, 42.136954835295086], [-71.2996540816701, 42.12995423078679], [-71.29965007081893, 42.12930880700966], [-71.29925795599165, 42.12870378100199], [-71.2993749852513, 42.127790723857586], [-71.2988700660476, 42.126469181521266], [-71.29987495733603, 42.125952131493534], [-71.29660001576934, 42.11989226996149], [-71.29687295446631, 42.119391950504884], [-71.29648709336203, 42.11910316291171], [-71.29599094583152, 42.11826723240578], [-71.29594406071072, 42.11745179523962], [-71.28001197001042, 42.089220228142146], [-71.28399400272343, 42.08470817288171], [-71.28746107125026, 42.07765778921512], [-71.28689398837105, 42.06758825941187], [-71.28590407621407, 42.062612097309234], [-71.28937002401916, 42.0559279568713], [-71.28689809324646, 42.014899194611296], [-71.28249798871217, 42.00629890489303], [-71.28189696764926, 42.00549927541724], [-71.28179691698978, 42.004698911520535], [-71.27639693031199, 41.995098776445246], [-71.27529705732557, 41.99409893478915], [-71.27509704404427, 41.99359885468529], [-71.26979695223797, 41.98579926404969], [-71.27659700285962, 41.981299248946414], [-71.27929708583329, 41.97929899095057], [-71.29139693256312, 41.97149889910078], [-71.29159592522232, 41.9691617581545], [-71.29149704745724, 41.96809917814556], [-71.29109706537614, 41.96659882089132], [-71.28959704639084, 41.964699167479], [-71.28819708457365, 41.96209910274962], [-71.28770500527534, 41.95778612567373], [-71.2883460346724, 41.95545205813777], [-71.28969705697179, 41.95239902329432], [-71.29029704699914, 41.9498988679782], [-71.28903302206254, 41.94969902892175], [-71.28852899229067, 41.949790944799254], [-71.28776597755531, 41.949333169963346], [-71.28726292973461, 41.94947009910991], [-71.28614898233715, 41.94930989733543], [-71.28459708571906, 41.95059897098776], [-71.28379693993614, 41.94459893901045], [-71.28449697129774, 41.944599136143815], [-71.28799708053675, 41.94189903408843], [-71.29239694949743, 41.93879924864979], [-71.29579701708495, 41.936598977714524], [-71.29939693122132, 41.93469888294735], [-71.30089705683906, 41.93359915175357], [-71.30059693337344, 41.93359919096335], [-71.30079700861475, 41.93299912471855], [-71.30203307715995, 41.93082413477157], [-71.30369705928709, 41.92889914954367], [-71.31349700804924, 41.92219902020659], [-71.31429704241542, 41.92179910882658], [-71.31869792870602, 41.917998857224156], [-71.32069806177208, 41.916999258583004], [-71.3222979830121, 41.91589883975789], [-71.3230980513182, 41.91509877702992], [-71.3228009811728, 41.91410006154824], [-71.32190091145966, 41.913215200041776], [-71.32167191624339, 41.90822581714772], [-71.3205109348255, 41.90586791225155], [-71.32069699570181, 41.90539890058726], [-71.32160994010317, 41.904465098842145], [-71.32339790939183, 41.90469915403547], [-71.32916404307348, 41.903472768467665], [-71.33261300050088, 41.903251102864104], [-71.33447406294033, 41.9039842195451], [-71.3359979240974, 41.90499874188263], [-71.33839807450657, 41.902898737428316], [-71.34029799856545, 41.90219914301638], [-71.3420980896435, 41.90179874311154], [-71.3432980835397, 41.90129901774956], [-71.34299795333582, 41.90059915123718], [-71.34259805549986, 41.900499000141906], [-71.34209804958094, 41.900599035628154], [-71.34139806977903, 41.900999280892734], [-71.34031805757638, 41.90065677045091], [-71.34009801282562, 41.900398739191], [-71.33993709045848, 41.89954375016392], [-71.33949796270312, 41.89909915179748], [-71.33960326649938, 41.898483127193906], [-71.38152557261893, 41.893446264269244], [-71.3812727392458, 42.01885293724391], [-71.45810110706908, 42.01781522892764], [-71.45694500808206, 42.024855949108925], [-71.45422592347941, 42.04759495709189], [-71.45452007689241, 42.06064925462634], [-71.45231794293439, 42.060706879662625], [-71.45074402637546, 42.0605621609673], [-71.44301794837752, 42.05949393940188], [-71.4410289551241, 42.05936294727908], [-71.4385460343679, 42.05953607938523], [-71.43542101654192, 42.06014095390135], [-71.43378604731076, 42.060663897253406], [-71.4310469604649, 42.061810196159605], [-71.42810693897665, 42.06343010005147], [-71.42787804402867, 42.06300792814633], [-71.42625607043742, 42.06311493384014], [-71.42501892764324, 42.06362393985808], [-71.42447199580323, 42.06363877329037], [-71.42373191071412, 42.064145841452394], [-71.42366708648976, 42.0643607511065], [-71.4229210671712, 42.06430004188385], [-71.42282408434409, 42.06456613544628], [-71.42216691985324, 42.06517397329451], [-71.42220404254952, 42.06553919326865], [-71.42131195106619, 42.065882958198756], [-71.42119897621735, 42.0662492005988], [-71.42007806309311, 42.06673291135907], [-71.4199320554987, 42.067086749925565], [-71.41958507476089, 42.067214240430786], [-71.4192410899691, 42.06765684602057], [-71.4174170894623, 42.06810627027914], [-71.41558591958002, 42.069386210583936], [-71.41494097170806, 42.069523032843264], [-71.4142869985573, 42.06921080731918], [-71.41409293929793, 42.06946725465508], [-71.41313300984783, 42.06964209376397], [-71.41298007506636, 42.07033410287616], [-71.41260499670217, 42.07068775760668], [-71.41306404928548, 42.07119510288873], [-71.41240595473512, 42.07153785029607], [-71.41277605430959, 42.07261514700668], [-71.41244194921987, 42.073368914308475], [-71.41249692235972, 42.07362273548252], [-71.41195691471664, 42.07402690505672], [-71.40886696260688, 42.07228404592931], [-71.40319695790294, 42.0762318192907], [-71.40337600532486, 42.07943318751646], [-71.40313602458953, 42.08152117456648], [-71.40135402459457, 42.08134802885236], [-71.40067907165171, 42.08415308037087], [-71.39673193585587, 42.08359195040151], [-71.39829600250799, 42.08545195650777], [-71.39369595085921, 42.08714995296541], [-71.39399994487255, 42.08741526753947], [-71.39331202677042, 42.087924999610976], [-71.39296391351209, 42.08896117217028], [-71.39365605877855, 42.09056101632069], [-71.3927970094343, 42.09083425122698], [-71.39329506362758, 42.09184026477483], [-71.39189292905488, 42.09237182841815], [-71.389974050256, 42.09277289544712], [-71.3885250631655, 42.09349906763926], [-71.38706406538324, 42.09448123891277], [-71.38370394436804, 42.09611927696189], [-71.38002590984041, 42.099473123147725], [-71.3776119753612, 42.103038095244976], [-71.37648203126739, 42.103969278039116], [-71.3748800705435, 42.104466092462424], [-71.36966594728213, 42.105421934209744], [-71.36855896693511, 42.10576898120096], [-71.36704695175241, 42.106654052907494], [-71.36758109222215, 42.10779414096143], [-71.3783629645066, 42.124689912291295], [-71.37947890779226, 42.12683497559631], [-71.37956397215362, 42.127917135378226], [-71.38047299813506, 42.12960111980716], [-71.38128100295067, 42.13025300236702], [-71.38090807376183, 42.130789992741654], [-71.37987294434778, 42.13141688407656], [-71.3798770201431, 42.13165997419739], [-71.38048707848307, 42.13236117193703], [-71.38029395139209, 42.13275092050447], [-71.37965394110981, 42.1331930939461], [-71.37828001990998, 42.13345723654738], [-71.37888103504844, 42.13364806547349], [-71.37926892070409, 42.13400972724404], [-71.37960809149477, 42.13534593020035], [-71.37936801091952, 42.1358701126127], [-71.3791039532475, 42.13598124862072], [-71.37754905541823, 42.135383137439774], [-71.37561996312556, 42.13565678213015], [-71.37892497058235, 42.14152982564315], [-71.379325055966, 42.141763767208914], [-71.38021491585187, 42.14288784547116], [-71.38516401963277, 42.15117975444327], [-71.40218508331911, 42.1786398926055], [-71.40437798202734, 42.18820978735312], [-71.38462999360951, 42.19193184551356], [-71.38142605346695, 42.198707901404056], [-71.37954908912988, 42.20170903510875], [-71.38811896315063, 42.204295967955375], [-71.38825603692922, 42.20800311452394], [-71.39154998469438, 42.209622887890404], [-71.39377808129515, 42.20712774772868], [-71.39569103247949, 42.207357955661244], [-71.39674097978201, 42.207708899559265], [-71.3967360491895, 42.20841282212219], [-71.39706997106678, 42.20855885925739], [-71.39730797661426, 42.208928198077174], [-71.39805908725933, 42.20921921663864], [-71.39806595632487, 42.210713730692326], [-71.39852193913964, 42.21121718077704], [-71.39955801699452, 42.211533762160826], [-71.40081697690596, 42.21260171952916], [-71.40218396644892, 42.213098061063555], [-71.40268908271752, 42.21367693677854], [-71.4037610330345, 42.21433787719359], [-71.40173095036133, 42.215171189566625], [-71.40707892195091, 42.218063935464635], [-71.40765107684565, 42.217501144280725], [-71.4078289534624, 42.218291867274395], [-71.40875008026521, 42.21851205268821], [-71.40990195950367, 42.218162969518495], [-71.40981907561458, 42.219489165367214], [-71.40872299136312, 42.22050226639718], [-71.40852899977362, 42.22089993381766], [-71.40854299019297, 42.22182894618631], [-71.40894393167791, 42.223212919479664], [-71.40884300089104, 42.2243038948144], [-71.40989899820957, 42.22623925563452], [-71.41172294955014, 42.22736323855658], [-71.41224702556127, 42.22806475139445], [-71.41296794747701, 42.23098228090618], [-71.41302905499502, 42.234041103752084], [-71.41327097270937, 42.234732268458124], [-71.41623308666117, 42.23658908972195], [-71.4171609370997, 42.2376841919062], [-71.41872401233177, 42.23799197441762], [-71.41986408748357, 42.23793200568279], [-71.41808906889838, 42.24576392998997], [-71.41800496890903, 42.24681778337375], [-71.41890603517498, 42.2572967758032], [-71.40563792990751, 42.259818725925605], [-71.3974049814108, 42.261597067549005], [-71.3939049875682, 42.26619721827062], [-71.39130501242215, 42.270296761743225], [-71.39010499079326, 42.27169726775963], [-71.3782140885889, 42.269701246558995], [-71.3608859459732, 42.26463821259572], [-71.35840292854832, 42.26759603005258], [-71.35470302356566, 42.27159604038479], [-71.35160291879318, 42.275596142821456], [-71.35090392198336, 42.27609715234426], [-71.35040305624099, 42.27699623385174], [-71.34950301643956, 42.27679586768773], [-71.34640299570374, 42.27739608718399], [-71.34680292535505, 42.2790959285662], [-71.34700307087873, 42.28179595448514], [-71.34690307385233, 42.2831957791521], [-71.34710390920121, 42.28459712952487], [-71.34760306913857, 42.28539624108609], [-71.34740304812506, 42.285695885959605], [-71.34770309118994, 42.28689592559588], [-71.34820304092881, 42.29069582508415], [-71.34800400020663, 42.29089700245943], [-71.34790301375443, 42.293895968719845], [-71.34940292023447, 42.29499573849087], [-71.350003085969, 42.2963959150204], [-71.35450297034421, 42.297096051711776], [-71.35880302460099, 42.29729610474178], [-71.3596029747598, 42.29979595613276], [-71.35850306791406, 42.30009620437633], [-71.35800303451445, 42.29999599280191], [-71.35200295904316, 42.30089602694018], [-71.34890306667687, 42.301195840544345], [-71.3486029969352, 42.305596178636186], [-71.35220301359277, 42.30489582563636], [-71.35250302054031, 42.306596071384526], [-71.35160298672734, 42.306696195216205], [-71.34950300385023, 42.30749584747692], [-71.3501029599455, 42.309595994537055], [-71.34960295287424, 42.31049619327957], [-71.3486029394304, 42.310296253847], [-71.34710295606494, 42.31049627033962], [-71.34740302493115, 42.311495990223214], [-71.34690297595056, 42.3130961514985], [-71.34580296878345, 42.314096252083345], [-71.34560406415397, 42.314596770584444], [-71.35470397323236, 42.317096806968706], [-71.3588039379827, 42.31719588460877], [-71.36270395012231, 42.31589575496817], [-71.36400300182503, 42.316094800186185], [-71.3680029304611, 42.31269524894804], [-71.36932398023167, 42.31139527891902], [-71.36947001100616, 42.311073028955605], [-71.37060309187666, 42.3100952461983], [-71.37330398525097, 42.30989512796989], [-71.37399001690284, 42.311245752858774], [-71.37480503987528, 42.31159606818852], [-71.37590495771344, 42.31299608442766], [-71.37736001353203, 42.314447110407706], [-71.38033605618325, 42.32388807014247], [-71.38160509069651, 42.328496034016915], [-71.3882040627267, 42.335794945899984], [-71.38840396640184, 42.3362947976089], [-71.38930396858775, 42.33739513905141], [-71.3939039407996, 42.33569512671826], [-71.39460397802902, 42.33669508547608], [-71.3948049224136, 42.338996056094174], [-71.39660499124139, 42.34089616057052], [-71.39771405431412, 42.34264820209486], [-71.39733994918821, 42.34310701265253], [-71.39268599510893, 42.344172973591704], [-71.39155896027022, 42.344785233335074], [-71.39047995048446, 42.3451381339929], [-71.38987994679849, 42.34515275318241], [-71.38746604347148, 42.344701963016995], [-71.38719599759723, 42.34769119662098], [-71.38727093083584, 42.34820780658542], [-71.38845407904627, 42.34959989492146], [-71.38970597302988, 42.354774902393245], [-71.3905500487333, 42.35493100713812]]]}}