{"type": "Feature", "properties": {"district_name": "Second Suffolk", "chamber": "senate", "vintage": "2001-2010"}, "geometry": {"type": "Polygon", "coordinates": [[[-71.08744496771173, 42.35541682924448], [-71.07709494800034, 42.35869680173531], [-71.07579504126578, 42.36159713552787], [-71.07200306589984, 42.3613068104935], [-71.07099898609025, 42.36138015683763], [-71.07039493602258, 42.36122991701649], [-71.0667370024039, 42.36128709297068], [-71.06668805337432, 42.35940586556204], [-71.06818405464405, 42.359396862599134], [-71.06815992955735, 42.35890217521688], [-71.07019493502993, 42.35889685684387], [-71.0693480883572, 42.357220837287976], [-71.070213999857, 42.357011945712415], [-71.06959595561933, 42.355997932954224], [-71.07250995553609, 42.355317829111684], [-71.07092993222535, 42.351790119210385], [-71.06769493051976, 42.35239695338441], [-71.06489492890086, 42.352397084031544], [-71.063543000363, 42.35507820492116], [-71.06259493590365, 42.35619715311471], [-71.06007106075647, 42.35486691136079], [-71.05776607962164, 42.353302816895834], [-71.05619493614942, 42.35279710212612], [-71.05243488233364, 42.35119070007047], [-71.05388456864945, 42.348659196297696], [-71.05545777572858, 42.346748790519534], [-71.05715615483697, 42.34631251247782], [-71.0576500110924, 42.345925036672085], [-71.0583583082987, 42.34592156987647], [-71.05946865537557, 42.34550494228218], [-71.06085701248504, 42.34420989215773], [-71.0611343966079, 42.343340480066146], [-71.06073307416511, 42.34299683598567], [-71.06036351629831, 42.34296728932805], [-71.05999278844394, 42.34441478099193], [-71.05959207787635, 42.34480037296776], [-71.05839694033044, 42.345331463536795], [-71.05999500156297, 42.34229684890492], [-71.05969492638225, 42.33669699487539], [-71.06059509020396, 42.33569717274646], [-71.06649505101909, 42.32609709967715], [-71.06769494278045, 42.32319703626075], [-71.06879495209091, 42.31849823960432], [-71.0690950083972, 42.31849823960179], [-71.07149497531428, 42.31999720505542], [-71.07229501632091, 42.32129717578736], [-71.07569507265013, 42.320397101689046], [-71.07789495165456, 42.32029716624936], [-71.07809593072778, 42.31704726807462], [-71.07852403091812, 42.31552227141302], [-71.07979497194081, 42.313197966800956], [-71.08269495431868, 42.30949817865381], [-71.08309490734426, 42.308797959911395], [-71.08119496123756, 42.308197979214825], [-71.07829501016383, 42.306198274423885], [-71.08039499036313, 42.305397943011904], [-71.07949491924789, 42.304698045728365], [-71.0806950648116, 42.30389778839863], [-71.0793949741954, 42.30279804676016], [-71.07909508448567, 42.30289823239521], [-71.07959491112778, 42.30119793181928], [-71.08269504978448, 42.3003978372351], [-71.08189498917187, 42.299998233719634], [-71.08139509211864, 42.299398276246556], [-71.0813950834653, 42.298998205038224], [-71.0831949442888, 42.298698083484126], [-71.08207506201843, 42.29622887847861], [-71.08421003798757, 42.29595696871377], [-71.08389898207545, 42.29519621330716], [-71.08079407183536, 42.295756054882446], [-71.08019503298806, 42.294397788227116], [-71.08323909214691, 42.29386193779104], [-71.08308399609389, 42.293590159163415], [-71.08059500440409, 42.292797837059716], [-71.08099505450197, 42.29149779753822], [-71.07909496867266, 42.29179807989154], [-71.07939498580026, 42.292498038292734], [-71.07809494499682, 42.29199810507564], [-71.07852208042915, 42.28933984162927], [-71.07909502268629, 42.28819799496715], [-71.0804949188598, 42.28659776281188], [-71.08099498575916, 42.28689781332338], [-71.08289500403973, 42.2864979035452], [-71.08329507894011, 42.28739797041719], [-71.08599495771796, 42.28679777728464], [-71.08639507978056, 42.28769783330979], [-71.08789499719232, 42.28839814493712], [-71.08699509684615, 42.289497783585105], [-71.08929493761279, 42.291198033959276], [-71.09119495210997, 42.28549801962446], [-71.0931950582004, 42.28589787725669], [-71.09349496971289, 42.28639804421125], [-71.09589497487632, 42.28609815853915], [-71.09639509433012, 42.28559799816009], [-71.09439503229743, 42.28459780700694], [-71.09539507317548, 42.28439820298493], [-71.09589506442188, 42.28379788549843], [-71.09669498056309, 42.282297753513205], [-71.09589491170432, 42.281297855746075], [-71.09359502506463, 42.28119802299993], [-71.09379491455223, 42.27959787771511], [-71.09329491916819, 42.279197723950766], [-71.09359492815392, 42.2771978601914], [-71.09539506614166, 42.27849783995616], [-71.09859508643889, 42.28139791658762], [-71.09999496757973, 42.282097721528146], [-71.10449505676122, 42.28589795077914], [-71.10809591454162, 42.28859825526934], [-71.11059600340373, 42.28699803099847], [-71.11179604080978, 42.28819780548593], [-71.11249599751004, 42.28839823501058], [-71.11379591919712, 42.28919825368102], [-71.1146960171787, 42.29069802633409], [-71.113995960093, 42.29249796549569], [-71.11439592065327, 42.29299784996868], [-71.11639590670138, 42.292198213926596], [-71.11689591653887, 42.29219819434122], [-71.1170959820809, 42.29119783979273], [-71.11799594856365, 42.291198022439815], [-71.11829606340254, 42.29009783986458], [-71.11949609080752, 42.29019804047891], [-71.11909598248018, 42.291798123989864], [-71.11719603155103, 42.29589773964759], [-71.11789605822717, 42.296197731489094], [-71.11849600397251, 42.29549805421883], [-71.11939606958678, 42.2947982430183], [-71.11879594133318, 42.29439787066985], [-71.11909608016877, 42.293797915977834], [-71.12129603373516, 42.29519783993179], [-71.12299608584682, 42.29359808433707], [-71.12319595662773, 42.29369777302339], [-71.12329591792724, 42.29399801318388], [-71.12179592214157, 42.295698027461654], [-71.1293250124466, 42.296425924227144], [-71.12989794730287, 42.29744117017694], [-71.12979592260662, 42.298297813310356], [-71.12789594753286, 42.30019693244833], [-71.13109595737367, 42.30129717467424], [-71.1339959694245, 42.301797111291975], [-71.13669692057469, 42.30119685675852], [-71.14009705503727, 42.30209716383696], [-71.13509702228052, 42.30819722447092], [-71.13269597621901, 42.31189710767348], [-71.13079595396695, 42.31449681282841], [-71.12709595412491, 42.3184968078966], [-71.12459600183058, 42.32159693722662], [-71.12178905142356, 42.323275224469214], [-71.12153808040547, 42.32333685629689], [-71.1193960439748, 42.322796921546306], [-71.1193959178627, 42.32259716828008], [-71.1166959775413, 42.32369724652007], [-71.11549593417969, 42.32689716042635], [-71.11339605030332, 42.330896986360784], [-71.11329594787476, 42.331796942819835], [-71.11279592603523, 42.33329706087492], [-71.11089599111597, 42.33499726324599], [-71.11079607880309, 42.33539699253037], [-71.11099605891833, 42.33549726423756], [-71.10951703316748, 42.33693496867043], [-71.1049960124435, 42.33409710630253], [-71.09939603986932, 42.33629695090566], [-71.09951095888526, 42.335964242920035], [-71.09812905984512, 42.33553009338367], [-71.09719592419525, 42.337097276250944], [-71.09579603470743, 42.33769724722073], [-71.09759594282971, 42.338297191733574], [-71.09629609127362, 42.33979724856433], [-71.09359603384908, 42.340797188844945], [-71.09259594931213, 42.33909716073584], [-71.0912959224953, 42.34089707053873], [-71.09039607828133, 42.34249695119222], [-71.09024994210463, 42.34319021804936], [-71.08679596319267, 42.34269676341561], [-71.08599505701484, 42.34329707811704], [-71.08709495882948, 42.3434580217596], [-71.08744498365047, 42.34412999577108], [-71.0898489419442, 42.34441093451963], [-71.08919602024038, 42.347103851359336], [-71.08392302165406, 42.34837624716205], [-71.08744496771173, 42.35541682924448]]]}}