{"type": "Feature", "properties": {"district_name": "Norfolk & Plymouth District", "chamber": "senate", "vintage": "2012-2020"}, "geometry": {"type": "Polygon", "coordinates": [[[-71.09329900000002, 42.213981000000004], [-71.053021, 42.229173], [-71.06109, 42.242383999999994], [-71.032078, 42.258348999999995], [-71.03138799999999, 42.25921200000001], [-71.04167199999999, 42.26642699999999], [-71.04185, 42.267550000000014], [-71.041635, 42.26839], [-71.042794, 42.27699799999999], [-71.041594, 42.27809799999999], [-71.04049400000001, 42.281898000000005], [-71.039293, 42.28379899999999], [-71.03789400000001, 42.284898], [-71.03529400000001, 42.288798], [-71.041294, 42.300097999999984], [-71.04169399999999, 42.305298], [-71.028395, 42.30879899999999], [-71.022093, 42.305597999999975], [-71.015393, 42.30669799999998], [-71.00979099999999, 42.305198999999995], [-71.002093, 42.308697999999985], [-70.998593, 42.311997999999996], [-70.988693, 42.31359800000001], [-70.981781, 42.30838199999999], [-70.97599199999999, 42.300097999999984], [-70.96019199999999, 42.29949800000001], [-70.960392, 42.287698999999996], [-70.937691, 42.277499], [-70.938091, 42.266399], [-70.959491, 42.24779899999999], [-70.960191, 42.246798999999996], [-70.960909, 42.24609100000001], [-70.962194, 42.24645499999999], [-70.96540999999999, 42.24679099999997], [-70.967, 42.244582], [-70.968591, 42.2404], [-70.967991, 42.237998999999995], [-70.96049099999999, 42.23509899999997], [-70.960191, 42.23129899999999], [-70.96038399999999, 42.22871499999999], [-70.960596, 42.228539000000005], [-70.960891, 42.226899], [-70.962891, 42.225499], [-70.963728, 42.224694000000014], [-70.964283, 42.224585], [-70.96614400000001, 42.223576], [-70.96665899999999, 42.223566999999996], [-70.967022, 42.223353], [-70.968066, 42.22169], [-70.96801599999999, 42.221201], [-70.96768399999999, 42.22066199999997], [-70.9687, 42.219877999999994], [-70.976111, 42.170680999999995], [-70.976591, 42.16820099999999], [-70.978236, 42.15650900000001], [-70.97805900000002, 42.155887], [-70.97838, 42.15552100000001], [-70.981293, 42.135502], [-70.89351599999999, 42.16981399999999], [-70.890291, 42.17173600000001], [-70.884311, 42.153719], [-70.900119, 42.15174400000001], [-70.889466, 42.11803000000001], [-70.887599, 42.08795100000001], [-70.90238699999999, 42.08590100000001], [-70.915908, 42.100123], [-70.946838, 42.09453399999998], [-70.97551899999999, 42.08744600000001], [-70.975228, 42.08801999999999], [-70.97595799999999, 42.089678], [-70.975284, 42.091364], [-70.97544599999999, 42.09259099999999], [-70.975224, 42.09308999999999], [-70.975355, 42.093844000000004], [-70.975002, 42.094466999999995], [-70.974964, 42.095237999999995], [-70.97519, 42.095731], [-70.97507200000001, 42.096228999999994], [-70.975321, 42.096855], [-70.976817, 42.099813], [-70.976733, 42.100534999999994], [-70.97686399999999, 42.101212000000004], [-70.976259, 42.102204000000015], [-70.977727, 42.10487599999998], [-70.97761299999999, 42.106085], [-70.978004, 42.10655099999999], [-70.97792799999999, 42.107159999999986], [-70.97838899999999, 42.10765699999998], [-70.978612, 42.108360000000005], [-70.97977999999999, 42.10860100000001], [-70.980194, 42.108909000000004], [-70.980103, 42.109856], [-70.980702, 42.11048999999999], [-70.980603, 42.110973], [-70.979682, 42.111485], [-70.978531, 42.113076], [-70.979117, 42.114076999999995], [-70.998594, 42.111636], [-71.002029, 42.12650599999999], [-71.02185899999999, 42.118745], [-71.026997, 42.123748999999975], [-71.027579, 42.126662], [-71.027233, 42.132948999999996], [-71.035093, 42.135633999999996], [-71.027565, 42.15632099999999], [-71.02199399999999, 42.16900499999999], [-71.021656, 42.16898699999999], [-71.021833, 42.169431], [-71.021606, 42.17030000000001], [-71.022346, 42.17065600000001], [-71.02122, 42.173477], [-71.02153899999999, 42.17409699999999], [-71.020859, 42.17502699999999], [-71.02116099999999, 42.17617500000001], [-71.020574, 42.176565], [-71.020637, 42.17743299999999], [-71.019993, 42.17782599999999], [-71.01999599999999, 42.178398], [-71.01970399999999, 42.178546999999995], [-71.019753, 42.17903700000002], [-71.020124, 42.17953000000001], [-71.019987, 42.18003200000001], [-71.02019899999999, 42.18095199999998], [-71.01983899999999, 42.18125500000001], [-71.019964, 42.181721], [-71.019796, 42.18207600000001], [-71.019845, 42.18257899999998], [-71.019279, 42.183313999999996], [-71.019224, 42.18353199999999], [-71.01938299999999, 42.183671999999994], [-71.018985, 42.183997999999995], [-71.017681, 42.183729], [-71.016604, 42.18378900000001], [-71.012993, 42.18453700000002], [-71.012445, 42.18447399999999], [-71.011941, 42.18419899999999], [-71.008151, 42.186792999999994], [-71.00735999999999, 42.18882000000001], [-71.00713, 42.18984], [-71.00805, 42.190780000000004], [-71.00825, 42.19227000000001], [-71.00793, 42.19395000000001], [-71.00842999999999, 42.194389], [-71.00862099999999, 42.195769999999996], [-71.00831, 42.19691], [-71.00842999999999, 42.19738999999999], [-71.00645, 42.19824], [-71.00748999999999, 42.19971], [-71.00724, 42.20184], [-71.00731999999999, 42.20221], [-71.00809, 42.20373999999999], [-71.00842999999999, 42.204100000000004], [-71.01410500000001, 42.20864400000001], [-71.01290399999999, 42.20926600000001], [-71.012192, 42.209996000000004], [-71.01195, 42.21053299999999], [-71.01137899999999, 42.210857999999995], [-71.010428, 42.21021499999999], [-71.009942, 42.210150000000006], [-71.00992, 42.210968000000015], [-71.007379, 42.21086999999999], [-71.005876, 42.210443999999995], [-71.00582, 42.20978999999999], [-71.00359, 42.209860000000006], [-71.00363999999999, 42.20917999999999], [-71.00416, 42.207329999999985], [-71.003522, 42.207921000000006], [-71.002641, 42.208417], [-70.998187, 42.20979300000001], [-70.997841, 42.210080999999995], [-70.99725600000001, 42.211557000000006], [-70.99712, 42.21369999999998], [-70.99725, 42.215660000000014], [-70.996735, 42.214408999999996], [-70.996383, 42.21166799999999], [-70.995436, 42.21098799999999], [-70.99428999999999, 42.211090000000006], [-70.99398, 42.216289999999994], [-70.99437999999999, 42.218090000000004], [-70.99549, 42.220360000000014], [-70.99253999999999, 42.22063000000001], [-70.992929, 42.22256099999999], [-70.989301, 42.22258600000001], [-70.98348399999999, 42.22233499999999], [-70.98422, 42.223299999999995], [-70.98510999999999, 42.224], [-70.9856, 42.22460999999999], [-70.98705, 42.227830000000004], [-70.991073, 42.23007099999998], [-70.9901, 42.232203999999996], [-70.990014, 42.233367000000015], [-70.98953399999999, 42.234053999999986], [-70.988725, 42.23445600000001], [-71.00216999999999, 42.232208], [-71.01079, 42.228667999999985], [-71.033068, 42.227813000000005], [-71.044938, 42.215384], [-71.044883, 42.206583], [-71.04592199999999, 42.206342], [-71.046815, 42.20645299999999], [-71.04793699999999, 42.20635999999999], [-71.049509, 42.206778], [-71.051476, 42.20623399999999], [-71.05223, 42.206315], [-71.052921, 42.205982999999996], [-71.05489, 42.205825999999995], [-71.057368, 42.20593499999999], [-71.058292, 42.206116000000016], [-71.059445, 42.20597900000003], [-71.060324, 42.20630499999999], [-71.064398, 42.205677999999985], [-71.069501, 42.20448700000001], [-71.071574, 42.20425600000001], [-71.07170099999999, 42.204379999999986], [-71.07440799999999, 42.204289999999986], [-71.074716, 42.204361000000006], [-71.075149, 42.204848999999975], [-71.077195, 42.20464099999999], [-71.078011, 42.204788], [-71.07918, 42.20468100000001], [-71.081043, 42.204927], [-71.081458, 42.20484699999999], [-71.082056, 42.204353999999995], [-71.082707, 42.204269000000004], [-71.09329900000002, 42.213981000000004]]]}}