{"type": "Feature", "properties": {"district_name": "Third Essex District", "chamber": "senate", "vintage": "2022-present"}, "geometry": {"type": "Polygon", "coordinates": [[[-71.07514600000002, 42.531059], [-71.070978, 42.55588899999999], [-71.064937, 42.56211600000001], [-71.057125, 42.57404100000001], [-71.056184, 42.57366200000001], [-71.055548, 42.573653], [-71.055066, 42.574032999999986], [-71.054829, 42.574028], [-71.054016, 42.573044], [-71.0531, 42.57307900000001], [-71.053046, 42.57258899999999], [-71.053737, 42.572508], [-71.053431, 42.572321], [-71.052649, 42.57233300000001], [-71.0527, 42.572092], [-71.052462, 42.571787], [-71.052875, 42.57153299999999], [-71.052772, 42.571372], [-71.052318, 42.57162], [-71.051938, 42.572126000000004], [-71.05146, 42.571587000000015], [-71.051077, 42.571819], [-71.050836, 42.57124400000001], [-71.050665, 42.571288], [-71.050534, 42.57172299999997], [-71.049798, 42.57111700000001], [-71.049452, 42.571011999999996], [-71.049055, 42.571096], [-71.048637, 42.571473], [-71.047278, 42.571991], [-71.046307, 42.572593], [-71.044821, 42.572830999999994], [-71.044322, 42.573817000000005], [-71.044145, 42.57390300000001], [-71.043762, 42.573839], [-71.043516, 42.573529], [-71.042978, 42.573265], [-71.041411, 42.573454000000005], [-71.04026, 42.572508], [-71.04015, 42.571690999999994], [-71.039845, 42.57142000000001], [-71.038472, 42.571152000000005], [-71.037663, 42.57116400000001], [-71.03733100000001, 42.57168699999998], [-71.036965, 42.571763000000004], [-71.035498, 42.57062], [-71.034859, 42.56555099999999], [-71.031558, 42.551203], [-71.005288, 42.52299200000001], [-70.987054, 42.51184400000001], [-70.95714, 42.496528000000005], [-70.933985, 42.490802999999985], [-70.906539, 42.484263000000006], [-70.905075, 42.484840000000005], [-70.901779, 42.485358000000005], [-70.89903300000002, 42.48467200000001], [-70.894478, 42.48587800000001], [-70.890624, 42.48874300000001], [-70.889949, 42.490141], [-70.890958, 42.493213999999995], [-70.89052, 42.49337899999999], [-70.890801, 42.493644999999994], [-70.888598, 42.494385000000015], [-70.888401, 42.49471299999999], [-70.888021, 42.49493700000001], [-70.887326, 42.494942], [-70.886604, 42.495179], [-70.886362, 42.495695000000005], [-70.886488, 42.495998000000014], [-70.886141, 42.496149], [-70.885673, 42.49669299999999], [-70.885497, 42.49736799999999], [-70.885801, 42.4978], [-70.886001, 42.497809], [-70.886761, 42.49844699999999], [-70.882245, 42.50270700000001], [-70.879544, 42.50374999999998], [-70.878708, 42.505365], [-70.879359, 42.508429], [-70.879692, 42.509294999999995], [-70.877392, 42.514195], [-70.875092, 42.518494999999994], [-70.858092, 42.52739499999999], [-70.843292, 42.528795], [-70.813707, 42.52237900000001], [-70.799042, 42.509222], [-70.767571, 42.484591], [-70.749489, 42.492722000000015], [-70.736119, 42.50010699999999], [-70.617339, 42.500099], [-70.640006, 42.43166], [-70.648072, 42.40562799999999], [-70.749487, 42.400820000000024], [-70.851436, 42.393209000000006], [-70.901292, 42.384098000000016], [-70.924593, 42.386798], [-70.959494, 42.407498000000004], [-70.962093, 42.412397000000006], [-70.959093, 42.41859699999998], [-70.952993, 42.42939599999999], [-70.951393, 42.436996], [-70.950793, 42.44429599999999], [-70.966293, 42.44349700000001], [-70.968594, 42.444396], [-70.971594, 42.442696], [-70.975194, 42.436896000000004], [-70.979894, 42.432396000000004], [-70.982294, 42.431296], [-70.983708, 42.431663], [-70.985754, 42.432557], [-70.987805, 42.43399799999998], [-70.99012, 42.43487700000001], [-70.992023, 42.43413499999999], [-70.994779, 42.43119600000001], [-70.995714, 42.430855000000015], [-70.998475, 42.431296], [-70.999857, 42.431296], [-71.00215, 42.43260800000001], [-71.002994, 42.432837], [-71.003302, 42.43270299999998], [-71.004632, 42.43305500000001], [-71.005691, 42.432981], [-71.006532, 42.43339399999999], [-71.006974, 42.43383800000001], [-71.007873, 42.433972], [-71.00858, 42.434346], [-71.009277, 42.43427799999999], [-71.010777, 42.43456799999998], [-71.010802, 42.435397999999985], [-71.011416, 42.435990999999994], [-71.01144, 42.436225000000015], [-71.010994, 42.43654200000001], [-71.011442, 42.436693000000005], [-71.01109, 42.436795], [-71.010927, 42.437083], [-71.010639, 42.43719599999999], [-71.010677, 42.437347], [-71.010425, 42.437583999999994], [-71.010736, 42.43776400000001], [-71.010625, 42.438102], [-71.01013, 42.43817599999999], [-71.010099, 42.438301], [-71.010536, 42.43844500000001], [-71.01067, 42.438739000000005], [-71.01093, 42.438597000000016], [-71.011141, 42.43906399999998], [-71.011802, 42.438997], [-71.012365, 42.439741000000005], [-71.011897, 42.439748000000016], [-71.011826, 42.439944000000004], [-71.009503, 42.440963999999994], [-71.011924, 42.442164], [-71.018757, 42.45011800000001], [-71.025836, 42.44470900000001], [-71.054214, 42.476903], [-71.052621, 42.48610199999999], [-71.050252, 42.48653299999999], [-71.045209, 42.488720000000015], [-71.039854, 42.496055], [-71.040143, 42.496189], [-71.04012, 42.49639199999999], [-71.040371, 42.49654], [-71.040324, 42.496846], [-71.040638, 42.49722100000003], [-71.041085, 42.497484], [-71.040938, 42.497731], [-71.042032, 42.49815300000001], [-71.042037, 42.498537], [-71.042317, 42.498799000000005], [-71.042503, 42.499381], [-71.043243, 42.499643000000006], [-71.043671, 42.50005699999999], [-71.043717, 42.50021600000001], [-71.043553, 42.50034699999999], [-71.043833, 42.50088000000001], [-71.043759, 42.50125199999999], [-71.042499, 42.50199599999999], [-71.042229, 42.50234300000001], [-71.042219, 42.50260599999999], [-71.04124, 42.502613], [-71.040982, 42.50275499999999], [-71.040604, 42.50259799999999], [-71.039751, 42.50303400000001], [-71.038622, 42.502727], [-71.03818, 42.502950999999996], [-71.038267, 42.503261], [-71.038033, 42.503165000000024], [-71.037796, 42.50338999999998], [-71.037437, 42.50330700000001], [-71.036962, 42.50353299999999], [-71.03622, 42.50420100000001], [-71.036228, 42.50461299999999], [-71.035841, 42.504843], [-71.035739, 42.50573599999999], [-71.035424, 42.50590900000001], [-71.035404, 42.506377], [-71.0349, 42.506758], [-71.034914, 42.50710400000001], [-71.03563200000002, 42.50756299999998], [-71.035553, 42.508313], [-71.035901, 42.50843300000001], [-71.035717, 42.50862], [-71.036305, 42.50900200000001], [-71.036206, 42.50926999999999], [-71.036529, 42.509508000000004], [-71.036457, 42.50969300000001], [-71.036756, 42.50997399999999], [-71.037048, 42.509999000000015], [-71.036926, 42.51045899999998], [-71.036497, 42.510828], [-71.03667400000002, 42.511557999999994], [-71.036556, 42.51243500000001], [-71.036911, 42.512541000000006], [-71.037496, 42.513287], [-71.038298, 42.513750000000016], [-71.038383, 42.51418899999999], [-71.039467, 42.51445799999999], [-71.039259, 42.51484100000002], [-71.038274, 42.515692], [-71.038296, 42.516242000000005], [-71.038516, 42.51642300000002], [-71.038907, 42.516341], [-71.039036, 42.51648999999999], [-71.038888, 42.51674100000001], [-71.040261, 42.51742099999999], [-71.040127, 42.518809999999995], [-71.040325, 42.519292999999976], [-71.040989, 42.51984700000001], [-71.04108, 42.520123000000005], [-71.040913, 42.521718], [-71.040086, 42.52223200000001], [-71.039287, 42.523205], [-71.038736, 42.52353800000001], [-71.038599, 42.523959999999995], [-71.03869, 42.52425900000001], [-71.039167, 42.524789], [-71.040004, 42.525189], [-71.040983, 42.52626200000001], [-71.057662, 42.52417899999999], [-71.058209, 42.523914999999995], [-71.058447, 42.523610000000005], [-71.05902, 42.523872000000004], [-71.059109, 42.524089999999994], [-71.060069, 42.52430699999999], [-71.060744, 42.525239], [-71.061478, 42.525034999999995], [-71.062026, 42.52427599999997], [-71.06327600000002, 42.524659000000014], [-71.063784, 42.52462899999999], [-71.064241, 42.52440400000001], [-71.065395, 42.524779], [-71.066354, 42.52481], [-71.067122, 42.52536999999999], [-71.067324, 42.52522099999999], [-71.067263, 42.52494200000001], [-71.067567, 42.52468], [-71.07514600000002, 42.531059]], [[-70.835351, 42.483776000000006], [-70.835159, 42.482476999999996], [-70.834866, 42.482296999999996], [-70.834915, 42.48203099999998], [-70.83452400000002, 42.481931], [-70.834377, 42.482125], [-70.833361, 42.48192199999999], [-70.833558, 42.48254700000001], [-70.834245, 42.482695], [-70.834939, 42.483343999999995], [-70.834599, 42.48410899999999], [-70.833317, 42.483868000000015], [-70.83319, 42.483923], [-70.833352, 42.48408200000001], [-70.832987, 42.484123], [-70.833183, 42.48467200000001], [-70.833768, 42.48540200000001], [-70.833704, 42.485713], [-70.834263, 42.48547199999999], [-70.834685, 42.484421000000005], [-70.835351, 42.483776000000006]], [[-70.817553, 42.513889000000006], [-70.816935, 42.51321000000001], [-70.816433, 42.51307], [-70.816054, 42.512711], [-70.815591, 42.512736], [-70.81447, 42.510962], [-70.813736, 42.510713000000024], [-70.813365, 42.51097499999999], [-70.813071, 42.51068699999999], [-70.812719, 42.51062900000001], [-70.81291, 42.510393], [-70.812685, 42.510036], [-70.812422, 42.510022000000006], [-70.812067, 42.510329], [-70.811873, 42.51098500000001], [-70.812569, 42.51119], [-70.812298, 42.51149200000001], [-70.812322, 42.511793000000004], [-70.811897, 42.512052], [-70.81294800000002, 42.51229200000001], [-70.813844, 42.512128999999995], [-70.814238, 42.51247400000002], [-70.814323, 42.51282900000001], [-70.814795, 42.51338800000003], [-70.815335, 42.51351900000001], [-70.81537400000002, 42.51372599999999], [-70.814949, 42.513970999999984], [-70.81503400000001, 42.514132], [-70.815738, 42.514161], [-70.81607, 42.514669], [-70.816456, 42.51472600000001], [-70.817399, 42.514293], [-70.817553, 42.513889000000006]]]}}