{"type": "Feature", "properties": {"district_name": "Bristol and Norfolk", "chamber": "senate", "vintage": "2001-2010"}, "geometry": {"type": "Polygon", "coordinates": [[[-71.23229907142442, 42.258197802130375], [-71.23190002425221, 42.25659883520848], [-71.23289993601736, 42.25419904679859], [-71.2359999477154, 42.245499160734276], [-71.23970000236486, 42.23429881745047], [-71.24609994144156, 42.215999223302155], [-71.24690000515584, 42.214399004460276], [-71.25137894594388, 42.20259786276988], [-71.24366702551838, 42.19676881974593], [-71.2412990264936, 42.192498838691684], [-71.24169801276692, 42.18849784862685], [-71.24017991659926, 42.18695094554582], [-71.24006998111251, 42.1864521480222], [-71.24059808644195, 42.18529812919333], [-71.24009800703477, 42.18399773210881], [-71.23559794949341, 42.18129775782912], [-71.23319892410724, 42.1812989540281], [-71.22569908347458, 42.17179925348354], [-71.2251980668052, 42.170897737842665], [-71.22139897006883, 42.17079910095315], [-71.21939799594716, 42.16849897733163], [-71.21249707772158, 42.1683980389756], [-71.2123969630437, 42.167498033639], [-71.2109190188064, 42.16670203774896], [-71.20835202383442, 42.16411894069495], [-71.20679797021849, 42.16279882481055], [-71.20459796626561, 42.161098891173324], [-71.20219796211963, 42.15989919736989], [-71.20117302301246, 42.158407065649435], [-71.19547905846463, 42.151303191273875], [-71.19409991406782, 42.14982018049995], [-71.18649695986794, 42.15329907053778], [-71.18717500521134, 42.15535083878087], [-71.1884499745009, 42.16075397596388], [-71.18801100870745, 42.16108590019803], [-71.18655400434251, 42.16119502844568], [-71.18564807954648, 42.16193080948656], [-71.18458990864106, 42.16225089253993], [-71.18286402142661, 42.16379299156112], [-71.18050093870158, 42.165310782580555], [-71.17978799323382, 42.16622486767731], [-71.17950797148671, 42.16547119392184], [-71.17776007204024, 42.166056003277504], [-71.17766502424956, 42.163735164607886], [-71.17572890804863, 42.155644835222496], [-71.17640308094533, 42.15524103354231], [-71.17155909299626, 42.15127316132117], [-71.16210797792878, 42.145166831001305], [-71.1633269068132, 42.14141325997143], [-71.14903794359722, 42.138447718584985], [-71.14969900850535, 42.13702610414977], [-71.15005995829829, 42.1358010782137], [-71.15005600174962, 42.13473587015523], [-71.14978500830689, 42.133633833153425], [-71.14850905842675, 42.131114082026166], [-71.14799597091857, 42.12760011399972], [-71.14769395184904, 42.12729926491435], [-71.14739509377405, 42.12660003074374], [-71.1493370153442, 42.125639828541104], [-71.15397898348347, 42.12438223141814], [-71.15903090700857, 42.12138410008997], [-71.16076308524366, 42.11979510286566], [-71.16321107317492, 42.11689483529202], [-71.16454002314754, 42.11591175190751], [-71.16484199222812, 42.11551086518421], [-71.16523505357642, 42.114710724096746], [-71.1655100733727, 42.11275219207804], [-71.16598906943743, 42.11188083561444], [-71.16685196609355, 42.110863165697346], [-71.16694999687964, 42.110471245910006], [-71.16803200774856, 42.11032189382359], [-71.17016400409693, 42.11032974059515], [-71.17482997949594, 42.110725156699935], [-71.17498094061064, 42.110982178148745], [-71.17628295637472, 42.11170218705742], [-71.17688307374473, 42.11179897831136], [-71.17923200340894, 42.111659276750515], [-71.17996294935345, 42.11132707510654], [-71.18085500083077, 42.10897295983146], [-71.18184304154326, 42.107657855483076], [-71.18325990734398, 42.10679127887586], [-71.1857209392595, 42.10579419355471], [-71.1862699140264, 42.10541305966769], [-71.18718094078183, 42.104358230150076], [-71.18805807326285, 42.10281374823878], [-71.1881540618723, 42.1018467207886], [-71.18798406922967, 42.10084295575963], [-71.18878209148612, 42.10051088049378], [-71.19009396245515, 42.09943123146815], [-71.19348498248134, 42.097514219152984], [-71.19560699469415, 42.08264476699117], [-71.19356202435627, 42.07942907485115], [-71.18421207111143, 42.066926771028996], [-71.17801390867047, 42.057970892097615], [-71.16859498022158, 42.061701772601076], [-71.15669308692134, 41.99999924464477], [-71.12059096698054, 41.99770014147144], [-71.11716706012766, 41.996666840976204], [-71.11516807409969, 41.99643785873483], [-71.10999106585993, 41.995400117138985], [-71.10179095097418, 41.99480013546444], [-71.12019099021104, 41.97219996413614], [-71.12579095828394, 41.965999867227445], [-71.14286391476755, 41.947945178846965], [-71.15239201687226, 41.93759976628149], [-71.16319209079387, 41.930800179777926], [-71.16389193842984, 41.930200134561304], [-71.1770920523582, 41.92149979035], [-71.17979197699201, 41.920100037837855], [-71.19539297642187, 41.90999974873106], [-71.19189205023028, 41.8968002659451], [-71.18769194992313, 41.87989999950163], [-71.20379294758393, 41.88249991142035], [-71.20268590837789, 41.87510010469079], [-71.20286604513551, 41.8751000111132], [-71.20216291814796, 41.869075966793346], [-71.19908098494264, 41.84845379835638], [-71.1976620596433, 41.843747962713806], [-71.19319109169999, 41.81670126051508], [-71.19327994907135, 41.81445174239996], [-71.19009107638206, 41.79790080919959], [-71.18769092799215, 41.78390106174879], [-71.19139103897487, 41.78380084827559], [-71.23809196299177, 41.77940078662124], [-71.2391919578133, 41.779000964183965], [-71.25319192731155, 41.77820100816238], [-71.25469192667948, 41.77790094080978], [-71.26399293673444, 41.776800770516246], [-71.2704929139513, 41.776300846771676], [-71.27519306401031, 41.7756011891744], [-71.2808939560075, 41.77520094551065], [-71.2819940200401, 41.774900874833044], [-71.29549405523116, 41.775301238008026], [-71.30929498855491, 41.77550073996639], [-71.31479507554486, 41.77570113695043], [-71.31753694997539, 41.77606682637386], [-71.32847368004401, 41.780772953831345], [-71.32868070021325, 41.781160978765236], [-71.32878974129596, 41.78220104765437], [-71.3291752018453, 41.78270582245804], [-71.32930864221026, 41.78200599979797], [-71.32950656311542, 41.78186336541535], [-71.32979005947264, 41.78226275707133], [-71.32979398785514, 41.78410285442472], [-71.33027768391791, 41.78555933001175], [-71.32986659605362, 41.78626830575973], [-71.32942765854034, 41.78825123413169], [-71.33008502828145, 41.788593223772644], [-71.33046824042827, 41.78911318403051], [-71.33090368787025, 41.789289399228295], [-71.33082796707909, 41.789489614795315], [-71.33103398059153, 41.789563636578436], [-71.33128604452509, 41.78942614385478], [-71.3323108510864, 41.79015637724276], [-71.33239556276943, 41.790396220089335], [-71.33174714391912, 41.79085444331454], [-71.33290194404307, 41.79162988062393], [-71.33297123643652, 41.79180161143383], [-71.33266633759945, 41.79215623978531], [-71.332895787022, 41.79225842852264], [-71.33277397316681, 41.792401743161456], [-71.33300337943975, 41.79266430647506], [-71.33293543919942, 41.79305304559939], [-71.33341719494419, 41.7932180646006], [-71.33375419285865, 41.793891568276166], [-71.33402205300628, 41.79404558086778], [-71.33426010834557, 41.794673921383776], [-71.33532291862372, 41.795147020130365], [-71.33682003810239, 41.79516830570964], [-71.33785236185993, 41.79573812477869], [-71.33934271823783, 41.79606211020187], [-71.34029934163209, 41.79699813010915], [-71.34040846196545, 41.797792278842074], [-71.34114995828732, 41.79823673679787], [-71.34115089797484, 41.79861432224066], [-71.34080850672133, 41.799157430676615], [-71.34113004278936, 41.79959117250842], [-71.34129965069397, 41.80018507676749], [-71.34101887889184, 41.801197016042636], [-71.34068401891713, 41.801654601351295], [-71.34089114263524, 41.80220860556754], [-71.3405719038669, 41.80288285891863], [-71.3401448426638, 41.80328910626144], [-71.33975773640877, 41.804329591784445], [-71.33961427819438, 41.80522692581943], [-71.33978326094241, 41.80562106626709], [-71.33962341784228, 41.805929773872414], [-71.33976147536488, 41.80613536019176], [-71.33916026815432, 41.807290336954956], [-71.33913043442747, 41.80763861747492], [-71.33937570271948, 41.80798109600806], [-71.33930809008166, 41.80847281647928], [-71.3474399983723, 41.82322157035667], [-71.34517997464579, 41.827607159030585], [-71.33536839149642, 41.83560707705763], [-71.3423893599153, 41.84456363485329], [-71.33399399822954, 41.86251420639865], [-71.34086321696977, 41.88179870011639], [-71.3387498339562, 41.898584339080536], [-71.33960326649938, 41.898483127193906], [-71.33949796270312, 41.89909915179748], [-71.33993709045848, 41.89954375016392], [-71.34009801282562, 41.900398739191], [-71.34031805757638, 41.90065677045091], [-71.34139806977903, 41.900999280892734], [-71.34209804958094, 41.900599035628154], [-71.34259805549986, 41.900499000141906], [-71.34299795333582, 41.90059915123718], [-71.3432980835397, 41.90129901774956], [-71.3420980896435, 41.90179874311154], [-71.34029799856545, 41.90219914301638], [-71.33839807450657, 41.902898737428316], [-71.3359979240974, 41.90499874188263], [-71.33447406294033, 41.9039842195451], [-71.33261300050088, 41.903251102864104], [-71.32916404307348, 41.903472768467665], [-71.32339790939183, 41.90469915403547], [-71.32160994010317, 41.904465098842145], [-71.32069699570181, 41.90539890058726], [-71.3205109348255, 41.90586791225155], [-71.32167191624339, 41.90822581714772], [-71.32190091145966, 41.913215200041776], [-71.3228009811728, 41.91410006154824], [-71.3230980513182, 41.91509877702992], [-71.3222979830121, 41.91589883975789], [-71.32069806177208, 41.916999258583004], [-71.31869792870602, 41.917998857224156], [-71.31429704241542, 41.92179910882658], [-71.31349700804924, 41.92219902020659], [-71.30369705928709, 41.92889914954367], [-71.30203307715995, 41.93082413477157], [-71.30079700861475, 41.93299912471855], [-71.30059693337344, 41.93359919096335], [-71.30089705683906, 41.93359915175357], [-71.29939693122132, 41.93469888294735], [-71.29579701708495, 41.936598977714524], [-71.29239694949743, 41.93879924864979], [-71.28799708053675, 41.94189903408843], [-71.28449697129774, 41.944599136143815], [-71.28379693993614, 41.94459893901045], [-71.28459708571906, 41.95059897098776], [-71.28614898233715, 41.94930989733543], [-71.28726292973461, 41.94947009910991], [-71.28776597755531, 41.949333169963346], [-71.28852899229067, 41.949790944799254], [-71.28903302206254, 41.94969902892175], [-71.29029704699914, 41.9498988679782], [-71.28969705697179, 41.95239902329432], [-71.2883460346724, 41.95545205813777], [-71.28770500527534, 41.95778612567373], [-71.28819708457365, 41.96209910274962], [-71.28959704639084, 41.964699167479], [-71.29109706537614, 41.96659882089132], [-71.29149704745724, 41.96809917814556], [-71.29159592522232, 41.9691617581545], [-71.29139693256312, 41.97149889910078], [-71.27929708583329, 41.97929899095057], [-71.27659700285962, 41.981299248946414], [-71.26979695223797, 41.98579926404969], [-71.27509704404427, 41.99359885468529], [-71.27529705732557, 41.99409893478915], [-71.27639693031199, 41.995098776445246], [-71.28179691698978, 42.004698911520535], [-71.28189696764926, 42.00549927541724], [-71.28249798871217, 42.00629890489303], [-71.28689809324646, 42.014899194611296], [-71.28937002401916, 42.0559279568713], [-71.28590407621407, 42.062612097309234], [-71.28689398837105, 42.06758825941187], [-71.28746107125026, 42.07765778921512], [-71.28399400272343, 42.08470817288171], [-71.28001197001042, 42.089220228142146], [-71.29594406071072, 42.11745179523962], [-71.29599094583152, 42.11826723240578], [-71.29648709336203, 42.11910316291171], [-71.29687295446631, 42.119391950504884], [-71.29660001576934, 42.11989226996149], [-71.29987495733603, 42.125952131493534], [-71.2988700660476, 42.126469181521266], [-71.2993749852513, 42.127790723857586], [-71.29925795599165, 42.12870378100199], [-71.29965007081893, 42.12930880700966], [-71.2996540816701, 42.12995423078679], [-71.30162901676621, 42.136954835295086], [-71.30116803029784, 42.13713691365199], [-71.30102706237832, 42.1376701078127], [-71.30012592779963, 42.13849401934121], [-71.29952702714851, 42.13841194458631], [-71.2989030428502, 42.13884975666627], [-71.2990140919783, 42.13947511012959], [-71.29863695399996, 42.14026785370692], [-71.29937295587082, 42.14087292045323], [-71.29910998353273, 42.141306863345335], [-71.29916301224624, 42.141752051074846], [-71.2996130269868, 42.141824864232326], [-71.29989803963832, 42.14213372114768], [-71.30003695870775, 42.143037095091884], [-71.29954291906238, 42.14379418719094], [-71.29966095731724, 42.14406617701712], [-71.29997805857263, 42.14421303249652], [-71.30023294256121, 42.14502995264431], [-71.30025095721484, 42.14525224995422], [-71.29995500922776, 42.14564899893435], [-71.30019098027604, 42.14623011533709], [-71.29968308841059, 42.14729610494047], [-71.29988401179851, 42.14754291777599], [-71.30044898423583, 42.147380720270746], [-71.30051596488296, 42.14754176857853], [-71.30030198507268, 42.147839063360415], [-71.30040404409708, 42.14808626566447], [-71.30125199711186, 42.148109121656695], [-71.30165293543256, 42.14835515259132], [-71.30173899434108, 42.1487638203633], [-71.30198991413687, 42.14898595717703], [-71.30227306419816, 42.14893580313763], [-71.30236991374959, 42.14855221002101], [-71.30293500020923, 42.148476093301376], [-71.3033369628924, 42.1488211549499], [-71.30339092636568, 42.14940307737189], [-71.3393450635981, 42.14923290503073], [-71.3386670606134, 42.1508339526325], [-71.33830496942419, 42.15123183222269], [-71.33595697264062, 42.15255927538858], [-71.33596003985264, 42.153055016120476], [-71.33439905937239, 42.15347873351729], [-71.33386901770672, 42.15381502223358], [-71.33360594029453, 42.15428618095046], [-71.33357593304326, 42.154843207613155], [-71.33395196559364, 42.1562898844681], [-71.33380503021034, 42.15673589027346], [-71.33276198270917, 42.15751877294131], [-71.3323469378084, 42.15760707282222], [-71.33166307920315, 42.157324159492106], [-71.33131408596071, 42.15738723124633], [-71.33121695600148, 42.15779504357076], [-71.3313510207899, 42.15793085083639], [-71.3321510799487, 42.158101959506354], [-71.33271996894541, 42.1586818061045], [-71.3327560462634, 42.159053801336825], [-71.3322320448708, 42.16023075999641], [-71.33184906855587, 42.16026902498162], [-71.33153008858092, 42.15977507164913], [-71.33121302833742, 42.15962717872925], [-71.33064793616552, 42.159751826729064], [-71.33041706076207, 42.160112174056344], [-71.33088700718326, 42.16064292854652], [-71.33166992448108, 42.160802198533375], [-71.3318540959855, 42.16101179195264], [-71.33172207101337, 42.16117309216982], [-71.33092492336604, 42.161385744039244], [-71.33091002576933, 42.16158379127068], [-71.33219199556049, 42.16179105912572], [-71.33136498478441, 42.16242400463315], [-71.33075794551222, 42.16366273042257], [-71.33084293063553, 42.16398528087294], [-71.33135794598151, 42.163934271518805], [-71.33205408299827, 42.16346206572301], [-71.33258705061947, 42.16348479037542], [-71.33273904120439, 42.16385582912646], [-71.33251000244162, 42.16445082747515], [-71.33289793897029, 42.165266740431534], [-71.33238595544117, 42.16581293379851], [-71.33258707032958, 42.16598597536191], [-71.33345108164093, 42.16582180103812], [-71.33368796809732, 42.16641578932737], [-71.3331260924847, 42.1669500969009], [-71.33184691490617, 42.167361246903134], [-71.33106993688385, 42.16799482587751], [-71.33108791024594, 42.16820473796023], [-71.33138805945374, 42.168327847465775], [-71.33254992923457, 42.16787883072246], [-71.33278398448897, 42.16804010335889], [-71.33253705368959, 42.16838692637364], [-71.33195605133393, 42.168635913314915], [-71.33195707087074, 42.168822167157536], [-71.33204108374487, 42.16894495796233], [-71.33250593661353, 42.1688567320142], [-71.33287296559101, 42.16900525660435], [-71.33297496416043, 42.16926480802672], [-71.3328109518227, 42.16957517709545], [-71.33183192818817, 42.16994793809081], [-71.3314529611839, 42.17051908056342], [-71.33107105008399, 42.17063105768662], [-71.3300219314578, 42.170546790960636], [-71.32955901250908, 42.17089497515188], [-71.32901092556803, 42.171056778201255], [-71.32795408063951, 42.17228581280667], [-71.32752206987685, 42.17238588631136], [-71.32612292474197, 42.172079917531136], [-71.3258280370069, 42.17272375650865], [-71.32556195782789, 42.17286121246421], [-71.3253960849449, 42.17280018887881], [-71.32522402676976, 42.172032972565546], [-71.32402709325297, 42.17212286130195], [-71.32400692760969, 42.17168899194751], [-71.32373995339809, 42.171604177504086], [-71.3235079845679, 42.17171579714334], [-71.32344296302234, 42.171976225170035], [-71.32358108368521, 42.17263085285487], [-71.3233319519975, 42.172656915977406], [-71.32276403515662, 42.172324049109186], [-71.3223140870391, 42.172276086306496], [-71.32216602664295, 42.172473925663354], [-71.32301901880872, 42.17311503035838], [-71.32258807447465, 42.1734379143891], [-71.32160699596889, 42.17348984835405], [-71.3199419345814, 42.17325991680317], [-71.31951391372455, 42.17407796602405], [-71.31854600168407, 42.17362178039431], [-71.31848295559472, 42.174043139631095], [-71.31868898198194, 42.17500792576163], [-71.31895804610286, 42.175490018212344], [-71.31891297033951, 42.17610891201197], [-71.31883201555397, 42.17644415059205], [-71.31792594177625, 42.177757734494996], [-71.31889702587456, 42.17864720525021], [-71.31939605062477, 42.17874421312253], [-71.32020694081149, 42.17811076718139], [-71.32049006755436, 42.17811008534051], [-71.32065805680031, 42.178294912202894], [-71.32011601984709, 42.17936093318953], [-71.32013506942559, 42.17964624946664], [-71.32123392608705, 42.17991524782165], [-71.3231220245362, 42.181073950914715], [-71.32383698088314, 42.18099796220387], [-71.32408800248045, 42.18112101500826], [-71.32374205063526, 42.181604964076435], [-71.32382608113205, 42.18179021978556], [-71.32467201446367, 42.1814780951815], [-71.32510507340776, 42.181501826923096], [-71.32544106597777, 42.18202114342038], [-71.3261259400193, 42.18236599030506], [-71.32622798566621, 42.182675064360666], [-71.32588605323748, 42.18376504794068], [-71.32598694543735, 42.184012223983935], [-71.3273349721999, 42.18394673807717], [-71.32751902675427, 42.184218796488906], [-71.32752306438742, 42.1847511115475], [-71.32898691969051, 42.184734734762515], [-71.32927099770545, 42.18488314664255], [-71.329240091491, 42.185192019862804], [-71.32847897993275, 42.185813224096584], [-71.32841504377522, 42.186234023818926], [-71.32864909240419, 42.18641893746388], [-71.3301140781962, 42.18648920284582], [-71.3303479438697, 42.18667411273608], [-71.33032096785274, 42.1875659431351], [-71.3304549309215, 42.187763084195936], [-71.33162502803954, 42.188626855254554], [-71.33225892338737, 42.188761142563735], [-71.33471897187034, 42.18845804577412], [-71.33515295623985, 42.188655050555376], [-71.33536607699014, 42.19064673034575], [-71.33555090775224, 42.19100486873699], [-71.3359190475024, 42.19121528073116], [-71.33751594156348, 42.19108700908124], [-71.3389930205243, 42.190538214856105], [-71.33921097323058, 42.190747842672934], [-71.33901992726398, 42.19201082200179], [-71.3393400723155, 42.19258015408544], [-71.33916106201899, 42.19319886609172], [-71.33974503853545, 42.19357274924291], [-71.33888493895988, 42.19413986472547], [-71.33908590893839, 42.194411927743296], [-71.3399340818608, 42.194298887712144], [-71.34018405166543, 42.194421903417634], [-71.34020291501928, 42.19474379029467], [-71.3399890884239, 42.19506591548598], [-71.3385589889041, 42.1951809518463], [-71.33822801673666, 42.19544213793611], [-71.33816306368784, 42.19576390686836], [-71.33829795092235, 42.195985798236755], [-71.33896807658701, 42.196190998583965], [-71.33916800646413, 42.19672696298697], [-71.339701985078, 42.19698486118944], [-71.3397389494662, 42.19748008276454], [-71.34015705890575, 42.19777607999215], [-71.34212190787157, 42.198019070971746], [-71.34250394847352, 42.19829475300351], [-71.34259109545278, 42.19847493436436], [-71.3422960003257, 42.199144133619384], [-71.3436269307971, 42.199153270617664], [-71.34355793634647, 42.19874522420643], [-71.34373792426638, 42.1984101045486], [-71.34435506605215, 42.19848296825783], [-71.34475106890308, 42.19877891865369], [-71.34468595817061, 42.19933195759675], [-71.34379799280114, 42.20059906144958], [-71.34393500232302, 42.20097006241283], [-71.34430400434759, 42.20132674827459], [-71.34555791729534, 42.20190407777071], [-71.34609597307968, 42.20253782997225], [-71.34648405929232, 42.20330473708381], [-71.34627199243575, 42.20407309090309], [-71.34638107278238, 42.20450088318368], [-71.3479219557027, 42.20442697267462], [-71.34872103097481, 42.20456082452779], [-71.34950601795904, 42.20489271999443], [-71.35055894225894, 42.20562109467025], [-71.3515630219211, 42.206533959363135], [-71.35188307735042, 42.207139829610114], [-71.35127995992018, 42.20887382850098], [-71.35141497706326, 42.20923300079848], [-71.35198493512316, 42.20978911425728], [-71.35207003490396, 42.21013527940142], [-71.35045498660529, 42.212555010225024], [-71.34963308788008, 42.21346324537795], [-71.34678894484418, 42.2151751286934], [-71.34563898137655, 42.21508299414734], [-71.3395769105676, 42.213598739298895], [-71.33888099729357, 42.21393706715717], [-71.33801097492582, 42.21501789774777], [-71.33802406063732, 42.216117977704904], [-71.33843002155315, 42.21669699660908], [-71.33965597227473, 42.21757989057167], [-71.3408610956952, 42.218103745516764], [-71.3414869526467, 42.21892895402879], [-71.34247707164256, 42.219628054158875], [-71.34274807826988, 42.22000993022606], [-71.34280391470003, 42.22054118680597], [-71.3424310356819, 42.221322252784674], [-71.34147196703596, 42.221970839566104], [-71.34119301080204, 42.222344080415425], [-71.34050208675984, 42.2244262023124], [-71.34017292901912, 42.22481118725262], [-71.33815991668624, 42.226431164817775], [-71.33648809413762, 42.22723287927944], [-71.33327303404992, 42.23005914707644], [-71.33211501789576, 42.230697237349865], [-71.3301009624796, 42.23220622098268], [-71.32922908090252, 42.23312605000328], [-71.32918397717911, 42.23349679532662], [-71.32940700733867, 42.234113834766184], [-71.33051098510603, 42.23594983771313], [-71.33071990971716, 42.23675310359198], [-71.33073002728844, 42.23764273008257], [-71.33047608491648, 42.24008104941683], [-71.32999308057177, 42.24151800495758], [-71.32918795560138, 42.242486885021336], [-71.32889505283107, 42.2445301335309], [-71.32942101826652, 42.245367071190024], [-71.33215792912364, 42.24730393924975], [-71.33210292546194, 42.24869819969903], [-71.3025749886508, 42.248054206496455], [-71.30590207394656, 42.26249788071706], [-71.30820109108414, 42.27089702358561], [-71.3078009897259, 42.27179721467496], [-71.30910095903366, 42.27579726346365], [-71.30380104975626, 42.27859725682343], [-71.29990091586374, 42.282797160750626], [-71.29790090651319, 42.28169698673735], [-71.29700108074384, 42.28039672327697], [-71.2994009279148, 42.27569689129446], [-71.29810105032746, 42.27429690271163], [-71.29640097739828, 42.274497031062644], [-71.29450100116495, 42.27319721929544], [-71.29480091485468, 42.27229689548349], [-71.29580093667265, 42.27219683172862], [-71.29982301724276, 42.2691429006977], [-71.300602078854, 42.26719792420556], [-71.29872697205633, 42.26657682337008], [-71.29820101866707, 42.266996789807735], [-71.29490100442035, 42.26659706288458], [-71.29500098728292, 42.26519727713301], [-71.29470107785221, 42.26499698757469], [-71.2925009437948, 42.26679700652147], [-71.29090105335209, 42.266997234396605], [-71.28750094535752, 42.265396901675835], [-71.28680098778125, 42.265896958198944], [-71.28590096790299, 42.26579681355364], [-71.28460102260752, 42.2643972311032], [-71.28410100768592, 42.263296801693905], [-71.27929992632912, 42.25999707909835], [-71.27839994204531, 42.25969712135532], [-71.27749994330495, 42.259996981448616], [-71.27680004679605, 42.260796890116325], [-71.27589994999555, 42.26079682504126], [-71.27320003413399, 42.26169688818789], [-71.27090004753337, 42.26169682389191], [-71.27100104633136, 42.25879805870698], [-71.27024505317404, 42.25750180370783], [-71.26500001575741, 42.25469687910534], [-71.2643000255526, 42.25559687090975], [-71.26559995686301, 42.259697026141104], [-71.26285096343558, 42.25885804075347], [-71.26219991559348, 42.25769699430364], [-71.25710006587414, 42.25469675594146], [-71.25289992083214, 42.254898238925705], [-71.2515989869414, 42.25529775406201], [-71.24859892910169, 42.255597889617306], [-71.24679892575328, 42.258097897835846], [-71.24489891282022, 42.259297845186396], [-71.23994901127007, 42.25928617872373], [-71.23689991253892, 42.25979915672002], [-71.23229907142442, 42.258197802130375]]]}}