{"type": "Feature", "properties": {"district_name": "Second Suffolk & Middlesex District", "chamber": "senate", "vintage": "2012-2020"}, "geometry": {"type": "Polygon", "coordinates": [[[-71.21709299999999, 42.36661399999999], [-71.194177, 42.386030999999996], [-71.19511700000001, 42.386991], [-71.19530999999999, 42.387570999999994], [-71.19510199999999, 42.387908], [-71.195194, 42.388271], [-71.195757, 42.389111], [-71.196621, 42.38967600000001], [-71.19672200000001, 42.390083], [-71.196606, 42.39074299999999], [-71.196876, 42.391286999999984], [-71.19753899999999, 42.391765], [-71.197617, 42.392264000000004], [-71.197879, 42.392497], [-71.197771, 42.39312100000001], [-71.196676, 42.393776999999986], [-71.196406, 42.394330999999994], [-71.19697699999999, 42.39551800000001], [-71.19849599999999, 42.396277000000005], [-71.199191, 42.396957000000015], [-71.199592, 42.39757499999998], [-71.199747, 42.39841399999999], [-71.200279, 42.39877699999998], [-71.200433, 42.399396], [-71.201397, 42.400187999999986], [-71.201799, 42.401238], [-71.201807, 42.402346], [-71.20254, 42.40308799999999], [-71.202679, 42.40371400000001], [-71.211261, 42.406074], [-71.202642, 42.41482900000001], [-71.194257, 42.41339], [-71.195194, 42.415141000000006], [-71.194521, 42.414936999999995], [-71.19429099999999, 42.415321000000006], [-71.183899, 42.411424000000004], [-71.182147, 42.410978], [-71.177151, 42.41010699999999], [-71.171576, 42.40846499999999], [-71.16686399999999, 42.40670199999999], [-71.163793, 42.40576199999999], [-71.164203, 42.405548999999986], [-71.16405999999999, 42.40533000000001], [-71.162984, 42.404832000000006], [-71.16267, 42.40453099999999], [-71.160625, 42.403976], [-71.15980499999999, 42.403569], [-71.159922, 42.403462000000005], [-71.15808299999999, 42.402561000000006], [-71.157358, 42.40242800000001], [-71.156384, 42.40252400000001], [-71.15235600000001, 42.400791000000005], [-71.156302, 42.395852], [-71.15838699999999, 42.39459300000001], [-71.157118, 42.39056000000001], [-71.157091, 42.389894999999996], [-71.157688, 42.38753100000001], [-71.15798400000001, 42.387042999999984], [-71.158381, 42.386776], [-71.160332, 42.386444], [-71.157971, 42.382805], [-71.157792, 42.38221100000001], [-71.15541999999999, 42.381510000000006], [-71.15514, 42.38130299999999], [-71.155333, 42.380907999999984], [-71.155051, 42.38020000000001], [-71.15625, 42.38064600000001], [-71.154468, 42.37506799999999], [-71.150378, 42.374613], [-71.150239, 42.374376999999996], [-71.145937, 42.37519499999999], [-71.14363, 42.375277000000004], [-71.143925, 42.374074], [-71.13999199999999, 42.373568999999996], [-71.140372, 42.370638], [-71.141008, 42.369333999999995], [-71.14255899999999, 42.366904], [-71.144269, 42.366454000000004], [-71.143501, 42.364968999999995], [-71.14379699999999, 42.364996], [-71.14509799999999, 42.36449199999999], [-71.14679699999999, 42.36229599999999], [-71.14750699999999, 42.361788000000004], [-71.145707, 42.36161], [-71.14620000000001, 42.36130400000001], [-71.147604, 42.358867], [-71.147582, 42.35862099999999], [-71.14908199999999, 42.35615100000001], [-71.144176, 42.35488899999999], [-71.146087, 42.351442000000006], [-71.146033, 42.351181999999994], [-71.145612, 42.350786], [-71.144291, 42.35134600000001], [-71.142997, 42.351634], [-71.142828, 42.351087], [-71.140084, 42.351478], [-71.139956, 42.349465999999985], [-71.139731, 42.348977], [-71.138898, 42.349034], [-71.136803, 42.348389999999995], [-71.136003, 42.34830299999999], [-71.135314, 42.34845399999999], [-71.13298999999999, 42.34956599999999], [-71.133488, 42.35018499999998], [-71.133251, 42.350308], [-71.13371599999999, 42.35090599999999], [-71.134159, 42.35211599999999], [-71.134002, 42.35328299999998], [-71.128344, 42.35260400000001], [-71.128031, 42.35372400000001], [-71.12495, 42.35335399999999], [-71.12474, 42.35430100000001], [-71.120832, 42.353824], [-71.120729, 42.35461500000001], [-71.11804, 42.35391900000002], [-71.11383099999999, 42.351724999999995], [-71.111763, 42.351780000000005], [-71.110661, 42.352393], [-71.110591, 42.35258500000001], [-71.108798, 42.35239699999999], [-71.09919599999999, 42.35279699999999], [-71.091297, 42.354197], [-71.077095, 42.35869699999999], [-71.075692, 42.356065], [-71.07504899999999, 42.355325], [-71.073302, 42.355812], [-71.073021, 42.355309999999996], [-71.072564, 42.355439], [-71.072357, 42.35528200000001], [-71.070655, 42.351853999999996], [-71.073067, 42.351243], [-71.071815, 42.34867700000001], [-71.072692, 42.347930999999996], [-71.076538, 42.34485000000001], [-71.077962, 42.34578599999999], [-71.079972, 42.344149999999985], [-71.08008199999999, 42.34421899999999], [-71.08077999999999, 42.34374400000001], [-71.08350399999999, 42.341263], [-71.09308399999999, 42.333506], [-71.095343, 42.334362], [-71.095089, 42.33475700000001], [-71.099276, 42.335998999999994], [-71.099152, 42.33622399999999], [-71.09813299999999, 42.33678299999999], [-71.10491, 42.33419000000001], [-71.10933299999999, 42.33700000000001], [-71.110894, 42.33550499999999], [-71.11145599999999, 42.335898], [-71.11165199999999, 42.336696], [-71.111378, 42.33688300000001], [-71.111584, 42.33764800000001], [-71.110637, 42.34041000000001], [-71.108412, 42.341888], [-71.105697, 42.343994999999985], [-71.107185, 42.34701099999997], [-71.10656999999999, 42.349912], [-71.1224, 42.351808000000005], [-71.123434, 42.35144899999999], [-71.12421599999999, 42.35152499999999], [-71.126854, 42.35008799999999], [-71.12858299999999, 42.349833000000004], [-71.12928099999999, 42.34906699999999], [-71.133381, 42.347122000000006], [-71.13515500000001, 42.346022999999995], [-71.141302, 42.341072999999994], [-71.141939, 42.340008], [-71.14421200000001, 42.34002199999999], [-71.146597, 42.33849699999999], [-71.146197, 42.33739800000001], [-71.148769, 42.336777000000005], [-71.148398, 42.33579800000002], [-71.15006, 42.335386], [-71.150498, 42.334996], [-71.14999, 42.33449599999999], [-71.14979699999999, 42.334497000000006], [-71.15683299999999, 42.33018899999999], [-71.159325, 42.332767999999994], [-71.161295, 42.33378299999999], [-71.16273199999999, 42.33396099999999], [-71.167565, 42.333441], [-71.168191, 42.33479100000001], [-71.16857, 42.335143], [-71.168886, 42.33582599999999], [-71.169217, 42.33806800000001], [-71.168633, 42.338629], [-71.166808, 42.33928999999997], [-71.16668299999999, 42.340104000000004], [-71.17479800000001, 42.35026500000001], [-71.17479800000001, 42.35079599999998], [-71.173997, 42.353195], [-71.172798, 42.35469599999999], [-71.17119799999999, 42.356396], [-71.16999899999999, 42.357397000000006], [-71.167625, 42.360073000000014], [-71.169506, 42.36019], [-71.17232899999999, 42.359414999999984], [-71.17485599999999, 42.35926799999999], [-71.178845, 42.35978], [-71.182042, 42.36080600000001], [-71.18368, 42.358829], [-71.196058, 42.361747], [-71.192101, 42.365505999999996], [-71.19348099999999, 42.36656], [-71.19462399999999, 42.366980999999996], [-71.19495599999999, 42.367284000000005], [-71.19511299999999, 42.367763000000004], [-71.195444, 42.36789299999997], [-71.195899, 42.36777899999999], [-71.196805, 42.36711000000001], [-71.197234, 42.367123000000014], [-71.19789399999999, 42.367480000000015], [-71.198376, 42.36747200000002], [-71.200957, 42.366169], [-71.202643, 42.36581499999999], [-71.205023, 42.36571500000001], [-71.206321, 42.36461299999999], [-71.207466, 42.364159999999984], [-71.207948, 42.364176000000015], [-71.208922, 42.364536], [-71.210318, 42.364149999999995], [-71.211362, 42.364297], [-71.213326, 42.364896], [-71.214368, 42.36558100000002], [-71.214973, 42.365697999999995], [-71.21553399999999, 42.365608], [-71.216445, 42.365913], [-71.21709299999999, 42.36661399999999]]]}}