{"type": "Feature", "properties": {"district_name": "Second Worcester", "chamber": "senate", "vintage": "2001-2010"}, "geometry": {"type": "Polygon", "coordinates": [[[-71.67061201187144, 42.27859309885893], [-71.65961202892498, 42.266893805424736], [-71.67101206272363, 42.26069403454889], [-71.67381207874816, 42.25749376877499], [-71.6778119785894, 42.25329393537796], [-71.67731203223214, 42.25239384569295], [-71.67671191666706, 42.251893978895005], [-71.67451202431174, 42.248094136430645], [-71.67131200197841, 42.244294058275315], [-71.66261208167747, 42.245894055149805], [-71.65106600525823, 42.247406016655624], [-71.64910793722488, 42.24532494306665], [-71.64491099891035, 42.22739404451939], [-71.64440294761903, 42.22646287037334], [-71.62154196285708, 42.23060599511689], [-71.61715803534018, 42.229726006324746], [-71.60845394373383, 42.22751812792685], [-71.59992593653634, 42.225566022371375], [-71.60283792174066, 42.21756706115145], [-71.58347708316752, 42.19503910794452], [-71.57205304105327, 42.19422307095895], [-71.57278892536448, 42.192239114578044], [-71.55683595021799, 42.19187112474755], [-71.55653193603298, 42.19142280884911], [-71.55600400025095, 42.18867093674242], [-71.55640402724707, 42.18798312975755], [-71.55624409527704, 42.18766303590064], [-71.5567559954454, 42.187502978869084], [-71.55680407257505, 42.18732683210191], [-71.55634006229243, 42.18731074287302], [-71.55665992832223, 42.18604677625534], [-71.55710793175867, 42.185311113845856], [-71.55608406140905, 42.18508710443765], [-71.55579600156815, 42.18467085180955], [-71.55587607881293, 42.18431912941228], [-71.55570007571477, 42.18420723902457], [-71.5552840395459, 42.1843030982186], [-71.55528393563628, 42.183967170255166], [-71.55584407725017, 42.18255903954695], [-71.5558600934071, 42.181631149856756], [-71.55558794557717, 42.18143884083481], [-71.55461200832384, 42.18123111304559], [-71.55378001048219, 42.18124726165657], [-71.55277200445002, 42.180447016666285], [-71.55182801239981, 42.17833509417352], [-71.55190798532746, 42.177838761848506], [-71.55237207536345, 42.17711886507002], [-71.55266003108238, 42.17702307519194], [-71.55368397651914, 42.17772709345221], [-71.55454794534494, 42.177775077430006], [-71.55515608889792, 42.17702302718143], [-71.55592392353122, 42.17679926570537], [-71.55648406625835, 42.17739094542658], [-71.55755598179255, 42.177758977083016], [-71.5581799718371, 42.17823920295038], [-71.56005203906095, 42.17852689993994], [-71.56185991785094, 42.17852706435202], [-71.56197208741473, 42.17835088054789], [-71.56173198228828, 42.17630280328709], [-71.5620200044513, 42.175711256171965], [-71.56182801498294, 42.17431925394166], [-71.56238801917405, 42.17358294623658], [-71.56254792948954, 42.17292675727192], [-71.56248408981358, 42.17243105812855], [-71.56273993752212, 42.17203084252847], [-71.56315592859012, 42.17179090622476], [-71.56302793033716, 42.17143872976575], [-71.56233992811916, 42.17102327446779], [-71.56067593758505, 42.168799271611654], [-71.56053205003118, 42.16822314799879], [-71.55982797300001, 42.167551096972254], [-71.55971600157723, 42.16712013090424], [-71.56198801459146, 42.1673591958717], [-71.56264403328778, 42.16759911012645], [-71.56309209309602, 42.16731076455749], [-71.5640680560766, 42.16585621900451], [-71.56419605703937, 42.16416018368505], [-71.56409991026177, 42.16369601375225], [-71.56344398202637, 42.16294405474542], [-71.56374794197963, 42.16191978021006], [-71.56344398604901, 42.161056210998076], [-71.56347601074332, 42.160559895653506], [-71.56269196301368, 42.16003195577228], [-71.56149192354188, 42.158480127897086], [-71.56081993733905, 42.158047773205446], [-71.57029191854342, 42.152319735712425], [-71.57114094700626, 42.151647914941876], [-71.5712840409578, 42.14220802105283], [-71.56984397132125, 42.13918384564416], [-71.57240399514743, 42.13641603439028], [-71.57449995674031, 42.134736162773734], [-71.59256502967023, 42.121568222359755], [-71.59395706688105, 42.12193622002115], [-71.59470896811699, 42.12233624286175], [-71.59539692699936, 42.122304160953696], [-71.59658107719127, 42.122879935656], [-71.59738108130192, 42.12259171916082], [-71.59858091018242, 42.122784261655354], [-71.59898091461636, 42.12300787110529], [-71.60000509506858, 42.12300810713927], [-71.60045301487547, 42.12329581733196], [-71.60045294612993, 42.124207952834745], [-71.60117296850461, 42.12471993825121], [-71.6022609105136, 42.12510385863848], [-71.60443699330055, 42.125280271455594], [-71.60706091899057, 42.12622374694009], [-71.6278780025253, 42.14988693603728], [-71.6421109371397, 42.16519521649179], [-71.65751102245582, 42.165395107963626], [-71.66631098742121, 42.16529490009015], [-71.67221206226927, 42.16549494860143], [-71.67381197153594, 42.16529502791058], [-71.68291206536837, 42.1648948612699], [-71.691811921159, 42.16309488060056], [-71.6957120614715, 42.17539501895643], [-71.71181298619236, 42.173595041437], [-71.71881302819097, 42.17309516502413], [-71.72291295427168, 42.187994200729136], [-71.72351307589217, 42.191194203386125], [-71.73431302676101, 42.18649383986173], [-71.73391307773662, 42.183394204551774], [-71.73436109698532, 42.1828142761221], [-71.73551295948985, 42.181894159791554], [-71.74081392357975, 42.17899427003338], [-71.74411408057091, 42.182194097007695], [-71.74951407739579, 42.17999415038554], [-71.75071407808191, 42.17969386688569], [-71.75441407227959, 42.17799425278927], [-71.75731409599086, 42.17639422546749], [-71.76681408421538, 42.172294086532055], [-71.77411395187701, 42.169493766025944], [-71.77811396857159, 42.167493871227535], [-71.78631392542285, 42.16409412200636], [-71.78661397428047, 42.16379401672914], [-71.80091508138453, 42.157294211336335], [-71.80411495967829, 42.156293727969064], [-71.81181491524632, 42.15259411025919], [-71.82921501683832, 42.14499513754956], [-71.82471497216433, 42.15519398133486], [-71.83011491127019, 42.15599391067572], [-71.83371503606519, 42.15509385755568], [-71.83431497989025, 42.15729395572007], [-71.82601505478137, 42.15959398131317], [-71.82531507422763, 42.15999379849102], [-71.82581494780372, 42.16569421269615], [-71.83074794597101, 42.1643841914178], [-71.83471491451071, 42.159993749108345], [-71.84221601623446, 42.16019386959122], [-71.84791599437371, 42.16059423658718], [-71.85781603179595, 42.160793909157846], [-71.86481596751453, 42.16469387040532], [-71.86791606695037, 42.16609409112565], [-71.87561600413567, 42.170194279932296], [-71.87851595243734, 42.17349398244373], [-71.87931608536947, 42.17469382805346], [-71.88951707029574, 42.1858928022927], [-71.89041692550244, 42.187192953555396], [-71.89501699648541, 42.19229326043985], [-71.93890998175846, 42.18948506895927], [-71.9417420608091, 42.20028478642023], [-71.94284600432248, 42.20583718382655], [-71.94330991047225, 42.207292782031594], [-71.94329407142237, 42.207869046683314], [-71.95060592121469, 42.237675903191004], [-71.95135792626259, 42.24103618082606], [-71.95131000191591, 42.24148427488032], [-71.95153408241873, 42.24166008004697], [-71.9538220899049, 42.25108407713825], [-71.95788602669217, 42.26900380347313], [-71.95827004033151, 42.269724206477136], [-71.96059000008195, 42.28013879816467], [-71.96067007175778, 42.2815632120049], [-71.94262192993715, 42.2824118161335], [-71.94092593146654, 42.28220395381788], [-71.90231698785875, 42.283891941087504], [-71.88991705365281, 42.284292008961465], [-71.88931698219511, 42.28449211075738], [-71.88541707008437, 42.28459191623389], [-71.88461702256375, 42.28309221896311], [-71.88271704551194, 42.2781919169074], [-71.87671690866829, 42.266691806003855], [-71.86201598755459, 42.26599183836976], [-71.86121602781829, 42.267392079244075], [-71.8611160524057, 42.268692207078836], [-71.86131608402434, 42.26999195368964], [-71.85971599772814, 42.27209186940076], [-71.85821605945097, 42.27229181078803], [-71.85571594650719, 42.273692237097215], [-71.85431596573753, 42.273891817695244], [-71.85471593923118, 42.2701920271524], [-71.85301600872572, 42.26529173722282], [-71.85121600800836, 42.26289175702362], [-71.85021605993431, 42.26299215646366], [-71.84911599116246, 42.26269221632613], [-71.84821593488402, 42.262292063165596], [-71.84591591207575, 42.26059181314839], [-71.84531602132938, 42.26039217568403], [-71.84451591316174, 42.26039176562189], [-71.84381593525498, 42.26059193059428], [-71.84411600990124, 42.26169221619332], [-71.84141598800352, 42.26189215314505], [-71.84111597139604, 42.26139225073372], [-71.83861607815874, 42.262292076039245], [-71.83941594862121, 42.2630921101719], [-71.83621607544949, 42.26479184323822], [-71.83681590840457, 42.26519184572647], [-71.8364159608851, 42.265591964894845], [-71.83591601122447, 42.26549214435001], [-71.83351604238041, 42.26419201221427], [-71.83631606377207, 42.263291982769616], [-71.83071601662851, 42.25919273502054], [-71.82951597894622, 42.25879273643785], [-71.82911596819619, 42.26009313460521], [-71.82801599977695, 42.25989315109922], [-71.82761599041007, 42.262592952612785], [-71.82641604454113, 42.26229308023689], [-71.82251600410898, 42.261892774405204], [-71.82021505403442, 42.261293197486836], [-71.82291599650367, 42.25699287357454], [-71.81891500611074, 42.25599290237438], [-71.81971506261094, 42.25419288246551], [-71.81881506332981, 42.25389322046762], [-71.81831507566677, 42.25489282007294], [-71.81571496824212, 42.253592870082215], [-71.81941495754596, 42.25149280410798], [-71.81831500474907, 42.25039298564053], [-71.81701494077235, 42.250993034789964], [-71.81631503019743, 42.25029272754084], [-71.8155150123757, 42.250893068943775], [-71.81521499301431, 42.25049325744839], [-71.80941493320903, 42.253893054252444], [-71.80834498609588, 42.252822882835964], [-71.80751506943948, 42.25329326681621], [-71.8055150756097, 42.255992765028246], [-71.8062149737503, 42.25619290614565], [-71.80571501007682, 42.25669278144921], [-71.80701495437768, 42.258093223308414], [-71.80631507373911, 42.25829315923721], [-71.80471500684624, 42.259493131497976], [-71.80171501818187, 42.25719290194679], [-71.80041493268067, 42.25649294903782], [-71.79981503393591, 42.25589300197738], [-71.79891491711373, 42.255392867096546], [-71.79811497494696, 42.255293100081374], [-71.79773496566133, 42.2554212539685], [-71.7979010674573, 42.25518674426435], [-71.7978030470768, 42.254677201765645], [-71.79711493485436, 42.25399306581858], [-71.7951150067965, 42.255992958207706], [-71.79281500192937, 42.25459324861973], [-71.79161504745618, 42.254592926481656], [-71.79171492297351, 42.25539281717587], [-71.78911499303345, 42.25559295853484], [-71.78921502762385, 42.256392850773935], [-71.78501493379197, 42.25579283577403], [-71.77971493551254, 42.25609284126594], [-71.77781501886534, 42.25599279389589], [-71.77511503758886, 42.25619286008973], [-71.77421495106968, 42.256093166557406], [-71.77151500280377, 42.256392743905714], [-71.77001393378985, 42.25679297933909], [-71.76921406153737, 42.25719324120798], [-71.76671403488328, 42.25799302938456], [-71.76501395838879, 42.259093083038664], [-71.76431393425874, 42.259292762893445], [-71.76351403460856, 42.25929291334073], [-71.76231400844877, 42.25879318033287], [-71.76121396400093, 42.258792874687046], [-71.75901405931725, 42.259393182486974], [-71.75219907610676, 42.260080765446794], [-71.75281401647969, 42.26289285283491], [-71.75411396409568, 42.270692769370314], [-71.75448598216158, 42.272444152498835], [-71.75513395819574, 42.27427988684666], [-71.75492794037778, 42.27486103682288], [-71.75561402923626, 42.27829302389113], [-71.75581397037037, 42.280192769491144], [-71.75621405953319, 42.281693123590856], [-71.75841401883174, 42.296092931270444], [-71.75881396158495, 42.29719320384484], [-71.76031496736766, 42.299293125471316], [-71.76141503111259, 42.301193061648426], [-71.76301491192397, 42.30319312673167], [-71.76821503494571, 42.31129218269371], [-71.76751492664516, 42.311292126528], [-71.76691497226707, 42.311492148515704], [-71.76681490607429, 42.31329183937188], [-71.7560139152323, 42.311991854420015], [-71.7492140337436, 42.31459176275199], [-71.74631404571274, 42.31549324138897], [-71.74604199465637, 42.31596478867186], [-71.74311393292292, 42.31659278296938], [-71.74111409521413, 42.31739319009617], [-71.74091393001363, 42.31699298071024], [-71.74171396399149, 42.31599310396887], [-71.74151398865945, 42.31559289511227], [-71.73151399217647, 42.31799305358896], [-71.72991392436197, 42.32109326123402], [-71.69851301498466, 42.332093087896396], [-71.69541307634013, 42.33019316829369], [-71.69771299398462, 42.32919273082639], [-71.69731293700752, 42.32729325014817], [-71.69081303967572, 42.328992824020716], [-71.69091298165503, 42.32699289601153], [-71.69021306224622, 42.326292957809734], [-71.68791301125894, 42.32559282890053], [-71.68971297496678, 42.31889285576455], [-71.68701298579714, 42.314893246161624], [-71.68061195509934, 42.303993093444845], [-71.68021190636897, 42.30239289117974], [-71.67771196079124, 42.286093044216784], [-71.67361196847402, 42.28149318134429], [-71.67061201187144, 42.27859309885893]]]}}