{"type": "Feature", "properties": {"district_name": "First Hampden & Hampshire District", "chamber": "senate", "vintage": "2012-2020"}, "geometry": {"type": "Polygon", "coordinates": [[[-72.608254, 42.038315], [-72.60755499999999, 42.042612000000005], [-72.60754299999999, 42.044681], [-72.60500499999999, 42.05102199999999], [-72.600173, 42.057670999999985], [-72.596482, 42.063384], [-72.592494, 42.068856999999994], [-72.590194, 42.071281], [-72.588681, 42.073383], [-72.587261, 42.074898000000005], [-72.584115, 42.077563999999995], [-72.583437, 42.07830199999999], [-72.58267099999999, 42.079518], [-72.58253500000001, 42.080686], [-72.58269299999999, 42.081557999999994], [-72.579985, 42.082026000000006], [-72.579892, 42.082494], [-72.579576, 42.08292199999999], [-72.57972199999999, 42.08351900000002], [-72.574119, 42.084394999999994], [-72.57405299999999, 42.084188999999995], [-72.57370399999999, 42.08423399999999], [-72.56908, 42.085075999999994], [-72.569433, 42.085747], [-72.568004, 42.086041], [-72.567418, 42.084322], [-72.563317, 42.085123], [-72.564135, 42.08732399999999], [-72.558031, 42.086206000000004], [-72.557763, 42.086267], [-72.55592299999999, 42.085811], [-72.55548999999999, 42.085388], [-72.556394, 42.084898], [-72.555272, 42.08377899999999], [-72.55605299999999, 42.08341899999999], [-72.55788000000001, 42.08299], [-72.55827599999999, 42.082702], [-72.55914299999999, 42.078306000000005], [-72.559021, 42.07724200000001], [-72.558553, 42.076722], [-72.55736, 42.076867], [-72.556726, 42.076704999999976], [-72.556454, 42.076557], [-72.555864, 42.07565199999999], [-72.55469599999999, 42.075562000000005], [-72.551779, 42.074418000000016], [-72.551245, 42.073862999999996], [-72.550675, 42.073950999999994], [-72.550221, 42.07379799999998], [-72.550066, 42.073938000000005], [-72.5488, 42.07394300000001], [-72.547978, 42.07412800000001], [-72.548277, 42.07475600000001], [-72.548198, 42.07517700000001], [-72.547986, 42.075383], [-72.54854999999999, 42.07567099999999], [-72.546036, 42.07714199999999], [-72.547337, 42.078435], [-72.546799, 42.07884], [-72.546942, 42.079683999999986], [-72.54753699999999, 42.08027899999998], [-72.545827, 42.08047699999999], [-72.546171, 42.082244], [-72.545017, 42.08240999999999], [-72.54444, 42.083704999999995], [-72.54357399999999, 42.083504999999995], [-72.54206099999999, 42.08241199999999], [-72.541913, 42.08035700000001], [-72.53985, 42.080522000000016], [-72.539973, 42.081404000000006], [-72.53940899999999, 42.081222000000004], [-72.540138, 42.084905], [-72.53969599999999, 42.08499400000001], [-72.544203, 42.08815], [-72.544491, 42.088772999999975], [-72.544286, 42.088811], [-72.550409, 42.093149000000004], [-72.552669, 42.09359199999999], [-72.558073, 42.095316999999994], [-72.561238, 42.096509999999995], [-72.56312, 42.09663600000002], [-72.563465, 42.096866], [-72.563569, 42.097024999999995], [-72.562902, 42.09735699999999], [-72.557323, 42.09828499999999], [-72.55816999999999, 42.099109000000006], [-72.558649, 42.099978], [-72.559386, 42.099554999999995], [-72.561076, 42.09937000000001], [-72.56177699999999, 42.100235999999995], [-72.56285799999999, 42.10541], [-72.553156, 42.106519000000006], [-72.55354400000002, 42.108208000000005], [-72.549497, 42.108607], [-72.55044199999999, 42.105582999999996], [-72.550257, 42.10532799999999], [-72.548317, 42.105962], [-72.548326, 42.106367], [-72.547051, 42.108294], [-72.546746, 42.10843700000001], [-72.546415, 42.105727], [-72.543823, 42.10581199999999], [-72.542531, 42.10789400000001], [-72.54095199999999, 42.11211899999999], [-72.539541, 42.113419], [-72.53953, 42.113716], [-72.538699, 42.113851], [-72.53772099999999, 42.11440700000001], [-72.537218, 42.11427399999999], [-72.53664599999999, 42.114837999999985], [-72.53562099999999, 42.11512299999998], [-72.534886, 42.11503000000002], [-72.53410199999999, 42.11546799999999], [-72.53272799999999, 42.11564099999999], [-72.531866, 42.116001], [-72.530917, 42.116678000000014], [-72.530722, 42.117174000000006], [-72.530286, 42.11746199999998], [-72.529367, 42.117555], [-72.528031, 42.11832699999999], [-72.527354, 42.11842099999999], [-72.526842, 42.11826099999998], [-72.52651200000001, 42.11850599999999], [-72.526049, 42.11817200000001], [-72.52551700000001, 42.118215], [-72.52496599999999, 42.11796799999999], [-72.524134, 42.118207], [-72.523671, 42.118049], [-72.52220799999999, 42.11884099999998], [-72.52015399999999, 42.120229], [-72.51966600000002, 42.121987999999995], [-72.518224, 42.12218100000001], [-72.517817, 42.122434], [-72.51763100000001, 42.123068999999994], [-72.517727, 42.12336399999999], [-72.516601, 42.124983000000014], [-72.516499, 42.12658800000002], [-72.516161, 42.12695899999999], [-72.51543199999999, 42.12734900000001], [-72.514892, 42.12804899999998], [-72.514827, 42.128669000000016], [-72.51410299999999, 42.129471999999986], [-72.513832, 42.12957599999999], [-72.51312, 42.12903800000001], [-72.51426099999999, 42.128381000000005], [-72.515608, 42.12621300000001], [-72.51103599999999, 42.12668099999999], [-72.510328, 42.12341999999998], [-72.509355, 42.123684999999995], [-72.50944, 42.12419399999999], [-72.509047, 42.124325], [-72.504333, 42.12489300000002], [-72.504111, 42.12412], [-72.50313799999999, 42.12482599999999], [-72.50200000000001, 42.124999], [-72.501012, 42.125766], [-72.4984, 42.12578099999998], [-72.497422, 42.126142], [-72.496613, 42.126032], [-72.495712, 42.12926400000001], [-72.49578199999999, 42.13460899999999], [-72.488462, 42.135266], [-72.48747, 42.135639000000005], [-72.486831, 42.136179999999996], [-72.486661, 42.136646999999996], [-72.48514, 42.137116999999996], [-72.48505100000001, 42.137336000000005], [-72.485714, 42.137688000000004], [-72.486807, 42.13773400000001], [-72.48701299999999, 42.137946], [-72.486244, 42.138347999999986], [-72.486257, 42.13888900000002], [-72.48611, 42.139115], [-72.48510499999999, 42.13945800000001], [-72.484381, 42.13993699999999], [-72.484055, 42.140574], [-72.48395, 42.141273999999996], [-72.482267, 42.141479999999994], [-72.48161999999999, 42.14188200000001], [-72.484595, 42.156524000000005], [-72.487185, 42.157297], [-72.488159, 42.158128999999995], [-72.487822, 42.15875099999999], [-72.48675, 42.15923600000001], [-72.486601, 42.15974499999999], [-72.486981, 42.159942], [-72.487629, 42.159946], [-72.489589, 42.15913599999998], [-72.489685, 42.160033], [-72.489578, 42.161528000000004], [-72.490864, 42.16156199999999], [-72.493145, 42.16122], [-72.495734, 42.161283000000005], [-72.501913, 42.16175700000001], [-72.502957, 42.16201399999999], [-72.502982, 42.16061499999999], [-72.503602, 42.15677000000001], [-72.50926199999999, 42.157269], [-72.510009, 42.15711700000001], [-72.51083799999999, 42.156685999999986], [-72.51903, 42.147777000000005], [-72.519633, 42.14803], [-72.520038, 42.147974999999974], [-72.521434, 42.146568], [-72.52201699999999, 42.14645900000001], [-72.521676, 42.144900000000014], [-72.52313099999999, 42.143260999999995], [-72.524339, 42.140405], [-72.546188, 42.133634999999984], [-72.546554, 42.13605300000002], [-72.547519, 42.138191], [-72.55020700000001, 42.142734], [-72.551025, 42.143518], [-72.552026, 42.143995], [-72.564283, 42.13765399999999], [-72.564904, 42.14029799999999], [-72.565956, 42.14112000000001], [-72.56658900000001, 42.14067099999999], [-72.567336, 42.141251999999994], [-72.565893, 42.14482100000001], [-72.568038, 42.146122999999996], [-72.581958, 42.14027699999999], [-72.581537, 42.140875], [-72.580507, 42.14341400000001], [-72.57958599999999, 42.14765399999999], [-72.580102, 42.150173], [-72.580708, 42.15529300000001], [-72.57894399999999, 42.155366], [-72.578479, 42.155241000000004], [-72.577933, 42.156003999999996], [-72.580749, 42.15723799999999], [-72.581609, 42.157979999999995], [-72.581848, 42.158729], [-72.58182599999999, 42.160289000000006], [-72.58832699999999, 42.160292999999996], [-72.58843399999999, 42.15958899999999], [-72.589816, 42.16019000000001], [-72.59025, 42.160949], [-72.590161, 42.161271000000006], [-72.590334, 42.161593999999994], [-72.591946, 42.162287000000006], [-72.59270800000002, 42.162802000000006], [-72.59292599999999, 42.163044], [-72.593076, 42.16383600000001], [-72.59327100000002, 42.16407799999999], [-72.595274, 42.165077000000004], [-72.595897, 42.16576000000002], [-72.59454199999999, 42.16654200000001], [-72.59311199999999, 42.168119999999995], [-72.5976, 42.17126999999999], [-72.59822, 42.17211400000001], [-72.598491, 42.174347999999995], [-72.59562799999999, 42.17461699999999], [-72.59573999999999, 42.17524499999999], [-72.591684, 42.17548000000001], [-72.591443, 42.17417299999999], [-72.589569, 42.174385000000015], [-72.58949299999999, 42.173986000000006], [-72.587386, 42.17421700000001], [-72.58712299999999, 42.17451499999998], [-72.587324, 42.17491999999998], [-72.589213, 42.177957999999975], [-72.590898, 42.18026], [-72.595795, 42.18035599999999], [-72.602655, 42.181795], [-72.603585, 42.182326999999994], [-72.604134, 42.18296499999999], [-72.604444, 42.183798], [-72.604432, 42.18430400000001], [-72.603157, 42.186761000000004], [-72.601344, 42.18790699999999], [-72.600503, 42.188834999999976], [-72.601179, 42.18945499999999], [-72.599614, 42.190912000000004], [-72.598889, 42.19053799999999], [-72.598806, 42.19108000000002], [-72.597433, 42.19179200000001], [-72.595421, 42.191709], [-72.59505899999999, 42.19212100000001], [-72.594974, 42.192871], [-72.59296499999999, 42.19248900000001], [-72.591297, 42.19283], [-72.590981, 42.193315999999996], [-72.588219, 42.192664000000015], [-72.585454, 42.19350999999998], [-72.58493299999999, 42.19289199999998], [-72.584442, 42.193002], [-72.583525, 42.193869], [-72.583469, 42.194448], [-72.5804, 42.19379999999998], [-72.576176, 42.192330000000005], [-72.575217, 42.19444599999999], [-72.577272, 42.194233999999994], [-72.577576, 42.194367], [-72.57844, 42.197575000000015], [-72.57893299999999, 42.20161599999998], [-72.57574199999999, 42.201927], [-72.57360700000001, 42.20146200000001], [-72.572399, 42.200712], [-72.571201, 42.203697], [-72.57087800000001, 42.205980000000004], [-72.570966, 42.207444999999986], [-72.57220199999999, 42.21380399999998], [-72.546356, 42.216489], [-72.555365, 42.24617099999998], [-72.55860899999999, 42.280650000000016], [-72.55645799999999, 42.281364], [-72.54693, 42.28514100000001], [-72.543336, 42.285853], [-72.541485, 42.28655], [-72.540712, 42.287616], [-72.540482, 42.28876400000001], [-72.53999, 42.28981], [-72.540146, 42.29217500000001], [-72.53968400000001, 42.293065999999996], [-72.537637, 42.294643000000015], [-72.53633599999999, 42.294930000000015], [-72.53508099999999, 42.295542000000005], [-72.53363999999999, 42.29728999999999], [-72.53124, 42.297936], [-72.52789, 42.299838], [-72.52790999999999, 42.30143700000001], [-72.52467299999999, 42.303155], [-72.521421, 42.302182], [-72.51019099999999, 42.305569], [-72.506737, 42.306374999999996], [-72.504151, 42.30547100000002], [-72.500745, 42.305166], [-72.499117, 42.306263], [-72.49803399999999, 42.30511899999998], [-72.493586, 42.302268], [-72.49060899999999, 42.30363200000001], [-72.487709, 42.30471499999999], [-72.483099, 42.30531800000001], [-72.47924100000002, 42.30701899999999], [-72.464186, 42.308011], [-72.472287, 42.35145800000001], [-72.40941699999999, 42.35876199999999], [-72.405455, 42.336437], [-72.39347, 42.338168999999986], [-72.393708, 42.339296], [-72.378568, 42.34069799999999], [-72.355396, 42.34067800000002], [-72.35498199999999, 42.340058], [-72.35463399999999, 42.339921000000004], [-72.354292, 42.340137], [-72.353988, 42.340068000000024], [-72.354227, 42.339196], [-72.353561, 42.339166000000006], [-72.353419, 42.338846], [-72.353672, 42.338562999999986], [-72.352853, 42.338162000000004], [-72.352948, 42.337877], [-72.353481, 42.33773899999999], [-72.353529, 42.33755399999997], [-72.35274199999999, 42.337271000000015], [-72.352893, 42.337054], [-72.35323199999999, 42.337015], [-72.352989, 42.336669], [-72.352963, 42.33614899999999], [-72.352212, 42.335774], [-72.352125, 42.336259999999996], [-72.351567, 42.33587], [-72.35178499999999, 42.335603000000006], [-72.351418, 42.33520600000001], [-72.351202, 42.335347000000006], [-72.350966, 42.335253], [-72.350884, 42.334732], [-72.351159, 42.334473999999986], [-72.35083300000001, 42.33432], [-72.351468, 42.334140000000005], [-72.351113, 42.33373499999998], [-72.351241, 42.33347499999999], [-72.351648, 42.333479], [-72.351798, 42.33321899999998], [-72.352077, 42.33343999999998], [-72.352172, 42.33318899999999], [-72.35200499999999, 42.33296899999999], [-72.35239299999999, 42.332737000000016], [-72.35269699999999, 42.33204300000001], [-72.352563, 42.33120299999999], [-72.351747, 42.330626], [-72.35153, 42.33001999999999], [-72.351106, 42.32974799999998], [-72.351053, 42.329496], [-72.351291, 42.32945499999999], [-72.351964, 42.329737999999985], [-72.352104, 42.32942799999999], [-72.352319, 42.329404999999994], [-72.35241599999999, 42.32972399999998], [-72.35298, 42.329007], [-72.352194, 42.328689999999995], [-72.35322000000001, 42.32806000000001], [-72.35346299999999, 42.327668000000024], [-72.35251, 42.327232], [-72.352385, 42.326509], [-72.353054, 42.326305000000005], [-72.352578, 42.325697], [-72.351734, 42.32551400000001], [-72.35181899999999, 42.325095000000026], [-72.351345, 42.32506600000001], [-72.351314, 42.324906], [-72.352492, 42.32463], [-72.35297299999999, 42.32418099999999], [-72.353185, 42.324358], [-72.35351299999999, 42.324336], [-72.354346, 42.323763], [-72.354236, 42.323561], [-72.353661, 42.32346400000001], [-72.35358599999999, 42.32319499999999], [-72.353742, 42.32261700000001], [-72.35343, 42.32236299999998], [-72.35389599999999, 42.32214800000001], [-72.353819, 42.321971000000005], [-72.353336, 42.32181600000001], [-72.353308, 42.321455], [-72.353009, 42.32106700000003], [-72.354726, 42.31951099999998], [-72.354995, 42.319604999999996], [-72.355295, 42.319196], [-72.355004, 42.319033999999995], [-72.354664, 42.31912400000001], [-72.35453199999999, 42.31887099999999], [-72.355254, 42.318138000000005], [-72.354917, 42.31801800000001], [-72.354599, 42.31740300000001], [-72.35507299999999, 42.31670199999999], [-72.35498900000002, 42.316238999999996], [-72.354608, 42.316034999999985], [-72.354467, 42.31569000000001], [-72.35492099999999, 42.314769999999996], [-72.355975, 42.314501], [-72.35614799999999, 42.314242], [-72.356077, 42.31369600000001], [-72.356285, 42.31337], [-72.356887, 42.313131], [-72.35687, 42.31277899999999], [-72.356371, 42.312161999999994], [-72.357006, 42.311227], [-72.356431, 42.31118099999999], [-72.356411, 42.311013], [-72.35726199999999, 42.31070899999999], [-72.357472, 42.310240000000015], [-72.35848899999999, 42.310181], [-72.358461, 42.309794999999994], [-72.35901299999999, 42.309849], [-72.35905, 42.309673000000004], [-72.358761, 42.30935199999999], [-72.358921, 42.30921899999999], [-72.358674, 42.309125], [-72.358632, 42.30889800000001], [-72.359167, 42.308625000000006], [-72.36040899999999, 42.30860899999999], [-72.36053500000001, 42.308476], [-72.360196, 42.307734999999994], [-72.360558, 42.30766200000002], [-72.359852, 42.30734600000001], [-72.35957599999999, 42.306948999999996], [-72.359195, 42.30675299999999], [-72.358814, 42.30580200000001], [-72.35857899999999, 42.305673999999996], [-72.358069, 42.305805], [-72.357823, 42.305643], [-72.35778499999999, 42.305140000000016], [-72.35714899999999, 42.30469799999999], [-72.35731299999999, 42.30426300000001], [-72.356978, 42.304034], [-72.356583, 42.303275], [-72.355942, 42.303401], [-72.35601799999999, 42.30328300000001], [-72.355473, 42.303036], [-72.353754, 42.302547], [-72.353734, 42.30207], [-72.354664, 42.301035999999996], [-72.354896, 42.29984600000001], [-72.35486, 42.29922500000001], [-72.35452599999999, 42.29895399999998], [-72.352812, 42.29884799999999], [-72.351886, 42.29850599999999], [-72.350708, 42.298414], [-72.350824, 42.298220000000015], [-72.35168399999999, 42.29802499999999], [-72.35202699999999, 42.297750999999984], [-72.352375, 42.297149000000005], [-72.35263499999999, 42.29573399999999], [-72.352199, 42.29543299999998], [-72.350596, 42.29501199999999], [-72.35004099999999, 42.29464799999999], [-72.348631, 42.29458599999999], [-72.348531, 42.29419299999998], [-72.348805, 42.29215299999999], [-72.348788, 42.290994999999995], [-72.349797, 42.288663], [-72.350214, 42.287019], [-72.35079499999999, 42.285865], [-72.350872, 42.285278], [-72.350565, 42.284628999999995], [-72.349862, 42.28421499999999], [-72.348445, 42.283792], [-72.34679, 42.283609999999996], [-72.345567, 42.28312200000001], [-72.343423, 42.281662], [-72.34113599999999, 42.28148900000001], [-72.339275, 42.28087199999998], [-72.338844, 42.28030100000001], [-72.338597, 42.279638], [-72.338537, 42.27817700000001], [-72.338754, 42.27703500000002], [-72.338725, 42.275619], [-72.338357, 42.274409999999996], [-72.337559, 42.273827], [-72.333399, 42.272993], [-72.332813, 42.272742000000015], [-72.33207399999999, 42.272123999999984], [-72.331643, 42.27134599999999], [-72.331642, 42.270135], [-72.332379, 42.26846400000001], [-72.33296299999999, 42.26752699999999], [-72.33407, 42.266497], [-72.334439, 42.26587999999999], [-72.334439, 42.26521700000001], [-72.333761, 42.26434800000001], [-72.333668, 42.26338700000002], [-72.333822, 42.26281499999999], [-72.33412899999999, 42.262609000000005], [-72.334836, 42.26251800000001], [-72.335852, 42.262563], [-72.336591, 42.26228800000001], [-72.33729799999999, 42.26173900000001], [-72.33782, 42.261007000000006], [-72.33788200000001, 42.26054999999999], [-72.337727, 42.26023000000001], [-72.336434, 42.259612], [-72.336434, 42.25938300000001], [-72.338065, 42.259154], [-72.33831099999999, 42.25899399999999], [-72.33837199999999, 42.25865100000001], [-72.33646399999999, 42.25785099999999], [-72.336586, 42.256708], [-72.334707, 42.250857], [-72.33447, 42.249181000000014], [-72.334806, 42.247741], [-72.334182, 42.24657399999999], [-72.333542, 42.245886000000006], [-72.333685, 42.245343], [-72.33487, 42.24505299999998], [-72.335252, 42.244258], [-72.334858, 42.24310399999998], [-72.334786, 42.241309], [-72.333776, 42.240372], [-72.332948, 42.237092], [-72.333319, 42.23604100000003], [-72.333157, 42.23465], [-72.334181, 42.23350200000001], [-72.334305, 42.233028], [-72.33419599999999, 42.23254], [-72.33447199999999, 42.232062], [-72.33400999999999, 42.23051600000001], [-72.33401599999999, 42.22932099999999], [-72.33555799999999, 42.22761200000001], [-72.33534999999999, 42.226699999999994], [-72.33655, 42.223932000000005], [-72.33655, 42.223131999999985], [-72.33551, 42.222108], [-72.335415, 42.22174599999999], [-72.335638, 42.220924999999994], [-72.335638, 42.220155999999996], [-72.336326, 42.219356000000005], [-72.337094, 42.219036], [-72.340134, 42.219036], [-72.34237399999999, 42.218604], [-72.343558, 42.21798], [-72.345558, 42.21641200000001], [-72.345974, 42.21583600000001], [-72.34602199999999, 42.21541999999999], [-72.34541399999999, 42.212635999999996], [-72.345574, 42.211772], [-72.34607, 42.210956], [-72.346902, 42.21009200000001], [-72.349238, 42.209915999999986], [-72.34957399999999, 42.20900399999999], [-72.35135, 42.20732400000001], [-72.352374, 42.20690799999998], [-72.35347800000001, 42.206956], [-72.35386199999999, 42.207291999999995], [-72.354775, 42.208732000000005], [-72.355943, 42.20902000000001], [-72.357079, 42.20866799999998], [-72.359127, 42.206076], [-72.359831, 42.205484999999996], [-72.360519, 42.20521299999999], [-72.360935, 42.20521299999999], [-72.36170299999999, 42.20564499999999], [-72.36282299999999, 42.205980000000004], [-72.36282299999999, 42.206363999999986], [-72.361783, 42.20693999999998], [-72.362071, 42.20725999999999], [-72.362871, 42.20746799999998], [-72.363575, 42.207404000000004], [-72.36413499999999, 42.20716399999999], [-72.364583, 42.206748], [-72.36474299999999, 42.20606000000001], [-72.36445499999999, 42.20289300000001], [-72.36312699999999, 42.201629], [-72.36242299999999, 42.199453000000005], [-72.36231099999999, 42.19839699999997], [-72.362775, 42.197917000000004], [-72.363559, 42.197532999999986], [-72.363495, 42.19719699999999], [-72.363079, 42.196909000000005], [-72.361719, 42.197037], [-72.36071100000001, 42.196909000000005], [-72.359943, 42.19639699999998], [-72.359479, 42.195309], [-72.358871, 42.19438100000001], [-72.35925499999999, 42.19409299999999], [-72.361175, 42.194349], [-72.361495, 42.193965], [-72.36131900000001, 42.19298900000001], [-72.360423, 42.19023699999999], [-72.35821899999999, 42.18980199999999], [-72.39560999999999, 42.185769], [-72.39508, 42.184060999999986], [-72.382345, 42.118103999999995], [-72.38067099999999, 42.110109999999985], [-72.380501, 42.10853500000002], [-72.37569700000002, 42.081982999999994], [-72.374599, 42.07773499999999], [-72.374606, 42.075811], [-72.366991, 42.03270499999999], [-72.38599099999999, 42.03283], [-72.416873, 42.033407], [-72.43786399999999, 42.033598999999995], [-72.458185, 42.03406300000002], [-72.479856, 42.03389800000001], [-72.509192, 42.03414099999999], [-72.51733, 42.034395], [-72.52812999999999, 42.034294999999986], [-72.55323, 42.03219499999999], [-72.573235, 42.03013999999998], [-72.582332, 42.02469500000001], [-72.590232, 42.02469500000001], [-72.598333, 42.02499499999999], [-72.606933, 42.02499499999999], [-72.607997, 42.03120100000002], [-72.608173, 42.033229999999975], [-72.608111, 42.03584000000001], [-72.608254, 42.038315]]]}}