{"type": "Feature", "properties": {"district_name": "Plymouth and Barnstable District", "chamber": "senate", "vintage": "2022-present"}, "geometry": {"type": "Polygon", "coordinates": [[[-70.862998, 41.95684799999999], [-70.822885, 41.984503], [-70.818698, 41.996724], [-70.806495, 42.01033300000002], [-70.807517, 42.011084000000025], [-70.807931, 42.01167099999999], [-70.807989, 42.01212600000001], [-70.807668, 42.012491], [-70.807494, 42.012489999999985], [-70.807251, 42.01287599999998], [-70.807318, 42.01311], [-70.808193, 42.013679], [-70.808804, 42.014586], [-70.809676, 42.01530799999999], [-70.809765, 42.015848], [-70.809389, 42.01666800000001], [-70.811855, 42.017629], [-70.812289, 42.01818800000001], [-70.812296, 42.01862700000001], [-70.81363, 42.019416], [-70.813772, 42.019871], [-70.813367, 42.020424000000006], [-70.813757, 42.021208999999985], [-70.812975, 42.022721999999995], [-70.814978, 42.02397500000001], [-70.833463, 42.019548], [-70.844766, 42.04269799999999], [-70.842246, 42.04343200000002], [-70.841071, 42.04489300000002], [-70.845658, 42.046155], [-70.846294, 42.04696299999999], [-70.846306, 42.04736299999999], [-70.846517, 42.04772200000001], [-70.847013, 42.048158999999984], [-70.847117, 42.048443999999996], [-70.84709600000001, 42.049262000000006], [-70.847246, 42.049684], [-70.847022, 42.050188], [-70.847251, 42.050672], [-70.846832, 42.052223999999995], [-70.845417, 42.053857], [-70.845367, 42.05409099999999], [-70.84583, 42.055073], [-70.836825, 42.05929099999999], [-70.839059, 42.05928600000002], [-70.839007, 42.05938499999999], [-70.841008, 42.060406999999984], [-70.840011, 42.06126599999999], [-70.838219, 42.06388500000001], [-70.841789, 42.071736], [-70.843897, 42.077184999999986], [-70.84266, 42.088868999999995], [-70.844267, 42.09021499999998], [-70.845546, 42.091884], [-70.845582, 42.092767], [-70.843786, 42.094128000000005], [-70.843349, 42.094762], [-70.842134, 42.094955000000006], [-70.840407, 42.0945], [-70.83984, 42.094605], [-70.839157, 42.09495800000001], [-70.838504, 42.09609900000002], [-70.83791000000001, 42.096738000000016], [-70.837165, 42.09691], [-70.836247, 42.096774], [-70.835995, 42.097132], [-70.835504, 42.09732199999997], [-70.834162, 42.097589], [-70.833717, 42.097935000000014], [-70.831448, 42.098516999999994], [-70.828893, 42.099622999999994], [-70.826319, 42.10039200000001], [-70.823542, 42.100413], [-70.822483, 42.10069700000001], [-70.821464, 42.100763], [-70.821025, 42.10065300000002], [-70.820592, 42.09992499999998], [-70.819864, 42.09948700000001], [-70.819649, 42.09947099999999], [-70.819482, 42.099714999999996], [-70.818601, 42.099670999999994], [-70.81702800000001, 42.099061000000006], [-70.816277, 42.099433999999995], [-70.814937, 42.098824], [-70.814103, 42.098862999999994], [-70.813176, 42.098186999999996], [-70.811461, 42.09802], [-70.810931, 42.09813500000002], [-70.810502, 42.09869100000001], [-70.809602, 42.099191], [-70.809761, 42.099564], [-70.810623, 42.10000800000001], [-70.810536, 42.10023399999999], [-70.809885, 42.10046200000001], [-70.809883, 42.100731], [-70.811968, 42.10253100000001], [-70.812293, 42.10388300000002], [-70.812157, 42.104149], [-70.810598, 42.105394], [-70.80991400000002, 42.106329999999986], [-70.807167, 42.10846500000001], [-70.804723, 42.11131], [-70.80385, 42.111477000000015], [-70.802809, 42.111227000000014], [-70.801944, 42.11062700000001], [-70.801109, 42.109716000000006], [-70.80066, 42.10963300000001], [-70.79992, 42.112061], [-70.79947300000002, 42.11246], [-70.798438, 42.112386], [-70.796765, 42.111075], [-70.795047, 42.10940699999999], [-70.793819, 42.106933999999974], [-70.792674, 42.10617], [-70.792276, 42.10611699999998], [-70.791001, 42.10643700000001], [-70.789704, 42.10642299999999], [-70.789302, 42.106691999999995], [-70.789435, 42.10695100000001], [-70.790935, 42.107648], [-70.79228, 42.10867499999999], [-70.79226, 42.10906499999999], [-70.791936, 42.109246], [-70.790507, 42.108691], [-70.789963, 42.108762999999996], [-70.790528, 42.110082999999996], [-70.790234, 42.11061799999999], [-70.789682, 42.11069000000001], [-70.788437, 42.110016], [-70.787956, 42.110331], [-70.788547, 42.11128299999999], [-70.788332, 42.11160400000001], [-70.787823, 42.11165100000001], [-70.786716, 42.111290999999994], [-70.786326, 42.111307], [-70.785199, 42.11202000000001], [-70.783777, 42.111738999999965], [-70.783007, 42.112005999999994], [-70.782892, 42.11222800000001], [-70.782928, 42.113381999999994], [-70.782142, 42.11409800000001], [-70.782077, 42.11432000000001], [-70.78228200000001, 42.11497500000001], [-70.782876, 42.11575500000001], [-70.782991, 42.11620300000002], [-70.782832, 42.116483999999986], [-70.782305, 42.11675500000001], [-70.78094, 42.116752999999996], [-70.77978, 42.115862], [-70.779003, 42.11558599999999], [-70.777121, 42.11675500000001], [-70.775089, 42.115333], [-70.775617, 42.11461399999999], [-70.777281, 42.113406], [-70.776169, 42.11343900000001], [-70.775978, 42.11285500000002], [-70.766549, 42.114028000000005], [-70.765907, 42.109849999999994], [-70.759468, 42.109598000000005], [-70.762328, 42.10331399999999], [-70.749716, 42.096977000000024], [-70.781445, 42.04678], [-70.768667, 42.045125000000006], [-70.768333, 42.04430200000001], [-70.767724, 42.04402600000001], [-70.767661, 42.043157], [-70.767394, 42.04259200000001], [-70.76607600000001, 42.041769], [-70.765336, 42.040329], [-70.764749, 42.03965800000001], [-70.765114, 42.03867900000001], [-70.76499, 42.038352], [-70.764588, 42.038086999999976], [-70.763954, 42.038269], [-70.762745, 42.038064], [-70.76252, 42.03740799999999], [-70.761258, 42.03683400000001], [-70.761074, 42.036476], [-70.761128, 42.036135000000016], [-70.760839, 42.035847000000004], [-70.760918, 42.03549400000001], [-70.759646, 42.035087999999995], [-70.759229, 42.034437], [-70.75926, 42.03374500000002], [-70.759635, 42.032988000000024], [-70.761169, 42.03160200000002], [-70.763126, 42.031065000000005], [-70.764308, 42.03132099999999], [-70.765381, 42.031315], [-70.765734, 42.030581999999995], [-70.766065, 42.028499], [-70.766805, 42.028152], [-70.76737800000001, 42.027252000000004], [-70.768063, 42.02669299999999], [-70.768833, 42.025467000000006], [-70.768766, 42.02489599999999], [-70.76916, 42.023694], [-70.769594, 42.02337200000001], [-70.769636, 42.022926], [-70.76987, 42.02257099999999], [-70.769492, 42.022063], [-70.73124000000001, 42.017707], [-70.730136, 42.01623100000001], [-70.724022, 42.009288], [-70.724657, 42.007039], [-70.722814, 42.004639999999995], [-70.722223, 42.004259], [-70.721793, 42.00281699999999], [-70.711264, 42.002403000000015], [-70.711225, 42.00314900000001], [-70.705902, 42.004456], [-70.698582, 42.00670300000001], [-70.682081, 42.001403999999994], [-70.673269, 42.00023000000001], [-70.672635, 41.999658], [-70.671738, 41.998325000000015], [-70.671066, 41.99651000000001], [-70.6701, 41.992642999999994], [-70.669137, 41.99087800000001], [-70.668339, 41.989996999999995], [-70.667055, 41.989205], [-70.66525300000002, 41.988588], [-70.662497, 41.988123000000016], [-70.653511, 41.987113], [-70.652348, 41.990216999999994], [-70.649808, 41.99604200000001], [-70.64839, 41.997844], [-70.645899, 42.002459], [-70.643583, 42.007777], [-70.64202, 42.012396999999986], [-70.6415, 42.013155000000005], [-70.612653, 42.01355099999999], [-70.612821, 42.01321499999998], [-70.60889800000001, 42.01319999999998], [-70.609301, 42.01358299999998], [-70.598554, 42.01367700000001], [-70.602953, 42.025846999999985], [-70.608105, 42.037786000000004], [-70.614905, 42.049111], [-70.622529, 42.06013200000001], [-70.626033, 42.06655999999999], [-70.628724, 42.073549], [-70.629803, 42.077186000000005], [-70.631049, 42.08310599999999], [-70.633127, 42.088227999999965], [-70.374474, 42.07333800000001], [-70.374474, 42.12155], [-70.322522, 42.11791500000001], [-70.337813, 42.044484], [-70.346384, 42.019446000000016], [-70.355004, 42.000104], [-70.499473, 41.84411699999999], [-70.537501, 41.810675], [-70.537005, 41.810277], [-70.53245, 41.804472999999994], [-70.531446, 41.80344600000001], [-70.525652, 41.79832300000002], [-70.522308, 41.795989], [-70.519442, 41.793254], [-70.518254, 41.79164], [-70.515336, 41.78936599999997], [-70.512484, 41.787614000000005], [-70.508331, 41.78574499999999], [-70.500849, 41.781447], [-70.49406, 41.77825], [-70.49441, 41.77812599999999], [-70.494834, 41.77665699999999], [-70.491927, 41.77761499999999], [-70.488597, 41.775082000000005], [-70.473641, 41.76556899999999], [-70.47450400000001, 41.764897000000005], [-70.474138, 41.764698], [-70.474311, 41.76454799999999], [-70.47376, 41.763232], [-70.47308, 41.762537], [-70.467395, 41.76093699999999], [-70.466857, 41.76054800000001], [-70.462933, 41.759255999999986], [-70.460055, 41.758613000000004], [-70.459242, 41.75812800000002], [-70.457417, 41.75755900000001], [-70.452861, 41.756429], [-70.450571, 41.755666999999995], [-70.448893, 41.75535699999999], [-70.44656, 41.75435700000001], [-70.446382, 41.7542], [-70.446558, 41.75408199999999], [-70.43716, 41.75139899999999], [-70.429928, 41.749765], [-70.42906, 41.749718000000016], [-70.427255, 41.750007], [-70.426955, 41.74984100000002], [-70.426921, 41.75010199999999], [-70.425768, 41.748909999999995], [-70.4255, 41.748019], [-70.424798, 41.74732000000001], [-70.418966, 41.746086999999996], [-70.415609, 41.745660999999984], [-70.413692, 41.744842999999996], [-70.410029, 41.74404400000001], [-70.409289, 41.744059000000014], [-70.408357, 41.74375499999999], [-70.406539, 41.743481], [-70.404287, 41.743434000000015], [-70.401834, 41.742883], [-70.397683, 41.74249499999999], [-70.395896, 41.74156500000001], [-70.393187, 41.741269], [-70.390056, 41.740639000000016], [-70.388911, 41.740659], [-70.383282, 41.740088], [-70.389188, 41.733911000000006], [-70.458737, 41.664041], [-70.451059, 41.65691200000001], [-70.446514, 41.65033999999999], [-70.45171200000001, 41.64248200000001], [-70.453238, 41.641690000000004], [-70.453063, 41.640488], [-70.453189, 41.639856], [-70.452557, 41.638748000000014], [-70.454361, 41.639193999999996], [-70.458476, 41.637471000000005], [-70.466304, 41.637082], [-70.467605, 41.63422], [-70.466495, 41.633706], [-70.465705, 41.633044000000005], [-70.464608, 41.632515], [-70.460589, 41.633529000000024], [-70.456488, 41.635029], [-70.455991, 41.63432999999998], [-70.453509, 41.63493499999999], [-70.452677, 41.63484900000001], [-70.452811, 41.634565], [-70.452459, 41.634111], [-70.452466, 41.633616999999994], [-70.452675, 41.63333], [-70.452516, 41.632561], [-70.451895, 41.63201899999999], [-70.451698, 41.63158500000001], [-70.452009, 41.631384000000004], [-70.451991, 41.631231000000014], [-70.45162, 41.630904], [-70.451419, 41.630436], [-70.451802, 41.63005600000001], [-70.451889, 41.62956499999999], [-70.45183900000002, 41.62924400000002], [-70.451394, 41.629018], [-70.45148, 41.62868799999998], [-70.450957, 41.62805599999999], [-70.451266, 41.62729099999999], [-70.450997, 41.62704000000001], [-70.451053, 41.62650000000001], [-70.450569, 41.62579], [-70.450622, 41.625273], [-70.450295, 41.62506500000001], [-70.4501, 41.624635999999995], [-70.449791, 41.624554], [-70.449705, 41.624086], [-70.448956, 41.623345999999984], [-70.449238, 41.62312399999999], [-70.448842, 41.62294999999999], [-70.448965, 41.62280200000001], [-70.448739, 41.62260100000001], [-70.449056, 41.622374], [-70.448607, 41.621491000000006], [-70.448946, 41.621365000000004], [-70.449009, 41.62092100000002], [-70.4496, 41.62094099999999], [-70.44981200000001, 41.620694], [-70.449563, 41.620157000000006], [-70.449717, 41.61949100000002], [-70.449431, 41.619358], [-70.449322, 41.619074], [-70.449461, 41.618886999999994], [-70.450477, 41.61890700000001], [-70.450607, 41.61859200000001], [-70.450316, 41.617539999999984], [-70.450396, 41.61683999999999], [-70.450828, 41.61608499999999], [-70.452641, 41.615958000000006], [-70.45734, 41.610761999999994], [-70.46105, 41.606363000000016], [-70.464982, 41.59673999999998], [-70.458592, 41.588668000000006], [-70.453008, 41.58633600000002], [-70.452153, 41.586725], [-70.452308, 41.58698800000003], [-70.452076, 41.58747000000002], [-70.451697, 41.58741300000001], [-70.451448, 41.58704799999999], [-70.450102, 41.587701000000024], [-70.450104, 41.586228], [-70.45098, 41.584406], [-70.453912, 41.58072099999998], [-70.455929, 41.57844299999999], [-70.457237, 41.577321999999995], [-70.457537, 41.576223999999996], [-70.457376, 41.57599900000001], [-70.458355, 41.57498899999999], [-70.459057, 41.57399500000002], [-70.461746, 41.571508], [-70.461994, 41.571239], [-70.461907, 41.57117299999999], [-70.463945, 41.56922899999999], [-70.465012, 41.56795499999999], [-70.466583, 41.566533], [-70.468782, 41.564615999999994], [-70.46982, 41.56410000000001], [-70.473086, 41.561365], [-70.47538, 41.55901999999999], [-70.478945, 41.556905000000015], [-70.483797, 41.555096], [-70.486157, 41.55385999999999], [-70.487958, 41.553726999999995], [-70.489991, 41.55335000000001], [-70.493033, 41.552047000000016], [-70.493948, 41.551813], [-70.494658, 41.55176600000001], [-70.496951, 41.552081], [-70.500801, 41.55190900000001], [-70.501549, 41.55171000000001], [-70.505107, 41.551467], [-70.515277, 41.55010800000001], [-70.521911, 41.54902299999998], [-70.525953, 41.548118], [-70.526852, 41.547394], [-70.526961, 41.547547999999985], [-70.528181, 41.547479], [-70.529308, 41.54646099999998], [-70.530301, 41.547691], [-70.531894, 41.549009000000005], [-70.532851, 41.549569000000005], [-70.535123, 41.550415], [-70.538821, 41.551256], [-70.545003, 41.55158099999998], [-70.546519, 41.55209599999999], [-70.547863, 41.550918], [-70.54782, 41.55076600000001], [-70.548007, 41.550776], [-70.54789, 41.550549], [-70.549469, 41.55029700000001], [-70.549425, 41.550039], [-70.550178, 41.55009900000001], [-70.550455, 41.549989000000004], [-70.550426, 41.549808000000006], [-70.551391, 41.54995599999999], [-70.551793, 41.549884999999996], [-70.551756, 41.54972], [-70.552355, 41.549797000000005], [-70.552889, 41.549665], [-70.55283800000001, 41.549501], [-70.553963, 41.549302999999995], [-70.553934, 41.549111], [-70.554745, 41.549155], [-70.555169, 41.54907300000002], [-70.55514, 41.54892400000001], [-70.556294, 41.548963], [-70.556331, 41.54873799999999], [-70.558472, 41.548698999999985], [-70.559568, 41.54831], [-70.56093500000001, 41.54825499999999], [-70.560942, 41.548013], [-70.561644, 41.54831], [-70.56358, 41.548364], [-70.563668, 41.54824399999999], [-70.564654, 41.548303999999995], [-70.564764, 41.54811200000001], [-70.56518, 41.54823300000001], [-70.566218, 41.548183], [-70.566277, 41.54803500000001], [-70.567351, 41.548106], [-70.567373, 41.54798499999999], [-70.567782, 41.54802400000001], [-70.567782, 41.54792], [-70.568206, 41.547990999999996], [-70.568323, 41.54775500000001], [-70.569309, 41.54794700000001], [-70.570222, 41.54773300000003], [-70.57085200000002, 41.547337], [-70.570837, 41.547173000000015], [-70.571816, 41.54720499999999], [-70.573854, 41.54689799999999], [-70.574351, 41.54668399999998], [-70.574366, 41.546162], [-70.57533, 41.546206], [-70.57631000000002, 41.54603600000001], [-70.576646, 41.54592000000002], [-70.576595, 41.545745000000004], [-70.57818, 41.545404], [-70.578114, 41.54525600000001], [-70.579035, 41.545036], [-70.578984, 41.544899], [-70.580014, 41.54474200000001], [-70.580495, 41.54452500000001], [-70.580555, 41.54424], [-70.581892, 41.544662], [-70.586415, 41.54543], [-70.588469, 41.545347], [-70.588776, 41.54515500000001], [-70.588827, 41.545753000000005], [-70.588958, 41.545177], [-70.591852, 41.545439], [-70.59183, 41.54523599999999], [-70.592743, 41.54536800000001], [-70.593825, 41.54529599999999], [-70.59381, 41.54509800000001], [-70.594512, 41.545027], [-70.59525, 41.545175], [-70.595206, 41.54487800000001], [-70.596601, 41.54470800000001], [-70.596601, 41.544433000000005], [-70.597514, 41.54412599999999], [-70.597346, 41.54386199999999], [-70.601437, 41.542186000000015], [-70.602263, 41.54199400000001], [-70.603249, 41.542015000000006], [-70.603307, 41.541889000000005], [-70.606596, 41.542837999999996], [-70.607239, 41.54282100000001], [-70.608225, 41.54247999999999], [-70.60946100000001, 41.542956999999994], [-70.610564, 41.54302800000002], [-70.611879, 41.542874], [-70.61399, 41.542208999999986], [-70.615101, 41.542378000000014], [-70.616285, 41.54226199999999], [-70.616723, 41.542031999999985], [-70.616701, 41.541745999999996], [-70.617176, 41.54152100000001], [-70.617227, 41.54178999999998], [-70.617585, 41.541828], [-70.61776, 41.541799999999995], [-70.617636, 41.54153199999998], [-70.617826, 41.54150400000001], [-70.618082, 41.54185000000002], [-70.620544, 41.54134299999999], [-70.622991, 41.54122100000001], [-70.62641, 41.540192000000005], [-70.62678300000002, 41.539911999999994], [-70.629676, 41.539485000000006], [-70.631796, 41.53884899999999], [-70.631803, 41.538734000000005], [-70.633535, 41.53838300000002], [-70.633711, 41.538163999999995], [-70.634741, 41.537851], [-70.634697, 41.537708999999985], [-70.63863, 41.53601899999999], [-70.642196, 41.533764999999995], [-70.645866, 41.53027399999999], [-70.646224, 41.52971999999999], [-70.646217, 41.52938000000001], [-70.647387, 41.528093000000005], [-70.647185, 41.52793500000002], [-70.648081, 41.52745899999999], [-70.648491, 41.526949], [-70.64841, 41.526855], [-70.6489, 41.526433000000004], [-70.649002, 41.52606500000001], [-70.64939, 41.52574099999999], [-70.649563, 41.52546600000002], [-70.649389, 41.525316999999994], [-70.650033, 41.52460499999999], [-70.650055, 41.52415499999999], [-70.650947, 41.52329300000001], [-70.651561, 41.522163], [-70.653493, 41.520243000000015], [-70.654028, 41.519209], [-70.654302, 41.518052000000004], [-70.654295, 41.51760100000001], [-70.653835, 41.51663500000001], [-70.653814, 41.516278], [-70.654494, 41.515417], [-70.655122, 41.51512600000001], [-70.668001, 41.51198800000001], [-70.672253, 41.515773999999986], [-70.674646, 41.519385], [-70.681397, 41.51755], [-70.688353, 41.51678900000001], [-70.691364, 41.517842], [-70.694657, 41.52556], [-70.749476, 41.55639], [-70.758464, 41.560930999999975], [-70.749476, 41.568405999999996], [-70.729833, 41.59156900000001], [-70.70842, 41.62637800000001], [-70.686196, 41.669800999999985], [-70.676629, 41.691129], [-70.67440400000001, 41.68960899999999], [-70.6437, 41.717465000000004], [-70.642244, 41.71922500000001], [-70.640276, 41.723609], [-70.640756, 41.72485700000001], [-70.639476, 41.726473000000006], [-70.639332, 41.72904900000002], [-70.63258, 41.733656999999994], [-70.633268, 41.73546499999999], [-70.632676, 41.73788100000002], [-70.625988, 41.74496899999999], [-70.623193, 41.745614999999994], [-70.62195, 41.746058999999995], [-70.620785, 41.747530000000005], [-70.621014, 41.74830300000001], [-70.621622, 41.748972], [-70.625156, 41.75114399999999], [-70.62501200000001, 41.75404000000001], [-70.629673, 41.760217000000004], [-70.630081, 41.76089899999998], [-70.63, 41.76125600000001], [-70.631157, 41.761855000000004], [-70.631129, 41.762158], [-70.63155, 41.762419], [-70.631471, 41.76271], [-70.632126, 41.76253400000002], [-70.63246400000001, 41.76273900000001], [-70.632629, 41.763504000000005], [-70.632877, 41.763859], [-70.633791, 41.76463899999999], [-70.633968, 41.76506899999997], [-70.634572, 41.765375], [-70.634641, 41.766262], [-70.635543, 41.76705299999998], [-70.635886, 41.76853], [-70.63631, 41.768958999999995], [-70.636007, 41.769823], [-70.635371, 41.77018499999999], [-70.634439, 41.770424], [-70.633483, 41.77104600000002], [-70.633016, 41.77174900000001], [-70.633054, 41.77244699999999], [-70.630433, 41.77378800000002], [-70.63008, 41.774486], [-70.630279, 41.774686], [-70.630194, 41.775338], [-70.630908, 41.77662699999998], [-70.63075, 41.777143], [-70.629457, 41.77779100000001], [-70.629058, 41.779397999999986], [-70.629408, 41.77996999999998], [-70.630424, 41.780273999999984], [-70.630453, 41.780617], [-70.630804, 41.781155000000005], [-70.63075, 41.781612999999986], [-70.630971, 41.78203599999999], [-70.630534, 41.783111], [-70.630718, 41.78389200000001], [-70.630578, 41.78429400000001], [-70.629828, 41.78503200000001], [-70.630042, 41.785598], [-70.630515, 41.785867], [-70.630735, 41.786588], [-70.630636, 41.78688], [-70.63018, 41.78717499999999], [-70.629093, 41.786998000000004], [-70.628123, 41.787048], [-70.627395, 41.787342], [-70.627312, 41.787843], [-70.616634, 41.805410000000016], [-70.631892, 41.80633], [-70.717536, 41.80150999999999], [-70.717837, 41.802133], [-70.717641, 41.80242499999999], [-70.717788, 41.80290499999998], [-70.717666, 41.80313900000001], [-70.717849, 41.80356799999999], [-70.71777300000001, 41.80381400000001], [-70.716925, 41.804083000000006], [-70.716849, 41.804317000000005], [-70.717608, 41.805408], [-70.71778, 41.80587899999999], [-70.71777300000001, 41.80652500000001], [-70.71742100000002, 41.807846000000005], [-70.71658, 41.808486000000016], [-70.717192, 41.809399000000006], [-70.717225, 41.80985799999999], [-70.71633, 41.811251000000006], [-70.715912, 41.812231], [-70.715252, 41.81286599999998], [-70.715834, 41.81388599999999], [-70.715518, 41.814457], [-70.71586, 41.81476299999999], [-70.715898, 41.81503199999999], [-70.71538400000001, 41.81530799999999], [-70.71512600000001, 41.816095999999995], [-70.714509, 41.816525], [-70.71476, 41.816697], [-70.714855, 41.817139], [-70.715094, 41.81739699999999], [-70.714664, 41.81767500000001], [-70.714455, 41.818296000000004], [-70.714155, 41.81832200000001], [-70.713733, 41.818697999999976], [-70.713677, 41.81896199999999], [-70.71308500000002, 41.81907599999999], [-70.713056, 41.819292999999995], [-70.712796, 41.819413000000004], [-70.712788, 41.819662000000015], [-70.71247, 41.819872999999994], [-70.712629, 41.82017000000001], [-70.711873, 41.82074000000002], [-70.711309, 41.82156899999999], [-70.710205, 41.822376], [-70.709785, 41.822965], [-70.709319, 41.823183], [-70.708555, 41.82392599999999], [-70.708229, 41.824752000000004], [-70.708284, 41.82524200000002], [-70.707867, 41.825784], [-70.708287, 41.82683200000001], [-70.707499, 41.827357], [-70.706869, 41.82850400000001], [-70.706359, 41.82906400000001], [-70.705433, 41.829412999999995], [-70.703912, 41.829288000000005], [-70.701758, 41.828751], [-70.700711, 41.828714], [-70.699869, 41.829003000000014], [-70.699986, 41.829517], [-70.699726, 41.829722], [-70.699068, 41.829544000000006], [-70.69840400000001, 41.829676], [-70.69757, 41.82940099999998], [-70.697318, 41.829481], [-70.697287, 41.829840999999995], [-70.697547, 41.830324999999995], [-70.697274, 41.830908], [-70.696503, 41.83130000000001], [-70.696093, 41.831888000000006], [-70.695682, 41.83201499999999], [-70.695643, 41.832349000000015], [-70.695261, 41.83262400000002], [-70.694834, 41.833869000000014], [-70.694818, 41.83450200000001], [-70.694542, 41.83469899999998], [-70.694192, 41.835607], [-70.693733, 41.836261000000015], [-70.692503, 41.836706], [-70.690928, 41.83806499999999], [-70.689827, 41.838232999999995], [-70.689703, 41.839690000000004], [-70.689502, 41.840091], [-70.687926, 41.841232999999995], [-70.685402, 41.843579], [-70.683788, 41.844801999999994], [-70.682837, 41.84537100000001], [-70.682197, 41.845550999999986], [-70.680699, 41.845587], [-70.750718, 41.92601900000002], [-70.753527, 41.933241], [-70.758692, 41.947506999999995], [-70.771717, 41.946146999999996], [-70.829827, 41.92769900000002], [-70.845645, 41.942721999999996], [-70.860882, 41.95498799999999], [-70.862998, 41.95684799999999]]]}}