{"type": "Feature", "properties": {"district_name": "First Bristol and Plymouth", "chamber": "senate", "vintage": "2001-2010"}, "geometry": {"type": "MultiPolygon", "coordinates": [[[[-71.0868251004864, 41.5136588143327], [-71.08521199880475, 41.515030482518235], [-71.08448147994402, 41.515143168881025], [-71.08387308555871, 41.51512687147441], [-71.08356844670263, 41.51482638382617], [-71.08344637591298, 41.514341991551376], [-71.08314194094396, 41.51421257216378], [-71.08165131537059, 41.51421215132488], [-71.08116367157736, 41.51404997569082], [-71.0811331928751, 41.51381633192658], [-71.08162039242919, 41.51350131446913], [-71.08247270276031, 41.51325122690697], [-71.08341629016671, 41.51315340406713], [-71.08469429722157, 41.51242710758503], [-71.0851511280148, 41.51249124112296], [-71.0849989210066, 41.51368310058519], [-71.0868251004864, 41.5136588143327]]], [[[-71.08028216516422, 41.51798523820589], [-71.08357023750774, 41.51898831135008], [-71.08357010508956, 41.519267985669345], [-71.08253555825881, 41.51995352426818], [-71.08189662139804, 41.520135746369746], [-71.0811048655259, 41.52004222789962], [-71.08064799172138, 41.519834020207135], [-71.08067856474806, 41.51885161346377], [-71.0789132261079, 41.517712309542034], [-71.07748146351693, 41.51708967752054], [-71.076963926319, 41.51674730020332], [-71.07693373045383, 41.51638760563913], [-71.07726903702205, 41.51629150352301], [-71.07848652166602, 41.51681936735381], [-71.08028216516422, 41.51798523820589]]], [[[-71.09066286384622, 41.52024704678768], [-71.09203293989763, 41.521798913043206], [-71.09270245603369, 41.52195775544329], [-71.09376868688405, 41.52296547942654], [-71.094804359435, 41.52354147361067], [-71.09577935852245, 41.525875197240275], [-71.09830621820373, 41.527522825137474], [-71.0988249086942, 41.52816166500249], [-71.09897687548872, 41.52852853639639], [-71.09882504470171, 41.5293962855494], [-71.0980941877506, 41.52939144922006], [-71.09690712686823, 41.52905298085716], [-71.09599306679192, 41.527907397914845], [-71.09550663092146, 41.52779874759214], [-71.09471375122465, 41.52706550126505], [-71.09395278759439, 41.526763974190374], [-71.0931306605962, 41.52548195445358], [-71.09279513236089, 41.52534400882709], [-71.09197391026888, 41.52548511739805], [-71.09179023094784, 41.524343811740934], [-71.09148609687853, 41.52386327511393], [-71.09029923440897, 41.52351517158246], [-71.08996405393222, 41.52317913929788], [-71.08975086190956, 41.52232696471135], [-71.0889285358298, 41.52159413389214], [-71.08871460606781, 41.52097661133095], [-71.08819728637297, 41.520382185144896], [-71.08737549420871, 41.5202711569731], [-71.0871320294604, 41.520086260188684], [-71.08713147090506, 41.51944643885046], [-71.08786209267717, 41.51882953328454], [-71.09002294006156, 41.51818684884123], [-71.09050940010472, 41.51848403613689], [-71.0904796962123, 41.519764130026516], [-71.09066286384622, 41.52024704678768]]], [[[-71.10272377300711, 41.53202779718368], [-71.10363682823115, 41.532002290034484], [-71.10403308624734, 41.532229325926934], [-71.10403323349128, 41.53250843830892], [-71.10318127432225, 41.53312783774598], [-71.1015982316056, 41.53316562269631], [-71.10095906851323, 41.5336726443598], [-71.10047201450608, 41.53365461214257], [-71.09995410483954, 41.533330909053255], [-71.09995388609141, 41.53255603502724], [-71.10056174086907, 41.531634742813836], [-71.1013232161148, 41.53147704300417], [-71.10187090134617, 41.532250462052225], [-71.10238913807558, 41.53225002758789], [-71.10272377300711, 41.53202779718368]]], [[[-71.10455261063994, 41.53475102195831], [-71.10400490279969, 41.53518466226502], [-71.1039437421402, 41.535780375298856], [-71.10336510057475, 41.53609742044537], [-71.10242141544224, 41.53579925110083], [-71.10199508605898, 41.5347437720399], [-71.1012635456177, 41.53447784922858], [-71.10129460468525, 41.53418027644927], [-71.101902712807, 41.53388078973356], [-71.1040949000096, 41.5339216572621], [-71.10458251033613, 41.53442643346475], [-71.10455261063994, 41.53475102195831]]], [[[-71.10768969528984, 41.5363966243387], [-71.10525326204045, 41.5368732477234], [-71.10476638620229, 41.5371259056461], [-71.10415783345482, 41.537767543412], [-71.10336629154541, 41.537538564940114], [-71.10339630998641, 41.537195969904424], [-71.10394469240026, 41.53671731674156], [-71.10497852431938, 41.53618464140157], [-71.10647055185696, 41.535887077115326], [-71.1078100875505, 41.53529522384399], [-71.1083882379862, 41.53563598050853], [-71.10835835700063, 41.53596057001446], [-71.10768969528984, 41.5363966243387]]], [[[-71.11292877977654, 41.53964296421073], [-71.11134475517848, 41.53966287505634], [-71.10982195135925, 41.538699892839674], [-71.10954726642645, 41.53799329070586], [-71.10982074205606, 41.53785298687694], [-71.11247029208093, 41.538515949297484], [-71.11304967599183, 41.539343443719325], [-71.11292877977654, 41.53964296421073]]], [[[-71.21444565928319, 41.72761802949988], [-71.2135600048605, 41.72720220393522], [-71.21349926785402, 41.72684303421571], [-71.21395669285975, 41.72647391294212], [-71.21456689320479, 41.726290871333084], [-71.21505650740758, 41.726660118143734], [-71.21508726178335, 41.727596565157775], [-71.21447608445703, 41.727869642707795], [-71.21444565928319, 41.72761802949988]]], [[[-71.1244666709839, 41.788515916752715], [-71.12406813617777, 41.786892834240966], [-71.12339561224724, 41.78599532096421], [-71.12317969557402, 41.78512576230018], [-71.12259846344526, 41.78437035227523], [-71.12265876514068, 41.78307234888696], [-71.12119069459341, 41.781855934584065], [-71.12137169312797, 41.779384491316996], [-71.12127927171763, 41.77858399116738], [-71.11889349207598, 41.77609667614212], [-71.1194420630396, 41.77417680777107], [-71.12029675310791, 41.77323315765514], [-71.12026532104608, 41.77188251567855], [-71.12060064252958, 41.77184030299306], [-71.12090659778887, 41.77199663313714], [-71.1214578979686, 41.77362586328566], [-71.12213069419059, 41.77384755872795], [-71.12258866729246, 41.773595850889166], [-71.12286305245384, 41.77321298180239], [-71.12295395144706, 41.771949967777786], [-71.12371751533789, 41.77098967159752], [-71.12480635340681, 41.7700281910308], [-71.12474656972537, 41.76913720238973], [-71.12566423460832, 41.76765181665586], [-71.12652075921453, 41.76694221930131], [-71.12652058430503, 41.76655450202447], [-71.12633834559036, 41.76632375043404], [-71.12646055604152, 41.76586215492659], [-71.12719491852047, 41.765344040778636], [-71.12756192416197, 41.76414776482821], [-71.12884659186967, 41.763925742338806], [-71.13034239292293, 41.76449276664682], [-71.13095312720753, 41.7645172556022], [-71.13443713118347, 41.7641098217693], [-71.1346207401622, 41.763809353630386], [-71.13471349347235, 41.762573347188685], [-71.13422546548969, 41.76186162401689], [-71.13416535067397, 41.760908177010464], [-71.13376824444373, 41.76010445701897], [-71.13349419209872, 41.75891172668779], [-71.13380101391512, 41.75779739484564], [-71.13377113300385, 41.756717431765324], [-71.13444584922865, 41.754938578023356], [-71.13527204078594, 41.75347307987439], [-71.13536364031454, 41.752993932399576], [-71.13490655699502, 41.751776984643335], [-71.1349371310341, 41.751226738643375], [-71.1351515795119, 41.750979827228406], [-71.1361593945465, 41.750564384375146], [-71.136343520324, 41.750065836279596], [-71.13625555311464, 41.74839201441541], [-71.1364385649653, 41.747955924948826], [-71.13854708033759, 41.74655638877821], [-71.1386393485104, 41.745554470236], [-71.13879235189877, 41.745371507578426], [-71.14004469080737, 41.74497875209091], [-71.1404423654504, 41.7446108613609], [-71.14053467426375, 41.74342886978426], [-71.14120731226697, 41.74283112712366], [-71.14221527103878, 41.74246064945624], [-71.14191077188026, 41.74145748113506], [-71.14622070518281, 41.73571878778799], [-71.14848114298027, 41.734415203976], [-71.14939827110382, 41.73413666945792], [-71.15171865383938, 41.73397609832294], [-71.15199489455931, 41.73363762041846], [-71.1521172060807, 41.73228408063388], [-71.1531561437796, 41.7291742616957], [-71.15343292257377, 41.727277036836796], [-71.1553258515124, 41.72592605556487], [-71.15627407037479, 41.72469205506734], [-71.15798486364368, 41.72380416431586], [-71.1591761170168, 41.722475206592456], [-71.1615579855254, 41.72115090752786], [-71.16470319844015, 41.71904662361226], [-71.1663530775817, 41.717510733350856], [-71.16668874570095, 41.71644141611148], [-71.16702501269249, 41.71604793083087], [-71.17056728045479, 41.71419674676538], [-71.17310109573937, 41.71359912328337], [-71.17337588018384, 41.71339564337269], [-71.17371238542798, 41.712687013937845], [-71.17475006522231, 41.711657948487456], [-71.1755748991686, 41.71112909120969], [-71.17731461134879, 41.71067260286071], [-71.1781393526098, 41.709782458312205], [-71.17868879585478, 41.70957411470118], [-71.17981812018337, 41.70952552634037], [-71.18149716895194, 41.70973675634927], [-71.18598508800373, 41.71181329457075], [-71.18760344593704, 41.712088980015345], [-71.18958794080002, 41.71174439497555], [-71.19001497097408, 41.71149345864506], [-71.19004570095099, 41.71092519186763], [-71.18986205178214, 41.7103518394019], [-71.18922205865229, 41.710076047675884], [-71.18833625439585, 41.70996670838751], [-71.18784743514026, 41.709300230019124], [-71.18781757757336, 41.70857142144868], [-71.18857971228245, 41.7080878789168], [-71.18998436295101, 41.70808833692601], [-71.19163265843379, 41.70840793926875], [-71.19202953071196, 41.70829253003257], [-71.19315862582941, 41.70730687465719], [-71.19358615015446, 41.707100381483585], [-71.19431845197002, 41.707032572795846], [-71.19459384240682, 41.707585906193366], [-71.19465487002878, 41.70868338008184], [-71.19523595044953, 41.710213293373585], [-71.19526687646456, 41.71168095802383], [-71.19496070794392, 41.712614821049165], [-71.1945336369113, 41.71307342060365], [-71.19370935544212, 41.71371045918324], [-71.19282353769093, 41.714060899732104], [-71.19233580178651, 41.714791122643284], [-71.1917250882244, 41.71874879018086], [-71.19065676821215, 41.718886573104236], [-71.18952732954754, 41.7183854886123], [-71.18952699594254, 41.71810637703173], [-71.1915421024906, 41.71511254059287], [-71.19154157264911, 41.714833428484454], [-71.19135842346002, 41.714656799730975], [-71.19105314514903, 41.71465372074878], [-71.18848888726008, 41.71801800727772], [-71.18858045224792, 41.71849375885071], [-71.19007705448492, 41.71936556194786], [-71.19242811516911, 41.71968087288003], [-71.192824909831, 41.71932236416337], [-71.19309889851995, 41.716227000882014], [-71.19322121183865, 41.715936402729106], [-71.19377084230662, 41.71616015816309], [-71.19435096041018, 41.716644533558366], [-71.19462561075615, 41.71712583608993], [-71.19453453905986, 41.718659011970736], [-71.19413767943985, 41.71938723545326], [-71.19416863886762, 41.72009803776347], [-71.19499325078138, 41.72078508378839], [-71.19496266360005, 41.72105623430337], [-71.19441231713192, 41.7211296005831], [-71.1930996118433, 41.72084864710303], [-71.19248943071845, 41.72122064869671], [-71.19245893655452, 41.72162628961331], [-71.1930083382086, 41.72221975694727], [-71.1930080395694, 41.722750966628816], [-71.19255098202154, 41.72286790512756], [-71.19010762064912, 41.72119393243841], [-71.18934413122786, 41.72103766558066], [-71.18946647095707, 41.721674439137544], [-71.19007721456103, 41.72293322661925], [-71.19099346929147, 41.7235012537236], [-71.1909021309569, 41.723827385131074], [-71.19038299561173, 41.72408088809701], [-71.19026051978882, 41.724902693280114], [-71.19096270616156, 41.725979402245144], [-71.19099326438007, 41.726960874012065], [-71.19148235476393, 41.72752829957646], [-71.19212290743724, 41.727804079468115], [-71.19166541156274, 41.72858783995266], [-71.19108533939668, 41.72858064044331], [-71.19111555467386, 41.72951709332612], [-71.1917573066182, 41.72993749823909], [-71.19187892580976, 41.730187113636994], [-71.19132921132747, 41.73127899531477], [-71.19059737271483, 41.731076679763916], [-71.19035217527197, 41.731216131243116], [-71.19016929156575, 41.73306699200993], [-71.18977231452281, 41.73359712156322], [-71.18849020207769, 41.734504669748496], [-71.18778783652563, 41.73549088757345], [-71.18751237398439, 41.73563081272149], [-71.18674912621674, 41.73512339056793], [-71.18659682657268, 41.73462158540642], [-71.18607700314257, 41.73480247578896], [-71.1862001033263, 41.73597159055164], [-71.18610771778762, 41.73638775087395], [-71.18537528985641, 41.73755506781508], [-71.1852525677451, 41.73848490960721], [-71.18583278368969, 41.738672210291526], [-71.18684031910877, 41.73935587996525], [-71.18672945313014, 41.74085917036564], [-71.18607647746694, 41.74091083097744], [-71.1860462977062, 41.74128045666012], [-71.18656566384813, 41.74173938085195], [-71.18659682605512, 41.74212605715139], [-71.18699332423212, 41.74251486354798], [-71.18720754174466, 41.742997142757375], [-71.18699365507621, 41.74386596173367], [-71.1873339638506, 41.74414713240833], [-71.18766555105945, 41.743754136347604], [-71.18916278158896, 41.7439596872547], [-71.18953535529971, 41.744484035560454], [-71.19050648993236, 41.7442947902909], [-71.19038384088866, 41.74359442997572], [-71.18824600760257, 41.74251773678051], [-71.18693232997649, 41.74104767765896], [-71.18713466296221, 41.74031162957102], [-71.18784857471049, 41.73828215934715], [-71.18864305908791, 41.73743856193125], [-71.1893456528323, 41.73613665200017], [-71.19013912997681, 41.735878273181285], [-71.19047546795974, 41.736042940204634], [-71.19078051994671, 41.739334571589055], [-71.19053688501559, 41.73972669025481], [-71.19041419364692, 41.740548494668936], [-71.19099454625116, 41.74063673012744], [-71.19114735777727, 41.740498714871656], [-71.19154366641685, 41.73960787351064], [-71.1915744499416, 41.73832832545292], [-71.19175761908659, 41.73789214855873], [-71.19172688810384, 41.73663156644706], [-71.19191110653716, 41.73613236718867], [-71.19191118477659, 41.73537606801109], [-71.19129988047776, 41.7347841162844], [-71.19114646107721, 41.734390357040404], [-71.19120771796901, 41.7339566638842], [-71.19249073501447, 41.732382823863595], [-71.19245980191418, 41.73194212835965], [-71.19218993675274, 41.731783274067126], [-71.19278402959216, 41.730325738178564], [-71.1934977735252, 41.73034566878557], [-71.19395547700253, 41.72963393008938], [-71.1938642799657, 41.72938327327535], [-71.19284922934075, 41.729029963346115], [-71.1928961178661, 41.72794853646098], [-71.19334454508633, 41.72803302804334], [-71.19334404537514, 41.727276164429924], [-71.19386428630587, 41.72593265669598], [-71.1953600705552, 41.72462496164179], [-71.1958177606603, 41.72370613343961], [-71.19578727480508, 41.72190533870037], [-71.19615283269941, 41.7196638640266], [-71.1977707192225, 41.717668815966945], [-71.20082354234175, 41.714673064795875], [-71.20204377838255, 41.71128923591505], [-71.20323456247026, 41.71058162752338], [-71.20360092842857, 41.710079507786695], [-71.2040888557808, 41.709799415785675], [-71.20805764966217, 41.70854297476941], [-71.20909486719464, 41.70846909997843], [-71.20958358331359, 41.70858570610454], [-71.2099804541934, 41.709001444680965], [-71.21007232039067, 41.70977429709298], [-71.21031674067801, 41.70998594041764], [-71.21300339853607, 41.710600486455185], [-71.215598738873, 41.71162271473728], [-71.21657683211691, 41.71261273238064], [-71.21669890571845, 41.7133670845162], [-71.21651520865132, 41.71359565529575], [-71.21614915145238, 41.71366620888941], [-71.21569075730235, 41.71317943535736], [-71.21572131551385, 41.712683190333664], [-71.21501956129006, 41.712543568640186], [-71.21410380600913, 41.71311074771299], [-71.21358528574727, 41.71389556781217], [-71.21361616333863, 41.71446286991238], [-71.21407372376098, 41.71471499437318], [-71.21450124093953, 41.714716067359966], [-71.21572166188875, 41.714124886501175], [-71.21590534448917, 41.714238452291], [-71.21575311774725, 41.71498874421285], [-71.21514304168363, 41.71537943690659], [-71.21434852724586, 41.715403331285415], [-71.2131882833022, 41.71512861900558], [-71.2127916994545, 41.715262672574845], [-71.2114181778087, 41.716982818480275], [-71.21028886870353, 41.717625955778516], [-71.20912860115794, 41.71784639809814], [-71.20848732092774, 41.71814750262621], [-71.20729718640911, 41.719269331605574], [-71.20680905821591, 41.72007164358127], [-71.20650425120961, 41.72155475793551], [-71.20668823949723, 41.72238018351718], [-71.20739016990026, 41.72258288168775], [-71.20763376929453, 41.720478924785446], [-71.20781695550251, 41.72025036694031], [-71.20812209082222, 41.720208382716685], [-71.21074914191983, 41.721968531087946], [-71.21285605850322, 41.723044725380994], [-71.21810955203887, 41.72488951510617], [-71.21942284678346, 41.72508014557552], [-71.22076590161923, 41.72581048454399], [-71.22415654225703, 41.72669997248929], [-71.22403371420282, 41.72722469466159], [-71.22284295540864, 41.72708562359331], [-71.22266022637861, 41.72790900397543], [-71.22284445567394, 41.728211634386625], [-71.22266089255831, 41.728620849184296], [-71.22223369441977, 41.728827452339715], [-71.22189680316255, 41.72877992406288], [-71.22168290955081, 41.72804504894408], [-71.22168213311257, 41.726973061184616], [-71.22146837973894, 41.72672494069757], [-71.22006408643766, 41.72629270237369], [-71.21618627611602, 41.726953304623876], [-71.21575831111383, 41.72690778198419], [-71.21542212061884, 41.72590529635863], [-71.21453637293287, 41.7252199340453], [-71.21420016436373, 41.72523540955401], [-71.21334576686496, 41.72585506998287], [-71.21023118631929, 41.727158892144644], [-71.21020103081271, 41.72734845287697], [-71.21120881149844, 41.727248035211154], [-71.21276603961957, 41.72761436749384], [-71.21548548867392, 41.7294714263735], [-71.21548557724321, 41.7300842312135], [-71.21518072605312, 41.730685019246316], [-71.21475290178344, 41.73098106569924], [-71.21481480451179, 41.73200706353324], [-71.2150590444891, 41.73228172072865], [-71.21521166056813, 41.73297200004523], [-71.21551716201533, 41.733155648424706], [-71.21521236420854, 41.73365683480994], [-71.21447969566582, 41.73424810937007], [-71.21405196760726, 41.73413899342351], [-71.2136557258186, 41.734254481239866], [-71.2126473740406, 41.7349592831216], [-71.21163966045529, 41.73539284557686], [-71.21060213283755, 41.73626862312449], [-71.20980783633227, 41.73631105685368], [-71.208433274144, 41.73550847999283], [-71.20669245910122, 41.734920466346004], [-71.2061119938423, 41.734985933726286], [-71.20485990604251, 41.73557749309365], [-71.20336340051153, 41.73565182307699], [-71.20336354503303, 41.73590392312972], [-71.20263097971085, 41.73624189690195], [-71.20220326053406, 41.736656068394225], [-71.20153164721604, 41.73640727491644], [-71.20131740347959, 41.73647480261386], [-71.20046214997905, 41.73777919792112], [-71.20015721447534, 41.73856001701824], [-71.20018791998, 41.739901628294504], [-71.20046276017864, 41.74029288091152], [-71.20049411094524, 41.74141840828231], [-71.20159354681678, 41.74257712618443], [-71.20174665343153, 41.74353865708051], [-71.20208283375734, 41.7436312607157], [-71.20241849557671, 41.743633826423924], [-71.20305954184357, 41.743080655365816], [-71.20309098431859, 41.742539398431724], [-71.20229616282968, 41.74187049750555], [-71.20183717136197, 41.740203075665455], [-71.20214298274611, 41.73899008359531], [-71.20290579944306, 41.73784918688748], [-71.20287516689439, 41.73740849527608], [-71.2025053900622, 41.73695453827926], [-71.20283703861223, 41.736479903693954], [-71.2037984372505, 41.73612733053062], [-71.20544022191413, 41.73697173369033], [-71.20712057670802, 41.73715557618047], [-71.20718181744603, 41.73768581814191], [-71.20745670037189, 41.73786997210664], [-71.20803693130313, 41.73798456836402], [-71.2093198576398, 41.737843230645694], [-71.20962494408798, 41.73795430254923], [-71.21026694364808, 41.73898684495666], [-71.21075572413073, 41.739058427725865], [-71.211885039944, 41.73695558375482], [-71.21246544469199, 41.736196812930395], [-71.2141748022477, 41.735145449227296], [-71.21598736039414, 41.73321590798062], [-71.21655629301682, 41.73328879128963], [-71.21649388167194, 41.73237083592669], [-71.21667774779938, 41.73198920514169], [-71.21725690099284, 41.73161755982704], [-71.21853938107287, 41.731159867578306], [-71.22031106486102, 41.731089953751066], [-71.22183706188831, 41.730294626288654], [-71.22437201504476, 41.73047017005331], [-71.22461609500023, 41.73078982405851], [-71.22513626584532, 41.730887869089145], [-71.22577740555796, 41.730587233166325], [-71.22592957099886, 41.73031411658399], [-71.22589847453452, 41.7293326543802], [-71.22635626045083, 41.728296658614546], [-71.22638654501176, 41.727890446017724], [-71.22449024501837, 41.72735410090598], [-71.22466807529652, 41.72679012071643], [-71.22571365524489, 41.726976091724275], [-71.22553043433727, 41.72665489856724], [-71.22552888557505, 41.725528887751935], [-71.22571221633251, 41.72464247937395], [-71.22610841783481, 41.723860123861854], [-71.22613926005917, 41.72349893039455], [-71.22567994042997, 41.72262504245852], [-71.22525074594063, 41.71893986479021], [-71.22466968302709, 41.71800546738506], [-71.22473088013224, 41.7176167742385], [-71.22521861913836, 41.71706648464055], [-71.2252185162624, 41.71612955168741], [-71.22582692243418, 41.713883505496355], [-71.22596316144288, 41.71241118906576], [-71.24944663608724, 41.73872752093382], [-71.26104592892163, 41.75212720529197], [-71.2837827033571, 41.76176758034855], [-71.282207594345, 41.76363731331782], [-71.28214547560607, 41.76438617528748], [-71.28226825721936, 41.76452765280324], [-71.28183940726738, 41.76564383218641], [-71.28186958710896, 41.765940443558726], [-71.28226681297967, 41.76632891765513], [-71.2822665099202, 41.76696872999905], [-71.28141070001612, 41.7679766113756], [-71.28141016917398, 41.7685708429132], [-71.28156328140831, 41.76880185185069], [-71.28122630516036, 41.77024064356134], [-71.28137893212248, 41.770724313145976], [-71.28226502529772, 41.77186833177408], [-71.2828448486339, 41.77195609720952], [-71.28324236244494, 41.77149767451487], [-71.28321164551984, 41.77124608018352], [-71.28281478529645, 41.77079458557636], [-71.28275382406842, 41.77026438698192], [-71.28281547027777, 41.76910136192581], [-71.28296868081013, 41.768918207094806], [-71.28345811319929, 41.76894446075336], [-71.2839463615616, 41.76937586857767], [-71.2845264260122, 41.769553661183856], [-71.28510741503109, 41.76901060808102], [-71.28513846047403, 41.76877544961038], [-71.28449705065879, 41.76806802440798], [-71.28449741072343, 41.76729315939244], [-71.28602679600961, 41.76455165551706], [-71.28636316573038, 41.76359003515813], [-71.28632938562492, 41.76284718105928], [-71.31753694997539, 41.77606682637386], [-71.31479507554486, 41.77570113695043], [-71.30929498855491, 41.77550073996639], [-71.29549405523116, 41.775301238008026], [-71.2819940200401, 41.774900874833044], [-71.2808939560075, 41.77520094551065], [-71.27519306401031, 41.7756011891744], [-71.2704929139513, 41.776300846771676], [-71.26399293673444, 41.776800770516246], [-71.25469192667948, 41.77790094080978], [-71.25319192731155, 41.77820100816238], [-71.2391919578133, 41.779000964183965], [-71.23809196299177, 41.77940078662124], [-71.19139103897487, 41.78380084827559], [-71.18769092799215, 41.78390106174879], [-71.19009107638206, 41.79790080919959], [-71.19327994907135, 41.81445174239996], [-71.19319109169999, 41.81670126051508], [-71.17659096019165, 41.815801173626845], [-71.17388990861228, 41.803001136298086], [-71.17349000234024, 41.80050094505898], [-71.17232992251841, 41.7957887609962], [-71.1711899318979, 41.7898009307323], [-71.15439004530694, 41.79020084011338], [-71.14909001026815, 41.790500895217434], [-71.14258908712604, 41.79050095232327], [-71.13338890907896, 41.79090108767926], [-71.1312889963117, 41.7907007370027], [-71.12568894936564, 41.79110114905332], [-71.1243889130492, 41.79090104442515], [-71.12378415531464, 41.79100033997761], [-71.1244666709839, 41.788515916752715]]], [[[-71.06101577621348, 41.51272794875087], [-71.05891475361813, 41.5140720338893], [-71.0583670881545, 41.51407271750955], [-71.05794077830862, 41.51381895607813], [-71.05763707723321, 41.51331975946752], [-71.05757702345788, 41.512176627397125], [-71.05775877380066, 41.51187627706937], [-71.05900660316856, 41.51133134927648], [-71.05967647682984, 41.51130131242064], [-71.06016303991707, 41.51141912106852], [-71.06077180844909, 41.5119487538365], [-71.06098485070267, 41.51224219606446], [-71.06101577621348, 41.51272794875087]]], [[[-71.06484997500445, 41.516272136843284], [-71.06506317245936, 41.5165475646754], [-71.06503319476936, 41.51680011399461], [-71.06463741322004, 41.51700567973633], [-71.0632976692945, 41.51702079040284], [-71.06275008586775, 41.51686843394873], [-71.06214169908591, 41.51641084243233], [-71.06192875877367, 41.51604481106877], [-71.06201997250574, 41.51524158952499], [-71.06238431073989, 41.51514508064414], [-71.0628110126765, 41.515290220571586], [-71.06369358982944, 41.515860282858306], [-71.06484997500445, 41.516272136843284]]], [[[-71.06171505242187, 41.51759823692542], [-71.06208006071198, 41.517871442957755], [-71.06281148271303, 41.51796598739798], [-71.06411939115948, 41.51773579857117], [-71.06442423267127, 41.5178022452684], [-71.06485049483719, 41.518236054493734], [-71.06384563861089, 41.51981289619362], [-71.0636020299867, 41.520456844463745], [-71.0636324289693, 41.52157341103513], [-71.06348090984623, 41.522107418711514], [-71.06302410479485, 41.522746606574266], [-71.0627195821031, 41.5229046853798], [-71.06217206436598, 41.52265328664518], [-71.0622634859548, 41.52198511992928], [-71.06214112605454, 41.521509706586784], [-71.06180648541272, 41.52125462530752], [-71.06086291918417, 41.521190203849976], [-71.06061896466294, 41.521032821627294], [-71.06022393678596, 41.51997674167099], [-71.05918907987842, 41.51960751724591], [-71.05608388803608, 41.519194752362715], [-71.05568856353833, 41.51922021626094], [-71.05529211640201, 41.51951522057536], [-71.05532325186786, 41.51991093959619], [-71.05614467107438, 41.52112176699191], [-71.05593162093831, 41.52215241205111], [-71.05520103036305, 41.522580037289664], [-71.05489636192246, 41.5225405774341], [-71.05434876737513, 41.52187441073685], [-71.05322281912906, 41.52251599462943], [-71.05291802781868, 41.52249453623919], [-71.05197375896823, 41.52148465666662], [-71.05115234790925, 41.521138710330376], [-71.05048358826306, 41.519312827756885], [-71.05054457821731, 41.518302974226614], [-71.05109176582445, 41.51770752385005], [-71.05157939341349, 41.517437091770624], [-71.05349729271728, 41.51748404460732], [-71.05425778062624, 41.517272635151905], [-71.05745405826218, 41.51583668537207], [-71.05876318572356, 41.51542592785855], [-71.05927997500282, 41.51539867422178], [-71.06028437061508, 41.515696313718955], [-71.06171505242187, 41.51759823692542]]], [[[-71.05078765152682, 41.52269489608337], [-71.05157868093781, 41.52315833493705], [-71.05215617382683, 41.524526353769076], [-71.05328273327783, 41.52530791940572], [-71.05346476352253, 41.525647397393854], [-71.05346486322044, 41.52635868482492], [-71.0531303503408, 41.52759030342748], [-71.05227768590052, 41.52765953509535], [-71.05042059504345, 41.52674676652389], [-71.04975129007742, 41.52755162707145], [-71.04929419263387, 41.52756838295276], [-71.04905115560301, 41.527068278561806], [-71.04956852523556, 41.525347262106145], [-71.04929568851338, 41.52402770916836], [-71.04844327028891, 41.523403632889675], [-71.04847381678145, 41.5226283163191], [-71.04896123846481, 41.52180867271002], [-71.04975215303911, 41.52129916868579], [-71.05014829519612, 41.52137276861882], [-71.05045257043534, 41.522241136745386], [-71.05078765152682, 41.52269489608337]]], [[[-71.0606186009613, 41.52553744823088], [-71.05906645509495, 41.52750209865902], [-71.05839628278719, 41.52915391051431], [-71.05830513632014, 41.531921047228956], [-71.05815297283517, 41.532076893150084], [-71.05790948701406, 41.53203655423591], [-71.05736146754434, 41.53138840794045], [-71.05644871199655, 41.5310984169178], [-71.05644814576046, 41.53031453591017], [-71.05708731379062, 41.529717727435646], [-71.05684407611399, 41.52883048299852], [-71.05727009189509, 41.52816475122975], [-71.05720915629414, 41.52693157871302], [-71.05769687390868, 41.52624751614392], [-71.0583054143285, 41.52576819165243], [-71.0589141696755, 41.524685058829334], [-71.05931007409812, 41.52438947692285], [-71.06034473806581, 41.5244159986102], [-71.06061899758146, 41.52496065476533], [-71.0606186009613, 41.52553744823088]]], [[[-71.05690397871038, 41.537090987646884], [-71.05723805985171, 41.53738209560243], [-71.05723850843674, 41.53791331176986], [-71.05571655126404, 41.53873344920461], [-71.05538140700675, 41.53873044893229], [-71.05507680037137, 41.537889103796694], [-71.05431615646471, 41.537038090178775], [-71.0537684780568, 41.53537195425438], [-71.05389009893675, 41.53454972508215], [-71.05425580051768, 41.53473235981036], [-71.05519923178629, 41.536084917441684], [-71.0557777300841, 41.53663359074684], [-71.05690397871038, 41.537090987646884]]], [[[-71.05684281009299, 41.54225433348121], [-71.05659892098056, 41.54267261300867], [-71.05611243966557, 41.544618311052545], [-71.05513769095543, 41.5447079086446], [-71.05474171603126, 41.54448070276581], [-71.05458927905524, 41.5438622302454], [-71.05434569733204, 41.54356021526118], [-71.05370621144561, 41.54326508506519], [-71.05312742621629, 41.54250987921215], [-71.05306742553067, 41.54136674379687], [-71.05343238582125, 41.54074749171936], [-71.05468132536238, 41.53967083578544], [-71.05528982182743, 41.53962426376654], [-71.05684311260408, 41.541479459293114], [-71.05684281009299, 41.54225433348121]]], [[[-71.05937018000101, 41.54728988695759], [-71.05903445154902, 41.54777365441334], [-71.05842532713301, 41.54811792706845], [-71.05812143436705, 41.54873574477189], [-71.05751172830962, 41.5488909339579], [-71.05723838819303, 41.54820221565388], [-71.05644650771605, 41.547729810346084], [-71.0562936737973, 41.54678664496097], [-71.05708552371382, 41.546259084901195], [-71.05748139001693, 41.54626062848953], [-71.05924836678871, 41.54708514418323], [-71.05937018000101, 41.54728988695759]]], [[[-70.98364599181004, 41.85523724315454], [-70.97884607899073, 41.85712474780073], [-70.97774207948741, 41.857716751917295], [-70.97627006394424, 41.85907686594583], [-70.9739329887898, 41.86078918153734], [-70.97362893662014, 41.861397211591076], [-70.97404600838223, 41.862533027798015], [-70.97678204076153, 41.87355702227661], [-70.97708601616465, 41.8737649357394], [-70.97686206873917, 41.8739889995422], [-70.97746997076274, 41.875973140432684], [-70.97753394860712, 41.87675674691282], [-70.97970998033489, 41.88318906853848], [-70.98094206394659, 41.886084832606066], [-70.98092608986155, 41.88640495031784], [-70.9818059266624, 41.88922088276589], [-70.98742197501393, 41.90611726478122], [-70.98511801632972, 41.9077967575012], [-70.98468595283305, 41.90768507731119], [-70.98422205844996, 41.906852965504534], [-70.9837580498007, 41.90675689371384], [-70.9836780615904, 41.90630916674346], [-70.98284592939429, 41.90627726465424], [-70.98223792204075, 41.90573316898948], [-70.98118199776053, 41.90531702479991], [-70.980989996738, 41.90482095524212], [-70.98031795036533, 41.904004762393065], [-70.97993401404155, 41.90386120781114], [-70.97946999909985, 41.904068989340004], [-70.97865406409629, 41.90413279346773], [-70.97796604321236, 41.90331707633868], [-70.97790194731911, 41.90298083701004], [-70.97761406295194, 41.90283715102382], [-70.97686198670661, 41.90184500127629], [-70.97641392912924, 41.90150925197236], [-70.97577394476436, 41.901636867267385], [-70.97446204563023, 41.90149296866436], [-70.97399795333129, 41.90173280292597], [-70.97212590761578, 41.90198920607805], [-70.97009402328139, 41.90160501920387], [-70.96772605583803, 41.90166884660431], [-70.96723006539148, 41.901508970337275], [-70.96474995624018, 41.899589170825216], [-70.96426999794892, 41.89819698940774], [-70.96323005636692, 41.897476881362046], [-70.96316607200846, 41.89698081985293], [-70.96329398047948, 41.89666123075817], [-70.96308595153185, 41.89616505461421], [-70.9627980565307, 41.89594086116487], [-70.96239094277426, 41.895898991245616], [-70.96050105626799, 41.894451750367274], [-70.95204406777678, 41.89162485364794], [-70.93871907109045, 41.886726857650686], [-70.9154520184906, 41.87782983644954], [-70.91590007441917, 41.87755808196419], [-70.9165080091742, 41.87651789426356], [-70.91607607777227, 41.87531820011882], [-70.91599598191219, 41.874630136707744], [-70.91606003518045, 41.873637812286994], [-70.91631598686673, 41.87290194795224], [-70.91618791326728, 41.87272572168052], [-70.9147480170615, 41.87237395680528], [-70.914219927007, 41.87167008801969], [-70.91321205975242, 41.8708860941917], [-70.91321206786786, 41.870374011505696], [-70.91359606139122, 41.86979806342835], [-70.9142680560236, 41.869381719354685], [-70.91516402827394, 41.86838972299945], [-70.91660391635384, 41.86747815827433], [-70.9163480773267, 41.86709419477423], [-70.91513205662541, 41.866438017324214], [-70.91519598951314, 41.86619805998566], [-70.91581995992179, 41.866005989387254], [-70.91604398959915, 41.865670061817866], [-70.91525994049529, 41.86523781036397], [-70.91524401064984, 41.86504583834287], [-70.91586801763206, 41.86429385294951], [-70.91573991784537, 41.86410186943755], [-70.91538798095097, 41.86424581350595], [-70.9148760880376, 41.86381382786815], [-70.91476394621509, 41.86295002722805], [-70.91449191498991, 41.8624061613285], [-70.91378804487029, 41.8619579916795], [-70.91311596241239, 41.86194215672978], [-70.91300401508545, 41.86114194344432], [-70.91325997758777, 41.86070995890826], [-70.91362795694083, 41.86066176776179], [-70.9139960672893, 41.860373853697084], [-70.91429990602816, 41.85983012973317], [-70.91602807688635, 41.85984574070931], [-70.91657204114789, 41.859526080065294], [-70.9172279901175, 41.85885415808095], [-70.917292078026, 41.858533730119845], [-70.91660393054077, 41.85768612056233], [-70.91657206593175, 41.85715811813881], [-70.91708407314441, 41.85549393286425], [-70.91830000399449, 41.85347825472784], [-70.91858808565017, 41.85255009535115], [-70.91570800334306, 41.849286184065875], [-70.89375592957666, 41.827141864700955], [-70.89876391553726, 41.814822063875084], [-70.89604299005381, 41.79429387019028], [-70.8742189919643, 41.79706183250046], [-70.86833109075887, 41.79755776166823], [-70.83106594705174, 41.802054122446876], [-70.77173700377209, 41.80895096974629], [-70.77173701820803, 41.80567077124279], [-70.7728889367488, 41.80213512687599], [-70.77448901245413, 41.800247207193], [-70.77586504521955, 41.79827905907033], [-70.77778504331103, 41.7966789967379], [-70.77767294195901, 41.79482293982459], [-70.77845690870194, 41.79232709848473], [-70.77820093659244, 41.78951122536273], [-70.7780409366341, 41.789015002510176], [-70.77733698362451, 41.78821482941931], [-70.77693694327814, 41.787270831265275], [-70.77626498973478, 41.78010290834324], [-70.77568900869535, 41.777542728201], [-70.77530500261503, 41.77699893222754], [-70.77530497695743, 41.77266303176197], [-70.77432904293399, 41.77069511334785], [-70.77420105951168, 41.76968699586121], [-70.77829701070097, 41.76279076767122], [-70.77877700608136, 41.761734733346714], [-70.779512984522, 41.762903133833355], [-70.78703294669289, 41.75746318426094], [-70.78687301529733, 41.749255206440054], [-70.78546401632737, 41.745831115277355], [-70.79132091668352, 41.74378276430138], [-70.79333595909651, 41.73381512077449], [-70.79323993706316, 41.73346281330409], [-70.79298405241472, 41.73335092806545], [-70.79301602992741, 41.733142913376874], [-70.7923439780075, 41.73307908851162], [-70.7920559168286, 41.73258321351946], [-70.79253597480226, 41.73173477376918], [-70.79423195765355, 41.730439182528166], [-70.79407199019607, 41.73023110313017], [-70.79416796265092, 41.7299587699414], [-70.7951280313202, 41.728631027235636], [-70.7960559605721, 41.72835877516278], [-70.80384806081618, 41.70539913363195], [-70.84340098192452, 41.70509507568389], [-70.84380099571224, 41.704294920673355], [-70.84367296052605, 41.70378321790075], [-70.84309697583684, 41.70285475652675], [-70.84333908620079, 41.70138009629509], [-70.86532906383715, 41.70097925177794], [-70.87909804154891, 41.73877527939805], [-70.88516291378973, 41.756341834555776], [-70.88658696050581, 41.76006974093851], [-70.90473107095524, 41.75795783490223], [-70.90746694747745, 41.76354202128959], [-70.91013908887167, 41.7633020959659], [-70.91194695088002, 41.76295016829269], [-70.92613993772133, 41.7587260926693], [-70.9263639460298, 41.75819825345509], [-70.92628400816356, 41.757622176713845], [-70.92567605356544, 41.75688587417619], [-70.92450803048986, 41.75594190588967], [-70.92278007425385, 41.75517403803854], [-70.92236391302774, 41.754821909386614], [-70.92238001272675, 41.75466217525407], [-70.92284397144503, 41.7546937890481], [-70.92452401474581, 41.75402194677688], [-70.93585197659421, 41.748405721966], [-70.9429839152089, 41.7451021418554], [-70.96248404203052, 41.73520175500625], [-70.97014005840387, 41.7320857854898], [-70.98276490839288, 41.7258620823279], [-70.98422101652838, 41.72498182608441], [-71.01528509105711, 41.71040183635716], [-71.0267569142486, 41.70528313755218], [-71.02708599706828, 41.704802247226915], [-71.0699869200916, 41.684502096466346], [-71.07638692128182, 41.68610173838967], [-71.07517407733226, 41.678122251716545], [-71.06569790681435, 41.6683411625988], [-71.0642329805903, 41.6670981228394], [-71.06316493136191, 41.66590779698216], [-71.06058599383654, 41.66191825505049], [-71.05522997619543, 41.65451782633884], [-71.05341405162196, 41.6514202091182], [-71.05236109468294, 41.649291771733374], [-71.04912707219522, 41.6402967315075], [-71.04689903404216, 41.63760422462192], [-71.04576899956002, 41.63688617649528], [-71.04483807004472, 41.63657407855846], [-71.04413600854505, 41.63480373661524], [-71.04300699995223, 41.63308682219805], [-71.04073308634706, 41.630508241808016], [-71.03897802708863, 41.62802907249951], [-71.03804806911096, 41.62635793310345], [-71.03710206635495, 41.62413806031945], [-71.03893303242344, 41.62282308966931], [-71.03768405810366, 41.62242298154924], [-71.036812038484, 41.61905712905392], [-71.03668991690526, 41.617073013489836], [-71.03852096802574, 41.608672737366724], [-71.03710191939679, 41.598106242008306], [-71.03887209211945, 41.59591711071273], [-71.03938995966661, 41.59502391044104], [-71.03969603357145, 41.59400211074156], [-71.0420610941348, 41.592322920004364], [-71.04492907680616, 41.58997323596628], [-71.04534108323784, 41.58887475207011], [-71.04517397790738, 41.58741718025434], [-71.04300696374354, 41.58435793505722], [-71.0409930123146, 41.582061763038304], [-71.03499605783533, 41.573752887146284], [-71.03233994085318, 41.56938196274779], [-71.03176006201792, 41.56585689389538], [-71.0301729426052, 41.56071487996776], [-71.02941008603746, 41.557495728621504], [-71.03020397638406, 41.55441413907015], [-71.03102791006248, 41.55251383516701], [-71.03115006653807, 41.551637046283105], [-71.03102807676649, 41.549957924178926], [-71.03061601833109, 41.54814986389499], [-71.0315619089918, 41.54612794887239], [-71.03096708528061, 41.54322125313594], [-71.029394957454, 41.5372700871377], [-71.0288609521364, 41.53630223070411], [-71.02634304522033, 41.530267185075076], [-71.03279807847841, 41.52745103606068], [-71.02916590903965, 41.51385627877495], [-71.02236561723922, 41.50441229733666], [-71.02318891056971, 41.50400271786626], [-71.02845411132287, 41.502378180963376], [-71.03028096974354, 41.501301382907954], [-71.03403061072349, 41.500085034373356], [-71.03644804834646, 41.49836398826699], [-71.03809976426156, 41.49629088555269], [-71.03840223184785, 41.495837433159636], [-71.03841571105204, 41.4955504972117], [-71.038112602819, 41.49461232304328], [-71.03845231058446, 41.49267511112014], [-71.03818843464643, 41.49073375466512], [-71.03786460552381, 41.49015620351292], [-71.03648356611372, 41.488997541373124], [-71.03552784241367, 41.48869144776141], [-71.03438496858284, 41.487749821958985], [-71.03448292451144, 41.48750318684112], [-71.03531147017605, 41.486921910719396], [-71.03638546025631, 41.485331537280196], [-71.03638061256552, 41.48450093260412], [-71.03566226617292, 41.4830714816136], [-71.03543471532043, 41.48194340797655], [-71.0377136184443, 41.48151210397734], [-71.03873367860223, 41.48237947967335], [-71.03892681320627, 41.48273422003756], [-71.03927031331051, 41.48403326367806], [-71.03938597631654, 41.48545968303573], [-71.03979780332746, 41.486678532629746], [-71.03956364002784, 41.487137330177745], [-71.03958186907094, 41.48764723466332], [-71.03991461022338, 41.488339050535444], [-71.04001765239008, 41.488997858806655], [-71.04069566953363, 41.49007260070714], [-71.0403581403805, 41.49106444648654], [-71.03903257113923, 41.492696040427056], [-71.03849233541366, 41.494341508574095], [-71.03850292503398, 41.49479398417161], [-71.04042528704389, 41.49712528761581], [-71.04247462696253, 41.49896299597281], [-71.04741351648684, 41.501898293040554], [-71.05075976738486, 41.503568822021045], [-71.05666341522134, 41.50574278409782], [-71.06646336284768, 41.508035495444375], [-71.07160596084188, 41.50825817130025], [-71.07833234232312, 41.50878588064627], [-71.08009744736952, 41.50915031978788], [-71.0828064621985, 41.50936233062958], [-71.08527105214242, 41.5097500795429], [-71.08944030094165, 41.509701652877716], [-71.09050604511482, 41.51004257645796], [-71.09059775139552, 41.51048239603738], [-71.08986779311738, 41.51200924834488], [-71.0892292234728, 41.512471187299184], [-71.08825538784774, 41.51244402354983], [-71.08578921011008, 41.51184868825923], [-71.08451193370912, 41.51191717317298], [-71.07924620967522, 41.513778401321474], [-71.07583769912092, 41.51365991988621], [-71.07239843847908, 41.51377587700196], [-71.07057238545548, 41.5141150583351], [-71.06892871784952, 41.51482911634709], [-71.06789334103031, 41.51484768774162], [-71.06646293216178, 41.515350936903474], [-71.06491116730932, 41.51519868926341], [-71.06290257174184, 41.514324934464916], [-71.06250641816447, 41.513845653053856], [-71.06205079324903, 41.51253836996759], [-71.06153351122951, 41.511628694488294], [-71.06031536189315, 41.510686478622375], [-71.0591896169575, 41.510274134308], [-71.05903689773898, 41.51070909134887], [-71.05830645397434, 41.51102869288503], [-71.05791116219115, 41.51043235148183], [-71.05693761545626, 41.50990915772156], [-71.05584260332353, 41.50968541351859], [-71.05501993836077, 41.51005133921856], [-71.05505068696843, 41.51069071738692], [-71.05641950128846, 41.510323551311025], [-71.05666334560748, 41.51130139781826], [-71.05620680113309, 41.511714905579026], [-71.05480720873582, 41.51144269085023], [-71.05450277308512, 41.511835404837775], [-71.0547761201205, 41.51230804268761], [-71.05660189993408, 41.512743989087355], [-71.05660227794766, 41.51306812117248], [-71.05574986851762, 41.5142363845472], [-71.05474487010932, 41.514894212572564], [-71.05386292558828, 41.514918885142876], [-71.05307074475853, 41.51549200042745], [-71.0521582276879, 41.51531001858797], [-71.05188427013681, 41.51473833200645], [-71.05151810109305, 41.514960850832814], [-71.05106265033626, 41.51496917907552], [-71.05078790034668, 41.51509976995163], [-71.05106213724845, 41.515951135640535], [-71.05014894832327, 41.51631835656946], [-71.04935777850275, 41.51628764402473], [-71.04722757742856, 41.51572206529647], [-71.04479237432831, 41.514648206215575], [-71.04339237060982, 41.51448389271921], [-71.04275290410975, 41.514233717961474], [-71.04196170184682, 41.51363516178361], [-71.04132354200917, 41.51262867872476], [-71.04080581031866, 41.51221466851762], [-71.03968099338032, 41.51001828845847], [-71.03907240396478, 41.50954256436344], [-71.03916420630007, 41.50851370901931], [-71.03965171595476, 41.50716232884067], [-71.03910389545815, 41.506541667749204], [-71.03873904516094, 41.50512436344383], [-71.03800908754164, 41.504461877338024], [-71.03746163054832, 41.504237369681796], [-71.03566618140376, 41.5041608208325], [-71.03542229596144, 41.503985377036116], [-71.03542269310415, 41.50256167857672], [-71.03524106298791, 41.50224074289827], [-71.03481533735604, 41.502058925496954], [-71.03414467207385, 41.502466964751726], [-71.03326290132235, 41.502104320833794], [-71.03259359740694, 41.50217021831086], [-71.03231887655568, 41.502427378126136], [-71.03237939419968, 41.50293070586072], [-71.03219668413698, 41.50304193544912], [-71.03091964215535, 41.50281269748954], [-71.0305235203052, 41.502882525513044], [-71.0303406983936, 41.503110798979485], [-71.03049203272757, 41.50393694653217], [-71.03134427653704, 41.50452570645885], [-71.03253130787053, 41.50496446603958], [-71.0328358931676, 41.50531010969129], [-71.0331397741617, 41.50588140332122], [-71.03274365645515, 41.50743796516789], [-71.03316889656399, 41.50784487924744], [-71.03538993205522, 41.508787559891225], [-71.0358765898151, 41.50940067342437], [-71.03703334069465, 41.510109933500345], [-71.03876682458775, 41.51224128845158], [-71.03977175035125, 41.51283623223026], [-71.0400450387805, 41.51361559215792], [-71.04123094238773, 41.514531448128636], [-71.04135309053262, 41.51519596010079], [-71.04068322788781, 41.514982228097196], [-71.03992242894205, 41.51510407172876], [-71.04098750539097, 41.516220333940595], [-71.04202183184378, 41.51658916006131], [-71.04326983050794, 41.516630204108424], [-71.04378732603473, 41.51658501652614], [-71.04454811785936, 41.51620204147325], [-71.04515757690224, 41.51620054669727], [-71.04573522195992, 41.51654162216548], [-71.046709213774, 41.51665918759885], [-71.04698322427518, 41.51748298884026], [-71.0472265621149, 41.51766797171126], [-71.04844457292313, 41.51769139457217], [-71.04905310602554, 41.51832913312605], [-71.04981357137187, 41.51988359088306], [-71.04978275593453, 41.52043325303651], [-71.04935664685571, 41.520549171864786], [-71.04862659858843, 41.52039095803617], [-71.0482613941909, 41.52052343405572], [-71.04838255456151, 41.521260526124955], [-71.04810806935312, 41.522012925279405], [-71.04789543064892, 41.52219665296804], [-71.04710403691986, 41.522373007725434], [-71.04725595073005, 41.52315411651713], [-71.04667809797891, 41.52333582179854], [-71.04670819511874, 41.52365951019226], [-71.04698187083834, 41.52395209560237], [-71.0478031857812, 41.52420747262584], [-71.0477726475402, 41.52484773457641], [-71.04731635936648, 41.52546829202087], [-71.04758962652816, 41.52608556795656], [-71.047346624855, 41.526404790952206], [-71.04728503293249, 41.527253138098246], [-71.04786351718782, 41.527756271218074], [-71.04780255520642, 41.52909982121596], [-71.04737649094109, 41.529836984063095], [-71.04728432663703, 41.53058673210087], [-71.04752764062322, 41.53136595420954], [-71.04956707122693, 41.53479826113227], [-71.05099663055934, 41.53882686229343], [-71.05145343477336, 41.539719465490904], [-71.05172682479635, 41.54097599008409], [-71.05178749824529, 41.54287599729279], [-71.05203173882177, 41.54340311137614], [-71.05154459566185, 41.544726974019625], [-71.05166583064666, 41.54559911761617], [-71.05136029642439, 41.54657761921672], [-71.05172548656905, 41.546922325393695], [-71.05169526293832, 41.548913698570445], [-71.05489293853226, 41.553604794591436], [-71.0555630617311, 41.55484485698913], [-71.055684556988, 41.55596009546408], [-71.05641491564765, 41.558001149522994], [-71.05717607865844, 41.558546026715995], [-71.05729815815253, 41.5587957909341], [-71.05723753689482, 41.559301446533205], [-71.05687188046986, 41.55968661403554], [-71.05693207713948, 41.55989280714956], [-71.05976452924591, 41.55977889726161], [-71.06006982240085, 41.559944396727225], [-71.06022174420416, 41.56092413069359], [-71.06086253354509, 41.56166040675339], [-71.06174490724366, 41.56204984621789], [-71.0619890332527, 41.56236985441043], [-71.06311561434941, 41.56526830016524], [-71.06329891313567, 41.5653911169403], [-71.06372441952875, 41.5652937122773], [-71.06405987204462, 41.56417067137295], [-71.06448678356499, 41.56339687117792], [-71.06430391431672, 41.56268825893452], [-71.06387696803529, 41.56211939113865], [-71.06360290413234, 41.56113356570302], [-71.06393784890834, 41.559091589874136], [-71.06448610482224, 41.558730172046765], [-71.06530853872272, 41.558868940408765], [-71.06591704986899, 41.55978569962096], [-71.06658800250715, 41.56019680217599], [-71.06710563195482, 41.561179047114436], [-71.06917697564535, 41.56124938661476], [-71.06963379279969, 41.561448635870846], [-71.0697858813474, 41.56220270359363], [-71.07006077601648, 41.562549259003085], [-71.07091339090978, 41.563029113360145], [-71.07100497211769, 41.564513933145385], [-71.07197962323797, 41.56492896396318], [-71.07204069095022, 41.565910027211686], [-71.07134010860429, 41.567057599167306], [-71.0704567962205, 41.567236022738356], [-71.0704567520921, 41.56785727323219], [-71.07109643925612, 41.56948540911555], [-71.0710670544525, 41.571747460910494], [-71.07051813739638, 41.57336997978398], [-71.07054926906304, 41.57403580364994], [-71.07097583480936, 41.57454218180296], [-71.07103689652854, 41.575243570374326], [-71.07079305883761, 41.57632027169011], [-71.07085463165177, 41.576805575097374], [-71.07121971064228, 41.57734829722973], [-71.07125010514916, 41.57778959000729], [-71.07076295678803, 41.57849172190806], [-71.06847791234146, 41.58019037891864], [-71.06835596991411, 41.5804358274322], [-71.06850896435552, 41.58119890405076], [-71.06741233002808, 41.58211085336995], [-71.06744262965825, 41.58247955510516], [-71.06820426177768, 41.58281727528089], [-71.06823460594659, 41.5830689296913], [-71.06716858284751, 41.58382680587416], [-71.06698559178326, 41.58439783946882], [-71.06796104345601, 41.5842631223523], [-71.0684789391331, 41.58451494160985], [-71.06735128147936, 41.58551737184602], [-71.06762617092177, 41.5860440056479], [-71.06759592297573, 41.58666626690808], [-71.06710799862105, 41.58677414062656], [-71.06585863674357, 41.58645424596417], [-71.0655534873058, 41.586522857666175], [-71.06558452420954, 41.58727871919259], [-71.06573698244026, 41.58748300934943], [-71.06655919793963, 41.58745970098689], [-71.06723047131919, 41.58767272000346], [-71.068814258584, 41.58764441555604], [-71.06921048160379, 41.58782599135113], [-71.06911920784249, 41.58810700885058], [-71.06787062115691, 41.58847197849921], [-71.06680398361101, 41.589112802042735], [-71.06631576486116, 41.590229641457775], [-71.06491432593364, 41.590687408042626], [-71.06467064205118, 41.591304349318825], [-71.06531047451375, 41.592040595566715], [-71.06528034525114, 41.594076990770816], [-71.06476249017368, 41.595077788568126], [-71.06473183182528, 41.59611421506404], [-71.06534178100564, 41.59767080308549], [-71.06546345859917, 41.59915518067912], [-71.0659821629491, 41.59988476959491], [-71.06555534311352, 41.60022527684959], [-71.06214180236495, 41.6018992321408], [-71.06208039061042, 41.60399965745714], [-71.06198933226847, 41.60448775404685], [-71.06141015644738, 41.60530879069854], [-71.06153214577554, 41.60624395194761], [-71.06137984524788, 41.60675094451987], [-71.06077053445321, 41.606933165881316], [-71.06009957002554, 41.60754900836467], [-71.05967296150932, 41.60757436719169], [-71.05891106800213, 41.60702050227736], [-71.05811839545909, 41.60690881650559], [-71.0580881073331, 41.6074134654838], [-71.05918526845194, 41.60830402253986], [-71.06019152661868, 41.60807889097199], [-71.06092284869264, 41.60811942152623], [-71.0609531830405, 41.60850669531284], [-71.06016069919728, 41.609701115444416], [-71.06009961304574, 41.610134179302506], [-71.05915511194976, 41.61134938773183], [-71.05909371540207, 41.61212571376481], [-71.05799605176607, 41.61319907384016], [-71.05796587952885, 41.61365926777381], [-71.05827037490538, 41.61424850205637], [-71.0582707045204, 41.61466267093308], [-71.05906303981396, 41.61491897497858], [-71.05933797885537, 41.61528356333281], [-71.05945978241091, 41.61638022900573], [-71.05970377727849, 41.616475149952855], [-71.06025160559614, 41.616032715916354], [-71.06006931658199, 41.61527908091218], [-71.05918520173148, 41.61457449676376], [-71.05900255403974, 41.61379384766666], [-71.05912440407887, 41.613494386529695], [-71.05967245997986, 41.613042952611316], [-71.06061792905174, 41.611142904037564], [-71.06223331650216, 41.6094024312414], [-71.06241659230894, 41.60866934031011], [-71.06226383472949, 41.605789275114546], [-71.06275121190826, 41.60496056551166], [-71.0626907849853, 41.60316016760597], [-71.06296465002825, 41.602497202691445], [-71.0640011069073, 41.60175782101583], [-71.06665164610547, 41.60096269672809], [-71.06713969159682, 41.60057571222401], [-71.06738362030516, 41.59984115647472], [-71.06659123727871, 41.59800871027492], [-71.06680491150316, 41.59723014765749], [-71.0671702266362, 41.59686295336661], [-71.06808396777123, 41.59681972392791], [-71.06845007055344, 41.59702932405326], [-71.07052232896267, 41.597136215394045], [-71.07036999925158, 41.596544213194804], [-71.06872468205161, 41.596159264799965], [-71.06826700536301, 41.59571747398484], [-71.06835838084814, 41.59361659736422], [-71.06823674830562, 41.59233930697179], [-71.06844877926196, 41.591993472491446], [-71.06899717021908, 41.59165003952886], [-71.07097774386182, 41.59073128641314], [-71.07170930124232, 41.589979429298566], [-71.07216661104428, 41.58904308610085], [-71.07210599567549, 41.58799055805251], [-71.07158743703278, 41.586459111415444], [-71.07189194258514, 41.584579625166384], [-71.07125076473392, 41.58370835645139], [-71.07134323563595, 41.58327428004593], [-71.0723785859271, 41.58224670317971], [-71.07304864796099, 41.58179285178929], [-71.07368867866172, 41.58165513639455], [-71.07442017937436, 41.582272939792055], [-71.07475451265447, 41.5827710797532], [-71.0749992335565, 41.58398298409956], [-71.07530384350343, 41.58407697320413], [-71.0756080924389, 41.58235954191424], [-71.07506002267603, 41.58128831180932], [-71.07390133399949, 41.58019171845932], [-71.07390145969919, 41.57975054093366], [-71.07447990385964, 41.57796548818721], [-71.07435807438405, 41.57676023324194], [-71.07457089004352, 41.57574755917985], [-71.07447954407324, 41.57519968367166], [-71.07393043266391, 41.57457862561171], [-71.07326059513476, 41.57416757127117], [-71.07326067488336, 41.57376184539547], [-71.07420445644111, 41.572249400734286], [-71.07423490393941, 41.57169916789971], [-71.07380822974562, 41.57129240430012], [-71.07271119758256, 41.570924761010836], [-71.07249822716699, 41.57066735611359], [-71.07246742818128, 41.57014559225173], [-71.07322929135252, 41.56899655533037], [-71.07347205165058, 41.5681274913638], [-71.07475175967906, 41.565888135091676], [-71.0746294235605, 41.563944018308], [-71.07481145013212, 41.563075849655675], [-71.07435467604013, 41.562048287535106], [-71.07197809448259, 41.559803078448475], [-71.07094240203774, 41.558361965534154], [-71.06984630795134, 41.55747152394957], [-71.06935876757312, 41.556831543729544], [-71.06844496187085, 41.55360477446368], [-71.06783579445853, 41.552733044485876], [-71.06689206550902, 41.55079479337027], [-71.06646526291115, 41.550378997516084], [-71.06619105353127, 41.549582254235226], [-71.06515565644611, 41.54814108885309], [-71.06469833691983, 41.54714949965297], [-71.0639677415578, 41.546333555705914], [-71.06363351968118, 41.54497947589101], [-71.06341987452406, 41.544839098260354], [-71.06302455545774, 41.544017121433505], [-71.06275058858557, 41.543085316138246], [-71.06272025883709, 41.541986756182936], [-71.0621710901448, 41.54115855638342], [-71.06220149826159, 41.53996906874995], [-71.06153174212248, 41.538296310201936], [-71.06162324224032, 41.53671765164557], [-71.06220106699489, 41.53548244495861], [-71.06265892753338, 41.53503234010552], [-71.06399829852681, 41.534522034448585], [-71.06433249082478, 41.534110838752014], [-71.06442430438099, 41.53027114332144], [-71.06494142325168, 41.52905426034594], [-71.06497207085438, 41.528648651828746], [-71.06469826628181, 41.5281670334764], [-71.06396716931998, 41.52759418512826], [-71.06396763748012, 41.52686489305971], [-71.06457663627111, 41.52589877825173], [-71.06591536543353, 41.524982722518665], [-71.06631231317418, 41.524002844719114], [-71.06622022012614, 41.522563038124396], [-71.06661630031486, 41.52134849911491], [-71.06704195517179, 41.52057524925279], [-71.06804647564172, 41.519566169208815], [-71.06880721135163, 41.51850719724975], [-71.06972051603235, 41.51844595005716], [-71.06990349997824, 41.51940665492424], [-71.07020846451766, 41.51968016982058], [-71.07048138624792, 41.51953995871833], [-71.07057275605696, 41.517943849726805], [-71.07042070877647, 41.516387898632175], [-71.07060289928089, 41.516042511436815], [-71.07087636647522, 41.5159023015266], [-71.0718511000816, 41.516110252775555], [-71.07279447035313, 41.51757070626687], [-71.07331189831586, 41.51801157935365], [-71.07456025947614, 41.518484454243634], [-71.07629536687797, 41.520111034154205], [-71.07733119280492, 41.52043452498747], [-71.07818289270121, 41.521004921661174], [-71.07870020469502, 41.522356260501994], [-71.07924876956125, 41.52274263742837], [-71.07988753729887, 41.52150588069085], [-71.08067981087531, 41.521122217778576], [-71.08436265101511, 41.52201024098446], [-71.08582369877195, 41.523632293822224], [-71.08640342132516, 41.52407220864639], [-71.08670687932857, 41.52479697963521], [-71.08765078576565, 41.52601364991695], [-71.08801739160499, 41.52679098026465], [-71.08795696348577, 41.527891452900384], [-71.08963346143607, 41.53241959222321], [-71.08969442164934, 41.53403990074294], [-71.09033385550032, 41.5349110591115], [-71.09079075327398, 41.53513723471877], [-71.09167355338215, 41.535166298970175], [-71.09526537495793, 41.53253322501225], [-71.09617823627168, 41.532777885507], [-71.09739753678478, 41.533746728497874], [-71.09767180205925, 41.535003142076114], [-71.09873746641593, 41.536028823922884], [-71.0994685243893, 41.53658287687607], [-71.10029064141138, 41.536828872040196], [-71.10099070683842, 41.537311902555885], [-71.1009917508452, 41.538708028732756], [-71.10388652886255, 41.54158356518805], [-71.10352186739824, 41.542959282067535], [-71.10364392210305, 41.5431465331751], [-71.10471040093402, 41.5436223782012], [-71.1051668322343, 41.54357782292952], [-71.10565355301118, 41.54274949420998], [-71.10629259148715, 41.54272864031397], [-71.10720666181533, 41.54378410332036], [-71.10781607566865, 41.54416886347087], [-71.1080295471442, 41.544444773478794], [-71.1080303510921, 41.54520107945692], [-71.10766537943982, 41.5465773711803], [-71.1076655271906, 41.547073132974745], [-71.10784856212614, 41.54721388398183], [-71.11095435832998, 41.54613850818357], [-71.11177614573046, 41.54624992713096], [-71.11317775583879, 41.54709767376863], [-71.11482151303869, 41.54645500233818], [-71.11676986763436, 41.54638337654481], [-71.11737906216669, 41.54691270478188], [-71.11753241929584, 41.54791881167452], [-71.11914701296028, 41.548303515848566], [-71.11948213189825, 41.548855547509994], [-71.11975742798829, 41.550021873885925], [-71.12061010084935, 41.54986209852183], [-71.12155450356383, 41.55002450139062], [-71.12243754535358, 41.549954286845775], [-71.12335084782401, 41.5503427868698], [-71.12453924189656, 41.55032083737732], [-71.1245083318298, 41.549907132159035], [-71.12246750741825, 41.54928699435058], [-71.12204040748261, 41.54892599202018], [-71.12158365163222, 41.547943077848764], [-71.1212465130007, 41.546336498627696], [-71.12139617898625, 41.543730454665145], [-71.12090854239842, 41.54272098667208], [-71.1203600932803, 41.54249687758948], [-71.11929485374631, 41.54318321167251], [-71.11856420858255, 41.54317907111072], [-71.11859439473685, 41.54263783082677], [-71.11904977168582, 41.54185435802794], [-71.11905006699041, 41.54133215001079], [-71.11871419093053, 41.540914605812894], [-71.11780091490607, 41.54064311497428], [-71.11743497405172, 41.54037064885593], [-71.11722153528338, 41.53977118974053], [-71.11670326098158, 41.539266927435975], [-71.11466191587142, 41.53789934712205], [-71.11310894063392, 41.53790081788481], [-71.11280419655546, 41.53705062634776], [-71.11195086310407, 41.53613834844899], [-71.11051940872963, 41.53593030239904], [-71.10991072224982, 41.53559001443208], [-71.1092712684695, 41.53449331432257], [-71.10735200312403, 41.53351092602364], [-71.10677339856721, 41.533034545604494], [-71.10555443669045, 41.531381530778056], [-71.10491455913248, 41.5311317062359], [-71.103331314643, 41.53099844591011], [-71.10232671330648, 41.530512675052194], [-71.10165569573779, 41.52910125738957], [-71.10007154598783, 41.52729215140151], [-71.09912756331495, 41.52568786707834], [-71.09781819545678, 41.524892042816916], [-71.09784772327295, 41.52346788894726], [-71.09729930223472, 41.522324736922805], [-71.09684181222704, 41.520179691018704], [-71.09644536298936, 41.51949344500458], [-71.0956538829866, 41.5190573291825], [-71.09501510021872, 41.51901509799931], [-71.09467978353499, 41.51875954896771], [-71.09464944767713, 41.51843587339895], [-71.09547032689933, 41.51738481738172], [-71.09586518066551, 41.51594508407513], [-71.09732587459564, 41.514459053926664], [-71.09784254915063, 41.513431661293126], [-71.09787174863605, 41.51065640317142], [-71.0964712593561, 41.509699862919064], [-71.09574055041983, 41.508965156321786], [-71.09065744115158, 41.5074360152341], [-71.09001810057603, 41.507411760716835], [-71.08831428907071, 41.50773084722199], [-71.08810154494962, 41.507257385650696], [-71.08834376791484, 41.507045554396385], [-71.09096097348282, 41.50606124597408], [-71.09363852882561, 41.504282525430334], [-71.09458122741418, 41.50409457108224], [-71.09625496052873, 41.50416300166456], [-71.09716849187194, 41.5040289436879], [-71.09780741576203, 41.50423379134677], [-71.09868975679954, 41.504208779256004], [-71.09914570805498, 41.504047200682315], [-71.10054558769438, 41.503976732479316], [-71.10155001608373, 41.50421041873909], [-71.10258488359457, 41.503912427495884], [-71.10371024816445, 41.50383758208009], [-71.10444078148997, 41.50363529932454], [-71.10611392450029, 41.50230689908636], [-71.10857851974903, 41.50141506852962], [-71.11271593865578, 41.500501333645225], [-71.11427482145005, 41.49970926329896], [-71.11563219884137, 41.498437610582194], [-71.11584138769015, 41.49784689558044], [-71.1157209216388, 41.4970282861169], [-71.11599178833181, 41.496448471551474], [-71.11794907092319, 41.49691595102425], [-71.12046902249647, 41.497167505983775], [-71.12254857155497, 41.522141971017795], [-71.13162026411538, 41.59375265226624], [-71.13835167556239, 41.603690620069905], [-71.14030595861783, 41.604903867992704], [-71.14195416578993, 41.6125626970806], [-71.14027180036248, 41.62385859440702], [-71.1354817265913, 41.628312499719016], [-71.13446811829144, 41.64403010247129], [-71.13266685052776, 41.66036978017723], [-71.1761896234547, 41.66831993771764], [-71.17592166069545, 41.67154921065053], [-71.19567683633065, 41.675225461723855], [-71.19529156610395, 41.6767702320091], [-71.19544499098812, 41.678163946217694], [-71.19514030140566, 41.68059297024575], [-71.19471275005469, 41.6813937048159], [-71.19276007922764, 41.68285490622729], [-71.19175288241945, 41.684063163117536], [-71.18958695902687, 41.685969409565466], [-71.18952535460609, 41.68679081788335], [-71.18891443269662, 41.68699172981117], [-71.18860947265071, 41.686835021246964], [-71.18818223166137, 41.68696946765251], [-71.1876637414443, 41.68745705244319], [-71.18641215796839, 41.68921043325358], [-71.18213997965374, 41.69411172029004], [-71.1817730529172, 41.69557827810488], [-71.18146821053865, 41.69584528172973], [-71.18116275431437, 41.69589619694289], [-71.18070504617488, 41.69568895683826], [-71.18015595286637, 41.69585229298711], [-71.17997238853124, 41.696675604397086], [-71.17862909511868, 41.69669207712182], [-71.17756072826984, 41.69731592943232], [-71.17725560278807, 41.69804266631514], [-71.17688914823704, 41.69827515685973], [-71.17133313237909, 41.700542780732974], [-71.17102756453706, 41.70079174729551], [-71.17093595411755, 41.70159505210332], [-71.17069199982492, 41.70179805254445], [-71.17023416390394, 41.70197792401861], [-71.16840287465509, 41.702138606905145], [-71.16837134926227, 41.70282391274632], [-71.16751699676239, 41.70420065647588], [-71.16705843124954, 41.704515566844286], [-71.16638780044218, 41.70488837728837], [-71.16501350732642, 41.70444597893933], [-71.16467753628373, 41.70447031221514], [-71.16470751838766, 41.704766956063295], [-71.16534870010166, 41.705502635053755], [-71.16544077965885, 41.70591538237421], [-71.16434105306737, 41.70655815170772], [-71.16409688236993, 41.706580503082726], [-71.16104521755862, 41.70499864278887], [-71.16070933394349, 41.705040971794304], [-71.16070930367611, 41.705824846297844], [-71.16018994639869, 41.70623070918251], [-71.15908974182787, 41.70874729761732], [-71.15905825080593, 41.70908990223723], [-71.15948626425843, 41.70934328379476], [-71.15945608654702, 41.70968645516666], [-71.15902842952079, 41.70996428605386], [-71.1588140883202, 41.71076158646736], [-71.1583563482137, 41.71160767594091], [-71.15835561315446, 41.71181531889629], [-71.15896644865691, 41.711974713263565], [-71.15948498633396, 41.712613831837125], [-71.1595151791577, 41.71293748843123], [-71.1592406965221, 41.71300588216063], [-71.15844659966905, 41.712777287258085], [-71.15774415555886, 41.7130700448364], [-71.15774445758908, 41.713259121011475], [-71.15847654720504, 41.713848803581676], [-71.15838462483352, 41.71460707968554], [-71.15972733098161, 41.71565439124216], [-71.15945290711812, 41.71595631611575], [-71.15865905990054, 41.71602540453835], [-71.1582921066141, 41.71624883052412], [-71.1581706440878, 41.71705259838896], [-71.15841434279653, 41.71737239433877], [-71.15835287805685, 41.71780607004204], [-71.15746730224414, 41.71799417238272], [-71.15700930091714, 41.71856114461864], [-71.15700898305124, 41.71879523682056], [-71.15816954356188, 41.71922414668919], [-71.15697709759806, 41.7212373625661], [-71.15554198500486, 41.721922366425126], [-71.15508379365109, 41.723003097354635], [-71.15172388150505, 41.72450715923582], [-71.15053200559144, 41.725673973068254], [-71.14775294961588, 41.72743799006003], [-71.14604159962654, 41.728857500215746], [-71.14375100051407, 41.72970232087583], [-71.14200997352435, 41.73002324042249], [-71.14200930341707, 41.730779539567266], [-71.14277162097059, 41.732287783400494], [-71.14261924336515, 41.73253434113954], [-71.14164118277255, 41.73299382651499], [-71.14060239593792, 41.73422967116753], [-71.13977714968034, 41.73489389168747], [-71.13818889350566, 41.73513983138935], [-71.13779227330629, 41.735462136924205], [-71.13806630211549, 41.73665542068274], [-71.13736280551463, 41.7370375231977], [-71.13589635977777, 41.737452636193], [-71.13387943801177, 41.7386436467958], [-71.13277885504883, 41.73951063756083], [-71.13170870689298, 41.74125106420067], [-71.13152390702133, 41.742939201799835], [-71.13134090402889, 41.743240229733715], [-71.1300877018402, 41.74387598366273], [-71.1297210720068, 41.74422536946079], [-71.12944591861553, 41.74499596946548], [-71.12874200271779, 41.74591035482526], [-71.127916747737, 41.74652890931539], [-71.12684565210627, 41.748999703560486], [-71.12747342116245, 41.75013621045102], [-71.1284301489124, 41.75111397369904], [-71.12882575157177, 41.753286815750805], [-71.12937427524206, 41.75475393519087], [-71.1292507015457, 41.75568427854917], [-71.12876116401628, 41.756350637571416], [-71.1273547115886, 41.75753902019232], [-71.12704842621962, 41.757995512454066], [-71.12695576690315, 41.75893383267373], [-71.12643584448226, 41.759871877951184], [-71.12527390861494, 41.76074028398098], [-71.12530347061586, 41.76165818402212], [-71.12505925395286, 41.76190610451002], [-71.12450325374598, 41.76216425172562], [-71.12377024374705, 41.762232173819164], [-71.12325021866015, 41.761773523350705], [-71.1230356091247, 41.76111048722654], [-71.12245546285719, 41.7611305122827], [-71.12098984000778, 41.762436792768504], [-71.12068475193429, 41.76296473799593], [-71.1205328972426, 41.76369746174428], [-71.11912694470702, 41.76374116434429], [-71.11805863668606, 41.76463513276167], [-71.1163480280465, 41.76534235659134], [-71.11466795998743, 41.765715399980174], [-71.1126814932104, 41.76582402248376], [-71.1118566740569, 41.76605530870167], [-71.11060548828108, 41.76708701460934], [-71.10932174006547, 41.767813598653376], [-71.1063600280949, 41.77003910822935], [-71.10596268441573, 41.770722007537344], [-71.10608546402892, 41.770863675888634], [-71.10660410339254, 41.770746170229685], [-71.11081950438572, 41.76813778932083], [-71.11161416893033, 41.768204088847675], [-71.11191983463327, 41.768432470992025], [-71.11198161355361, 41.768872731721444], [-71.11018020453416, 41.77072582337041], [-71.1093251023636, 41.77184046484103], [-71.10935614265937, 41.772326764960226], [-71.10990653121064, 41.77344228170875], [-71.11076294722521, 41.773994429224764], [-71.11232204647465, 41.774425163878654], [-71.1133617249318, 41.77556821254353], [-71.11336181085558, 41.77580230600621], [-71.11210933469702, 41.77655491307163], [-71.11094810489472, 41.776855387917884], [-71.11061282190484, 41.77713222834494], [-71.11058319364288, 41.77838475071596], [-71.11116393752546, 41.779959547282594], [-71.11040173326506, 41.78154157450904], [-71.1091496692668, 41.78266329764159], [-71.10872233212294, 41.78350929339932], [-71.10606510352285, 41.78589115304801], [-71.10426191195938, 41.78707731788341], [-71.10282671405132, 41.78931984474674], [-71.10206395262531, 41.790216416921595], [-71.10200416507102, 41.79238888508771], [-71.10160644103499, 41.792801660343194], [-71.09968180029591, 41.794034597510574], [-71.09900934885637, 41.794155470285155], [-71.09729734449871, 41.794060524072975], [-71.09671662358218, 41.79385476476571], [-71.09546318038595, 41.79271530854844], [-71.09530954628794, 41.792366999686394], [-71.09417816959981, 41.791225711518116], [-71.09359681583408, 41.79094790521262], [-71.0924966513297, 41.79081511315223], [-71.09240479554578, 41.79127565580817], [-71.09396480718561, 41.79305830677515], [-71.09414874782865, 41.793901922552486], [-71.09405752817614, 41.794263429273535], [-71.09378217086753, 41.7945213013152], [-71.09369092308096, 41.79547760694542], [-71.09424148544743, 41.795755865673925], [-71.09482284834237, 41.79648384766246], [-71.09488443156602, 41.79747389797121], [-71.09463996198912, 41.79813591762887], [-71.09424232622877, 41.798521656924954], [-71.0918894016, 41.79985254008019], [-71.09109452405438, 41.79984912874195], [-71.09023847763552, 41.7995044812427], [-71.08821948648396, 41.797811284215605], [-71.08662961007792, 41.79730864417861], [-71.08393970828708, 41.79569115412557], [-71.08393929484338, 41.79488927043071], [-71.08424499294793, 41.794135772539235], [-71.08470225801734, 41.793605102308156], [-71.08482411215579, 41.79198096093579], [-71.08522164587362, 41.79161326111612], [-71.08571079714807, 41.79152387883147], [-71.08665836211303, 41.79179461327387], [-71.08711698455434, 41.79168766978331], [-71.08726969164384, 41.79138716534821], [-71.08690253445256, 41.79104257333144], [-71.08708606661926, 41.7902194099077], [-71.08659626719985, 41.789859178906056], [-71.0865655995404, 41.789282837855694], [-71.08619854298222, 41.78898326179783], [-71.08574063591605, 41.788982723770204], [-71.08531208022922, 41.788485967707174], [-71.08454784720877, 41.78830142440237], [-71.08424238360335, 41.78795592307136], [-71.08427262609631, 41.78761277141925], [-71.08525055088705, 41.78658598582913], [-71.08525012940179, 41.786216836988835], [-71.08494478065303, 41.78582575720946], [-71.08494438624392, 41.78551063000682], [-71.08567834160385, 41.784794701411215], [-71.08573905322928, 41.78383885303114], [-71.08607491457067, 41.78329197966094], [-71.08604407598577, 41.782743211140854], [-71.08546334055109, 41.78287953041109], [-71.08479088091325, 41.78333345200355], [-71.08466897713977, 41.784389804664286], [-71.08381381210887, 41.78507152073612], [-71.08366065957402, 41.78578618433742], [-71.08304941441503, 41.78632922985134], [-71.08308089952745, 41.786832983569454], [-71.08347829717192, 41.78896041007365], [-71.08375377156315, 41.78923490062034], [-71.08503725457938, 41.78978823730253], [-71.08537455378502, 41.79024133261252], [-71.08427402704746, 41.79106340317193], [-71.08384645894655, 41.791683653323396], [-71.08366319629242, 41.79323666619382], [-71.08335688977776, 41.79330532474136], [-71.08308253809197, 41.79305784822975], [-71.08283820567094, 41.79221568117133], [-71.08237947283735, 41.79193545263319], [-71.08179799759057, 41.79202729555142], [-71.07883336077022, 41.793126072002046], [-71.07846665350769, 41.794312627925656], [-71.0784671931796, 41.794771813146184], [-71.07865094283072, 41.79493061814615], [-71.07950654447315, 41.79475314323316], [-71.0799038019282, 41.79486321391137], [-71.08005735426218, 41.79521210619958], [-71.07996563182226, 41.79612338185234], [-71.08011867699457, 41.79660676329186], [-71.08149441995724, 41.797816052920844], [-71.08259537996523, 41.8000844923066], [-71.08238158010936, 41.80037688855585], [-71.08253484268833, 41.800860267334116], [-71.08391123907374, 41.802394221234906], [-71.08424828618566, 41.80511734734238], [-71.08327040221873, 41.8072436873102], [-71.08351499736713, 41.80796880690808], [-71.08394403355776, 41.80786176774439], [-71.08492132023794, 41.80625875325067], [-71.08547181870918, 41.80600527960178], [-71.08580768672437, 41.80602619572083], [-71.08629661304631, 41.806278383205566], [-71.08669475693041, 41.80675814267076], [-71.08719802067544, 41.80662660053304], [-71.08773296846837, 41.80793518111635], [-71.08863398255447, 41.80887424549729], [-71.08974701870027, 41.80918719153591], [-71.09128895648173, 41.808828084812596], [-71.0915169837622, 41.80945408806521], [-71.09293706883038, 41.811276764526596], [-71.0931199473775, 41.812971215158115], [-71.09105998093071, 41.815480907496365], [-71.08890799931105, 41.817594073792456], [-71.08397994096613, 41.817784970254124], [-71.05530698612719, 41.816999228733586], [-71.03748499364445, 41.81624405423049], [-71.03664602502174, 41.816327870318716], [-71.03241908570818, 41.81932625986612], [-71.0239499791371, 41.825741739072726], [-71.00798900426314, 41.83796504956652], [-71.0058529773559, 41.83974978478914], [-70.99948607825266, 41.84403194058639], [-70.99634992818905, 41.8463731440108], [-70.98364599181004, 41.85523724315454]]]]}}