{"type": "Feature", "properties": {"district_name": "Third Middlesex District", "chamber": "senate", "vintage": "2012-2020"}, "geometry": {"type": "MultiPolygon", "coordinates": [[[[-71.389982, 42.36743500000001], [-71.389178, 42.366884000000006], [-71.388798, 42.36632599999999], [-71.38992999999999, 42.365342000000005], [-71.389982, 42.36743500000001]]], [[[-71.38994, 42.36533399999999], [-71.388967, 42.364906000000005], [-71.38721, 42.36545], [-71.384188, 42.365825], [-71.383397, 42.36278300000001], [-71.38604699999999, 42.36127799999999], [-71.386659, 42.36140100000001], [-71.38904, 42.364650999999995], [-71.390031, 42.365230999999994], [-71.38994, 42.36533399999999]]], [[[-71.475498, 42.38065499999999], [-71.472689, 42.389984999999996], [-71.46945199999999, 42.40263099999999], [-71.442508, 42.40694199999999], [-71.43573599999999, 42.42367699999999], [-71.435166, 42.42549599999999], [-71.434676, 42.42640899999999], [-71.430374, 42.436969000000005], [-71.38489899999999, 42.50455], [-71.39156299999999, 42.50681900000001], [-71.397941, 42.526277], [-71.399586, 42.533992], [-71.38474, 42.538699], [-71.388504, 42.55040100000001], [-71.393795, 42.569489999999995], [-71.396884, 42.58016699999998], [-71.39841899999999, 42.584723000000004], [-71.400228, 42.59107900000001], [-71.401978, 42.599805], [-71.405401, 42.610392999999995], [-71.41765199999999, 42.653821], [-71.412309, 42.64941], [-71.41197799999999, 42.64797400000001], [-71.409764, 42.648785], [-71.405309, 42.648138000000024], [-71.403966, 42.648419], [-71.402734, 42.646695], [-71.39895899999999, 42.644883], [-71.39831199999999, 42.64550199999999], [-71.401288, 42.649488], [-71.40211, 42.651603], [-71.398995, 42.652467], [-71.398173, 42.65101899999998], [-71.396968, 42.649637], [-71.394341, 42.648474], [-71.392488, 42.648476], [-71.384937, 42.64961], [-71.381743, 42.64927899999999], [-71.380687, 42.648913999999984], [-71.379751, 42.648230999999996], [-71.37910699999999, 42.647395999999986], [-71.377115, 42.642697000000005], [-71.375935, 42.64090199999999], [-71.374521, 42.639548000000005], [-71.37206499999999, 42.63835599999999], [-71.369495, 42.637583], [-71.367024, 42.637391], [-71.364738, 42.63759799999999], [-71.359945, 42.626008000000006], [-71.34863, 42.62145300000001], [-71.329328, 42.61398499999998], [-71.328077, 42.613147], [-71.325698, 42.613263999999994], [-71.324975, 42.611601], [-71.325277, 42.611376999999976], [-71.323341, 42.60649], [-71.319897, 42.6069], [-71.318882, 42.608543999999995], [-71.31930899999999, 42.61357200000001], [-71.296205, 42.61468299999999], [-71.296872, 42.613577], [-71.297061, 42.61278499999999], [-71.297006, 42.612296], [-71.29593899999999, 42.61034999999999], [-71.295674, 42.60933399999998], [-71.295469, 42.606975000000006], [-71.295092, 42.606343999999986], [-71.294221, 42.605477999999984], [-71.33309, 42.560115], [-71.324801, 42.55605900000001], [-71.31961799999999, 42.554069999999996], [-71.314385, 42.54955400000001], [-71.31836899999999, 42.54279199999998], [-71.30981, 42.534848], [-71.30874899999999, 42.53395999999999], [-71.30718499999999, 42.533221000000005], [-71.307538, 42.52999899999999], [-71.30461, 42.529284999999994], [-71.304949, 42.52854000000001], [-71.30486499999999, 42.527283], [-71.30516, 42.52593599999999], [-71.306201, 42.524150999999996], [-71.30674499999999, 42.52268899999999], [-71.30683599999999, 42.52207500000001], [-71.306699, 42.52059299999999], [-71.303974, 42.51993099999999], [-71.289481, 42.52387999999999], [-71.280832, 42.52640800000001], [-71.277911, 42.526630000000004], [-71.26409799999999, 42.524081], [-71.256396, 42.523992], [-71.254572, 42.522593], [-71.250142, 42.525729999999996], [-71.242576, 42.51993999999999], [-71.24175, 42.520828], [-71.240056, 42.519716], [-71.236924, 42.511490999999985], [-71.233544, 42.508692999999994], [-71.232694, 42.507713], [-71.231897, 42.506367000000004], [-71.240983, 42.48988099999998], [-71.251986, 42.48501499999999], [-71.256553, 42.47855899999999], [-71.261515, 42.47624600000001], [-71.265314, 42.470600999999995], [-71.264877, 42.470563999999996], [-71.26424899999999, 42.47087700000001], [-71.263941, 42.47061999999999], [-71.263122, 42.470368000000015], [-71.262407, 42.47055999999999], [-71.26236899999999, 42.470252999999985], [-71.26155299999999, 42.46933699999999], [-71.260688, 42.468750000000014], [-71.257956, 42.471224999999976], [-71.24958699999999, 42.467285000000004], [-71.24846099999999, 42.46753800000001], [-71.246698, 42.466733999999995], [-71.24538, 42.46542600000001], [-71.244452, 42.465103], [-71.244367, 42.46463599999999], [-71.24403000000001, 42.464329], [-71.24249499999999, 42.463601000000004], [-71.24157799999999, 42.46296600000001], [-71.240276, 42.46241700000001], [-71.23991199999999, 42.462301], [-71.240809, 42.463899], [-71.23958499999999, 42.463778], [-71.23875699999999, 42.46332799999999], [-71.238067, 42.46320199999998], [-71.236195, 42.46330300000001], [-71.232839, 42.46293100000001], [-71.233352, 42.462215], [-71.23196399999999, 42.461443], [-71.231175, 42.460186], [-71.230436, 42.459835000000005], [-71.231911, 42.45890999999998], [-71.231606, 42.45809100000001], [-71.230983, 42.453945000000004], [-71.230723, 42.453517999999995], [-71.232119, 42.45322], [-71.23376, 42.452461], [-71.23700000000001, 42.45008399999998], [-71.23716, 42.449490999999995], [-71.237152, 42.447862], [-71.23762599999999, 42.446283], [-71.237539, 42.44538], [-71.23956500000001, 42.443987], [-71.240967, 42.44149600000001], [-71.242295, 42.439703], [-71.243557, 42.43930700000001], [-71.243105, 42.438693999999984], [-71.24168499999999, 42.43832499999999], [-71.23927499999999, 42.435981999999996], [-71.23742899999999, 42.43544], [-71.241585, 42.43428699999999], [-71.242204, 42.433609], [-71.2407, 42.432826999999996], [-71.23907, 42.43250000000002], [-71.23626399999999, 42.43155200000001], [-71.23611, 42.433521], [-71.234798, 42.43324099999999], [-71.23392, 42.43335400000001], [-71.23356, 42.432417], [-71.23146899999999, 42.429264999999994], [-71.230975, 42.428142999999984], [-71.230953, 42.427363000000014], [-71.231526, 42.423280999999996], [-71.231544, 42.422722999999976], [-71.23131099999999, 42.42223000000002], [-71.23033699999999, 42.42199299999999], [-71.223528, 42.421215], [-71.222197, 42.420845000000014], [-71.217624, 42.419098999999996], [-71.21484099999999, 42.41839900000001], [-71.21798199999999, 42.417072999999995], [-71.21834799999999, 42.41669099999999], [-71.21892799999999, 42.41556399999999], [-71.21555099999999, 42.414629000000005], [-71.207636, 42.40979899999999], [-71.211261, 42.406074], [-71.202679, 42.40371400000001], [-71.20254, 42.40308799999999], [-71.201807, 42.402346], [-71.201799, 42.401238], [-71.201397, 42.400187999999986], [-71.200433, 42.399396], [-71.200279, 42.39877699999998], [-71.199747, 42.39841399999999], [-71.199592, 42.39757499999998], [-71.199191, 42.396957000000015], [-71.19849599999999, 42.396277000000005], [-71.19697699999999, 42.39551800000001], [-71.196406, 42.394330999999994], [-71.196676, 42.393776999999986], [-71.197771, 42.39312100000001], [-71.197879, 42.392497], [-71.197617, 42.392264000000004], [-71.19753899999999, 42.391765], [-71.196876, 42.391286999999984], [-71.196606, 42.39074299999999], [-71.19672200000001, 42.390083], [-71.196621, 42.38967600000001], [-71.195757, 42.389111], [-71.195194, 42.388271], [-71.19510199999999, 42.387908], [-71.19530999999999, 42.387570999999994], [-71.19511700000001, 42.386991], [-71.194177, 42.386030999999996], [-71.21719, 42.366534000000016], [-71.25113200000001, 42.35653099999998], [-71.253068, 42.35570399999998], [-71.25350999999999, 42.354873000000005], [-71.254103, 42.35472], [-71.25568299999999, 42.353836], [-71.256466, 42.354031], [-71.25645999999999, 42.354816], [-71.260385, 42.35363299999999], [-71.25914500000002, 42.35172399999999], [-71.258686, 42.349484], [-71.259065, 42.348803], [-71.25988199999999, 42.348659999999995], [-71.260515, 42.348222000000014], [-71.26055699999999, 42.347938], [-71.260251, 42.347079000000015], [-71.25979099999999, 42.34650300000001], [-71.25974599999999, 42.345898], [-71.25985299999999, 42.34551900000001], [-71.261344, 42.344373000000004], [-71.261407, 42.343594], [-71.261884, 42.34186900000001], [-71.261344, 42.341239], [-71.260645, 42.34091999999999], [-71.2586, 42.341206], [-71.257082, 42.34073400000001], [-71.255873, 42.33996599999999], [-71.25573899999999, 42.339538999999995], [-71.25583, 42.338995999999995], [-71.256952, 42.337980999999985], [-71.258901, 42.33678999999999], [-71.25920099999999, 42.335685], [-71.260075, 42.334844], [-71.26122, 42.334605], [-71.263278, 42.334983], [-71.264455, 42.334604000000006], [-71.264802, 42.33417399999999], [-71.264884, 42.33330899999999], [-71.265393, 42.33300900000001], [-71.26518899999999, 42.332497], [-71.265225, 42.33193], [-71.26570099999999, 42.33131799999999], [-71.268183, 42.33057900000001], [-71.269767, 42.33118100000001], [-71.270246, 42.33098], [-71.270279, 42.330522], [-71.269763, 42.32976399999999], [-71.27028000000001, 42.328731000000005], [-71.269919, 42.32809599999999], [-71.293666, 42.322152], [-71.300102, 42.32039700000001], [-71.31158599999999, 42.31779900000001], [-71.319101, 42.31559700000002], [-71.327102, 42.31369600000001], [-71.327327, 42.313745999999995], [-71.327377, 42.314475999999964], [-71.327444, 42.321113999999994], [-71.328317, 42.328143000000004], [-71.32842099999999, 42.33015399999999], [-71.32860000000001, 42.331666000000006], [-71.328779, 42.33168300000001], [-71.33587800000001, 42.393942], [-71.332599, 42.399440999999996], [-71.366326, 42.41271499999999], [-71.36734799999999, 42.412164999999995], [-71.367475, 42.41164899999999], [-71.367243, 42.41098799999998], [-71.367724, 42.410528000000006], [-71.370755, 42.409698999999996], [-71.372281, 42.40873999999997], [-71.374014, 42.408308], [-71.374425, 42.407939], [-71.374567, 42.40723800000001], [-71.37418199999999, 42.40630499999998], [-71.37356, 42.40561599999999], [-71.37066700000001, 42.40509900000001], [-71.368505, 42.40416300000002], [-71.36822599999999, 42.403681999999996], [-71.368436, 42.403136999999994], [-71.369669, 42.40135600000001], [-71.369678, 42.400932], [-71.369267, 42.400670999999996], [-71.368478, 42.40101100000002], [-71.368101, 42.40100100000001], [-71.367347, 42.400512], [-71.367244, 42.40003699999999], [-71.36984, 42.39864199999999], [-71.369901, 42.398307], [-71.36927299999999, 42.39777999999999], [-71.367273, 42.397416], [-71.36446099999999, 42.39629399999999], [-71.36327899999999, 42.39621100000001], [-71.362421, 42.396328000000004], [-71.361729, 42.396018], [-71.361626, 42.395317], [-71.36218699999999, 42.39403599999999], [-71.36215299999999, 42.393067], [-71.361715, 42.392187999999976], [-71.36194499999999, 42.391838], [-71.362392, 42.391668999999986], [-71.36415199999999, 42.39243399999998], [-71.364795, 42.39218699999999], [-71.36508599999999, 42.39170100000002], [-71.365104, 42.39087199999999], [-71.364951, 42.39054199999999], [-71.364429, 42.39022200000001], [-71.364398, 42.38993199999999], [-71.36482000000001, 42.38964099999999], [-71.36571599999999, 42.389399999999995], [-71.367339, 42.390057], [-71.368254, 42.39007399999999], [-71.36923, 42.389703], [-71.369604, 42.389395000000015], [-71.369834, 42.388625], [-71.370297, 42.388465000000004], [-71.372231, 42.389427999999995], [-71.372484, 42.38927799999998], [-71.372573, 42.388991000000004], [-71.372366, 42.38791499999999], [-71.372688, 42.38720599999999], [-71.37338299999999, 42.38711100000001], [-71.373703, 42.387257], [-71.374213, 42.38825999999999], [-71.374505, 42.38855500000001], [-71.374989, 42.38872699999999], [-71.37547200000002, 42.38867899999998], [-71.376398, 42.387843999999994], [-71.37743499999999, 42.38770000000001], [-71.377256, 42.386705], [-71.37841600000002, 42.386052], [-71.378576, 42.38461], [-71.38136399999999, 42.38342000000001], [-71.38377299999999, 42.380749], [-71.38402099999999, 42.380187], [-71.383986, 42.379774], [-71.38305, 42.378522], [-71.382973, 42.37821199999999], [-71.383465, 42.377033], [-71.383485, 42.37661800000001], [-71.384467, 42.37658899999999], [-71.38781399999999, 42.37527800000001], [-71.387394, 42.37472699999999], [-71.386603, 42.373070000000006], [-71.38752000000001, 42.372792], [-71.388781, 42.37148100000001], [-71.387474, 42.36992400000001], [-71.3897, 42.36843600000001], [-71.39014499999999, 42.36777], [-71.390119, 42.365708999999995], [-71.390237, 42.365384], [-71.390031, 42.365230999999994], [-71.391798, 42.361837], [-71.39121399999999, 42.35795199999999], [-71.39209199999999, 42.358154], [-71.392707, 42.35768099999999], [-71.393045, 42.357872], [-71.393121, 42.357600999999995], [-71.39371799999999, 42.35757499999999], [-71.393351, 42.3572], [-71.393689, 42.35720599999999], [-71.39371700000001, 42.356994], [-71.39389, 42.356936], [-71.39462200000001, 42.357195999999995], [-71.395103, 42.357054999999995], [-71.395479, 42.3572], [-71.395623, 42.356693], [-71.396075, 42.35679199999998], [-71.396421, 42.35648300000001], [-71.396922, 42.356612], [-71.397057, 42.356933], [-71.397808, 42.356944000000006], [-71.39823299999999, 42.357548000000016], [-71.398483, 42.357271999999995], [-71.398983, 42.357158], [-71.398944, 42.356781], [-71.399242, 42.356657999999996], [-71.399762, 42.356921], [-71.399744, 42.35705199999998], [-71.399445, 42.357104], [-71.399879, 42.35765300000001], [-71.400178, 42.35756599999999], [-71.40038899999999, 42.35727699999999], [-71.40181400000002, 42.35758500000001], [-71.402103, 42.3573], [-71.402757, 42.35710599999998], [-71.403672, 42.357668], [-71.404578, 42.357937], [-71.406368, 42.35782299999998], [-71.406812, 42.35800699999999], [-71.40695699999999, 42.358336999999985], [-71.407563, 42.358298], [-71.407409, 42.357999], [-71.407697, 42.357763], [-71.408063, 42.35808399999999], [-71.408429, 42.357847], [-71.409295, 42.35801800000001], [-71.409554, 42.35758899999999], [-71.40999699999999, 42.357625], [-71.410431, 42.358326999999996], [-71.41098099999999, 42.358545], [-71.41171299999999, 42.35853900000001], [-71.412176, 42.35891599999999], [-71.413168, 42.359337], [-71.41378, 42.35995500000003], [-71.415902, 42.360754], [-71.41847899999999, 42.362237], [-71.418894, 42.362656], [-71.419068, 42.363030999999985], [-71.41886699999999, 42.363679000000005], [-71.419118, 42.36398000000002], [-71.418849, 42.364349999999995], [-71.419573, 42.36501899999999], [-71.41915999999999, 42.36554100000001], [-71.419315, 42.36599299999998], [-71.419874, 42.36612], [-71.41964399999999, 42.36669299999999], [-71.419933, 42.366837000000004], [-71.419933, 42.367143], [-71.416341, 42.373991], [-71.41520299999999, 42.37661500000001], [-71.41481999999999, 42.378319999999995], [-71.413596, 42.38030699999998], [-71.41304199999999, 42.38197699999999], [-71.41251299999999, 42.38254], [-71.415458, 42.383072], [-71.4169, 42.381506], [-71.420028, 42.379476999999994], [-71.422304, 42.378783], [-71.425722, 42.378378], [-71.428285, 42.37771699999999], [-71.428185, 42.378403000000006], [-71.427799, 42.378555999999996], [-71.42778, 42.378822], [-71.427472, 42.37905299999999], [-71.42709599999999, 42.379084000000006], [-71.42719199999999, 42.379325], [-71.42692199999999, 42.37997900000001], [-71.427105, 42.38020000000001], [-71.42762499999999, 42.380333], [-71.42869499999999, 42.380026999999984], [-71.428955, 42.380364], [-71.428656, 42.381248], [-71.42798400000001, 42.381577], [-71.42728799999999, 42.381628], [-71.426993, 42.38197699999999], [-71.427151, 42.38219599999999], [-71.427989, 42.381661999999984], [-71.428164, 42.382276000000005], [-71.428511, 42.382485], [-71.428896, 42.381963000000006], [-71.42919499999999, 42.38211499999999], [-71.429619, 42.382034000000004], [-71.429946, 42.38230600000001], [-71.429782, 42.382634], [-71.430177, 42.382765], [-71.430495, 42.383208], [-71.430996, 42.383112000000004], [-71.43122699999999, 42.38356200000001], [-71.43198799999999, 42.383531999999995], [-71.433336, 42.38436400000001], [-71.434078, 42.38439699999999], [-71.434328, 42.384599], [-71.434598, 42.38440000000001], [-71.43480000000001, 42.384985], [-71.43598999999999, 42.384537], [-71.436544, 42.3848], [-71.436852, 42.384699], [-71.43733399999999, 42.38485], [-71.43744, 42.384749], [-71.437257, 42.38443299999999], [-71.43769, 42.384307], [-71.438605, 42.384513000000005], [-71.438885, 42.384237], [-71.438971, 42.38450000000001], [-71.439463, 42.384570999999994], [-71.439713, 42.38437200000001], [-71.440445, 42.384527000000006], [-71.441052, 42.38437000000001], [-71.440927, 42.38463000000001], [-71.441678, 42.384590999999986], [-71.441746, 42.384955], [-71.442343, 42.385077], [-71.442854, 42.385556999999984], [-71.442902, 42.385808], [-71.443576, 42.38586599999999], [-71.444048, 42.38636899999998], [-71.444375, 42.38643399999999], [-71.445088, 42.386953999999996], [-71.44605100000001, 42.387276], [-71.446562, 42.38772900000001], [-71.44750599999999, 42.38789799999999], [-71.447651, 42.38815099999999], [-71.447891, 42.388164], [-71.448317, 42.38809200000001], [-71.449372, 42.387518000000014], [-71.44985, 42.38749899999999], [-71.449067, 42.386810999999994], [-71.44899, 42.38621399999999], [-71.449375, 42.38579099999999], [-71.450724, 42.38546099999999], [-71.452063, 42.385689000000006], [-71.452275, 42.38547699999999], [-71.452805, 42.385605], [-71.45397, 42.38549899999999], [-71.454606, 42.38472500000001], [-71.45512599999999, 42.38437599999998], [-71.45618499999999, 42.384140999999985], [-71.456195, 42.383888999999996], [-71.45658, 42.383413], [-71.457351, 42.38295499999999], [-71.457669, 42.38258299999999], [-71.457621, 42.38281800000001], [-71.457977, 42.38264400000002], [-71.458603, 42.38181599999999], [-71.459374, 42.38179499999999], [-71.459595, 42.381308000000004], [-71.460077, 42.38130200000001], [-71.46039400000001, 42.380989000000014], [-71.460655, 42.381123], [-71.460616, 42.380939000000005], [-71.460962, 42.38047300000001], [-71.461377, 42.380594], [-71.461531, 42.38036599999999], [-71.462532, 42.37983099999999], [-71.462792, 42.37925800000001], [-71.46311, 42.379103], [-71.462879, 42.37888700000001], [-71.463216, 42.37853799999998], [-71.463178, 42.37817799999999], [-71.462908, 42.37818399999999], [-71.462801, 42.37785799999998], [-71.462175, 42.37748400000002], [-71.46235899999999, 42.376993999999996], [-71.462657, 42.37686600000001], [-71.46231999999999, 42.376486], [-71.462379, 42.376335999999995], [-71.475498, 42.38065499999999]]]]}}