{"type": "Feature", "properties": {"district_name": "Middlesex and Essex", "chamber": "senate", "vintage": "2001-2010"}, "geometry": {"type": "Polygon", "coordinates": [[[-71.03459803029979, 42.565394851651654], [-71.03449806476313, 42.56429502459548], [-71.03149708478853, 42.550893959521524], [-71.02139696814773, 42.53999491670974], [-71.020121010496, 42.538443994926226], [-71.01079602026098, 42.528795171558414], [-71.0054269333667, 42.52271523353666], [-70.99707600449283, 42.51764610737441], [-70.99389593648574, 42.515895817525276], [-70.98869595864481, 42.51349618803514], [-70.98577502249672, 42.51187173043778], [-70.98769605984907, 42.51159613804987], [-70.99009508078365, 42.51169511162879], [-70.99359602884775, 42.512395865850394], [-70.9899959238215, 42.50989583925146], [-70.98859501153181, 42.50929489822425], [-70.99552497267454, 42.5053018258015], [-70.99728305827887, 42.507147164993654], [-70.99783096782046, 42.50683727488681], [-70.99878394638773, 42.50722909721102], [-71.00090400407099, 42.50753313079052], [-71.00499591281609, 42.50549592793085], [-71.01150707084574, 42.501635137025104], [-71.01474702333275, 42.50206913139885], [-71.01969704407136, 42.50239595187666], [-71.02257391774391, 42.50321701248806], [-71.02832994709702, 42.50382025107947], [-71.03609593740094, 42.505194840575925], [-71.03779593819658, 42.50329480694482], [-71.04171402229947, 42.502557045631754], [-71.04399596113416, 42.50069524279946], [-71.04209595973292, 42.49799480640733], [-71.04009698081106, 42.495596091505575], [-71.04549608296476, 42.488594901674574], [-71.04689606087753, 42.48769508746803], [-71.0472959421041, 42.487694970986404], [-71.05149607830678, 42.486295167341815], [-71.05259604001652, 42.485794732982754], [-71.05299598661882, 42.48339483235628], [-71.05359606592468, 42.4810947334994], [-71.0536959623047, 42.47919499985498], [-71.05419607434386, 42.47699522552527], [-71.05349601391815, 42.475894753865724], [-71.04769592793126, 42.4696951783655], [-71.04729600630318, 42.46889518306399], [-71.0468959716998, 42.46869498896969], [-71.04459603490545, 42.46579493524067], [-71.0399960320436, 42.460595047974685], [-71.04079592240961, 42.460294961039956], [-71.0455960304755, 42.45939515841088], [-71.0485959331957, 42.45909523490867], [-71.0508960520346, 42.458595010559556], [-71.05839595388494, 42.4574947317233], [-71.05899606119083, 42.45719487790734], [-71.05969601761176, 42.4573950522015], [-71.05999603931129, 42.45719476336763], [-71.06369593904707, 42.456295063805534], [-71.06449605977714, 42.45629527839457], [-71.06649597424679, 42.45679515715193], [-71.0676960547149, 42.45689475829194], [-71.06809604171355, 42.45529490494379], [-71.06869593438245, 42.455294902110985], [-71.0688960683283, 42.45199503752217], [-71.06729594006828, 42.451495013956446], [-71.06639599833719, 42.45309523569147], [-71.06509603368606, 42.453194990940005], [-71.06499602317763, 42.45279511843167], [-71.06309602899306, 42.45209471884975], [-71.06289590613103, 42.451396249947905], [-71.06219594042926, 42.45109593943824], [-71.06099602601677, 42.44989626257854], [-71.06159605269862, 42.44959583198843], [-71.0617099391693, 42.44749919610275], [-71.06229595914397, 42.44699614738377], [-71.06476994505555, 42.44560503830312], [-71.06799593654391, 42.44529590016703], [-71.06799601567619, 42.441396034362214], [-71.0675959431939, 42.44049594821836], [-71.05859590810805, 42.44149599091874], [-71.05683009404562, 42.44154378806203], [-71.05339607644514, 42.44209600571759], [-71.05009701777773, 42.44219682381565], [-71.04859602953628, 42.442495917628065], [-71.02869592811496, 42.44429720469701], [-71.02529496560146, 42.44489598527226], [-71.02469509258749, 42.44379573910304], [-71.02329506504357, 42.44209574792693], [-71.0229949625643, 42.44149582241315], [-71.02009509206965, 42.438296236052075], [-71.02089497466189, 42.4371961660774], [-71.02179507059982, 42.4350960744297], [-71.02239494048943, 42.434495941514776], [-71.02269494229641, 42.43359578343871], [-71.02519496813173, 42.4296961037356], [-71.02619598116213, 42.42729704856851], [-71.02679497169632, 42.42659616983122], [-71.02809604236693, 42.42409704838041], [-71.03662595952788, 42.423683808190816], [-71.04959506712186, 42.42269601966216], [-71.05048891850426, 42.422458126311696], [-71.05249505414588, 42.421296143693525], [-71.05439495610479, 42.419896266599956], [-71.05469503532717, 42.420096051588146], [-71.05889598787525, 42.41709573102945], [-71.05909608706567, 42.416796029707456], [-71.06079606420941, 42.415795904561314], [-71.06229598544185, 42.41549608568941], [-71.07109695963848, 42.41479717595829], [-71.0727597200569, 42.414885509847345], [-71.07298789615939, 42.418427261223826], [-71.0733895914056, 42.419977789891945], [-71.07375958098265, 42.419251061379775], [-71.07351295925784, 42.41888609839201], [-71.07342047107515, 42.41813121081688], [-71.07369804605476, 42.417396824966865], [-71.07345029479325, 42.415906510332526], [-71.07348144765594, 42.41435645958799], [-71.07375882405199, 42.413874150172056], [-71.07354186652971, 42.41285772003526], [-71.0741960798889, 42.412596247855866], [-71.07679691032334, 42.41339695914469], [-71.07749607144852, 42.41339615152132], [-71.07829592616558, 42.41369617640717], [-71.07949595138626, 42.41519615307443], [-71.08199604294846, 42.415496161068326], [-71.08429593002154, 42.41659607586518], [-71.08589603971684, 42.41779583542588], [-71.08619598203917, 42.419595779129395], [-71.08709603374152, 42.42099612701448], [-71.08769595971806, 42.42239595543664], [-71.08919592465746, 42.42679578559405], [-71.08899591680432, 42.42899624270176], [-71.08809590977997, 42.429196150762756], [-71.08749593390625, 42.43119598702696], [-71.08649592150657, 42.43799621364719], [-71.08599601900103, 42.44029573793548], [-71.08569597381995, 42.444694735017016], [-71.10499698233944, 42.44909509911771], [-71.10979696215001, 42.45069480851495], [-71.11149702583187, 42.450994830748016], [-71.11919702573633, 42.45339500182315], [-71.11859691986149, 42.455195238356325], [-71.11719700842889, 42.45759486902784], [-71.1149970130737, 42.464295079094335], [-71.11409798935554, 42.46569592151238], [-71.1133970358392, 42.46769497182395], [-71.11109693496395, 42.47309500206552], [-71.11089705176356, 42.473894998630655], [-71.11209693757229, 42.473595205754684], [-71.1129970076135, 42.47809504301111], [-71.11329699828407, 42.47869472424492], [-71.11339804821905, 42.480098908630644], [-71.11631106338723, 42.491576830431434], [-71.11764497282205, 42.49424208891389], [-71.12049796932268, 42.49709520605372], [-71.12149609101928, 42.498492198096805], [-71.11968797036197, 42.50079427886393], [-71.1199920031322, 42.50166684194371], [-71.12197093532377, 42.50490301523548], [-71.12247093201805, 42.504742045231964], [-71.12439790938001, 42.50719421941275], [-71.12349907213327, 42.50779502044507], [-71.12389897434306, 42.50819525094863], [-71.13520002838742, 42.52969523831227], [-71.13099806717828, 42.53165678950413], [-71.13558500839068, 42.54888125991907], [-71.1361790295951, 42.551668824901874], [-71.1353869672827, 42.552468102980384], [-71.13455395428147, 42.552680962814804], [-71.13396997312854, 42.55253394731135], [-71.13252093553353, 42.552808978617094], [-71.13212304158148, 42.55308284717667], [-71.13120404304594, 42.55273782079444], [-71.13075895649598, 42.55362988797622], [-71.13044202863004, 42.55365588046878], [-71.12992294469696, 42.55331099899815], [-71.12964102029784, 42.55343500296151], [-71.12969398393243, 42.55410304045163], [-71.12927902338886, 42.55436390340132], [-71.12751097873003, 42.554232174529986], [-71.12712608713503, 42.553910782403996], [-71.12696007755211, 42.55396088438461], [-71.1268810278627, 42.55487718820652], [-71.1261189313317, 42.55579409348876], [-71.12570295087079, 42.55603018356921], [-71.12617207977465, 42.556424997876945], [-71.12609001507707, 42.55665992017959], [-71.12547292114543, 42.55657520886073], [-71.12437394790938, 42.55680007253235], [-71.12390908879807, 42.55782820987045], [-71.1225789948064, 42.5585479984587], [-71.12168396458786, 42.5595629028286], [-71.12048708934394, 42.56010980741492], [-71.11928494097961, 42.56001413486931], [-71.1187209409028, 42.56052203418503], [-71.118690979217, 42.56104013657828], [-71.11767400072738, 42.56103114469683], [-71.1158590643487, 42.56154219256465], [-71.11473896270208, 42.561001126402815], [-71.11313591733438, 42.56062216238863], [-71.11276993540677, 42.56082123844778], [-71.11208607640124, 42.560821754569425], [-71.11008808304386, 42.561297211876465], [-71.10859703982736, 42.562955922251994], [-71.10830103237734, 42.56370999503781], [-71.10764591719949, 42.56425410303855], [-71.10592406405581, 42.564975742529484], [-71.10491007982003, 42.56563282679726], [-71.10491199702936, 42.56584326462594], [-71.10374802560419, 42.56650207556535], [-71.1035770330261, 42.56488499340193], [-71.09281604136635, 42.559129857856604], [-71.08959098603948, 42.557952053332244], [-71.0710350462309, 42.555713839362504], [-71.06515091604115, 42.561769024615636], [-71.05701308317445, 42.57429814015407], [-71.05646706375607, 42.574081110406695], [-71.0559129403299, 42.573502262434914], [-71.05498100604689, 42.57373892437287], [-71.05394309026859, 42.572975901308794], [-71.05320693704806, 42.572817199255525], [-71.05318906043607, 42.57252005031374], [-71.05372001387495, 42.57217326118147], [-71.05345194124997, 42.572001178250396], [-71.05266898674445, 42.5720032097897], [-71.05301499699519, 42.57140926558299], [-71.05293099445396, 42.571285719562574], [-71.05266396744942, 42.57126217871774], [-71.05221697186116, 42.57181915777767], [-71.05168195781778, 42.57142491265016], [-71.05138200452102, 42.57156215917992], [-71.05113093829935, 42.57132824526183], [-71.05044902048236, 42.57160072728475], [-71.04969508638692, 42.57108408714199], [-71.04911206157226, 42.571072808201365], [-71.0485139323166, 42.571469952131864], [-71.04505205189335, 42.57267674695749], [-71.04400606917119, 42.57349521480081], [-71.04240292624037, 42.57309107473309], [-71.04177007121494, 42.5732039071195], [-71.04116898987877, 42.57308223676598], [-71.04061593132579, 42.572638917829195], [-71.03994098101069, 42.571244229046016], [-71.03935805191055, 42.571245842196916], [-71.03917602040455, 42.57149324483847], [-71.03804194278855, 42.571496025059524], [-71.03774404647856, 42.571867870247694], [-71.03751092695602, 42.57191813751864], [-71.03710902397837, 42.57175785834318], [-71.03571796272016, 42.57047673839293], [-71.0353839507815, 42.570428131311196], [-71.03520197484738, 42.570588879616345], [-71.035689073279, 42.57116924666971], [-71.03466996489625, 42.57091194841458], [-71.03408495664726, 42.57062882462963], [-71.03438699370614, 42.565549855110206], [-71.03459803029979, 42.565394851651654]]]}}