{"type": "Feature", "properties": {"district_name": "Worcester, Hampden, Hampshire, and Franklin", "chamber": "senate", "vintage": "2001-2010"}, "geometry": {"type": "Polygon", "coordinates": [[[-71.89871273653924, 42.71139992819828], [-71.89708908954182, 42.70382581757429], [-71.8745200604061, 42.68699190204218], [-71.86981997737905, 42.683686956770316], [-71.86582003394496, 42.68418691980035], [-71.86382001776727, 42.67948683390923], [-71.85781991978564, 42.67498707739234], [-71.85651893971914, 42.667687017091325], [-71.85861901517832, 42.62888792890257], [-71.8816299601739, 42.61969379475013], [-71.88008797940273, 42.617474196374644], [-71.88330800823213, 42.61636809051303], [-71.88256002505851, 42.615284109476605], [-71.89176207587921, 42.612392785104845], [-71.89247994905236, 42.61342279656025], [-71.89571402737246, 42.612437825084164], [-71.89515007926384, 42.61145400602518], [-71.91028692634411, 42.60670876723492], [-71.9111560277529, 42.60770774493943], [-71.9124839747603, 42.60744081662696], [-71.91284993278292, 42.60781479234769], [-71.93111995215037, 42.6005877997062], [-71.93282000441903, 42.60008799849067], [-71.94572101415872, 42.59488788125984], [-71.95052095231479, 42.60168796723107], [-71.94862092464865, 42.602488134181236], [-71.95172093137057, 42.607488096385296], [-71.95022091235212, 42.60808810833391], [-71.9521209645498, 42.610587830902595], [-71.95372093876063, 42.61058774440758], [-71.95632100396467, 42.61018814846403], [-71.97586803586043, 42.62749608465267], [-71.98607005917057, 42.627760805913496], [-71.98597197802897, 42.629984783842346], [-72.02997300511666, 42.611194136592076], [-72.03524201950457, 42.608816276614945], [-72.03841895015424, 42.60671014150366], [-72.04145896889985, 42.60493820984686], [-72.04594994638563, 42.60191813898573], [-72.03603994557875, 42.59387085059433], [-72.04185301756203, 42.59184011048122], [-72.04145007097249, 42.59147177647834], [-72.04135793717977, 42.5907632675836], [-72.0418220029316, 42.58984903184405], [-72.041821986042, 42.58907200966958], [-72.0414510368191, 42.58863713232242], [-72.04064702911647, 42.58820315758883], [-72.03962605412532, 42.58795080307048], [-72.03934808097652, 42.587745046279785], [-72.03919408835031, 42.58694511173615], [-72.03873009559346, 42.586511222763605], [-72.03872996570806, 42.58591706254997], [-72.03916403812994, 42.58536813765369], [-72.04105103249147, 42.58470606824786], [-72.04182408886848, 42.584157231481086], [-72.04182395538733, 42.58367672661787], [-72.04132997734206, 42.58278723959599], [-72.04148500715309, 42.58171184505265], [-72.04139299772305, 42.58068374657886], [-72.0418880536024, 42.579929155741056], [-72.04160894616237, 42.57965476564537], [-72.0397839310043, 42.57851212641505], [-72.03808292659544, 42.57848912350658], [-72.03743403036184, 42.57823726495061], [-72.03731002485358, 42.57773426737844], [-72.03805298061236, 42.5772998133511], [-72.03786698814719, 42.577094186392564], [-72.03662992640788, 42.57746004341304], [-72.03588697381099, 42.578008144202926], [-72.03560898982744, 42.57853382764727], [-72.0353920626843, 42.579974101287526], [-72.03486597577475, 42.580041808276476], [-72.03430903168764, 42.579904849978035], [-72.03171207219913, 42.57812085427791], [-72.03171202055485, 42.577640911193946], [-72.03248599204979, 42.5767731070386], [-72.0325479874988, 42.576384027335465], [-72.03205309157762, 42.57592718455639], [-72.03087799538336, 42.57565183180875], [-72.03112608259309, 42.574691928285375], [-72.03106497057814, 42.57446377204739], [-72.030539079951, 42.57412015870954], [-72.02908598567838, 42.57405087146138], [-72.02599405770854, 42.573205270309714], [-72.02447798653517, 42.57331794935369], [-72.02354999857798, 42.57359223689137], [-72.02237398887057, 42.574574895391244], [-72.01965193568768, 42.575602211049215], [-72.01918805573109, 42.57633406001649], [-72.01841396142078, 42.57667625696289], [-72.01751697066538, 42.576515988040285], [-72.0172389330541, 42.57621790306909], [-72.01662192455453, 42.57457209297192], [-72.0159419972964, 42.574001228335646], [-72.0159420611089, 42.57352072204782], [-72.01643792868715, 42.57281181126185], [-72.0173660266468, 42.57185283088172], [-72.01866592076338, 42.57116674731452], [-72.0188829319643, 42.57061887207573], [-72.01860397050422, 42.570344988252266], [-72.01715102128018, 42.56990982532481], [-72.01637900615444, 42.56945190618336], [-72.01496003515118, 42.56793007837404], [-72.02704301404596, 42.563203797639275], [-71.99422107660239, 42.54208797090297], [-71.97972090597273, 42.53238876333453], [-71.95552002718534, 42.51588901421193], [-71.94992000794787, 42.51178895326846], [-71.93391892009434, 42.50078893602227], [-71.93281901509783, 42.500288926310546], [-71.91981892952681, 42.490990064669795], [-71.9287189763242, 42.485389745942435], [-71.93321899665115, 42.48229007942756], [-71.92051907466667, 42.47428989434425], [-71.93191904297782, 42.46688973820657], [-71.93711906639598, 42.46398983259303], [-71.94391909582428, 42.45989011469721], [-71.96531908690575, 42.44659023162666], [-71.95311901273581, 42.438690026624904], [-71.94311891022133, 42.43189023198117], [-71.93200002612865, 42.42481918501094], [-71.92081397194006, 42.41666584889843], [-71.88750201870596, 42.39465115809828], [-71.92838204918228, 42.368010839211394], [-71.92162994718467, 42.35423491997912], [-71.91836602627096, 42.347962810368244], [-71.92082992227786, 42.347355125355655], [-71.94159807976202, 42.33866705710971], [-71.94291000061177, 42.33788325559411], [-71.95374301207072, 42.333386797659145], [-71.97191891695158, 42.32887515268327], [-71.99375890956435, 42.31933926479047], [-71.9895029547849, 42.31015525903167], [-71.96723108175362, 42.31068292921353], [-71.96067007175778, 42.2815632120049], [-71.96059000008195, 42.28013879816467], [-71.95827004033151, 42.269724206477136], [-71.95788602669217, 42.26900380347313], [-71.9538220899049, 42.25108407713825], [-71.95153408241873, 42.24166008004697], [-71.95131000191591, 42.24148427488032], [-71.95135792626259, 42.24103618082606], [-71.95060592121469, 42.237675903191004], [-71.94329407142237, 42.207869046683314], [-71.94330991047225, 42.207292782031594], [-71.94284600432248, 42.20583718382655], [-71.9417420608091, 42.20028478642023], [-71.93890998175846, 42.18948506895927], [-71.91721709161017, 42.19089287619995], [-71.9105889303958, 42.15884622763572], [-71.90615693125125, 42.135837890725654], [-71.90550098919307, 42.13366198551355], [-71.89932403192026, 42.10439880000567], [-71.91172494501255, 42.10150309535559], [-71.90890898305871, 42.091583083184844], [-71.96247800257065, 42.07939073070376], [-71.96734192110748, 42.07852691412851], [-71.97718209340421, 42.07609480165398], [-71.99273392778328, 42.07262282887236], [-71.99260602046192, 42.07819085325096], [-71.99571004499658, 42.07743917775628], [-71.99662197551469, 42.082159192609765], [-71.99263804821136, 42.08319884987419], [-71.99345697019204, 42.08605389775936], [-71.99500097606898, 42.08572817619209], [-71.99495799461212, 42.08622298531795], [-71.99423807449246, 42.08758279189062], [-71.99615798083212, 42.08740680122131], [-71.99617395184764, 42.088798879742555], [-71.99663798651805, 42.09007872426544], [-71.9979339597441, 42.097327002699146], [-71.99826991814852, 42.09791920123235], [-72.00300794128478, 42.09663801754599], [-72.01017105716365, 42.09893314260577], [-72.01639094782263, 42.101345182664346], [-72.02751992822049, 42.105075885580085], [-72.02576304313449, 42.10804382315125], [-72.0280149820662, 42.10747412999839], [-72.02925401259269, 42.11494402372855], [-72.0319740355154, 42.1143130062082], [-72.03110704523445, 42.109891871858636], [-72.03654402422431, 42.10823917355453], [-72.03631200986916, 42.10960202120406], [-72.03909206118868, 42.1091337379894], [-72.03979194047109, 42.11230188236341], [-72.04213907185715, 42.11161498219766], [-72.04057299022294, 42.1041990935977], [-72.04681602947697, 42.10342105206344], [-72.048192918415, 42.09934212129154], [-72.05071197960106, 42.09275473645939], [-72.05372906955793, 42.08195971896018], [-72.05428392354276, 42.082265964325444], [-72.05554498718362, 42.08254120971656], [-72.05654395149426, 42.08255886701343], [-72.05902408782569, 42.08125085392488], [-72.06025807044699, 42.07999672170393], [-72.06095107474573, 42.07836708323451], [-72.06096703867549, 42.077587082404094], [-72.05954301503313, 42.07475177831655], [-72.05974399297492, 42.07325903845014], [-72.06056197361627, 42.07195516421002], [-72.06051303053373, 42.07122274866182], [-72.06337000899063, 42.072442196602836], [-72.06340105963558, 42.07289896857401], [-72.06472001731471, 42.072396155085414], [-72.06667895712307, 42.071968940292194], [-72.07447596314351, 42.058399003347766], [-72.08777594751137, 42.04257874794382], [-72.09438092281717, 42.03513418141899], [-72.09976980806887, 42.02877152163696], [-72.12448447594669, 42.02961278882806], [-72.14315596754173, 42.0304879179033], [-72.2706098423396, 42.03163562278701], [-72.36706832918178, 42.032698151132635], [-72.37452598166857, 42.07463315861154], [-72.37452599489062, 42.07754979992979], [-72.3766470167797, 42.08687774273826], [-72.38050297625797, 42.10823812438305], [-72.38064701685863, 42.109790152027095], [-72.39508000394876, 42.18406076114608], [-72.3955600177586, 42.18580483540367], [-72.37461496277797, 42.18796527023965], [-72.37333499841395, 42.18798121398123], [-72.3623749695075, 42.189308888825146], [-72.35802295744818, 42.18966115496771], [-72.35850298154301, 42.18988490229063], [-72.36042302556098, 42.19023684591233], [-72.36077498977596, 42.191052964600296], [-72.36144701831918, 42.19351714012915], [-72.36144698133747, 42.194141198145935], [-72.36096696612275, 42.19438114508533], [-72.35925500267538, 42.194092926887386], [-72.35887098323302, 42.19438110254919], [-72.35947901759735, 42.195308976580456], [-72.3599429982684, 42.19639717742097], [-72.36071096813006, 42.19690912052529], [-72.36171902473806, 42.19703716773017], [-72.36307899516319, 42.19690877161629], [-72.36349498258821, 42.19719713031162], [-72.36355896536578, 42.19753315575636], [-72.36277496398546, 42.19791720375197], [-72.36231095385997, 42.19839675464127], [-72.36242304095533, 42.19945326418215], [-72.36312696351737, 42.20162907476092], [-72.36445501899402, 42.20289307384114], [-72.36474304439265, 42.206060143832076], [-72.36458297410738, 42.206747868811846], [-72.36413498880559, 42.20716428054552], [-72.36357503371136, 42.20740427656399], [-72.36287104122586, 42.20746809646726], [-72.36207101413751, 42.207260277301536], [-72.3617830148922, 42.20694000256419], [-72.36282299704037, 42.206363838566524], [-72.3628229789562, 42.20598006365351], [-72.36170297734127, 42.20564522248996], [-72.36093503271901, 42.20521319200435], [-72.36051903397924, 42.205212936832304], [-72.35983103558816, 42.205484824653716], [-72.35912701558708, 42.20607589039769], [-72.35707901957474, 42.20866790164612], [-72.35594301436542, 42.20902020411216], [-72.35477499097712, 42.20873179660747], [-72.35386197298682, 42.207291844241375], [-72.35347796331016, 42.20695594464601], [-72.35237396120402, 42.20690788050236], [-72.35134998797731, 42.20732401792044], [-72.34957401940201, 42.20900395675053], [-72.34923795635028, 42.20991579839986], [-72.34690197530637, 42.21009175235388], [-72.34607000714598, 42.21095603633643], [-72.34557402706528, 42.211772258092495], [-72.34541400088948, 42.21263608445359], [-72.34602198492212, 42.21541987122996], [-72.3459739819788, 42.215836073731126], [-72.34555802825925, 42.216411986568986], [-72.34355797445895, 42.217979808667195], [-72.34237396108986, 42.21860411985583], [-72.3401339575963, 42.219035827682546], [-72.3370939987757, 42.219036098958405], [-72.33632604823836, 42.219356257489004], [-72.33563803200792, 42.22015582618914], [-72.33539804025824, 42.22169210215331], [-72.3355099862503, 42.2221082601509], [-72.33654998896193, 42.22313214276511], [-72.33655003579076, 42.22393176262028], [-72.33534999389416, 42.22670006507329], [-72.33555801252285, 42.22761183893216], [-72.33459799055669, 42.22876395153568], [-72.33382991360111, 42.22937220324133], [-72.33395807113996, 42.2306677690128], [-72.33367000412443, 42.233131742136464], [-72.33290204637579, 42.2346037536613], [-72.33285396658736, 42.23764388895474], [-72.3333819266731, 42.23962812810215], [-72.33435803905644, 42.241179756527565], [-72.33459801510374, 42.24182006924544], [-72.33458205563676, 42.24319602207446], [-72.33488592790489, 42.24390001888356], [-72.33490208312496, 42.24479574248818], [-72.33458196984316, 42.245116003754504], [-72.3337500513222, 42.245276232645395], [-72.33354200963689, 42.24588378648068], [-72.3341819420779, 42.24657183904446], [-72.33480606022601, 42.24773999802775], [-72.33447000423232, 42.24918017504343], [-72.3347069875584, 42.25085590159224], [-72.33658603805246, 42.25670794837512], [-72.33646402532993, 42.25785114468126], [-72.33837204298587, 42.25865091162426], [-72.33831096355318, 42.258994049764546], [-72.33806499344423, 42.25915396767537], [-72.33643396882411, 42.25938306796865], [-72.33643396221262, 42.259612092100035], [-72.33772601698551, 42.26022897193694], [-72.3378809987301, 42.26054915007659], [-72.33781895632247, 42.26100596278248], [-72.33729598809207, 42.26173792756033], [-72.33658897233236, 42.26228722386204], [-72.33584999648356, 42.26256101926076], [-72.33483409405552, 42.262516077533604], [-72.33412602968046, 42.262606755531586], [-72.33381909700672, 42.26281324928662], [-72.33366507130226, 42.26338495778127], [-72.3337580049591, 42.26434483256551], [-72.33443497859915, 42.26521380696503], [-72.33443500519157, 42.26587724415678], [-72.33406603094065, 42.266493843362916], [-72.33295793774887, 42.2675232081029], [-72.33237400361939, 42.268459855208775], [-72.33163603590457, 42.27013026474242], [-72.33163602276954, 42.27134121932973], [-72.3320669164084, 42.27211801579222], [-72.33280600128826, 42.27273614247754], [-72.3333910040498, 42.272986806919036], [-72.33674702856582, 42.27358082411102], [-72.33762602116708, 42.27387321627166], [-72.33834896983934, 42.27440420506311], [-72.33871902297972, 42.275614145804994], [-72.33875001467474, 42.277031951285494], [-72.33853499170856, 42.278175261730425], [-72.33859697840923, 42.279637857075684], [-72.33884398287128, 42.2803011773539], [-72.33927504298951, 42.28087199320601], [-72.34051595756738, 42.28136204352189], [-72.34342300206997, 42.28166204171562], [-72.34556703462005, 42.28312226856991], [-72.34679001545432, 42.28361013274006], [-72.34808699394553, 42.28364501817658], [-72.34910903361158, 42.28393795516789], [-72.3505649720109, 42.2846288838547], [-72.35087199252852, 42.28527822919402], [-72.35079500042282, 42.28586514411647], [-72.35021398208546, 42.28701906390252], [-72.350283024949, 42.28767411065432], [-72.34878804686271, 42.29099502827478], [-72.3488049883853, 42.29215296022268], [-72.3485819884244, 42.29346909779193], [-72.34866896764713, 42.29440986860434], [-72.34876904180582, 42.29455318296652], [-72.35029002770105, 42.29466573200545], [-72.35089396001818, 42.29505684552617], [-72.3526120044672, 42.29563213983715], [-72.35268596446825, 42.29596021342369], [-72.35237500711187, 42.29714927552792], [-72.35202705090956, 42.29775114214258], [-72.35168395880537, 42.29802491194099], [-72.35082399753789, 42.2982197912087], [-72.35070802816938, 42.29839621526449], [-72.35183598412978, 42.29843006107716], [-72.35242101551661, 42.29856808751327], [-72.35281202450427, 42.298848228670316], [-72.3545260355523, 42.29895422504261], [-72.35485998870459, 42.29922521757498], [-72.35489603875902, 42.29984618058467], [-72.35466404047098, 42.30103578599669], [-72.35359503774181, 42.30232108255397], [-72.3547160101275, 42.3028501364806], [-72.35569595778053, 42.302982957265726], [-72.35594200074861, 42.30340090564361], [-72.3548519878774, 42.30507520147896], [-72.3540170003484, 42.30576510158797], [-72.35231602634616, 42.30628923327459], [-72.35196599881255, 42.30635372699447], [-72.35160001395039, 42.30591527653081], [-72.3517450422866, 42.30448886071938], [-72.351495002155, 42.30389874437576], [-72.35074897132152, 42.30396110407528], [-72.34989404532342, 42.30451607173293], [-72.34955500854961, 42.30528611332951], [-72.34979001321078, 42.30616895318166], [-72.35019704107728, 42.3068772056264], [-72.35085499027039, 42.307393966206206], [-72.35123795809453, 42.30743896003957], [-72.3519549829031, 42.30704200108697], [-72.3524289888221, 42.30707112280274], [-72.35277397872534, 42.307392120369464], [-72.35260002729086, 42.307675890795565], [-72.35196502841468, 42.30787304683584], [-72.35014596100261, 42.30802719646494], [-72.34966799925026, 42.30828282484974], [-72.34961803741996, 42.308584805796585], [-72.34986402837889, 42.30874617208433], [-72.35080001393936, 42.308796079389026], [-72.35146298990816, 42.30974102009097], [-72.35145800498418, 42.31006799039156], [-72.35095803959305, 42.31031590908184], [-72.3503260091719, 42.310277821840536], [-72.34894297219859, 42.309208773835785], [-72.34840200956577, 42.30911316977048], [-72.34631596830853, 42.309750906999774], [-72.34520095362289, 42.3110347715386], [-72.34447500719864, 42.3112809473518], [-72.34359701368125, 42.311887242057594], [-72.34239899137084, 42.314168804256866], [-72.34198904684915, 42.31443515534184], [-72.34016002364974, 42.31446204634241], [-72.33911201491485, 42.31430314208117], [-72.33793601291508, 42.31446196544937], [-72.33692497297763, 42.3148480343528], [-72.33500098589722, 42.31522778885478], [-72.33492807414872, 42.315563128840054], [-72.33515691604664, 42.31608478289056], [-72.33468195308902, 42.31687883561605], [-72.33480493424247, 42.31765222592542], [-72.33377008091526, 42.31816392269534], [-72.33319302415623, 42.319023983153066], [-72.3308570463424, 42.31966887364899], [-72.32950194991892, 42.3197169258419], [-72.3288840697206, 42.319477169497276], [-72.32884306800108, 42.318502859292124], [-72.3281270953374, 42.318791061350915], [-72.32734395673135, 42.31980000524139], [-72.32716100257711, 42.32069714883073], [-72.32735102928578, 42.32153027279426], [-72.32722509293659, 42.32241012452509], [-72.32739998102073, 42.323476879624884], [-72.3282669487638, 42.32510416745178], [-72.32833592385477, 42.32576822463014], [-72.32803208044469, 42.32639501597569], [-72.32739402608267, 42.326791815650914], [-72.32690894385742, 42.32673791049795], [-72.32649908768032, 42.32623104804577], [-72.32644795598827, 42.3251898496081], [-72.32633609591812, 42.32513100715911], [-72.32588399054984, 42.32517702209038], [-72.32475405051042, 42.32595716593648], [-72.32457997963053, 42.326216133421816], [-72.3247410250698, 42.32680525484137], [-72.32612003702609, 42.328141903374], [-72.32607898380509, 42.32862781212813], [-72.32571097531049, 42.32906205030336], [-72.32498504100788, 42.33067603317621], [-72.32464298394419, 42.33089175228585], [-72.3230840623081, 42.33097213766302], [-72.32258400809698, 42.331168724427364], [-72.32238596219811, 42.33228373176718], [-72.32307506363587, 42.332977114887406], [-72.32317005783152, 42.33341478066161], [-72.32306106934726, 42.333883730237915], [-72.32196892787795, 42.33515087417547], [-72.3200479153889, 42.336663071261334], [-72.3199400425937, 42.337074051004016], [-72.31813397499718, 42.33919874049692], [-72.31749409179535, 42.33968890435553], [-72.31685897792742, 42.33984422284071], [-72.31564694504424, 42.33938916144105], [-72.3151719289161, 42.3394020964328], [-72.31478197007758, 42.33977680684613], [-72.31460591858985, 42.34093384430972], [-72.31484105647199, 42.34321674738699], [-72.31454808982943, 42.34389519064086], [-72.3141259640973, 42.344218920284135], [-72.31408109443574, 42.344873097083344], [-72.3144119611901, 42.34753626990256], [-72.31415299194758, 42.34892797535602], [-72.31315304820656, 42.35006889319267], [-72.31203601299462, 42.35216721949018], [-72.31218206579219, 42.35290726437512], [-72.31254993166222, 42.35321189995402], [-72.31258694017514, 42.35371581787659], [-72.31379399610745, 42.35453107525426], [-72.31357907539957, 42.35531024758534], [-72.31306508423785, 42.35564981473386], [-72.31299198928546, 42.35596881970774], [-72.31363601386529, 42.35672897416204], [-72.31371292670572, 42.35757698137329], [-72.3134629769851, 42.35840591829885], [-72.31310608745854, 42.358780949343355], [-72.31253205221546, 42.35870116425675], [-72.31244697614137, 42.358338824058166], [-72.31210202786136, 42.35803402645666], [-72.31163600167247, 42.358181930217505], [-72.31147305161203, 42.35849087680222], [-72.31144704989516, 42.35872626868], [-72.31208594151491, 42.35972111330664], [-72.31201399533059, 42.360736168294416], [-72.3128500786043, 42.362135884839226], [-72.31266193880595, 42.362654897608046], [-72.31063402067909, 42.363737774180784], [-72.31036701049747, 42.364172933895205], [-72.31035000020472, 42.36453318094743], [-72.31064995969959, 42.36486305939393], [-72.31075297105541, 42.365485240732305], [-72.31100802305161, 42.365788987931154], [-72.31157194090696, 42.365844093587995], [-72.31190797417203, 42.36605723558369], [-72.3123980897507, 42.36721912358159], [-72.31276795820325, 42.36740726534775], [-72.313252088401, 42.36891300054109], [-72.31416096353894, 42.36933984860171], [-72.31483101165684, 42.36911902769141], [-72.31533703493056, 42.36925724186931], [-72.31563098934264, 42.36995628003138], [-72.31505594188505, 42.369909150682794], [-72.31496001756281, 42.37025307633118], [-72.31431992307623, 42.370708893653095], [-72.31448091075701, 42.37124794407567], [-72.31435405465682, 42.3714148381946], [-72.31175090722779, 42.37170389591577], [-72.3115900607864, 42.37185414584068], [-72.3118020542635, 42.37202314735919], [-72.3116290306799, 42.372274206173294], [-72.31130299001047, 42.37216227856644], [-72.31107303255608, 42.37241204996977], [-72.31115503247685, 42.37293309256411], [-72.31198892048667, 42.3737960144697], [-72.31309991097461, 42.373603039223674], [-72.31308490529203, 42.373837790245034], [-72.31223208754278, 42.37417580673351], [-72.31264597341335, 42.3744052776914], [-72.31239504355631, 42.374588238735754], [-72.31294401212446, 42.375525753449054], [-72.31206591450355, 42.37645309118814], [-72.31252509547923, 42.37670700148829], [-72.31343593634759, 42.37688006489699], [-72.31372394478294, 42.377292735942596], [-72.31352802051842, 42.37771108033496], [-72.31240306911165, 42.378476983289296], [-72.31248796831096, 42.3788972811036], [-72.31320195989281, 42.378632832877706], [-72.31368897726053, 42.37938227789762], [-72.31325796408824, 42.37956482599226], [-72.31385793655743, 42.380347796152456], [-72.31371591839537, 42.38095988956364], [-72.31446206876254, 42.381702996372645], [-72.3142540768599, 42.38217206965195], [-72.31359095285876, 42.38204227656026], [-72.31313801324254, 42.382173773627265], [-72.31298707896204, 42.38260980479464], [-72.31334402140365, 42.3828627461438], [-72.3139749584355, 42.38290892662836], [-72.3139960075254, 42.383025818594426], [-72.31342990759275, 42.38329991684317], [-72.31304899503283, 42.383071903813125], [-72.31275404123795, 42.38321297391489], [-72.31186298423839, 42.38430695734896], [-72.3119050772176, 42.384526111857255], [-72.31232103603604, 42.38464584350859], [-72.31145397116684, 42.38549713180513], [-72.31093305810195, 42.38574614004718], [-72.31093095355676, 42.38592227873872], [-72.31166901524506, 42.38638805088121], [-72.31173397911355, 42.38661492174757], [-72.31132892265481, 42.386621154961055], [-72.31054297280198, 42.386298080114415], [-72.31040699898413, 42.38636374798507], [-72.31050695571489, 42.386508219427064], [-72.31141605713917, 42.38689007184086], [-72.31005809521434, 42.38736105127522], [-72.31190496662632, 42.38840421354471], [-72.3127359468283, 42.38868475891069], [-72.31361795255165, 42.38947924142722], [-72.31372297112704, 42.390074956201985], [-72.31356395905627, 42.39020887680916], [-72.3131480357345, 42.39013922918913], [-72.31270297156205, 42.38957405105939], [-72.31243195674172, 42.38969019220632], [-72.3127209791462, 42.389985817066076], [-72.31266994913267, 42.39048922733587], [-72.31289006050426, 42.39095977404173], [-72.31393904479138, 42.39092422367253], [-72.31460899187616, 42.391473175037824], [-72.31451392296513, 42.39190093392986], [-72.31367407945575, 42.39236603534079], [-72.31357008755472, 42.39261717008302], [-72.31368996928809, 42.39293705871993], [-72.31599393316203, 42.394544119215894], [-72.31596991006198, 42.39471197273766], [-72.31556094182189, 42.39491913037927], [-72.31512406451587, 42.394698835959744], [-72.31477405162283, 42.394739015399736], [-72.31451994881688, 42.39530013322715], [-72.31485691649709, 42.395410849236164], [-72.3154330404394, 42.395288039406694], [-72.31549808655613, 42.39549014867261], [-72.31359396198273, 42.396419131812934], [-72.31404092731458, 42.39677384469333], [-72.3141450507718, 42.397505173939045], [-72.31473991386461, 42.3977598033703], [-72.31448892739378, 42.39801873155983], [-72.31518899857817, 42.39883699670546], [-72.31497307557095, 42.399003958268274], [-72.3141500829087, 42.39901597334704], [-72.31401298447922, 42.39921726244252], [-72.31411693266773, 42.39990526509204], [-72.3136319947525, 42.39991994859951], [-72.31357108681883, 42.40036378233574], [-72.31333194687429, 42.40055622606507], [-72.31405509646788, 42.401382212323945], [-72.31409708689944, 42.40165088310141], [-72.31398199952865, 42.40191109916677], [-72.31373303638286, 42.401960126115945], [-72.31297102103537, 42.40159525897726], [-72.31327191384732, 42.40186491424786], [-72.31341208000326, 42.4024029845256], [-72.31320599638548, 42.4026869133129], [-72.31334801950051, 42.403074168485226], [-72.31275002090305, 42.4030958367089], [-72.31262399148362, 42.40328804258904], [-72.31268494398343, 42.40390995153051], [-72.31297399775652, 42.40418813150802], [-72.31294906160974, 42.404448272153815], [-72.31340705998674, 42.40478602845479], [-72.31309800377453, 42.405196165238664], [-72.31373198927326, 42.40596313735418], [-72.31371508489573, 42.40644886138013], [-72.31347797938663, 42.40650624416306], [-72.31309695371277, 42.40623603033003], [-72.312672928044, 42.40688781070791], [-72.31196001258816, 42.407068965439116], [-72.31142506328779, 42.40756903360265], [-72.31047497081828, 42.40777379593834], [-72.30998196894812, 42.40852677363894], [-72.30998004031002, 42.40862807194579], [-72.3107049117326, 42.408370881935454], [-72.31089309168289, 42.40871617518815], [-72.31044607485352, 42.40931015130916], [-72.31034005057859, 42.41063491398731], [-72.30993207957238, 42.41082572488042], [-72.309266950107, 42.41081408525125], [-72.30866308864307, 42.41134782311462], [-72.30870495141333, 42.41166713832786], [-72.3092920813596, 42.41156116428804], [-72.30949198893632, 42.41181409555281], [-72.30872509654894, 42.4128261431205], [-72.30892296925309, 42.41426974633393], [-72.30864801696093, 42.41462111006086], [-72.30767902307949, 42.41457389493277], [-72.30738198441244, 42.414891086315635], [-72.307399054921, 42.41539513854069], [-72.30801407962889, 42.415834786854234], [-72.30800101772547, 42.415986242651485], [-72.30694997173572, 42.416130912391644], [-72.30658695315803, 42.416321958410826], [-72.3070619403543, 42.417198116241984], [-72.30604992166613, 42.41788887738305], [-72.30665805172269, 42.41899199421871], [-72.30671904051763, 42.419545817778214], [-72.30628391835238, 42.42011380822756], [-72.30552000492935, 42.41986707054749], [-72.30530396553578, 42.41995804995996], [-72.30514096318875, 42.42042678643725], [-72.30495993043843, 42.42043424205524], [-72.30463908735199, 42.419928937765945], [-72.30418595737461, 42.420127920642535], [-72.30210892544396, 42.420310093570485], [-72.3021460697273, 42.4209479261765], [-72.30183005199946, 42.42097094731677], [-72.30172601393966, 42.421255830755165], [-72.30132805179089, 42.42147973905055], [-72.30159602174683, 42.421724894651454], [-72.30152705606436, 42.42182609647628], [-72.3011209470568, 42.4218570578392], [-72.30085804916287, 42.42213179197982], [-72.30129691900274, 42.42314214369626], [-72.30130395991608, 42.42350277925476], [-72.30247303659276, 42.42389527166747], [-72.30243291573379, 42.424399159221174], [-72.3018149130669, 42.42417726359991], [-72.30036801128549, 42.424470927726816], [-72.30027401293827, 42.4248148221948], [-72.3004370335225, 42.42537806707677], [-72.30032296756873, 42.42548689657877], [-72.29949903335111, 42.425481930235264], [-72.29883895082783, 42.426031758848794], [-72.2972779949263, 42.42641001572182], [-72.29721994641815, 42.42653477213383], [-72.29784792190965, 42.42682414599856], [-72.29776805495776, 42.426950179258675], [-72.2961480250554, 42.42757022366545], [-72.29543799982478, 42.428455740371206], [-72.29471095059718, 42.428879964709566], [-72.29393402009865, 42.4297479273556], [-72.29285305065271, 42.42961695481397], [-72.29213893745984, 42.429863826475646], [-72.29196705661309, 42.430149166817145], [-72.29228593642578, 42.43080475625591], [-72.29193091362359, 42.43126522739275], [-72.29206194810409, 42.4315839332555], [-72.29155100288651, 42.43189186160513], [-72.29130897511543, 42.43236899710503], [-72.29129004470003, 42.43296501435804], [-72.29139796496796, 42.43339416662677], [-72.2921270021369, 42.43375883976819], [-72.29192105702353, 42.434008964668], [-72.29115298064572, 42.43403000000916], [-72.29068893941938, 42.433247111895284], [-72.29022800123671, 42.43315180582333], [-72.29007805898136, 42.43338578778518], [-72.28992794205605, 42.43466918430093], [-72.28890297872766, 42.435485919456326], [-72.28920293661196, 42.43587380671856], [-72.28917698260874, 42.436091744835906], [-72.28993197652308, 42.43622217567475], [-72.29003995627527, 42.43655004461519], [-72.29074595568774, 42.436998724972256], [-72.2908339497447, 42.43720125099296], [-72.29065002318072, 42.437451784759006], [-72.28959102659513, 42.437311064415134], [-72.28823694895887, 42.437370983443934], [-72.2876650636147, 42.437107057458775], [-72.28747303013087, 42.43716520234657], [-72.2872089137004, 42.43755019854909], [-72.2875380663866, 42.43831489101026], [-72.28721797592085, 42.43867382358554], [-72.28653496973055, 42.439141019870526], [-72.28641898147572, 42.439450164705335], [-72.28503592034025, 42.43996320683252], [-72.2836949844133, 42.44081186956609], [-72.28340802696273, 42.44119588651109], [-72.29142395159958, 42.47949478545749], [-72.27060893620147, 42.4946768564233], [-72.26281306000104, 42.50008822007593], [-72.2449520850565, 42.51355225272546], [-72.26294692891985, 42.52841408020975], [-72.26921996131692, 42.53340326445994], [-72.27036702552185, 42.54346180443224], [-72.27147802386216, 42.54726084604899], [-72.35638700296447, 42.548812268417336], [-72.35392298324709, 42.598212258162654], [-72.35763698653001, 42.598717010664195], [-72.35896697250604, 42.598601904021045], [-72.3597720299401, 42.598145214566905], [-72.36035903485333, 42.59734410387581], [-72.3607289764822, 42.596041020581495], [-72.36119303446932, 42.59569827079762], [-72.36230701117105, 42.59530902880205], [-72.36469997175737, 42.60937581743773], [-72.37022300666573, 42.62280790991654], [-72.37084599590989, 42.62508481687001], [-72.37453002777475, 42.633204909586745], [-72.41197160412996, 42.725327870085685], [-72.24953638066289, 42.72071659512196], [-72.20365873492614, 42.71970675978428], [-72.07862925710607, 42.7164382571879], [-71.99950080082154, 42.713865601946125], [-71.89871273653924, 42.71139992819828]]]}}