{"type": "Feature", "properties": {"district_name": "Suffolk and Norfolk", "chamber": "senate", "vintage": "2001-2010"}, "geometry": {"type": "Polygon", "coordinates": [[[-71.14009705503727, 42.30209716383696], [-71.13669692057469, 42.30119685675852], [-71.1339959694245, 42.301797111291975], [-71.13109595737367, 42.30129717467424], [-71.12789594753286, 42.30019693244833], [-71.12979592260662, 42.298297813310356], [-71.12989794730287, 42.29744117017694], [-71.1293250124466, 42.296425924227144], [-71.12179592214157, 42.295698027461654], [-71.12329591792724, 42.29399801318388], [-71.12319595662773, 42.29369777302339], [-71.12299608584682, 42.29359808433707], [-71.12129603373516, 42.29519783993179], [-71.11909608016877, 42.293797915977834], [-71.11879594133318, 42.29439787066985], [-71.11939606958678, 42.2947982430183], [-71.11849600397251, 42.29549805421883], [-71.11789605822717, 42.296197731489094], [-71.11719603155103, 42.29589773964759], [-71.11909598248018, 42.291798123989864], [-71.11949609080752, 42.29019804047891], [-71.11829606340254, 42.29009783986458], [-71.11799594856365, 42.291198022439815], [-71.1170959820809, 42.29119783979273], [-71.11689591653887, 42.29219819434122], [-71.11639590670138, 42.292198213926596], [-71.11439592065327, 42.29299784996868], [-71.113995960093, 42.29249796549569], [-71.1146960171787, 42.29069802633409], [-71.11379591919712, 42.28919825368102], [-71.11249599751004, 42.28839823501058], [-71.11179604080978, 42.28819780548593], [-71.11059600340373, 42.28699803099847], [-71.10809591454162, 42.28859825526934], [-71.10449505676122, 42.28589795077914], [-71.09999496757973, 42.282097721528146], [-71.10463408083083, 42.28101710163206], [-71.10776702720669, 42.27813393104349], [-71.10919598896594, 42.27424780236005], [-71.11039606136838, 42.27499800638586], [-71.11229600180201, 42.271798228265105], [-71.11029499208904, 42.27079774471419], [-71.11169607541116, 42.26729805428899], [-71.10849493416589, 42.26269787772277], [-71.10760792476135, 42.263056097877055], [-71.10683707629363, 42.261875748219374], [-71.10869495272111, 42.26109826533134], [-71.11099503356101, 42.261297958243446], [-71.11269496419463, 42.25979794250707], [-71.11379504808168, 42.259298039010176], [-71.10949492795723, 42.25549826737594], [-71.10929601449747, 42.25449881225022], [-71.10939498070304, 42.252297896945365], [-71.10919503440707, 42.24799824511081], [-71.12029502382269, 42.242298278799794], [-71.12179605512442, 42.24129826415585], [-71.12559609076918, 42.239398127375765], [-71.12619593925166, 42.238898159969914], [-71.12259508453536, 42.23539823974002], [-71.122195073575, 42.234798217572745], [-71.12229494656376, 42.234397908253754], [-71.12449509492455, 42.234598131285864], [-71.12449492080185, 42.232997829365104], [-71.12769590825523, 42.23079799536155], [-71.13069596873117, 42.22779783698065], [-71.1367960444377, 42.22669810554227], [-71.13949606022054, 42.22379805184818], [-71.1414970594732, 42.21959874072466], [-71.14109601909519, 42.21859814094474], [-71.14239609419909, 42.21669803993836], [-71.14229591269462, 42.214697908879366], [-71.14299602844996, 42.21329785247792], [-71.1423959080092, 42.211697928345565], [-71.1464969339562, 42.20859892994241], [-71.14749592570453, 42.20619816673659], [-71.14589595465776, 42.206297901023035], [-71.14586405714577, 42.205335029525486], [-71.15199706353003, 42.19799879318041], [-71.15289700935607, 42.19789910904756], [-71.15748009172034, 42.19463911580146], [-71.16234495586755, 42.18650793548359], [-71.16259698953202, 42.18499895949756], [-71.16515302239496, 42.18186997330637], [-71.16403595858108, 42.18119203138433], [-71.16739600005963, 42.17909789769454], [-71.16549600632153, 42.1767982503624], [-71.16410296789189, 42.17589498618992], [-71.16535706900092, 42.17499214555566], [-71.16474704238243, 42.1742627943555], [-71.16359507440879, 42.17331014781728], [-71.16440803391784, 42.17278190503316], [-71.1684959533927, 42.172698137557234], [-71.1685959762041, 42.17139802984665], [-71.16829606037417, 42.17099820913702], [-71.16879698576311, 42.16929918098433], [-71.17179593171728, 42.168098001679816], [-71.17189597904097, 42.16699821128598], [-71.17349595957053, 42.16779787253285], [-71.17349609135114, 42.16589820067295], [-71.17569606639185, 42.16569793399267], [-71.175697010277, 42.164699145548745], [-71.17669602806383, 42.16479818861313], [-71.17699596546305, 42.16389815249342], [-71.17766502424956, 42.163735164607886], [-71.17776007204024, 42.166056003277504], [-71.17950797148671, 42.16547119392184], [-71.17978799323382, 42.16622486767731], [-71.18050093870158, 42.165310782580555], [-71.18286402142661, 42.16379299156112], [-71.18458990864106, 42.16225089253993], [-71.18564807954648, 42.16193080948656], [-71.18655400434251, 42.16119502844568], [-71.18801100870745, 42.16108590019803], [-71.1884499745009, 42.16075397596388], [-71.18717500521134, 42.15535083878087], [-71.18649695986794, 42.15329907053778], [-71.19409991406782, 42.14982018049995], [-71.19547905846463, 42.151303191273875], [-71.20117302301246, 42.158407065649435], [-71.20219796211963, 42.15989919736989], [-71.20459796626561, 42.161098891173324], [-71.20679797021849, 42.16279882481055], [-71.20835202383442, 42.16411894069495], [-71.2109190188064, 42.16670203774896], [-71.2123969630437, 42.167498033639], [-71.21249707772158, 42.1683980389756], [-71.21939799594716, 42.16849897733163], [-71.22139897006883, 42.17079910095315], [-71.2251980668052, 42.170897737842665], [-71.22569908347458, 42.17179925348354], [-71.23319892410724, 42.1812989540281], [-71.23559794949341, 42.18129775782912], [-71.24009800703477, 42.18399773210881], [-71.24059808644195, 42.18529812919333], [-71.24006998111251, 42.1864521480222], [-71.24017991659926, 42.18695094554582], [-71.24169801276692, 42.18849784862685], [-71.2412990264936, 42.192498838691684], [-71.24366702551838, 42.19676881974593], [-71.25137894594388, 42.20259786276988], [-71.24690000515584, 42.214399004460276], [-71.24609994144156, 42.215999223302155], [-71.23970000236486, 42.23429881745047], [-71.2359999477154, 42.245499160734276], [-71.23289993601736, 42.25419904679859], [-71.23190002425221, 42.25659883520848], [-71.23229907142442, 42.258197802130375], [-71.23149906649356, 42.25929824103857], [-71.22889897610185, 42.263997893761605], [-71.22490009530777, 42.26369916169923], [-71.2226999176241, 42.26259887835516], [-71.21999992175597, 42.26319890447335], [-71.21879908367784, 42.264898102036504], [-71.21809898676084, 42.26679827117403], [-71.21809902768229, 42.267597850797245], [-71.21779892623867, 42.268598135361046], [-71.21059807106354, 42.267297848799856], [-71.20749802570006, 42.26779810194775], [-71.204698038329, 42.267098266929175], [-71.20229794903976, 42.267197855489336], [-71.19699804360594, 42.26899810095316], [-71.18809794241774, 42.2801970815354], [-71.19119795170243, 42.28269703541751], [-71.1783979603615, 42.29449689537859], [-71.17059694433948, 42.2997972371732], [-71.16599699614693, 42.30249722604014], [-71.16469692503733, 42.30369702309669], [-71.15989692960217, 42.30049699142412], [-71.15689702966155, 42.298296974136306], [-71.15679706369988, 42.29789716856967], [-71.15319708082176, 42.295497193087975], [-71.15219702567678, 42.29459724789225], [-71.15019704086868, 42.295396942894136], [-71.1457969969959, 42.29789698195107], [-71.14419705772279, 42.29919690773385], [-71.1420969774201, 42.300496942334064], [-71.14009705503727, 42.30209716383696]]]}}