{"type": "Feature", "properties": {"district_name": "Fifth Middlesex District", "chamber": "senate", "vintage": "2012-2020"}, "geometry": {"type": "Polygon", "coordinates": [[[-71.150538, 42.46426499999999], [-71.123862, 42.473392000000004], [-71.112116, 42.473818000000016], [-71.116795, 42.49463900000001], [-71.121765, 42.49872000000001], [-71.11976, 42.500291999999995], [-71.12195899999999, 42.50427799999999], [-71.122395, 42.504152999999995], [-71.123463, 42.506174], [-71.12417599999999, 42.507526], [-71.123865, 42.50761699999998], [-71.124492, 42.50891800000001], [-71.13545599999999, 42.53000600000001], [-71.131316, 42.531814], [-71.13483, 42.546251], [-71.136522, 42.55255599999997], [-71.135646, 42.552267], [-71.13426299999999, 42.552875], [-71.133284, 42.55301199999999], [-71.132443, 42.552915], [-71.13212, 42.55353399999999], [-71.13141499999999, 42.553436999999974], [-71.130932, 42.55386], [-71.129882, 42.55412399999998], [-71.129868, 42.554294999999996], [-71.129091, 42.554885000000006], [-71.128562, 42.554588], [-71.12751, 42.55447199999999], [-71.126938, 42.554226000000014], [-71.126768, 42.55491800000001], [-71.126187, 42.55549200000001], [-71.125947, 42.556031999999995], [-71.12556, 42.556259999999995], [-71.126008, 42.55654399999999], [-71.125954, 42.55678800000001], [-71.125413, 42.55670800000002], [-71.125188, 42.55692399999999], [-71.124274, 42.55688300000001], [-71.12418199999999, 42.557398], [-71.123842, 42.557638000000004], [-71.123749, 42.55811700000001], [-71.12316899999999, 42.55814999999998], [-71.122281, 42.55864899999998], [-71.121663, 42.55916000000001], [-71.12156999999999, 42.55967499999999], [-71.120797, 42.55993700000002], [-71.120635, 42.56032699999999], [-71.119839, 42.560013], [-71.119096, 42.559955], [-71.11895, 42.560300000000005], [-71.118393, 42.560638999999995], [-71.11854, 42.560951], [-71.118432, 42.561195999999995], [-71.11735, 42.561212000000005], [-71.116298, 42.56167699999998], [-71.115757, 42.561701], [-71.11490599999999, 42.561284], [-71.115122, 42.561077000000004], [-71.114867, 42.560952], [-71.114048, 42.560881], [-71.11397000000001, 42.561120999999986], [-71.113491, 42.561134999999986], [-71.113158, 42.560722], [-71.112826, 42.56082700000001], [-71.112563, 42.560697000000005], [-71.11223799999999, 42.560945999999966], [-71.11115500000001, 42.56090700000002], [-71.109973, 42.561375000000005], [-71.108559, 42.56292700000001], [-71.10855099999999, 42.563351000000004], [-71.107957, 42.56400099999999], [-71.107996, 42.56439199999999], [-71.106094, 42.565094000000016], [-71.10575399999999, 42.565415], [-71.105243, 42.565509999999996], [-71.104888, 42.56588999999999], [-71.104896, 42.56621000000002], [-71.104563, 42.566432], [-71.10428499999999, 42.566271], [-71.10395199999999, 42.566358000000015], [-71.103548, 42.564897], [-71.09278100000002, 42.559249999999984], [-71.08989, 42.55822199999999], [-71.070978, 42.55588899999999], [-71.075257, 42.53112200000001], [-71.068354, 42.525389000000004], [-71.06775999999999, 42.52536200000001], [-71.06679799999999, 42.52459499999999], [-71.06589799999999, 42.52439499999999], [-71.062099, 42.52439499999999], [-71.05814099999999, 42.52394599999999], [-71.057662, 42.52417899999999], [-71.040983, 42.526261999999996], [-71.040004, 42.525189], [-71.03916699999999, 42.524789], [-71.03869, 42.52425900000001], [-71.03859899999999, 42.523959999999995], [-71.038736, 42.52353800000001], [-71.039287, 42.523205], [-71.040199, 42.522197999999975], [-71.041696, 42.519895], [-71.040697, 42.51819599999999], [-71.038596, 42.516195], [-71.039796, 42.514195], [-71.037397, 42.512795999999994], [-71.03679799999999, 42.511593999999995], [-71.03719699999999, 42.510196], [-71.036433, 42.509371], [-71.035896, 42.507295000000006], [-71.035296, 42.506994999999996], [-71.035596, 42.50599500000001], [-71.036096, 42.505195], [-71.037796, 42.503295], [-71.041714, 42.502556999999996], [-71.04399599999999, 42.500695000000015], [-71.042096, 42.497997], [-71.040089, 42.495602999999996], [-71.045496, 42.48859500000001], [-71.050252, 42.48653299999999], [-71.052621, 42.486059000000004], [-71.053596, 42.48109500000001], [-71.053697, 42.479195], [-71.05419599999999, 42.476995], [-71.053496, 42.475895000000016], [-71.045296, 42.466795000000005], [-71.04479599999999, 42.466195000000006], [-71.044729, 42.465724000000016], [-71.04021399999999, 42.46090199999999], [-71.039114, 42.45951300000002], [-71.03726999999999, 42.457674000000004], [-71.02577699999999, 42.44475299999999], [-71.020377, 42.43824999999998], [-71.028257, 42.42414799999998], [-71.050324, 42.42299500000001], [-71.05442, 42.420044999999995], [-71.054735, 42.42003799999999], [-71.05685, 42.418671], [-71.060441, 42.416007], [-71.061584, 42.41561000000001], [-71.064559, 42.41533399999999], [-71.06450699999999, 42.41524099999999], [-71.073296, 42.414796], [-71.073196, 42.41299599999999], [-71.073574, 42.41271600000001], [-71.07473399999999, 42.41254700000001], [-71.075332, 42.41297299999998], [-71.07549, 42.41327699999999], [-71.07713199999999, 42.413285], [-71.07930999999999, 42.414938], [-71.07991, 42.415166000000006], [-71.081724, 42.41515700000001], [-71.08349, 42.41600700000001], [-71.085785, 42.417895], [-71.089446, 42.42662299999999], [-71.089062, 42.42911499999999], [-71.088031, 42.42902600000001], [-71.085696, 42.444694999999975], [-71.104722, 42.44884699999998], [-71.119402, 42.453444999999995], [-71.121346, 42.448670000000014], [-71.124153, 42.444115999999994], [-71.124005, 42.44382700000001], [-71.124042, 42.443369999999994], [-71.12523000000002, 42.44334099999999], [-71.12654599999999, 42.44391099999999], [-71.125906, 42.444065], [-71.12557699999999, 42.44434200000002], [-71.125513, 42.44467100000003], [-71.126065, 42.44515399999998], [-71.128835, 42.445913999999995], [-71.130161, 42.44649500000003], [-71.134112, 42.447432], [-71.134714, 42.44356], [-71.135841, 42.44247400000001], [-71.13619299999999, 42.442485000000005], [-71.137092, 42.44331899999999], [-71.13826, 42.444064000000004], [-71.144042, 42.446977999999994], [-71.143053, 42.447913000000014], [-71.144189, 42.44876800000001], [-71.145169, 42.449777], [-71.143845, 42.450312999999994], [-71.144865, 42.451463999999994], [-71.146002, 42.451378999999996], [-71.146372, 42.451499], [-71.146474, 42.452178999999994], [-71.145552, 42.453158], [-71.14342599999999, 42.454674999999995], [-71.14213099999999, 42.456006], [-71.141491, 42.45634900000001], [-71.14187299999999, 42.456874], [-71.14242899999999, 42.45720800000001], [-71.144149, 42.457895], [-71.147179, 42.460573], [-71.147958, 42.46052600000001], [-71.14880000000001, 42.460775], [-71.149355, 42.461417999999995], [-71.14971, 42.462213], [-71.14970900000002, 42.463167], [-71.150404, 42.463884000000014], [-71.150538, 42.46426499999999]]]}}