{"type": "Feature", "properties": {"district_name": "Third Middlesex District", "chamber": "senate", "vintage": "2022-present"}, "geometry": {"type": "Polygon", "coordinates": [[[-71.430374, 42.436969000000005], [-71.384957, 42.504465999999994], [-71.391563, 42.50681999999998], [-71.397941, 42.526277], [-71.399515, 42.53401499999999], [-71.38474, 42.538699], [-71.388373, 42.54994600000002], [-71.396876, 42.58013999999999], [-71.400228, 42.59107900000001], [-71.401978, 42.59980500000001], [-71.405401, 42.61039300000001], [-71.417642, 42.653774], [-71.412309, 42.64941000000001], [-71.411978, 42.64797400000001], [-71.409764, 42.648785], [-71.405309, 42.648138000000024], [-71.404028, 42.648405999999994], [-71.402782, 42.646770999999994], [-71.39889, 42.64494900000002], [-71.398312, 42.64550199999999], [-71.401094, 42.649182999999994], [-71.40211, 42.651603], [-71.398995, 42.652467], [-71.398173, 42.65101899999998], [-71.396968, 42.649637], [-71.394341, 42.648474], [-71.392488, 42.648476], [-71.38522, 42.649599], [-71.381743, 42.64927899999999], [-71.380687, 42.648913999999984], [-71.379463, 42.64790099999999], [-71.378599, 42.64630900000001], [-71.377115, 42.642697000000005], [-71.375935, 42.64090199999999], [-71.374521, 42.639548000000005], [-71.372065, 42.63835599999999], [-71.369495, 42.637583], [-71.367024, 42.637391], [-71.364738, 42.63759799999999], [-71.359943, 42.625972], [-71.329328, 42.61398499999998], [-71.327936, 42.613155000000006], [-71.325698, 42.613263999999994], [-71.324975, 42.611601], [-71.325408, 42.611250999999996], [-71.323341, 42.60649], [-71.319897, 42.6069], [-71.318882, 42.608544000000016], [-71.319309, 42.61357200000001], [-71.296205, 42.61468299999999], [-71.296872, 42.613577], [-71.297061, 42.61278499999999], [-71.297006, 42.612296], [-71.295939, 42.61034999999999], [-71.295674, 42.60933399999998], [-71.295469, 42.606975000000006], [-71.295092, 42.606343999999986], [-71.294249, 42.605539000000014], [-71.33309, 42.560115], [-71.324801, 42.55605900000001], [-71.319618, 42.554069999999996], [-71.314385, 42.54955400000001], [-71.318313, 42.542782], [-71.308749, 42.53395999999999], [-71.307185, 42.533221000000005], [-71.307538, 42.52999899999999], [-71.30461, 42.529284999999994], [-71.304949, 42.52854000000001], [-71.304865, 42.527283], [-71.30516, 42.52593599999999], [-71.306745, 42.52268899999999], [-71.306836, 42.52207500000001], [-71.306699, 42.52059299999999], [-71.303739, 42.519926], [-71.281051, 42.526348000000006], [-71.278107, 42.526712999999994], [-71.264098, 42.524081000000024], [-71.256396, 42.523992], [-71.254572, 42.522593], [-71.250142, 42.52573], [-71.242576, 42.51993999999999], [-71.241593, 42.52079799999999], [-71.240056, 42.519716], [-71.236924, 42.511490999999985], [-71.233544, 42.508692999999994], [-71.232694, 42.507713], [-71.231897, 42.506367000000004], [-71.240906, 42.490013], [-71.251986, 42.48501499999999], [-71.256596, 42.47849899999999], [-71.261515, 42.47624600000001], [-71.265314, 42.470600999999995], [-71.264877, 42.47056400000001], [-71.264249, 42.47087700000001], [-71.263941, 42.47061999999999], [-71.263122, 42.470368000000015], [-71.262407, 42.47055999999999], [-71.262369, 42.470252999999985], [-71.261553, 42.469336999999996], [-71.260688, 42.468750000000014], [-71.257956, 42.471224999999976], [-71.249587, 42.467285000000004], [-71.248461, 42.46753800000001], [-71.246698, 42.466733999999995], [-71.24538, 42.46542600000001], [-71.244452, 42.465103], [-71.244367, 42.46463599999999], [-71.24403000000001, 42.464329], [-71.242495, 42.463601000000004], [-71.241578, 42.46296600000001], [-71.240276, 42.46241700000001], [-71.239912, 42.462301], [-71.240809, 42.463899], [-71.239585, 42.463778], [-71.238757, 42.46332799999999], [-71.238067, 42.46320199999998], [-71.236195, 42.46330300000001], [-71.232839, 42.46293100000001], [-71.233352, 42.462215], [-71.231964, 42.461443], [-71.231175, 42.460186], [-71.230436, 42.459835000000005], [-71.231911, 42.45890999999999], [-71.231606, 42.45809100000001], [-71.230873, 42.453500999999996], [-71.232119, 42.45322], [-71.23376, 42.452461], [-71.237, 42.45008399999998], [-71.23716, 42.44949100000001], [-71.237152, 42.447862], [-71.237626, 42.446283], [-71.237539, 42.44538], [-71.23956500000001, 42.443987], [-71.240967, 42.44149600000001], [-71.242295, 42.439703], [-71.243557, 42.43930700000001], [-71.243105, 42.438693999999984], [-71.241685, 42.43832499999999], [-71.239275, 42.435982], [-71.237429, 42.43544], [-71.241585, 42.43428699999999], [-71.242204, 42.433609], [-71.2407, 42.432826999999996], [-71.23907, 42.432500000000005], [-71.236264, 42.43155200000001], [-71.23611, 42.433521], [-71.234798, 42.43324100000001], [-71.23392, 42.43335400000001], [-71.23356, 42.432417], [-71.231469, 42.429264999999994], [-71.230975, 42.428142999999984], [-71.230953, 42.427363000000014], [-71.231526, 42.42328100000001], [-71.231544, 42.422722999999976], [-71.231311, 42.42223000000002], [-71.230337, 42.42199299999999], [-71.223528, 42.421215], [-71.222197, 42.420845000000014], [-71.217624, 42.41909900000002], [-71.214841, 42.41839900000001], [-71.217982, 42.41707300000001], [-71.218348, 42.41669099999999], [-71.218928, 42.41556400000001], [-71.215551, 42.414629000000005], [-71.207603, 42.409780000000005], [-71.211261, 42.406074], [-71.202628, 42.40370200000002], [-71.202543, 42.40322599999999], [-71.201702, 42.402425000000015], [-71.201849, 42.40207100000002], [-71.20157400000001, 42.401695000000004], [-71.201799, 42.401374000000004], [-71.201613, 42.400566000000005], [-71.200621, 42.399457999999996], [-71.200236, 42.39930400000001], [-71.20008, 42.398627000000005], [-71.199552, 42.39821400000001], [-71.199591, 42.39775699999999], [-71.199429, 42.39732], [-71.19818800000002, 42.396066999999995], [-71.197454, 42.395813000000004], [-71.196627, 42.39522899999998], [-71.196284, 42.394361], [-71.19633, 42.394031000000005], [-71.197654, 42.39316699999999], [-71.197964, 42.39267799999999], [-71.197028, 42.39197299999999], [-71.196973, 42.39083799999999], [-71.196724, 42.390655], [-71.196817, 42.389736], [-71.194876, 42.38817], [-71.195406, 42.387721000000006], [-71.195531, 42.38739999999999], [-71.194177, 42.386030999999996], [-71.217061, 42.366569], [-71.253146, 42.355897000000006], [-71.254034, 42.35477], [-71.255217, 42.353928], [-71.255731, 42.353754], [-71.256356, 42.354012000000004], [-71.256465, 42.354905], [-71.260358, 42.35365800000002], [-71.260099, 42.353016], [-71.25914500000002, 42.35172399999999], [-71.25863100000001, 42.350052], [-71.258624, 42.349360999999995], [-71.258747, 42.349107999999994], [-71.259963, 42.34855700000001], [-71.260306, 42.348194], [-71.260432, 42.34761200000001], [-71.259793, 42.34661000000002], [-71.259759, 42.346111], [-71.261236, 42.34428200000001], [-71.261884, 42.34186900000001], [-71.261596, 42.341353999999995], [-71.261042, 42.341002], [-71.26037, 42.34089900000001], [-71.258248, 42.341190000000005], [-71.256864, 42.340648], [-71.255885, 42.340111], [-71.255689, 42.339290999999996], [-71.256746, 42.338040000000014], [-71.258964, 42.336579], [-71.25893400000001, 42.336019], [-71.259204, 42.33541899999999], [-71.259933, 42.334825000000016], [-71.26122, 42.334605], [-71.263138, 42.334903000000004], [-71.264415, 42.334472999999996], [-71.264726, 42.333944], [-71.26513, 42.33182999999999], [-71.265666, 42.33127300000001], [-71.26801, 42.33056], [-71.269767, 42.33118100000001], [-71.270246, 42.33098], [-71.270279, 42.33052200000001], [-71.269763, 42.32976399999999], [-71.27028000000001, 42.328731000000005], [-71.269958, 42.328086], [-71.327292, 42.31373799999998], [-71.327444, 42.321113999999994], [-71.328779, 42.33168300000001], [-71.33587800000001, 42.393942], [-71.332599, 42.39944100000001], [-71.366326, 42.41271499999999], [-71.430374, 42.436969000000005]]]}}