{"type": "Feature", "properties": {"district_name": "First Middlesex District", "chamber": "senate", "vintage": "2022-present"}, "geometry": {"type": "Polygon", "coordinates": [[[-71.657916, 42.65002299999999], [-71.650721, 42.69091999999999], [-71.651836, 42.70476899999999], [-71.601599, 42.703950999999996], [-71.518947, 42.702196], [-71.457786, 42.70052699999998], [-71.433239, 42.70008199999999], [-71.388184, 42.69897799999999], [-71.351635, 42.697901000000016], [-71.321814, 42.697306999999995], [-71.317065, 42.697389000000015], [-71.294637, 42.69704200000002], [-71.289324, 42.70217000000001], [-71.278949, 42.71135000000003], [-71.275441, 42.715787000000006], [-71.267873, 42.726026], [-71.255147, 42.73655399999999], [-71.238179, 42.669418999999984], [-71.240397, 42.66673], [-71.241409, 42.663685], [-71.24189, 42.66289600000002], [-71.24249, 42.662345999999985], [-71.244172, 42.661514000000004], [-71.245454, 42.661195000000006], [-71.24682, 42.66101400000001], [-71.249479, 42.66110100000001], [-71.250763, 42.66078200000001], [-71.25236, 42.659909999999996], [-71.254966, 42.657775], [-71.256188, 42.657145000000014], [-71.257135, 42.656932], [-71.258482, 42.65692299999999], [-71.261963, 42.657483], [-71.26434700000001, 42.657667], [-71.272607, 42.656664], [-71.275154, 42.656216], [-71.272018, 42.64921600000001], [-71.27170700000002, 42.64801799999999], [-71.271682, 42.646305], [-71.271446, 42.64609200000002], [-71.271188, 42.644241999999984], [-71.274709, 42.62885899999998], [-71.277791, 42.62084700000002], [-71.283427, 42.61529900000001], [-71.296319, 42.61266700000001], [-71.297028, 42.613010999999986], [-71.296778, 42.61377399999999], [-71.296205, 42.61468299999999], [-71.319309, 42.61357200000001], [-71.318882, 42.608544000000016], [-71.319897, 42.6069], [-71.323341, 42.60649], [-71.325408, 42.611250999999996], [-71.324975, 42.611601], [-71.325698, 42.613263999999994], [-71.327936, 42.613155000000006], [-71.329328, 42.61398499999998], [-71.359943, 42.625972], [-71.364738, 42.63759799999999], [-71.367024, 42.637391], [-71.369495, 42.637583], [-71.372065, 42.63835599999999], [-71.374521, 42.639548000000005], [-71.375935, 42.64090199999999], [-71.377115, 42.642697000000005], [-71.379107, 42.647395999999986], [-71.379751, 42.64823100000002], [-71.380687, 42.648913999999984], [-71.381743, 42.64927899999999], [-71.384937, 42.64961000000002], [-71.392488, 42.648476], [-71.394341, 42.648474], [-71.396968, 42.649637], [-71.398173, 42.65101899999998], [-71.398995, 42.652467], [-71.40211, 42.651603], [-71.401094, 42.649182999999994], [-71.398312, 42.64550199999999], [-71.39889, 42.64494900000002], [-71.402782, 42.646770999999994], [-71.404028, 42.648405999999994], [-71.405309, 42.648138000000024], [-71.409764, 42.648785], [-71.411978, 42.64797400000001], [-71.412309, 42.64941000000001], [-71.417642, 42.653774], [-71.493528, 42.61740400000001], [-71.498593, 42.63879200000001], [-71.497478, 42.641667], [-71.496484, 42.649802], [-71.514969, 42.64362299999999], [-71.534296, 42.64836199999999], [-71.534413, 42.648414], [-71.537136, 42.66349499999999], [-71.552421, 42.660123999999996], [-71.551362, 42.65984900000001], [-71.555511, 42.65875499999999], [-71.555035, 42.659582], [-71.579296, 42.654301000000004], [-71.579436, 42.65415000000001], [-71.57941, 42.653442], [-71.57910000000001, 42.65138500000001], [-71.579929, 42.649289000000024], [-71.57985, 42.64791099999999], [-71.580432, 42.646800000000006], [-71.58179, 42.645334000000005], [-71.582081, 42.64434399999999], [-71.58262, 42.644037000000004], [-71.582961, 42.64413799999999], [-71.58321300000001, 42.644525], [-71.583568, 42.645757], [-71.584473, 42.64641999999999], [-71.585674, 42.646596], [-71.586731, 42.646269000000004], [-71.587196, 42.645643000000014], [-71.58715, 42.644963], [-71.586245, 42.64432299999999], [-71.586199, 42.64369700000001], [-71.586914, 42.64226300000001], [-71.587117, 42.64014700000002], [-71.588055, 42.63783199999999], [-71.588375, 42.637373], [-71.588839, 42.63715100000002], [-71.589663, 42.637101], [-71.591431, 42.637454999999996], [-71.592134, 42.63721700000001], [-71.592363, 42.636964000000006], [-71.592426, 42.636567], [-71.592298, 42.636397], [-71.591555, 42.635985], [-71.591262, 42.63572800000001], [-71.591248, 42.635501999999995], [-71.591478, 42.635183000000005], [-71.592832, 42.634340000000016], [-71.593087, 42.63383000000001], [-71.593112, 42.63336699999999], [-71.592958, 42.63312199999999], [-71.592346, 42.632836000000005], [-71.590261, 42.633002], [-71.589216, 42.63291500000001], [-71.588653, 42.632451], [-71.588483, 42.631965], [-71.58792, 42.63144600000001], [-71.587874, 42.63115299999999], [-71.587919, 42.630833], [-71.58847, 42.630438000000005], [-71.591601, 42.629926000000005], [-71.593208, 42.62905399999999], [-71.593628, 42.628478], [-71.593704, 42.628034999999976], [-71.593063, 42.626656999999994], [-71.593254, 42.62638299999998], [-71.593623, 42.626247000000006], [-71.59598800000002, 42.62633699999999], [-71.597975, 42.625898], [-71.59915, 42.625813], [-71.600309, 42.625972], [-71.60091, 42.62625400000002], [-71.601616, 42.626981], [-71.603562, 42.629864], [-71.604828, 42.630818999999995], [-71.605621, 42.631025999999984], [-71.606576, 42.63079400000001], [-71.607123, 42.630468], [-71.608056, 42.62738000000001], [-71.609929, 42.62755400000001], [-71.609874, 42.627845], [-71.61418, 42.62849799999998], [-71.615525, 42.629273000000005], [-71.621867, 42.631876], [-71.630784, 42.635163000000006], [-71.64074, 42.63926599999999], [-71.646949, 42.644152], [-71.648988, 42.64423000000001], [-71.652466, 42.645755], [-71.656412, 42.649723], [-71.657916, 42.65002299999999]]]}}