{"type": "Feature", "properties": {"district_name": "Berkshire, Hampshire, Franklin & Hampden District", "chamber": "senate", "vintage": "2012-2020"}, "geometry": {"type": "Polygon", "coordinates": [[[-73.50814199999999, 42.08625699999999], [-73.499563, 42.10999], [-73.49708799999999, 42.11628299999999], [-73.493119, 42.127666], [-73.48341599999999, 42.154448], [-73.450974, 42.242779000000006], [-73.405626, 42.365933000000005], [-73.375196, 42.447921], [-73.374551, 42.450038000000006], [-73.363312, 42.479923], [-73.362768, 42.481955], [-73.362064, 42.48323500000001], [-73.356894, 42.49836], [-73.356031, 42.500018], [-73.352527, 42.510002], [-73.347303, 42.52415399999999], [-73.343792, 42.533297999999995], [-73.309828, 42.625080999999994], [-73.293887, 42.66745200000001], [-73.264957, 42.74593999999998], [-73.249554, 42.74583], [-73.24522499999999, 42.745509999999996], [-73.142485, 42.743587999999995], [-73.119571, 42.74330699999999], [-73.08988099999999, 42.74241400000002], [-73.07301799999999, 42.742084000000006], [-73.07128, 42.742205999999996], [-73.048041, 42.741481], [-73.01864499999999, 42.74105899999999], [-72.923563, 42.73916399999999], [-72.809113, 42.736581000000015], [-72.791079, 42.736024], [-72.791421, 42.735268], [-72.78965800000002, 42.729907], [-72.783861, 42.70591100000001], [-72.77264699999999, 42.658334], [-72.76609200000001, 42.62926], [-72.73501, 42.633188], [-72.632942, 42.645362999999996], [-72.649929, 42.576874], [-72.636821, 42.57798499999999], [-72.638879, 42.570018], [-72.651974, 42.56863], [-72.655344, 42.555234999999996], [-72.67545199999999, 42.55301800000001], [-72.67469899999999, 42.552532], [-72.673, 42.55186500000001], [-72.66924399999999, 42.551452999999995], [-72.667366, 42.550427], [-72.66470000000001, 42.54941999999999], [-72.663652, 42.548802999999985], [-72.662249, 42.54671], [-72.661018, 42.544187000000015], [-72.65969799999999, 42.543123999999985], [-72.656279, 42.540979], [-72.65565, 42.540412], [-72.652227, 42.53382400000001], [-72.648708, 42.52935999999996], [-72.660911, 42.480247999999996], [-72.662769, 42.469262000000015], [-72.65623, 42.470014000000006], [-72.65737399999999, 42.466009000000014], [-72.655716, 42.46125100000001], [-72.65732799999999, 42.45837899999999], [-72.700959, 42.452909999999996], [-72.702377, 42.430358000000005], [-72.704345, 42.405536000000005], [-72.66919299999999, 42.40965799999999], [-72.67212599999999, 42.37135299999999], [-72.74121699999999, 42.36272999999999], [-72.736726, 42.284241], [-72.736524, 42.277586], [-72.73585899999999, 42.266506], [-72.81440500000001, 42.25681900000002], [-72.813416, 42.24500700000001], [-72.857641, 42.240491], [-72.864308, 42.23209099999999], [-72.87218, 42.216438999999994], [-72.87384, 42.20943099999998], [-72.895663, 42.12391699999999], [-72.981906, 42.136693999999984], [-73.03344500000001, 42.14338400000001], [-73.034916, 42.143682], [-73.071199, 42.148214], [-73.07066499999999, 42.147327999999995], [-73.070346, 42.14625499999999], [-73.070121, 42.146049000000005], [-73.070176, 42.145424], [-73.070314, 42.14487199999999], [-73.071949, 42.14367499999999], [-73.071947, 42.143089], [-73.070657, 42.140316000000006], [-73.06895, 42.138572], [-73.06897, 42.13750100000001], [-73.068666, 42.136914999999995], [-73.06850899999999, 42.136064999999995], [-73.068564, 42.135571000000006], [-73.06940999999999, 42.13500000000003], [-73.069823, 42.133503], [-73.069759, 42.132380999999995], [-73.06949900000001, 42.131322], [-73.068319, 42.12960000000002], [-73.067753, 42.127942999999995], [-73.067082, 42.126891], [-73.066727, 42.125156], [-73.066272, 42.124325], [-73.06425899999999, 42.12284499999999], [-73.06355099999999, 42.12174300000001], [-73.061355, 42.11948199999999], [-73.06113400000001, 42.119158000000006], [-73.06106, 42.118576], [-73.0612, 42.118047000000004], [-73.06182, 42.117166], [-73.06335299999999, 42.115849999999995], [-73.066118, 42.11463599999999], [-73.069265, 42.113878999999976], [-73.07137399999999, 42.112756999999995], [-73.072537, 42.11184], [-73.072825, 42.111444000000006], [-73.07299499999999, 42.1106], [-73.071867, 42.109450999999986], [-73.07176299999999, 42.108999], [-73.071867, 42.10816299999997], [-73.072176, 42.107668000000004], [-73.072994, 42.10694400000002], [-73.074845, 42.106145999999995], [-73.07508000000001, 42.105637000000016], [-73.075073, 42.104903000000014], [-73.074896, 42.104724000000004], [-73.074918, 42.10437799999999], [-73.074167, 42.10186699999999], [-73.073082, 42.09418499999999], [-73.062863, 42.072829000000006], [-73.06187899999999, 42.07044], [-73.061329, 42.070263000000025], [-73.060243, 42.06875699999999], [-73.05868, 42.06764800000002], [-73.05825, 42.066992000000006], [-73.058339, 42.066326999999994], [-73.05864799999999, 42.065891], [-73.05937, 42.06528199999999], [-73.060343, 42.064947], [-73.060976, 42.064074999999995], [-73.061219, 42.063012], [-73.061455, 42.062704999999994], [-73.06129299999999, 42.06199599999999], [-73.06088, 42.06134900000001], [-73.060087, 42.060787999999995], [-73.05919399999999, 42.060326], [-73.05838299999999, 42.060159000000006], [-73.057178, 42.059289], [-73.05469, 42.058536], [-73.05429000000001, 42.058095], [-73.053867, 42.057933999999996], [-73.053737, 42.05758099999999], [-73.053405, 42.054998999999995], [-73.054346, 42.052912000000006], [-73.054405, 42.051666999999995], [-73.054592, 42.05102900000001], [-73.05487099999999, 42.050256999999995], [-73.055735, 42.04948900000002], [-73.056786, 42.048016999999994], [-73.056618, 42.04693799999999], [-73.054929, 42.044971999999994], [-73.054819, 42.042716], [-73.053254, 42.039860999999995], [-73.067663, 42.04014700000001], [-73.08705499999999, 42.04087999999997], [-73.148173, 42.04269699999999], [-73.229798, 42.044877], [-73.25546, 42.045795], [-73.293386, 42.046789999999994], [-73.29589299999999, 42.047025999999995], [-73.32674399999999, 42.047931999999996], [-73.42616799999999, 42.05048399999998], [-73.432812, 42.05058699999999], [-73.489524, 42.04960599999999], [-73.49687899999999, 42.04967499999999], [-73.507965, 42.085007000000004], [-73.50814199999999, 42.08625699999999]]]}}