{"type": "Feature", "properties": {"district_name": "Bristol & Norfolk District", "chamber": "senate", "vintage": "2012-2020"}, "geometry": {"type": "Polygon", "coordinates": [[[-71.35207199999999, 42.207557999999985], [-71.351434, 42.208997999999994], [-71.351657, 42.209832999999996], [-71.351591, 42.211044], [-71.350408, 42.213490000000014], [-71.349023, 42.21454299999999], [-71.34684, 42.21558599999998], [-71.346076, 42.21552400000003], [-71.341388, 42.214318999999996], [-71.340171, 42.21384899999999], [-71.33945, 42.214099000000004], [-71.33843499999999, 42.215232000000015], [-71.271058, 42.21563199999999], [-71.26808799999999, 42.20957999999997], [-71.26956899999999, 42.20049899999999], [-71.267523, 42.200938999999984], [-71.263711, 42.203328000000006], [-71.261132, 42.20408700000001], [-71.25979099999999, 42.204115000000016], [-71.258263, 42.20391000000001], [-71.258194, 42.204071], [-71.25640299999999, 42.203672000000005], [-71.25412399999999, 42.2028], [-71.251494, 42.202635], [-71.250826, 42.20146999999998], [-71.249499, 42.2006], [-71.24873199999999, 42.199462000000004], [-71.246301, 42.197551], [-71.244621, 42.197102000000015], [-71.244108, 42.196500000000015], [-71.24363799999999, 42.195311], [-71.24270299999999, 42.19386600000001], [-71.24271499999999, 42.193429], [-71.241925, 42.19268800000001], [-71.241888, 42.19196799999999], [-71.242392, 42.19138700000001], [-71.242244, 42.19019599999999], [-71.241743, 42.189206999999996], [-71.24192599999999, 42.188610999999995], [-71.241858, 42.188097000000006], [-71.24072799999999, 42.187419000000006], [-71.24034, 42.18683000000001], [-71.24032, 42.18624500000001], [-71.240917, 42.185078999999995], [-71.240394, 42.18409199999999], [-71.239328, 42.18322599999999], [-71.23755799999999, 42.182666], [-71.23731099999999, 42.182420000000015], [-71.23689, 42.181405999999996], [-71.23614200000002, 42.18147200000001], [-71.23544199999999, 42.18100900000002], [-71.234329, 42.18121800000001], [-71.234189, 42.181398], [-71.233556, 42.18132100000002], [-71.225353, 42.170849000000004], [-71.221878, 42.17109599999998], [-71.22003699999999, 42.16840499999999], [-71.2188, 42.16859300000001], [-71.214148, 42.16880200000001], [-71.21343399999999, 42.168702], [-71.212592, 42.167774], [-71.21285, 42.167412999999996], [-71.21091899999999, 42.166706], [-71.205258, 42.161116000000014], [-71.204506, 42.160896], [-71.204477, 42.160591000000004], [-71.20412700000001, 42.160516], [-71.204065, 42.16023000000001], [-71.203795, 42.16011000000001], [-71.203029, 42.159988000000006], [-71.20246, 42.16008699999999], [-71.19445499999999, 42.149916000000005], [-71.186885, 42.153264000000014], [-71.188627, 42.16081600000001], [-71.186511, 42.161676], [-71.185347, 42.162436], [-71.183459, 42.162855000000015], [-71.182676, 42.163095000000006], [-71.182536, 42.163320999999996], [-71.181877, 42.16345500000003], [-71.18149199999999, 42.165012], [-71.180853, 42.165569999999995], [-71.180189, 42.16561000000001], [-71.179799, 42.165050000000015], [-71.17926100000001, 42.16511900000001], [-71.17903199999999, 42.16534800000001], [-71.179256, 42.16588699999999], [-71.178529, 42.165921000000004], [-71.178381, 42.16454399999999], [-71.17801299999999, 42.16396099999999], [-71.175759, 42.155595], [-71.176298, 42.155302], [-71.17163500000001, 42.151324999999986], [-71.162198, 42.145279], [-71.16354199999999, 42.141456999999996], [-71.149154, 42.13864099999999], [-71.150078, 42.13656499999998], [-71.15015, 42.135754999999996], [-71.149757, 42.133631], [-71.14854199999999, 42.131160999999985], [-71.148364, 42.128455], [-71.147318, 42.126709000000005], [-71.1504, 42.1253], [-71.15375999999999, 42.124570000000006], [-71.15910000000001, 42.12137999999998], [-71.16192, 42.118680000000005], [-71.16309, 42.11720999999999], [-71.16470000000001, 42.115930000000006], [-71.16537, 42.114570000000015], [-71.16718999999999, 42.11551999999999], [-71.16767, 42.11558], [-71.16923, 42.115269999999995], [-71.17083, 42.114740000000005], [-71.17147, 42.11434999999998], [-71.172462, 42.11265200000001], [-71.172536, 42.11275099999999], [-71.173953, 42.111947999999984], [-71.17519, 42.111049999999985], [-71.17542, 42.11121000000001], [-71.17558, 42.11199], [-71.1797, 42.111650000000004], [-71.18180000000001, 42.10814999999999], [-71.18258999999999, 42.107359999999986], [-71.18471, 42.10645000000001], [-71.1867, 42.10530000000001], [-71.18818, 42.10337999999999], [-71.18848, 42.10278000000002], [-71.18854999999999, 42.100699999999996], [-71.18997, 42.099819999999994], [-71.19135, 42.09847999999999], [-71.19292999999999, 42.097500000000004], [-71.19341, 42.096920000000004], [-71.193485, 42.097514], [-71.194604, 42.08918899999999], [-71.195859, 42.081818000000005], [-71.178457, 42.057362], [-71.16868099999999, 42.061161], [-71.159263, 42.01543300000001], [-71.15644999999999, 42.001042000000034], [-71.100854, 41.993151], [-71.12568499999999, 41.96708399999998], [-71.15567, 41.937999], [-71.193893, 41.910765], [-71.18678799999999, 41.879338], [-71.203463, 41.881843], [-71.193489, 41.81620700000001], [-71.187776, 41.783156000000005], [-71.283588, 41.77480200000003], [-71.292456, 41.774879999999996], [-71.31644399999999, 41.775560999999996], [-71.321596, 41.777901], [-71.32649599999999, 41.779801], [-71.328639, 41.78087199999998], [-71.32909599999999, 41.782719000000014], [-71.329315, 41.782593], [-71.32941799999999, 41.781884000000005], [-71.329582, 41.781836000000006], [-71.329803, 41.782038], [-71.32989599999999, 41.78262600000001], [-71.329663, 41.783077000000006], [-71.329854, 41.783406], [-71.329869, 41.784315], [-71.330232, 41.78471799999999], [-71.33039099999999, 41.785381000000015], [-71.329627, 41.787018], [-71.329652, 41.78773799999999], [-71.329432, 41.78827400000001], [-71.329681, 41.788498000000004], [-71.330415, 41.78865399999999], [-71.330235, 41.78888299999999], [-71.33051, 41.789125000000006], [-71.33089199999999, 41.789136000000006], [-71.330922, 41.789594], [-71.33125199999999, 41.789394], [-71.33236699999999, 41.790141], [-71.332448, 41.790476999999996], [-71.331803, 41.79093199999999], [-71.332199, 41.79105899999999], [-71.332448, 41.791436999999995], [-71.33304199999999, 41.791722], [-71.332602, 41.792046], [-71.33294, 41.792309], [-71.33272, 41.79253899999999], [-71.33305, 41.79268100000001], [-71.332771, 41.793077999999994], [-71.333395, 41.793119000000004], [-71.333754, 41.7939], [-71.33403299999999, 41.794011999999995], [-71.33429, 41.79439399999998], [-71.334136, 41.794653], [-71.335053, 41.79511699999999], [-71.336666, 41.795151000000004], [-71.337972, 41.79578700000001], [-71.339461, 41.79603999999999], [-71.339593, 41.796434], [-71.34043, 41.79719599999999], [-71.340305, 41.79776100000001], [-71.34124400000002, 41.798345000000005], [-71.34079, 41.799062000000006], [-71.341098, 41.799469999999985], [-71.34109099999999, 41.799875], [-71.341304, 41.800226], [-71.341048, 41.80118599999999], [-71.34066, 41.80164400000001], [-71.34089399999999, 41.802108000000004], [-71.33980199999999, 41.80420600000001], [-71.339568, 41.805004000000004], [-71.33979599999999, 41.805566000000006], [-71.338897, 41.80830000000001], [-71.339897, 41.810399999999994], [-71.347197, 41.82310099999999], [-71.34669699999999, 41.82390000000001], [-71.346497, 41.82469999999999], [-71.344897, 41.82799999999999], [-71.342997, 41.82930000000002], [-71.34199699999999, 41.830200000000005], [-71.341197, 41.830600000000004], [-71.340696, 41.831202], [-71.33774199999999, 41.833635], [-71.335197, 41.83549999999999], [-71.341799, 41.84369299999998], [-71.342198, 41.84430000000002], [-71.342198, 41.844801000000004], [-71.340597, 41.84860000000001], [-71.34029699999999, 41.84890000000001], [-71.337395, 41.85500100000001], [-71.337397, 41.85549999999999], [-71.333997, 41.862300000000005], [-71.337598, 41.87200199999999], [-71.337818, 41.87317099999999], [-71.34085700000001, 41.878721], [-71.340698, 41.88290000000001], [-71.339298, 41.89339899999998], [-71.339354, 41.894532999999996], [-71.339069, 41.895309], [-71.338698, 41.898399000000005], [-71.339779, 41.898192999999985], [-71.339671, 41.898480000000006], [-71.339776, 41.89847600000001], [-71.339895, 41.89917399999999], [-71.339589, 41.89929800000001], [-71.340081, 41.899685999999996], [-71.340014, 41.89998399999999], [-71.34049499999999, 41.900801], [-71.341017, 41.900825999999995], [-71.341619, 41.90118700000001], [-71.342792, 41.90052000000001], [-71.34332599999999, 41.900814999999994], [-71.343431, 41.901098999999974], [-71.338166, 41.90376899999998], [-71.336164, 41.90500500000001], [-71.333426, 41.903377], [-71.333041, 41.90330600000001], [-71.330366, 41.903404], [-71.32371499999999, 41.904725], [-71.32104799999999, 41.904572], [-71.32033799999999, 41.90538600000001], [-71.319971, 41.906466], [-71.321156, 41.908542], [-71.320895, 41.91262999999999], [-71.32119, 41.91345], [-71.321727, 41.914219], [-71.322161, 41.915636000000006], [-71.319673, 41.917550000000006], [-71.3168, 41.919139000000015], [-71.31304999999999, 41.922681000000004], [-71.30346999999999, 41.92883899999999], [-71.302314, 41.929926999999985], [-71.301625, 41.930873], [-71.300353, 41.93357100000001], [-71.300764, 41.93363199999999], [-71.30040799999999, 41.933692], [-71.298515, 41.935118], [-71.294639, 41.936983], [-71.284117, 41.944505], [-71.28335799999999, 41.944669], [-71.284387, 41.95063999999999], [-71.28479700000001, 41.950606], [-71.28505899999999, 41.950159000000006], [-71.28556499999999, 41.94997800000001], [-71.285736, 41.949556], [-71.285997, 41.949432999999985], [-71.286701, 41.94960400000001], [-71.287188, 41.949392], [-71.287826, 41.95002300000001], [-71.288569, 41.94980199999999], [-71.28959499999999, 41.950150000000015], [-71.290069, 41.949954999999996], [-71.28985899999999, 41.951807], [-71.28824, 41.95568300000002], [-71.287623, 41.958183], [-71.288054, 41.96206399999999], [-71.28964700000002, 41.964829999999985], [-71.290533, 41.96599099999999], [-71.291372, 41.96825600000001], [-71.291466, 41.96949400000001], [-71.291074, 41.97186099999999], [-71.268739, 41.98730000000001], [-71.288263, 42.014379], [-71.289424, 42.059136], [-71.287099, 42.06370699999999], [-71.287707, 42.076933000000004], [-71.285387, 42.08201199999999], [-71.28464799999999, 42.083269], [-71.28026799999999, 42.08849199999998], [-71.295901, 42.116614], [-71.29715399999999, 42.12050899999999], [-71.300223, 42.12591], [-71.29894, 42.1265], [-71.29991199999999, 42.12940899999999], [-71.30165699999999, 42.136631999999985], [-71.302155, 42.136838], [-71.301885, 42.13713199999999], [-71.301271, 42.13723900000001], [-71.301249, 42.137716000000005], [-71.30060600000002, 42.137923000000015], [-71.300585, 42.138315], [-71.30032299999999, 42.138658], [-71.299747, 42.138495999999996], [-71.29959699999999, 42.13881700000001], [-71.299194, 42.138794999999995], [-71.299031, 42.138948], [-71.299194, 42.13952699999999], [-71.298947, 42.140420000000006], [-71.299768, 42.140936], [-71.299724, 42.141226], [-71.299416, 42.14141399999998], [-71.29940599999999, 42.141771000000006], [-71.300005, 42.14198699999999], [-71.300263, 42.14234799999999], [-71.30022799999999, 42.142695], [-71.300506, 42.142874], [-71.300443, 42.143138], [-71.29984999999999, 42.143761999999974], [-71.29987799999999, 42.144072999999985], [-71.300386, 42.14433799999999], [-71.30035099999999, 42.14472099999999], [-71.300696, 42.14506799999997], [-71.300118, 42.14573100000001], [-71.300275, 42.146039], [-71.30067799999999, 42.14625100000001], [-71.300302, 42.14658199999999], [-71.30044099999999, 42.14692900000001], [-71.300118, 42.147175999999995], [-71.30042999999999, 42.147444000000014], [-71.300853, 42.147532], [-71.300817, 42.14809099999997], [-71.301282, 42.148253000000004], [-71.301965, 42.148165999999996], [-71.30196699999999, 42.148572], [-71.302202, 42.14865099999999], [-71.30234000000002, 42.149026], [-71.30260299999999, 42.14897799999999], [-71.302652, 42.148635000000006], [-71.302846, 42.14846300000001], [-71.303225, 42.14843800000001], [-71.30322699999999, 42.148669000000005], [-71.303566, 42.148693], [-71.30375099999999, 42.14949999999999], [-71.339638, 42.14941599999998], [-71.339304, 42.15002099999999], [-71.339216, 42.150856000000005], [-71.336383, 42.152509999999985], [-71.336244, 42.15265999999999], [-71.33639200000002, 42.15308199999999], [-71.33478, 42.153372], [-71.334093, 42.15394799999999], [-71.33381899999999, 42.154591], [-71.333883, 42.155477], [-71.334148, 42.15630600000001], [-71.333974, 42.15666900000002], [-71.332773, 42.15768800000001], [-71.331785, 42.157500999999996], [-71.33147799999999, 42.15758699999999], [-71.33140999999999, 42.15778399999999], [-71.33151, 42.15804199999998], [-71.332561, 42.158373999999995], [-71.33301600000001, 42.158957999999984], [-71.333073, 42.159378999999994], [-71.332411, 42.16040900000001], [-71.332143, 42.160350999999984], [-71.331577, 42.159736], [-71.331031, 42.15980699999999], [-71.330675, 42.16020899999998], [-71.330816, 42.16067199999999], [-71.33173699999999, 42.160855000000005], [-71.331947, 42.161080000000005], [-71.331777, 42.16130699999999], [-71.331028, 42.16142700000001], [-71.33084699999999, 42.16170100000001], [-71.332167, 42.161865], [-71.332381, 42.16204299999999], [-71.331391, 42.162839000000005], [-71.33086999999999, 42.164039], [-71.331178, 42.164337999999994], [-71.332285, 42.163717], [-71.332684, 42.16376400000001], [-71.332593, 42.164632000000005], [-71.33297100000001, 42.16538999999997], [-71.332426, 42.16592399999998], [-71.33243999999999, 42.166101], [-71.332616, 42.166205000000005], [-71.333471, 42.16604499999999], [-71.333849, 42.16664999999999], [-71.33337399999999, 42.167164000000014], [-71.332692, 42.167224999999995], [-71.33178199999999, 42.167646999999995], [-71.331154, 42.168257], [-71.33128400000001, 42.16851700000002], [-71.33163400000001, 42.16863199999999], [-71.33253599999999, 42.168313], [-71.332854, 42.16834399999998], [-71.332864, 42.16854099999998], [-71.332082, 42.169225], [-71.333002, 42.169435], [-71.333151, 42.169785999999995], [-71.33235599999999, 42.170131999999995], [-71.33223, 42.17060200000001], [-71.332038, 42.170723999999986], [-71.331087, 42.170994], [-71.330354, 42.170860999999995], [-71.32888299999999, 42.17177999999999], [-71.328701, 42.17211200000001], [-71.327928, 42.172711000000014], [-71.326683, 42.172382999999996], [-71.326313, 42.172507], [-71.32607, 42.172992], [-71.32589899999999, 42.173028], [-71.325471, 42.17212800000001], [-71.325076, 42.17208400000001], [-71.32486899999999, 42.172375], [-71.324528, 42.17243999999999], [-71.324398, 42.172298], [-71.32445299999999, 42.171926], [-71.324069, 42.17179], [-71.323751, 42.172069999999984], [-71.323871, 42.172959], [-71.322873, 42.17252600000001], [-71.322587, 42.17254700000001], [-71.322655, 42.172748999999996], [-71.32335499999999, 42.173231], [-71.32324899999999, 42.173473], [-71.32297, 42.17360199999999], [-71.322355, 42.17374299999999], [-71.320262, 42.17336499999998], [-71.319828, 42.17426500000002], [-71.319389, 42.173860000000005], [-71.318905, 42.173885999999996], [-71.31877399999999, 42.174547999999994], [-71.31928599999999, 42.175939000000014], [-71.318184, 42.17777499999999], [-71.318175, 42.17813], [-71.318497, 42.17848000000001], [-71.319456, 42.178885999999984], [-71.319919, 42.178808999999994], [-71.3201, 42.178487], [-71.320425, 42.178335999999994], [-71.320773, 42.17842600000001], [-71.320804, 42.178732999999994], [-71.32041699999999, 42.179483000000005], [-71.320135, 42.179713], [-71.320172, 42.179947000000006], [-71.321482, 42.18022999999999], [-71.32276399999999, 42.18132000000001], [-71.323247, 42.181487999999995], [-71.324288, 42.181403], [-71.325535, 42.181647000000005], [-71.32593, 42.182328999999996], [-71.326554, 42.182731], [-71.32630999999999, 42.18363399999999], [-71.325958, 42.183927], [-71.32601199999999, 42.184092999999976], [-71.326319, 42.18423699999999], [-71.327366, 42.18410999999999], [-71.327788, 42.184203000000004], [-71.32786399999999, 42.18437499999999], [-71.327671, 42.18483800000001], [-71.32781400000002, 42.185035], [-71.328823, 42.18495299999999], [-71.329551, 42.18508600000002], [-71.329565, 42.185419], [-71.32847, 42.18616799999999], [-71.32845, 42.186443000000004], [-71.32879, 42.186679], [-71.330485, 42.186947], [-71.330634, 42.187804], [-71.332019, 42.188742999999974], [-71.333033, 42.188884], [-71.33440000000002, 42.188504000000016], [-71.335145, 42.188483999999974], [-71.335582, 42.189658], [-71.335594, 42.191010999999996], [-71.33582299999999, 42.19123999999999], [-71.336466, 42.191376], [-71.338377, 42.191207999999996], [-71.33881, 42.19105100000001], [-71.33909299999999, 42.190609000000016], [-71.33925200000002, 42.190687], [-71.339167, 42.19170200000001], [-71.33949, 42.19288499999998], [-71.339309, 42.193393], [-71.339488, 42.193599000000006], [-71.34, 42.193740999999996], [-71.340037, 42.19389400000002], [-71.33907099999999, 42.1941], [-71.338974, 42.19437800000001], [-71.339511, 42.19457200000001], [-71.340082, 42.194474], [-71.340324, 42.194691999999996], [-71.340345, 42.194939], [-71.340003, 42.19530100000001], [-71.338898, 42.195268999999996], [-71.33850199999999, 42.19540299999999], [-71.33824299999999, 42.195704000000006], [-71.33828299999999, 42.196034], [-71.33929599999999, 42.19648999999998], [-71.339271, 42.19703300000001], [-71.339945, 42.197157], [-71.340025, 42.197782], [-71.340271, 42.197964999999996], [-71.340649, 42.197835999999974], [-71.341813, 42.198254], [-71.34272899999999, 42.19813399999999], [-71.342754, 42.198878], [-71.342339, 42.199371], [-71.34277399999999, 42.19976999999999], [-71.343226, 42.19989599999999], [-71.343522, 42.19979299999999], [-71.34376999999999, 42.19878900000002], [-71.34397799999999, 42.198561], [-71.344259, 42.19852799999999], [-71.344746, 42.198794], [-71.345004, 42.199356000000016], [-71.344235, 42.20042200000001], [-71.344106, 42.20112], [-71.34429899999999, 42.20138600000001], [-71.345563, 42.20204700000001], [-71.346239, 42.202647000000006], [-71.346847, 42.20371399999999], [-71.34653000000002, 42.20417500000001], [-71.346549, 42.20473899999998], [-71.346792, 42.20484699999999], [-71.34803099999999, 42.204682999999996], [-71.34958999999999, 42.205185], [-71.351029, 42.206139999999984], [-71.35186999999999, 42.207049999999995], [-71.35207199999999, 42.207557999999985]]]}}