{"type": "Feature", "properties": {"district_name": "Middlesex and Worcester District", "chamber": "senate", "vintage": "2022-present"}, "geometry": {"type": "Polygon", "coordinates": [[[-71.639206, 42.530956999999994], [-71.638891, 42.53140200000001], [-71.63665, 42.53312699999999], [-71.636367, 42.533500999999994], [-71.636467, 42.53629900000001], [-71.636179, 42.539339], [-71.635885, 42.54000099999999], [-71.635444, 42.540406999999995], [-71.634327, 42.540728000000016], [-71.633706, 42.54107900000002], [-71.632017, 42.544517999999975], [-71.631554, 42.545024999999995], [-71.629912, 42.546134000000016], [-71.628434, 42.548064], [-71.625126, 42.550099], [-71.619678, 42.55262299999999], [-71.615548, 42.553644999999996], [-71.612003, 42.553689], [-71.611476, 42.55384], [-71.611013, 42.55429300000003], [-71.610885, 42.55496900000001], [-71.611919, 42.556577999999995], [-71.612522, 42.558655], [-71.612491, 42.55918799999999], [-71.611111, 42.562138], [-71.610532, 42.56285299999998], [-71.609027, 42.56397499999999], [-71.608833, 42.564336999999995], [-71.608706, 42.56536099999999], [-71.60767, 42.565909999999995], [-71.60678100000001, 42.566157999999994], [-71.606607, 42.566511000000006], [-71.60771, 42.56713400000001], [-71.611257, 42.568379], [-71.611911, 42.57027900000001], [-71.611825, 42.57129499999999], [-71.612733, 42.57194], [-71.614125, 42.572115000000004], [-71.614559, 42.573268], [-71.61574, 42.57392399999999], [-71.616031, 42.57423800000001], [-71.616109, 42.574695000000006], [-71.615639, 42.57510999999999], [-71.614414, 42.575092], [-71.613918, 42.57522600000002], [-71.613611, 42.576465], [-71.612924, 42.57702200000001], [-71.610526, 42.57756400000001], [-71.609791, 42.57792200000001], [-71.609489, 42.578384], [-71.609943, 42.57977999999999], [-71.609565, 42.58080900000001], [-71.607257, 42.582938], [-71.606626, 42.583223], [-71.605194, 42.58244799999999], [-71.604108, 42.58212000000001], [-71.602076, 42.582071000000006], [-71.601036, 42.58302400000001], [-71.600309, 42.582927000000005], [-71.511459, 42.569386], [-71.506411, 42.572172000000016], [-71.503037, 42.575468], [-71.498006, 42.57686199999999], [-71.483765, 42.573788], [-71.48002, 42.558094], [-71.423794, 42.52618899999999], [-71.399515, 42.53401499999999], [-71.397941, 42.526277], [-71.391563, 42.50681999999998], [-71.384957, 42.504465999999994], [-71.430389, 42.436937], [-71.366326, 42.41271499999999], [-71.332599, 42.39944100000001], [-71.33587800000001, 42.393942], [-71.328779, 42.33168300000001], [-71.333751, 42.33239900000001], [-71.338523, 42.323216000000016], [-71.345998, 42.314803999999995], [-71.355199, 42.31717], [-71.35991, 42.317149], [-71.363171, 42.31581099999998], [-71.364093, 42.31590600000001], [-71.368493, 42.312810999999996], [-71.370025, 42.31081100000001], [-71.370613, 42.310262000000016], [-71.37177, 42.309880000000014], [-71.373395, 42.30985500000002], [-71.37768700000001, 42.314668999999995], [-71.381757, 42.32846899999999], [-71.388832, 42.336269], [-71.388345, 42.336948], [-71.388609, 42.33736999999999], [-71.389601, 42.337431], [-71.39094, 42.337093], [-71.392474, 42.33579400000001], [-71.39288800000001, 42.335609999999996], [-71.394544, 42.335559999999994], [-71.394876, 42.33574900000001], [-71.395078, 42.336057000000004], [-71.394886, 42.338542999999994], [-71.396083, 42.33991699999999], [-71.396717, 42.341045000000015], [-71.483298, 42.353129999999986], [-71.486804, 42.33021699999999], [-71.485109, 42.323164], [-71.485948, 42.31122800000001], [-71.505882, 42.272938000000025], [-71.505928, 42.266578], [-71.506091, 42.264392999999984], [-71.506422, 42.264265], [-71.506932, 42.264334000000005], [-71.507471, 42.26410099999999], [-71.508985, 42.26448600000001], [-71.510194, 42.265387], [-71.510085, 42.266044], [-71.510216, 42.266156], [-71.51054, 42.266227], [-71.511374, 42.266004], [-71.511704, 42.26636800000002], [-71.513388, 42.26742500000001], [-71.515566, 42.267782], [-71.516207, 42.267573000000006], [-71.517168, 42.267738], [-71.518953, 42.267712000000024], [-71.520642, 42.26659800000001], [-71.521143, 42.266497999999984], [-71.521672, 42.266645000000004], [-71.52251200000002, 42.266436000000006], [-71.523412, 42.26598599999998], [-71.524931, 42.265904999999975], [-71.527995, 42.266524999999994], [-71.532069, 42.266163], [-71.534854, 42.264977000000016], [-71.535444, 42.265038], [-71.535948, 42.264755999999984], [-71.536837, 42.264574999999994], [-71.538072, 42.26453800000001], [-71.538658, 42.26361], [-71.539632, 42.262793], [-71.54097000000002, 42.26320299999999], [-71.541752, 42.26399500000001], [-71.541977, 42.263897], [-71.54275100000001, 42.264051000000016], [-71.542963, 42.26380799999999], [-71.543289, 42.264017], [-71.543668, 42.26393000000001], [-71.544307, 42.264441000000005], [-71.543982, 42.26456099999999], [-71.544202, 42.264823000000014], [-71.54477, 42.26475299999999], [-71.544687, 42.264444], [-71.54583, 42.264701], [-71.546022, 42.26489600000001], [-71.545862, 42.26523000000001], [-71.546639, 42.26542500000001], [-71.546908, 42.265262], [-71.547171, 42.265372], [-71.547289, 42.265643], [-71.547586, 42.265450000000016], [-71.547958, 42.26553900000001], [-71.547955, 42.26576500000001], [-71.548181, 42.265767], [-71.547949, 42.265937000000015], [-71.548045, 42.26601299999999], [-71.548757, 42.265928000000024], [-71.549453, 42.266095], [-71.550041, 42.26592800000001], [-71.550115, 42.266023], [-71.542937, 42.26718], [-71.542738, 42.269743], [-71.59204900000002, 42.31752099999999], [-71.597363, 42.321016000000014], [-71.601885, 42.32697099999999], [-71.60371, 42.328548000000005], [-71.605266, 42.33016], [-71.603591, 42.33167600000001], [-71.604099, 42.336769000000004], [-71.604663, 42.336746000000005], [-71.611529, 42.338993], [-71.616047, 42.341463999999995], [-71.61755, 42.341967999999994], [-71.619131, 42.343348999999996], [-71.620658, 42.345248999999995], [-71.625825, 42.34972399999999], [-71.624702, 42.35046500000001], [-71.610007, 42.357403000000005], [-71.603065, 42.367267], [-71.607759, 42.370022], [-71.580135, 42.386953000000005], [-71.604251, 42.397703], [-71.58526, 42.407097], [-71.5591, 42.411943], [-71.54890300000001, 42.44730799999999], [-71.635791, 42.476891], [-71.635448, 42.477081999999996], [-71.634076, 42.47706299999999], [-71.633638, 42.477247000000006], [-71.633782, 42.478435], [-71.634832, 42.479775000000004], [-71.634791, 42.480112], [-71.634288, 42.48055000000001], [-71.633915, 42.48129399999999], [-71.634166, 42.48268699999999], [-71.634102, 42.482875000000014], [-71.633664, 42.48308600000001], [-71.632539, 42.48267800000001], [-71.632192, 42.48277799999998], [-71.632108, 42.482988000000006], [-71.63206, 42.48397800000001], [-71.632419, 42.484904000000014], [-71.632741, 42.48520400000001], [-71.633492, 42.48515900000001], [-71.634129, 42.485352], [-71.634151, 42.48580799999999], [-71.633567, 42.48623500000001], [-71.631908, 42.485413], [-71.63161000000001, 42.485423], [-71.631231, 42.48673800000002], [-71.630808, 42.48743999999999], [-71.62895, 42.48877800000001], [-71.628629, 42.490778000000006], [-71.627769, 42.492611999999994], [-71.627594, 42.493335], [-71.627978, 42.494513], [-71.62776, 42.495047000000014], [-71.626834, 42.495567000000015], [-71.62663, 42.49591199999999], [-71.625794, 42.499108], [-71.62588, 42.49949500000002], [-71.626405, 42.500094000000004], [-71.629674, 42.50152300000001], [-71.63095300000002, 42.50244300000001], [-71.631604, 42.502667000000024], [-71.633026, 42.50251000000001], [-71.633699, 42.50269599999999], [-71.633763, 42.502863999999995], [-71.633467, 42.50350800000001], [-71.634183, 42.504167], [-71.634219, 42.504361], [-71.632815, 42.506583], [-71.631326, 42.508333], [-71.631263, 42.508725999999996], [-71.631426, 42.50912899999999], [-71.631849, 42.50950099999998], [-71.631803, 42.50972599999999], [-71.630577, 42.509716], [-71.62982900000002, 42.51041900000001], [-71.629873, 42.511142], [-71.629711, 42.51127300000001], [-71.629201, 42.511100000000006], [-71.628683, 42.51056700000001], [-71.628427, 42.510512000000006], [-71.627964, 42.510707999999994], [-71.627813, 42.510923999999996], [-71.627994, 42.51151300000001], [-71.627441, 42.51234500000001], [-71.627305, 42.512836], [-71.628001, 42.513240999999994], [-71.62916, 42.513379999999984], [-71.62974, 42.51365999999999], [-71.629751, 42.513956], [-71.629132, 42.51509499999998], [-71.629615, 42.515845000000006], [-71.630061, 42.515982], [-71.631124, 42.515871999999995], [-71.631798, 42.515979], [-71.632312, 42.51636200000001], [-71.632274, 42.51662599999999], [-71.631824, 42.51699300000002], [-71.630811, 42.51708], [-71.630306, 42.517361], [-71.630022, 42.51782100000001], [-71.630151, 42.518834], [-71.630646, 42.51908299999999], [-71.6319, 42.51911299999999], [-71.632914, 42.520116999999985], [-71.634087, 42.52211], [-71.635153, 42.52286500000001], [-71.636144, 42.523098000000005], [-71.635913, 42.523697999999996], [-71.635947, 42.524532000000015], [-71.63674, 42.52583200000001], [-71.638758, 42.52833899999999], [-71.639055, 42.529211999999994], [-71.639206, 42.530956999999994]]]}}