{"type": "Feature", "properties": {"district_name": "Hampden District", "chamber": "senate", "vintage": "2012-2020"}, "geometry": {"type": "Polygon", "coordinates": [[[-72.694861, 42.10590100000001], [-72.693028, 42.112669], [-72.692495, 42.117013000000014], [-72.691159, 42.12100199999999], [-72.691192, 42.121771999999986], [-72.690906, 42.12251899999999], [-72.690176, 42.128755999999996], [-72.686358, 42.13594699999999], [-72.687192, 42.142315999999994], [-72.68677, 42.143753], [-72.689064, 42.146243], [-72.688063, 42.14914400000001], [-72.686568, 42.150782], [-72.68567999999999, 42.153839999999995], [-72.68483599999999, 42.162992], [-72.627342, 42.16203200000001], [-72.628407, 42.16516199999998], [-72.62861, 42.166227], [-72.628498, 42.171974000000006], [-72.628258, 42.173590000000004], [-72.62790199999999, 42.175380000000004], [-72.625816, 42.17521299999999], [-72.624618, 42.180127000000006], [-72.621858, 42.179258], [-72.619703, 42.178326999999996], [-72.62053, 42.17771], [-72.614662, 42.17506100000001], [-72.614561, 42.17150499999999], [-72.610863, 42.171253], [-72.61009299999999, 42.171527], [-72.61036899999999, 42.168687], [-72.611429, 42.162139999999994], [-72.611181, 42.160635000000006], [-72.61018299999999, 42.157948], [-72.599918, 42.165295], [-72.59663499999999, 42.16693999999999], [-72.593149, 42.16807999999999], [-72.59454199999999, 42.16654200000001], [-72.595897, 42.16576000000002], [-72.595274, 42.165077000000004], [-72.59327100000002, 42.16407799999999], [-72.593076, 42.16383600000001], [-72.59292599999999, 42.163044], [-72.59270800000002, 42.162802000000006], [-72.591946, 42.162287000000006], [-72.590334, 42.161593999999994], [-72.590161, 42.161271000000006], [-72.59025, 42.160949], [-72.589816, 42.16019000000001], [-72.58843399999999, 42.15958899999999], [-72.58832699999999, 42.160292999999996], [-72.58182599999999, 42.160289000000006], [-72.581848, 42.158729], [-72.581609, 42.157979999999995], [-72.580749, 42.15723799999999], [-72.577933, 42.156003999999996], [-72.578479, 42.155241000000004], [-72.57894399999999, 42.155366], [-72.580708, 42.15529300000001], [-72.580102, 42.150173], [-72.57958599999999, 42.14765399999999], [-72.580507, 42.14341400000001], [-72.581537, 42.140875], [-72.581958, 42.14027699999999], [-72.568038, 42.146122999999996], [-72.565893, 42.14482100000001], [-72.567336, 42.141251999999994], [-72.56658900000001, 42.14067099999999], [-72.565956, 42.14112000000001], [-72.564904, 42.14029799999999], [-72.564283, 42.13765399999999], [-72.552026, 42.143995], [-72.551025, 42.143518], [-72.55020700000001, 42.142734], [-72.547519, 42.138191], [-72.546554, 42.13605300000002], [-72.546188, 42.133634999999984], [-72.524339, 42.140405], [-72.52313099999999, 42.143260999999995], [-72.521676, 42.144900000000014], [-72.52201699999999, 42.14645900000001], [-72.521434, 42.146568], [-72.520038, 42.147974999999974], [-72.519633, 42.14803], [-72.51903, 42.147777000000005], [-72.51083799999999, 42.156685999999986], [-72.510009, 42.15711700000001], [-72.50926199999999, 42.157269], [-72.503602, 42.15677000000001], [-72.502982, 42.16061499999999], [-72.502957, 42.16201399999999], [-72.501913, 42.16175700000001], [-72.495734, 42.161283000000005], [-72.493145, 42.16122], [-72.490864, 42.16156199999999], [-72.489578, 42.161528000000004], [-72.489685, 42.160033], [-72.489589, 42.15913599999998], [-72.487629, 42.159946], [-72.486981, 42.159942], [-72.486601, 42.15974499999999], [-72.48675, 42.15923600000001], [-72.487822, 42.15875099999999], [-72.488159, 42.158128999999995], [-72.487185, 42.157297], [-72.484595, 42.156524000000005], [-72.48161999999999, 42.14188200000001], [-72.482267, 42.141479999999994], [-72.48395, 42.141273999999996], [-72.484055, 42.140574], [-72.484381, 42.13993699999999], [-72.48510499999999, 42.13945800000001], [-72.48611, 42.139115], [-72.486257, 42.13888900000002], [-72.486244, 42.138347999999986], [-72.48701299999999, 42.137946], [-72.486807, 42.13773400000001], [-72.485714, 42.137688000000004], [-72.48505100000001, 42.137336000000005], [-72.48514, 42.137116999999996], [-72.486661, 42.136646999999996], [-72.486831, 42.136179999999996], [-72.48747, 42.135639000000005], [-72.488462, 42.135266], [-72.49578199999999, 42.13460899999999], [-72.495712, 42.12926400000001], [-72.496613, 42.126032], [-72.497422, 42.126142], [-72.4984, 42.12578099999998], [-72.501012, 42.125766], [-72.50200000000001, 42.124999], [-72.50313799999999, 42.12482599999999], [-72.504111, 42.12412], [-72.504333, 42.12489300000002], [-72.509047, 42.124325], [-72.50944, 42.12419399999999], [-72.509355, 42.123684999999995], [-72.510328, 42.12341999999998], [-72.51103599999999, 42.12668099999999], [-72.515608, 42.12621300000001], [-72.51426099999999, 42.128381000000005], [-72.51312, 42.12903800000001], [-72.513832, 42.12957599999999], [-72.51410299999999, 42.129471999999986], [-72.514827, 42.128669000000016], [-72.514892, 42.12804899999998], [-72.51543199999999, 42.12734900000001], [-72.516161, 42.12695899999999], [-72.516499, 42.12658800000002], [-72.516601, 42.124983000000014], [-72.517727, 42.12336399999999], [-72.51763100000001, 42.123068999999994], [-72.517817, 42.122434], [-72.518224, 42.12218100000001], [-72.51966600000002, 42.121987999999995], [-72.52015399999999, 42.120229], [-72.52220799999999, 42.11884099999998], [-72.523671, 42.118049], [-72.524134, 42.118207], [-72.52496599999999, 42.11796799999999], [-72.52551700000001, 42.118215], [-72.526049, 42.11817200000001], [-72.52651200000001, 42.11850599999999], [-72.526842, 42.11826099999998], [-72.527354, 42.11842099999999], [-72.528031, 42.11832699999999], [-72.529367, 42.117555], [-72.530286, 42.11746199999998], [-72.530722, 42.117174000000006], [-72.530917, 42.116678000000014], [-72.531866, 42.116001], [-72.53272799999999, 42.11564099999999], [-72.53410199999999, 42.11546799999999], [-72.534886, 42.11503000000002], [-72.53562099999999, 42.11512299999998], [-72.53664599999999, 42.114837999999985], [-72.537218, 42.11427399999999], [-72.53772099999999, 42.11440700000001], [-72.538699, 42.113851], [-72.53953, 42.113716], [-72.539541, 42.113419], [-72.54095199999999, 42.11211899999999], [-72.542531, 42.10789400000001], [-72.543823, 42.10581199999999], [-72.546415, 42.105727], [-72.546746, 42.10843700000001], [-72.547051, 42.108294], [-72.548326, 42.106367], [-72.548317, 42.105962], [-72.550257, 42.10532799999999], [-72.55044199999999, 42.105582999999996], [-72.549497, 42.108607], [-72.55354400000002, 42.108208000000005], [-72.553156, 42.106519000000006], [-72.56285799999999, 42.10541], [-72.56177699999999, 42.100235999999995], [-72.561076, 42.09937000000001], [-72.559386, 42.099554999999995], [-72.558649, 42.099978], [-72.55816999999999, 42.099109000000006], [-72.557323, 42.09828499999999], [-72.562902, 42.09735699999999], [-72.563569, 42.097024999999995], [-72.563412, 42.096809000000015], [-72.56312, 42.09663600000002], [-72.561238, 42.096509999999995], [-72.558073, 42.095316999999994], [-72.552669, 42.09359199999999], [-72.550409, 42.093149000000004], [-72.544286, 42.088811], [-72.544491, 42.088772999999975], [-72.544203, 42.08815], [-72.53969599999999, 42.08499400000001], [-72.540138, 42.084905], [-72.53940899999999, 42.081222000000004], [-72.539973, 42.081404000000006], [-72.53985, 42.080522000000016], [-72.541913, 42.08035700000001], [-72.54206099999999, 42.08241199999999], [-72.543719, 42.08356499999999], [-72.54444, 42.083704999999995], [-72.545017, 42.08240999999999], [-72.546171, 42.082244], [-72.545827, 42.08047699999999], [-72.54753699999999, 42.08027899999998], [-72.546942, 42.079683999999986], [-72.546799, 42.07884], [-72.547337, 42.078435], [-72.546036, 42.07714199999999], [-72.54854999999999, 42.07567099999999], [-72.547986, 42.075383], [-72.548198, 42.07517700000001], [-72.548277, 42.07475600000001], [-72.547978, 42.07412800000001], [-72.548559, 42.07396500000002], [-72.550066, 42.073938000000005], [-72.550221, 42.07379799999998], [-72.550675, 42.073950999999994], [-72.551245, 42.073862999999996], [-72.551779, 42.074418000000016], [-72.55469599999999, 42.075562000000005], [-72.555864, 42.07565199999999], [-72.556454, 42.076557], [-72.556726, 42.076704999999976], [-72.55736, 42.076867], [-72.558432, 42.076695], [-72.558893, 42.076963], [-72.559167, 42.07811799999999], [-72.55827599999999, 42.082702], [-72.55788000000001, 42.08299], [-72.55605299999999, 42.08341899999999], [-72.555272, 42.08377899999999], [-72.556394, 42.084898], [-72.55548999999999, 42.085388], [-72.55592299999999, 42.085811], [-72.557763, 42.086267], [-72.558031, 42.086206000000004], [-72.564135, 42.08732399999999], [-72.563317, 42.085123], [-72.567418, 42.084322], [-72.568004, 42.086041], [-72.569433, 42.085747], [-72.56908, 42.085075999999994], [-72.57370399999999, 42.08423399999999], [-72.57405299999999, 42.084188999999995], [-72.574119, 42.084394999999994], [-72.57972199999999, 42.08351900000002], [-72.579576, 42.08292199999999], [-72.579892, 42.082494], [-72.579985, 42.082026000000006], [-72.58269299999999, 42.081557999999994], [-72.58411199999999, 42.08699699999999], [-72.586012, 42.09029399999999], [-72.588531, 42.09324399999999], [-72.58948099999999, 42.09261599999999], [-72.590994, 42.09230500000001], [-72.59172199999999, 42.092443], [-72.593971, 42.09346299999999], [-72.59592099999999, 42.09387299999998], [-72.597839, 42.09367099999999], [-72.598346, 42.093402000000005], [-72.59925, 42.092355000000005], [-72.599694, 42.091451], [-72.599778, 42.09049700000002], [-72.598573, 42.09035500000001], [-72.598373, 42.09015599999999], [-72.598427, 42.089933], [-72.59947000000001, 42.089766], [-72.60053599999999, 42.08899299999999], [-72.600681, 42.08827899999998], [-72.600374, 42.08732499999998], [-72.60043399999999, 42.086439], [-72.601081, 42.085996], [-72.602144, 42.086266], [-72.605718, 42.087877999999996], [-72.607158, 42.088266], [-72.609561, 42.08861], [-72.61048, 42.088494], [-72.613494, 42.087547], [-72.62029, 42.087684999999986], [-72.626808, 42.089884], [-72.629319, 42.09172399999999], [-72.62987799999999, 42.093066], [-72.630685, 42.094255], [-72.63109, 42.095168], [-72.63089, 42.09586], [-72.630234, 42.096264999999995], [-72.62948899999999, 42.09728599999999], [-72.629809, 42.098106], [-72.631007, 42.100121], [-72.632289, 42.10042800000001], [-72.63421600000001, 42.100334999999994], [-72.635638, 42.09979500000001], [-72.636515, 42.09921299999999], [-72.638635, 42.098811], [-72.642482, 42.099322], [-72.645952, 42.099386999999986], [-72.64710699999999, 42.099261000000006], [-72.649057, 42.098955000000004], [-72.651713, 42.09788599999999], [-72.654973, 42.09757599999999], [-72.657364, 42.09679800000001], [-72.658609, 42.095825], [-72.660186, 42.093433999999995], [-72.661429, 42.089535], [-72.66128499999999, 42.08847299999999], [-72.660755, 42.086812], [-72.660958, 42.08611199999999], [-72.661412, 42.085004999999995], [-72.661827, 42.08453], [-72.662415, 42.08431399999998], [-72.663011, 42.084308], [-72.66389, 42.084688], [-72.666692, 42.08731799999999], [-72.666941, 42.08775899999999], [-72.667168, 42.08905399999999], [-72.667553, 42.08983499999999], [-72.66834899999999, 42.091318], [-72.669462, 42.092563000000006], [-72.670284, 42.093334999999996], [-72.672935, 42.09460000000001], [-72.673219, 42.094886], [-72.673969, 42.096383999999986], [-72.675737, 42.098366999999996], [-72.67595399999999, 42.09991400000002], [-72.676385, 42.10048999999999], [-72.678822, 42.10065100000002], [-72.680178, 42.100963000000014], [-72.68144199999999, 42.10069500000001], [-72.681936, 42.10108100000001], [-72.682251, 42.101537], [-72.682445, 42.10245799999999], [-72.682661, 42.106311999999996], [-72.682884, 42.106713000000006], [-72.683258, 42.106972], [-72.68445799999999, 42.10713499999999], [-72.688142, 42.106336], [-72.69107, 42.106224999999995], [-72.69357699999999, 42.105754999999995], [-72.694861, 42.10590100000001]]]}}