{"type": "Feature", "properties": {"district_name": "Cape & Islands District", "chamber": "senate", "vintage": "2012-2020"}, "geometry": {"type": "Polygon", "coordinates": [[[-71.05185399999999, 41.416729], [-70.999482, 41.442372], [-70.95682099999999, 41.46247200000001], [-70.91481, 41.483092], [-70.879213, 41.50010599999999], [-70.763776, 41.55660700000001], [-70.758464, 41.560930999999975], [-70.749476, 41.55639], [-70.69465699999999, 41.52556], [-70.691364, 41.517841999999995], [-70.68835299999999, 41.516788999999996], [-70.68139699999999, 41.51755], [-70.674646, 41.519385], [-70.672253, 41.515773999999986], [-70.668001, 41.511988], [-70.65662499999999, 41.51477899999999], [-70.655981, 41.51414599999999], [-70.653728, 41.51474300000002], [-70.652574, 41.516017999999995], [-70.652822, 41.51842499999999], [-70.64936, 41.524246999999995], [-70.646585, 41.52805199999998], [-70.646036, 41.528525], [-70.644665, 41.53066500000003], [-70.64098299999999, 41.53389399999999], [-70.633124, 41.53776200000001], [-70.627271, 41.53930499999999], [-70.623616, 41.540620999999994], [-70.62284600000001, 41.54069600000002], [-70.62314099999999, 41.541171999999975], [-70.622991, 41.54122100000001], [-70.620544, 41.54134299999999], [-70.618082, 41.54185000000002], [-70.617826, 41.54150399999999], [-70.61763599999999, 41.54153199999998], [-70.61775999999999, 41.541799999999995], [-70.61758499999999, 41.541827999999995], [-70.617227, 41.54178999999998], [-70.617176, 41.54152100000001], [-70.61670099999999, 41.541745999999996], [-70.61660599999999, 41.542136000000006], [-70.616163, 41.542280000000005], [-70.615977, 41.541794], [-70.613558, 41.541773000000006], [-70.612157, 41.542185], [-70.60976600000001, 41.542452000000004], [-70.60927099999999, 41.542452000000004], [-70.607429, 41.541958000000015], [-70.606935, 41.542348999999994], [-70.60262, 41.541526], [-70.600421, 41.541979000000005], [-70.59849799999999, 41.542801999999995], [-70.595998, 41.54420000000001], [-70.594101, 41.54454999999999], [-70.591518, 41.54477599999999], [-70.588577, 41.544734999999974], [-70.587175, 41.54496100000001], [-70.585141, 41.544797], [-70.581513, 41.54389199999999], [-70.58038599999999, 41.543789], [-70.572937, 41.546298], [-70.571591, 41.54638099999997], [-70.570024, 41.547286000000014], [-70.567193, 41.547368000000006], [-70.565874, 41.547728000000006], [-70.56474700000001, 41.54783099999999], [-70.56024, 41.547728000000006], [-70.558838, 41.548324], [-70.556116, 41.54854000000001], [-70.552103, 41.549343], [-70.549313, 41.54950699999999], [-70.548008, 41.549939], [-70.547197, 41.55046399999999], [-70.546221, 41.55079299999999], [-70.54563, 41.550422999999995], [-70.54506599999999, 41.550309], [-70.543623, 41.55105999999999], [-70.538821, 41.55079400000002], [-70.537083, 41.550537999999996], [-70.535117, 41.549997], [-70.53274499999999, 41.548962], [-70.53129899999999, 41.548013], [-70.530386, 41.547233999999996], [-70.529663, 41.545753000000005], [-70.52779699999999, 41.54665300000001], [-70.527957, 41.54747700000001], [-70.52771899999999, 41.54940399999999], [-70.527907, 41.54984700000001], [-70.517538, 41.56534599999998], [-70.515181, 41.568395], [-70.51520000000001, 41.56883500000002], [-70.514049, 41.568492], [-70.514062, 41.568341], [-70.513657, 41.568132999999996], [-70.51268499999999, 41.568093], [-70.512483, 41.56855399999999], [-70.512727, 41.56946], [-70.512044, 41.570812000000004], [-70.508102, 41.573616], [-70.50702, 41.57614599999998], [-70.506554, 41.57777099999998], [-70.50601, 41.578009000000016], [-70.505163, 41.578109999999995], [-70.504722, 41.578449000000006], [-70.504711, 41.57867600000002], [-70.50546, 41.579047999999986], [-70.505443, 41.579729000000015], [-70.50395499999999, 41.581640999999976], [-70.50375100000001, 41.58267099999999], [-70.501942, 41.584628], [-70.501828, 41.58540299999999], [-70.501543, 41.585803999999996], [-70.5014, 41.58726400000001], [-70.500845, 41.588056], [-70.500682, 41.58881500000001], [-70.500389, 41.58909500000001], [-70.500293, 41.589913], [-70.499883, 41.590537999999995], [-70.499854, 41.59096099999999], [-70.49947399999999, 41.59168399999999], [-70.498282, 41.592144999999995], [-70.498188, 41.59314499999999], [-70.497692, 41.593849], [-70.49851799999999, 41.59390899999997], [-70.525398, 41.599897000000006], [-70.533552, 41.62684], [-70.53964599999999, 41.637212000000005], [-70.538076, 41.63900399999999], [-70.53701699999999, 41.63987099999999], [-70.535776, 41.641386000000004], [-70.53320000000001, 41.64253399999998], [-70.53080899999999, 41.644110999999995], [-70.523175, 41.650439], [-70.520912, 41.654816999999994], [-70.520048, 41.655623999999996], [-70.519344, 41.65676799999999], [-70.516458, 41.663945000000005], [-70.516375, 41.664986999999996], [-70.51570000000001, 41.66787200000001], [-70.513256, 41.674063000000004], [-70.511426, 41.67602599999999], [-70.511096, 41.675996000000005], [-70.497074, 41.67059099999999], [-70.497429, 41.670888999999995], [-70.49739199999999, 41.671410000000016], [-70.495362, 41.671519], [-70.49473900000001, 41.672052999999984], [-70.494018, 41.672283], [-70.49369399999999, 41.67279200000001], [-70.493577, 41.673880999999994], [-70.493864, 41.67498400000001], [-70.49368799999999, 41.67573699999999], [-70.49389699999999, 41.676773999999995], [-70.49677, 41.678087000000005], [-70.49720000000002, 41.683482000000005], [-70.47805799999999, 41.68512900000001], [-70.47555299999999, 41.682421000000005], [-70.475269, 41.679683], [-70.47490499999999, 41.678620999999985], [-70.474935, 41.67726300000001], [-70.475123, 41.676791], [-70.47587899999999, 41.67674900000002], [-70.482171, 41.665975], [-70.480554, 41.661024000000005], [-70.475371, 41.659745000000015], [-70.474978, 41.660537000000005], [-70.47355400000001, 41.662178999999995], [-70.472326, 41.66393299999999], [-70.471688, 41.664435], [-70.47111199999999, 41.665963999999995], [-70.458737, 41.664041], [-70.388676, 41.73442999999999], [-70.383622, 41.73973299999999], [-70.382892, 41.74083200000001], [-70.391351, 41.74166499999999], [-70.394297, 41.74180299999999], [-70.398116, 41.742385999999996], [-70.40010199999999, 41.742832000000014], [-70.403605, 41.743908999999995], [-70.405372, 41.74405699999999], [-70.40936599999999, 41.74498599999999], [-70.41172700000001, 41.74517900000001], [-70.417187, 41.747122999999995], [-70.41740000000001, 41.74710599999998], [-70.417444, 41.74692], [-70.416916, 41.745985999999995], [-70.417583, 41.74591499999999], [-70.41900500000001, 41.746113], [-70.42075, 41.746721999999984], [-70.42160799999999, 41.747217], [-70.422517, 41.747277], [-70.42487, 41.747979999999984], [-70.425405, 41.74847899999999], [-70.42595399999999, 41.749418000000006], [-70.42653299999999, 41.74977499999999], [-70.42704599999999, 41.74984699999999], [-70.427871, 41.750429999999994], [-70.429858, 41.75065000000001], [-70.433318, 41.751419000000006], [-70.43518, 41.752121999999986], [-70.436522, 41.75239600000001], [-70.438875, 41.752275000000004], [-70.439792, 41.752687000000016], [-70.442416, 41.753153000000005], [-70.443707, 41.753741], [-70.445752, 41.75397099999999], [-70.447211, 41.754481000000006], [-70.448802, 41.75532100000002], [-70.450672, 41.75580399999999], [-70.452366, 41.756781], [-70.45317899999999, 41.756797000000006], [-70.45412499999999, 41.757247], [-70.457022, 41.758157999999995], [-70.45806999999999, 41.758136], [-70.459448, 41.75863500000002], [-70.460409, 41.758749999999985], [-70.465587, 41.76037700000001], [-70.466484, 41.760939999999984], [-70.46766099999999, 41.761031], [-70.468716, 41.761544999999984], [-70.469714, 41.761498], [-70.47102, 41.762003], [-70.472355, 41.763353], [-70.473411, 41.764160000000004], [-70.473462, 41.76478300000001], [-70.47403, 41.76526500000001], [-70.473641, 41.76556899999999], [-70.488597, 41.775082000000005], [-70.49192699999999, 41.77761499999999], [-70.494834, 41.77665699999999], [-70.49439699999999, 41.77791499999999], [-70.494519, 41.778237], [-70.49358099999999, 41.778551], [-70.493662, 41.77864400000001], [-70.49401399999999, 41.77884099999999], [-70.495547, 41.779088], [-70.49665499999999, 41.779697000000006], [-70.499471, 41.780617], [-70.500498, 41.781196], [-70.502014, 41.78254199999999], [-70.50365699999999, 41.782982], [-70.50428699999999, 41.783707], [-70.50500600000001, 41.784135], [-70.505599, 41.784745], [-70.507322, 41.785458999999996], [-70.508766, 41.786639999999984], [-70.509646, 41.78704199999999], [-70.510966, 41.787365999999984], [-70.511882, 41.788426], [-70.514676, 41.789788], [-70.516318, 41.791145000000014], [-70.517631, 41.791979999999974], [-70.519768, 41.795134999999995], [-70.52601899999999, 41.799674], [-70.527339, 41.800415], [-70.52761699999999, 41.80095299999999], [-70.528409, 41.80181], [-70.530345, 41.803264999999996], [-70.53568, 41.809508], [-70.53676899999999, 41.811316], [-70.499473, 41.84411699999999], [-70.355004, 42.000104], [-70.346384, 42.019446000000016], [-70.337813, 42.044484], [-70.32252199999999, 42.11791499999998], [-70.27743, 42.114344999999986], [-70.253194, 42.125102999999996], [-70.249472, 42.126926000000005], [-70.229175, 42.131189], [-70.215587, 42.132785000000005], [-70.206221, 42.13305399999999], [-70.1954, 42.13154900000001], [-70.184474, 42.13383700000001], [-70.17254199999999, 42.13451500000001], [-70.15067599999999, 42.131465], [-70.135694, 42.127348999999995], [-70.130377, 42.126929000000004], [-70.124471, 42.12604100000001], [-70.120691, 42.12510099999998], [-70.067098, 42.10532699999998], [-70.040302, 42.09163400000001], [-70.011591, 42.073378], [-69.996279, 42.059687], [-69.969482, 42.029253999999995], [-69.954169, 42.00795500000001], [-69.94821, 42.00010599999999], [-69.940645, 41.992345], [-69.929109, 41.97847599999998], [-69.92302699999999, 41.967760999999996], [-69.917706, 41.95924699999999], [-69.909178, 41.94206200000001], [-69.902402, 41.922145999999984], [-69.89530500000001, 41.90675299999999], [-69.88001799999999, 41.86197800000001], [-69.877762, 41.85284599999999], [-69.876263, 41.84896999999999], [-69.874498, 41.842448000000005], [-69.87315, 41.838648000000006], [-69.872379, 41.831586], [-69.86949899999999, 41.826626999999995], [-69.866525, 41.81701100000002], [-69.86557499999999, 41.80767099999999], [-69.865779, 41.795636], [-69.865595, 41.790980000000005], [-69.862511, 41.773522], [-69.862366, 41.76631799999999], [-69.860058, 41.758503000000005], [-69.85984599999999, 41.75011000000002], [-69.85913000000001, 41.73649999999999], [-69.85886099999999, 41.720383], [-69.85895, 41.706916], [-69.86054, 41.69232599999999], [-69.862098, 41.68497099999998], [-69.862876, 41.67315300000002], [-69.86812499999999, 41.65679100000001], [-69.87106399999999, 41.65256699999999], [-69.874459, 41.645026000000016], [-69.884485, 41.630303000000005], [-69.889012, 41.625195999999995], [-69.888835, 41.625113], [-69.88942, 41.622694], [-69.891662, 41.617186000000004], [-69.898562, 41.60609599999999], [-69.907546, 41.596033000000006], [-69.915399, 41.58924300000001], [-69.916197, 41.58428899999998], [-69.919766, 41.574033], [-69.921517, 41.57090000000001], [-69.921345, 41.562281999999996], [-69.924632, 41.54464599999999], [-69.928994, 41.53215200000001], [-69.936401, 41.52193600000001], [-69.946613, 41.512152], [-69.958172, 41.50466], [-69.96743, 41.50011599999999], [-69.968606, 41.50011599999999], [-69.971289, 41.49887200000001], [-69.979776, 41.496567], [-69.988306, 41.49449599999999], [-69.994377, 41.493663], [-69.99816899999999, 41.493399], [-69.99945799999999, 41.49111800000001], [-69.99945799999999, 41.490527], [-70.013862, 41.47743899999999], [-70.02367699999999, 41.471948], [-70.040313, 41.46596], [-70.055437, 41.46410999999999], [-70.073742, 41.465019999999996], [-70.084904, 41.467493], [-70.101508, 41.474444], [-70.11439399999999, 41.484083000000005], [-70.12259499999999, 41.494499000000005], [-70.124461, 41.498521], [-70.124924, 41.500115], [-70.126677, 41.50369799999999], [-70.127962, 41.509674], [-70.128764, 41.51769199999999], [-70.128554, 41.52473200000001], [-70.126792, 41.530878000000016], [-70.122559, 41.537833], [-70.116719, 41.54499300000001], [-70.10952, 41.551482], [-70.102029, 41.556352000000004], [-70.086572, 41.562447999999996], [-70.080316, 41.564454], [-70.073586, 41.57770800000001], [-70.068572, 41.58522], [-70.063352, 41.59017299999999], [-70.06469899999999, 41.59323000000001], [-70.068046, 41.602954000000004], [-70.068569, 41.61069699999999], [-70.077934, 41.61252799999999], [-70.093772, 41.608323999999996], [-70.109368, 41.605591], [-70.124462, 41.600849], [-70.12695200000002, 41.600203], [-70.138491, 41.59869200000001], [-70.148926, 41.599133], [-70.16035699999999, 41.59937], [-70.163439, 41.597952], [-70.170602, 41.595588000000006], [-70.1815, 41.593547000000015], [-70.189375, 41.59049600000001], [-70.19823699999999, 41.58734200000001], [-70.20804, 41.584149999999994], [-70.220282, 41.57233699999998], [-70.22555799999999, 41.568560999999995], [-70.23194699999999, 41.56559500000001], [-70.241092, 41.56210999999999], [-70.24946299999999, 41.560146], [-70.255691, 41.559146], [-70.26742899999999, 41.558372999999996], [-70.278898, 41.559315999999995], [-70.289965, 41.561639], [-70.299331, 41.565916999999985], [-70.31125399999999, 41.57106200000001], [-70.32021399999999, 41.568946000000004], [-70.331549, 41.567898], [-70.34633699999999, 41.56845300000001], [-70.351936, 41.566649000000005], [-70.364206, 41.562196000000014], [-70.387281, 41.55768099999999], [-70.395164, 41.556722], [-70.397122, 41.55440199999998], [-70.405051, 41.546195000000004], [-70.411202, 41.540744], [-70.417304, 41.534822000000005], [-70.423896, 41.528732], [-70.432904, 41.52206300000001], [-70.440131, 41.517479], [-70.448567, 41.513093000000005], [-70.457634, 41.50934100000001], [-70.466436, 41.50616000000001], [-70.478689, 41.50350299999999], [-70.48396699999999, 41.502545999999995], [-70.48974, 41.501856], [-70.498209, 41.502565], [-70.502832, 41.500635], [-70.50860300000001, 41.498965], [-70.504182, 41.494858], [-70.499472, 41.488233], [-70.494942, 41.479631999999995], [-70.49165800000002, 41.47100900000001], [-70.489689, 41.462976999999995], [-70.485385, 41.463802999999984], [-70.475994, 41.46614099999998], [-70.46395, 41.468], [-70.44800699999999, 41.469355], [-70.436449, 41.46891900000001], [-70.421087, 41.46441600000002], [-70.405928, 41.457012999999996], [-70.392892, 41.44547999999999], [-70.385874, 41.43372099999999], [-70.38080699999999, 41.411995999999995], [-70.380693, 41.385361], [-70.38216299999999, 41.375117999999986], [-70.383449, 41.369933], [-70.37011199999999, 41.36876899999999], [-70.36769799999999, 41.37142700000001], [-70.362641, 41.375117999999986], [-70.353085, 41.381454999999995], [-70.338289, 41.38854999999999], [-70.323593, 41.391607], [-70.308734, 41.390693000000006], [-70.302438, 41.389624999999995], [-70.294179, 41.39144599999999], [-70.283214, 41.39288499999999], [-70.26728299999999, 41.393426000000005], [-70.258549, 41.39210699999999], [-70.24946299999999, 41.390049], [-70.247689, 41.38989099999999], [-70.238142, 41.38620499999999], [-70.233576, 41.38263999999998], [-70.224936, 41.37511999999999], [-70.221622, 41.371769], [-70.21733400000001, 41.364996999999995], [-70.215115, 41.360274999999994], [-70.208297, 41.35802499999999], [-70.19838299999999, 41.359024999999995], [-70.187287, 41.358380000000004], [-70.174906, 41.357290000000006], [-70.159992, 41.35224200000002], [-70.148699, 41.345215999999986], [-70.13794, 41.346371000000005], [-70.13223099999999, 41.348731], [-70.124461, 41.35132699999998], [-70.11933499999999, 41.352638000000006], [-70.110095, 41.353592], [-70.101618, 41.35344999999999], [-70.09784400000001, 41.353584000000005], [-70.103251, 41.359705], [-70.107199, 41.365213000000004], [-70.111328, 41.37038899999998], [-70.11644, 41.38616500000001], [-70.116541, 41.39513199999999], [-70.112734, 41.408126], [-70.105819, 41.419866], [-70.09441199999999, 41.43081], [-70.078847, 41.438015], [-70.06517400000001, 41.442687], [-70.04427199999999, 41.44380099999999], [-70.025902, 41.44107899999998], [-70.006467, 41.43389800000001], [-69.99945799999999, 41.42843199999999], [-69.98922700000001, 41.421225], [-69.98177500000001, 41.41520800000001], [-69.974592, 41.40892200000001], [-69.969634, 41.403510999999995], [-69.957745, 41.38725], [-69.943801, 41.36671700000001], [-69.938456, 41.357645000000005], [-69.92983699999999, 41.34532299999999], [-69.92644, 41.33879399999998], [-69.921579, 41.332398], [-69.91494999999999, 41.324194999999996], [-69.910093, 41.317263], [-69.902948, 41.30520699999999], [-69.898321, 41.29700299999999], [-69.894885, 41.29037199999999], [-69.893789, 41.286925000000004], [-69.89295899999999, 41.28364299999999], [-69.89244500000001, 41.27909000000001], [-69.8925, 41.27621099999998], [-69.892209, 41.271323], [-69.893025, 41.266636999999974], [-69.894472, 41.25923999999999], [-69.896044, 41.254119], [-69.89774299999999, 41.250122000000005], [-69.89900999999999, 41.24553799999998], [-69.902992, 41.238416], [-69.910319, 41.226849], [-69.915842, 41.220939], [-69.922911, 41.21583999999999], [-69.930953, 41.21054300000001], [-69.942008, 41.204519999999995], [-69.953586, 41.19967199999999], [-69.973182, 41.193545000000015], [-69.98315099999999, 41.191403], [-69.999457, 41.188305], [-70.012483, 41.18705299999999], [-70.025702, 41.187102], [-70.039705, 41.18819200000001], [-70.051647, 41.190908], [-70.072666, 41.19163400000001], [-70.109684, 41.189803000000005], [-70.12446, 41.19242200000001], [-70.13585499999999, 41.194649], [-70.16117, 41.20068999999998], [-70.178851, 41.204530999999996], [-70.217017, 41.21817599999999], [-70.227997, 41.222664], [-70.239982, 41.228463], [-70.285736, 41.242346000000005], [-70.294484, 41.246499000000014], [-70.314298, 41.260532000000005], [-70.33509000000001, 41.272779], [-70.344083, 41.27614600000001], [-70.357554, 41.27259600000002], [-70.374466, 41.26945800000001], [-70.38667099999999, 41.27128199999999], [-70.396777, 41.273013999999996], [-70.408733, 41.277294000000005], [-70.414493, 41.273953], [-70.429075, 41.268651000000006], [-70.444758, 41.265513000000006], [-70.459851, 41.26525300000001], [-70.475635, 41.270219999999995], [-70.493308, 41.279975], [-70.49946899999999, 41.28574100000001], [-70.512199, 41.298313], [-70.530599, 41.299198999999994], [-70.54521000000001, 41.299672000000015], [-70.571848, 41.30009399999999], [-70.593135, 41.299843999999986], [-70.606672, 41.29940999999999], [-70.62447, 41.298382], [-70.655087, 41.29616499999999], [-70.68502, 41.29317599999998], [-70.686615, 41.292058999999995], [-70.689055, 41.290937000000014], [-70.692874, 41.28963900000001], [-70.700169, 41.289058000000004], [-70.70310599999999, 41.28904], [-70.704591, 41.28483399999999], [-70.707362, 41.280218], [-70.711063, 41.27485699999999], [-70.716499, 41.26945200000001], [-70.721634, 41.265861], [-70.726731, 41.26311000000002], [-70.734843, 41.25923100000001], [-70.734065, 41.256147999999996], [-70.734045, 41.253327000000006], [-70.733667, 41.25011600000003], [-70.73475300000001, 41.24625999999999], [-70.738908, 41.236427], [-70.74430699999999, 41.22603000000001], [-70.749473, 41.22017299999998], [-70.754188, 41.216091], [-70.767837, 41.20648999999999], [-70.783582, 41.20121899999999], [-70.80595, 41.19874200000001], [-70.823645, 41.20064899999999], [-70.847746, 41.20581399999999], [-70.866343, 41.21539699999999], [-70.87447399999999, 41.221380999999994], [-70.877327, 41.224143999999995], [-70.884973, 41.23378399999999], [-70.890541, 41.24309099999999], [-70.89245700000001, 41.25011200000001], [-70.89420299999999, 41.25943899999999], [-70.89359499999999, 41.267993999999995], [-70.890337, 41.27736199999999], [-70.885683, 41.28506600000001], [-70.878182, 41.29214699999999], [-70.874475, 41.29496799999998], [-70.870027, 41.29706799999999], [-70.87447399999999, 41.30134999999999], [-70.877963, 41.30370800000001], [-70.884472, 41.31016199999997], [-70.891363, 41.318817999999986], [-70.897722, 41.327411000000005], [-70.901005, 41.334613], [-70.903815, 41.346727], [-70.903739, 41.35508000000001], [-70.901866, 41.36177], [-70.896017, 41.37014800000001], [-70.902603, 41.36761300000002], [-70.918399, 41.363033], [-70.938664, 41.353986000000006], [-70.95575199999999, 41.35016100000001], [-70.97052099999999, 41.34918700000001], [-70.979229, 41.349643999999984], [-70.990748, 41.351288999999994], [-70.99947999999999, 41.354103], [-71.006315, 41.357319], [-71.014799, 41.362019999999994], [-71.020472, 41.366723], [-71.02610299999999, 41.37169300000001], [-71.032701, 41.38027300000001], [-71.037211, 41.388908000000015], [-71.039918, 41.398259], [-71.038114, 41.405453], [-71.033604, 41.41408500000001], [-71.05185399999999, 41.416729]]]}}