{"type": "Feature", "properties": {"district_name": "Fourth Middlesex District", "chamber": "senate", "vintage": "2012-2020"}, "geometry": {"type": "Polygon", "coordinates": [[[-71.33309, 42.560115], [-71.294221, 42.605477999999984], [-71.295092, 42.606343999999986], [-71.295469, 42.606975000000006], [-71.295674, 42.60933399999998], [-71.29593899999999, 42.61034999999999], [-71.297006, 42.612296], [-71.297028, 42.613010999999986], [-71.21114399999999, 42.573305000000005], [-71.212206, 42.57241700000001], [-71.212825, 42.572593999999995], [-71.21391500000001, 42.570519999999995], [-71.214108, 42.57053400000001], [-71.214023, 42.570927], [-71.214147, 42.57097399999999], [-71.214878, 42.570744999999974], [-71.21531399999999, 42.570345], [-71.21510599999999, 42.567041], [-71.21560699999999, 42.566264999999994], [-71.215774, 42.56546600000001], [-71.215965, 42.563542000000005], [-71.215689, 42.56317099999998], [-71.215786, 42.56259], [-71.215948, 42.562404999999984], [-71.21700299999999, 42.562274], [-71.217049, 42.56210200000001], [-71.216655, 42.562158999999994], [-71.216601, 42.561997999999996], [-71.217536, 42.56179399999999], [-71.217717, 42.56151200000001], [-71.218083, 42.561384000000004], [-71.215923, 42.55953000000001], [-71.208956, 42.554485], [-71.21139099999999, 42.553071], [-71.210608, 42.552732], [-71.20983, 42.551444000000004], [-71.210599, 42.547665], [-71.212372, 42.547544], [-71.209384, 42.545797999999984], [-71.206914, 42.545711], [-71.206001, 42.54524699999998], [-71.204702, 42.54420799999999], [-71.199747, 42.53949399999999], [-71.197738, 42.53841400000001], [-71.195119, 42.53566400000001], [-71.19295199999999, 42.534519999999965], [-71.170063, 42.51559700000001], [-71.154298, 42.522127], [-71.153052, 42.52251199999998], [-71.144193, 42.526427], [-71.13545599999999, 42.53000600000001], [-71.124492, 42.50891800000001], [-71.123865, 42.50761699999998], [-71.12417599999999, 42.507526], [-71.123463, 42.506174], [-71.122395, 42.504152999999995], [-71.12195899999999, 42.50427799999999], [-71.11976, 42.500291999999995], [-71.121765, 42.49872000000001], [-71.116795, 42.49463900000001], [-71.112116, 42.473818000000016], [-71.123862, 42.473392000000004], [-71.14407, 42.466431], [-71.152282, 42.463783000000014], [-71.154552, 42.46007499999997], [-71.156159, 42.45687899999998], [-71.163003, 42.46019600000001], [-71.189599, 42.44979499999999], [-71.18712599999999, 42.44672299999998], [-71.186454, 42.44562600000001], [-71.185813, 42.444981999999996], [-71.183815, 42.444609], [-71.183979, 42.44421499999999], [-71.183486, 42.444117], [-71.183529, 42.444001000000014], [-71.182543, 42.443893], [-71.18256199999999, 42.443637], [-71.182399, 42.443495000000006], [-71.177885, 42.440200999999995], [-71.182277, 42.43627900000001], [-71.14979799999999, 42.43579500000001], [-71.148332, 42.43079900000001], [-71.148031, 42.429242], [-71.146197, 42.423390999999995], [-71.14556999999999, 42.422792], [-71.144938, 42.42244600000002], [-71.14350499999999, 42.42221299999998], [-71.14255899999999, 42.42177299999999], [-71.142836, 42.420543], [-71.142844, 42.419752], [-71.142659, 42.419367], [-71.141693, 42.418510999999995], [-71.140688, 42.417108999999996], [-71.139161, 42.41589000000001], [-71.138199, 42.41549499999999], [-71.136793, 42.41518800000001], [-71.134176, 42.41540500000001], [-71.132317, 42.415215999999994], [-71.132762, 42.41162699999999], [-71.132273, 42.410126999999996], [-71.13229700000001, 42.40943000000001], [-71.132758, 42.408403], [-71.133805, 42.407068], [-71.134379, 42.406063], [-71.134579, 42.40346199999998], [-71.13492099999999, 42.402561999999996], [-71.136391, 42.40096499999999], [-71.13688900000001, 42.40066299999999], [-71.138168, 42.40028399999999], [-71.13933399999999, 42.400148], [-71.140412, 42.399719999999995], [-71.14267, 42.39789100000001], [-71.143593, 42.39741199999999], [-71.152057, 42.40104], [-71.15235600000001, 42.400791000000005], [-71.156384, 42.40252400000001], [-71.157358, 42.40242800000001], [-71.15808299999999, 42.402561000000006], [-71.159922, 42.403462000000005], [-71.15980499999999, 42.403569], [-71.160625, 42.403976], [-71.16267, 42.40453099999999], [-71.162984, 42.404832000000006], [-71.16405999999999, 42.40533000000001], [-71.164203, 42.405548999999986], [-71.163793, 42.40576199999999], [-71.175388, 42.40965999999999], [-71.183899, 42.411424000000004], [-71.19429099999999, 42.415321000000006], [-71.194521, 42.414936999999995], [-71.195194, 42.415141000000006], [-71.194257, 42.41339], [-71.202642, 42.41482900000001], [-71.207636, 42.40979899999999], [-71.21555099999999, 42.414629000000005], [-71.21892799999999, 42.41556399999999], [-71.21834799999999, 42.41669099999999], [-71.21798199999999, 42.417072999999995], [-71.21484099999999, 42.41839900000001], [-71.217624, 42.419098999999996], [-71.222197, 42.420845000000014], [-71.223528, 42.421215], [-71.23033699999999, 42.42199299999999], [-71.23131099999999, 42.42223000000002], [-71.231544, 42.422722999999976], [-71.231526, 42.423280999999996], [-71.230953, 42.427363000000014], [-71.230975, 42.428142999999984], [-71.23146899999999, 42.429264999999994], [-71.23356, 42.432417], [-71.23392, 42.43335400000001], [-71.234798, 42.43324099999999], [-71.23611, 42.433521], [-71.23626399999999, 42.43155200000001], [-71.23907, 42.43250000000002], [-71.2407, 42.432826999999996], [-71.242204, 42.433609], [-71.241585, 42.43428699999999], [-71.23742899999999, 42.43544], [-71.23927499999999, 42.435981999999996], [-71.24168499999999, 42.43832499999999], [-71.243105, 42.438693999999984], [-71.243557, 42.43930700000001], [-71.242295, 42.439703], [-71.240967, 42.44149600000001], [-71.23956500000001, 42.443987], [-71.237539, 42.44538], [-71.23762599999999, 42.446283], [-71.237152, 42.447862], [-71.23716, 42.449490999999995], [-71.23700000000001, 42.45008399999998], [-71.23376, 42.452461], [-71.232119, 42.45322], [-71.230723, 42.453517999999995], [-71.230983, 42.453945000000004], [-71.231606, 42.45809100000001], [-71.231911, 42.45890999999998], [-71.230436, 42.459835000000005], [-71.231175, 42.460186], [-71.23196399999999, 42.461443], [-71.233352, 42.462215], [-71.232839, 42.46293100000001], [-71.236195, 42.46330300000001], [-71.238067, 42.46320199999998], [-71.23875699999999, 42.46332799999999], [-71.23958499999999, 42.463778], [-71.240809, 42.463899], [-71.23991199999999, 42.462301], [-71.240276, 42.46241700000001], [-71.24157799999999, 42.46296600000001], [-71.24249499999999, 42.463601000000004], [-71.24403000000001, 42.464329], [-71.244367, 42.46463599999999], [-71.244452, 42.465103], [-71.24538, 42.46542600000001], [-71.246698, 42.466733999999995], [-71.24846099999999, 42.46753800000001], [-71.24958699999999, 42.467285000000004], [-71.257956, 42.471224999999976], [-71.260688, 42.468750000000014], [-71.26155299999999, 42.46933699999999], [-71.26236899999999, 42.470252999999985], [-71.262407, 42.47055999999999], [-71.263122, 42.470368000000015], [-71.263941, 42.47061999999999], [-71.26424899999999, 42.47087700000001], [-71.264877, 42.470563999999996], [-71.265314, 42.470600999999995], [-71.261515, 42.47624600000001], [-71.256553, 42.47855899999999], [-71.251986, 42.48501499999999], [-71.240983, 42.48988099999998], [-71.231897, 42.506367000000004], [-71.232694, 42.507713], [-71.233544, 42.508692999999994], [-71.236924, 42.511490999999985], [-71.240056, 42.519716], [-71.24175, 42.520828], [-71.242576, 42.51993999999999], [-71.250142, 42.525729999999996], [-71.254572, 42.522593], [-71.256396, 42.523992], [-71.26409799999999, 42.524081], [-71.277911, 42.526630000000004], [-71.280832, 42.52640800000001], [-71.289481, 42.52387999999999], [-71.303974, 42.51993099999999], [-71.306699, 42.52059299999999], [-71.30683599999999, 42.52207500000001], [-71.30674499999999, 42.52268899999999], [-71.306201, 42.524150999999996], [-71.30516, 42.52593599999999], [-71.30486499999999, 42.527283], [-71.304949, 42.52854000000001], [-71.30461, 42.529284999999994], [-71.307538, 42.52999899999999], [-71.30718499999999, 42.533221000000005], [-71.30874899999999, 42.53395999999999], [-71.30981, 42.534848], [-71.31836899999999, 42.54279199999998], [-71.314385, 42.54955400000001], [-71.31961799999999, 42.554069999999996], [-71.324801, 42.55605900000001], [-71.33309, 42.560115]]]}}