{"type": "Feature", "properties": {"district_name": "Norfolk, Bristol, and Plymouth", "chamber": "senate", "vintage": "2001-2010"}, "geometry": {"type": "Polygon", "coordinates": [[[-71.04262168956667, 42.27614920587641], [-71.04149394006747, 42.26849771958604], [-71.04169408459177, 42.26779796589604], [-71.04169295170949, 42.26669789664605], [-71.04139296993797, 42.26619815299481], [-71.0394929878962, 42.26499876528287], [-71.0380930564971, 42.26379910732921], [-71.03249297431113, 42.26019883694068], [-71.03139307689884, 42.25909878792987], [-71.03299302119423, 42.257898889971564], [-71.03719296327495, 42.25559872055883], [-71.03809290874653, 42.25529905231663], [-71.03929408843824, 42.25430003162079], [-71.04129303067515, 42.25339872105682], [-71.04264807009383, 42.25239915448607], [-71.04391093350527, 42.25194108062906], [-71.04459398215107, 42.25130006949487], [-71.06109395028162, 42.24219916570643], [-71.05779401027222, 42.23729892912236], [-71.05709396084913, 42.23569986226529], [-71.0534929585785, 42.23009889968959], [-71.05319308971998, 42.22929926625211], [-71.06069299460144, 42.226299224074246], [-71.07349404765704, 42.22149875664667], [-71.0758949521971, 42.220400267895116], [-71.0855940940858, 42.21689915633575], [-71.09309394069956, 42.213998848899365], [-71.08369408624779, 42.205598941505365], [-71.08269396212205, 42.20449917211989], [-71.07759403179496, 42.204899155180115], [-71.07409396697234, 42.20459980124715], [-71.06949306715514, 42.204699106847954], [-71.0605930164671, 42.20669895672691], [-71.05919295596611, 42.20629913411208], [-71.05799301273602, 42.206699097738294], [-71.05539294441341, 42.20589902180562], [-71.04949305276693, 42.206599073892654], [-71.04500696307704, 42.20638780170782], [-71.04459409264204, 42.21149997176969], [-71.04449401909068, 42.21549979824967], [-71.03849406181901, 42.22179998786287], [-71.03619302621007, 42.2246987330695], [-71.03419304218237, 42.226499142841895], [-71.03379408835961, 42.226700093969754], [-71.03309305957629, 42.227799005762364], [-71.03109300737773, 42.22809920962493], [-71.02639300102048, 42.22800000713082], [-71.02009191626497, 42.22849882835708], [-71.0188920657228, 42.228399271528204], [-71.0108089346875, 42.22870778501145], [-71.00819296283397, 42.22959973534819], [-71.00639205290527, 42.23079899158561], [-71.00369204056841, 42.23159875835747], [-71.00209196102301, 42.232299139611435], [-70.9890920173018, 42.23409891240253], [-70.98959195252193, 42.23250025934984], [-70.98779100883492, 42.231798991428654], [-70.9859909616164, 42.2315990637], [-70.98502296924734, 42.23180404842174], [-70.98519108122738, 42.230799259637934], [-70.98459108973931, 42.229698740921506], [-70.9844910250901, 42.228899258700565], [-70.98719205757148, 42.22820010769448], [-70.98639094322297, 42.22729901998677], [-70.9852909955484, 42.22429884270797], [-70.98339108087855, 42.222399071510495], [-70.98329094339479, 42.222099264302074], [-70.99269102429629, 42.22249908227809], [-70.99239107327674, 42.220698805136124], [-70.99529099468656, 42.22039873539665], [-70.99379098412437, 42.21709920848857], [-70.99359098634115, 42.21519921303384], [-70.99389105056125, 42.2139991718558], [-70.99369206824687, 42.21329998280375], [-70.99389105999855, 42.21259917326291], [-70.99389106943545, 42.21119917431999], [-70.99439094556037, 42.21089920801513], [-70.99559091800107, 42.21119878217095], [-70.99589103097752, 42.211699216533425], [-70.99649108418497, 42.21219927859319], [-70.99809196855523, 42.209500266048344], [-70.99989208974094, 42.20880024944264], [-71.00129107368689, 42.20859926525481], [-71.0031910705486, 42.20779890773616], [-71.00409095654015, 42.20719902324306], [-71.00339106047947, 42.20929880777366], [-71.00389101722845, 42.21139928023529], [-71.00459094471806, 42.213098845378], [-71.0043909640128, 42.21369894533832], [-71.00819206249878, 42.21319874253019], [-71.00789201158179, 42.211799146625644], [-71.00969194476895, 42.211998733203444], [-71.00989207682221, 42.210098787578744], [-71.01129203252312, 42.210998889619034], [-71.0125919806789, 42.20979911597867], [-71.01299207885847, 42.20909912800402], [-71.01359191719796, 42.209098859121845], [-71.01419197766238, 42.208699070988686], [-71.00939109080224, 42.20509874154735], [-71.00779092231691, 42.203198961882975], [-71.00729092345311, 42.201899227098366], [-71.00739197286775, 42.19989982124683], [-71.00649103586919, 42.19809924346764], [-71.00809097647955, 42.1972992017539], [-71.00739091386791, 42.196699171225504], [-71.00519108612666, 42.195798946320586], [-71.00779101474086, 42.193899197167035], [-71.00779102526016, 42.19189879197161], [-71.00729100765336, 42.19019897293765], [-71.00689098243538, 42.189899021652714], [-71.00699106795872, 42.18889896727697], [-71.00749102114149, 42.18699918116005], [-71.00869196150883, 42.18599990808273], [-71.01179093301587, 42.184098827819625], [-71.01439205944361, 42.18440022567349], [-71.01859193357144, 42.18399984426379], [-71.01879208431758, 42.18239979588011], [-71.01999200715949, 42.18009999482807], [-71.01949100445852, 42.1786990176417], [-71.0205909831724, 42.17709879292961], [-71.02099206215267, 42.17370005433977], [-71.02059207689003, 42.173199827639266], [-71.0205920608859, 42.17170022310353], [-71.02510792492566, 42.1617591591408], [-71.02798391473627, 42.154276938752474], [-71.02920609051198, 42.150568112532895], [-71.03505405923013, 42.13547602438556], [-71.03049093899779, 42.13409904656622], [-71.02719104002607, 42.13259880787745], [-71.02779109567689, 42.12949907941248], [-71.02719003582334, 42.123699028212314], [-71.02228991508034, 42.11859913833058], [-71.03949106362765, 42.11189907177889], [-71.04139095825258, 42.11129896903057], [-71.04389104712898, 42.110198727984354], [-71.04609100891878, 42.10949901717561], [-71.06769104092122, 42.10119879166148], [-71.075891936596, 42.097298938130606], [-71.09899191724175, 42.08819876227611], [-71.11289306111587, 42.08289918741761], [-71.11539304819193, 42.08179907747581], [-71.11749303681309, 42.08109878827083], [-71.11679304911227, 42.07839882502227], [-71.11669306144667, 42.07659894924662], [-71.11539306969684, 42.075899081944904], [-71.11469191851381, 42.07269885149702], [-71.11450805404884, 42.07250522343522], [-71.11396598366825, 42.07231601484318], [-71.11291698220668, 42.07240081807311], [-71.10989209207487, 42.07139905734145], [-71.10759191388266, 42.06969912982101], [-71.10679199368325, 42.06959903634734], [-71.10469201610292, 42.06769884988614], [-71.10319192194761, 42.06749896235577], [-71.10299192429027, 42.0675989939038], [-71.10259198405251, 42.066099110712415], [-71.10509207210079, 42.06599916004632], [-71.10729207355303, 42.065698926555655], [-71.1071920141502, 42.06459904886604], [-71.10729204016107, 42.06429890516891], [-71.10719194808074, 42.06289910290296], [-71.10559202573575, 42.05689905220143], [-71.10529194396534, 42.056098969229275], [-71.10239204743048, 42.05079889009472], [-71.10169191393776, 42.046199107393605], [-71.1036920319042, 42.04639906153264], [-71.10515603216281, 42.047042799162554], [-71.10729205790686, 42.04739902997297], [-71.11069204098378, 42.04899917923174], [-71.11539199392068, 42.04749912922259], [-71.11399203133057, 42.04399885650283], [-71.11419203880871, 42.040398743462696], [-71.1148920732601, 42.038298812762605], [-71.1118919480234, 42.033098787564036], [-71.1107919201186, 42.03209905090996], [-71.10659203036678, 42.034099194617106], [-71.098291039627, 42.03559923892698], [-71.09609100893178, 42.03629882246936], [-71.09569095496609, 42.03709927401836], [-71.09379106869609, 42.03859892456078], [-71.09009101139144, 42.04019902409016], [-71.08979097320936, 42.0415991012815], [-71.08758706785414, 42.04267496214878], [-71.08549093435002, 42.04399876430103], [-71.08379104605716, 42.04569873602021], [-71.08229101182116, 42.046698836149815], [-71.08119093853081, 42.04619906638998], [-71.0802910315779, 42.0451997694962], [-71.07899103885401, 42.044600207611786], [-71.07749108371613, 42.04240010231027], [-71.07188991027819, 42.0407997500066], [-71.06789000560228, 42.04009989357056], [-71.0677900873715, 42.04250004776299], [-71.06902590855948, 42.04705986439111], [-71.0694900710061, 42.04970016783163], [-71.05789004156328, 42.05100026161045], [-71.03828890806193, 42.053500085225494], [-71.03048895923409, 42.05440020490831], [-71.02558892605593, 42.05479978221802], [-71.02268898688108, 42.0420000585479], [-71.0033880425051, 42.04419972804086], [-70.98688793847677, 42.04639973679359], [-70.98628804250534, 42.042999933388245], [-70.98468698620235, 42.03599986662521], [-70.98478693355403, 42.03509997119934], [-70.98428693857521, 42.034299787252024], [-70.98318695197705, 42.02849997119438], [-70.98208698555456, 42.028699825600874], [-70.97868691687117, 42.02889990300802], [-70.9699870141074, 42.03120026792012], [-70.9614870333445, 42.03189998453577], [-70.95948703541421, 42.032900067818524], [-70.95838694997025, 42.0317002165675], [-70.95838703654712, 42.03200014529609], [-70.95598708468525, 42.03229994133782], [-70.95468692593835, 42.032700033654834], [-70.9543870697917, 42.031799944299756], [-70.95148692283396, 42.03169998086211], [-70.95058701422937, 42.03119990856057], [-70.95178707650696, 42.02999976136698], [-70.9519869994876, 42.02919997188354], [-70.95098705997533, 42.02910007829036], [-70.94848698795022, 42.02939979895555], [-70.94018700369293, 42.031900720607254], [-70.93688597712746, 42.032600860838606], [-70.93208592369852, 42.028600965545365], [-70.93168603616726, 42.02810097368343], [-70.93163003139391, 42.01859693376447], [-70.93298594798463, 42.01510073493351], [-70.93298597336143, 42.01370125148012], [-70.93148599174967, 42.00780100286276], [-70.93538605801876, 42.00790079290501], [-70.94178601034798, 42.00660081556363], [-70.95368592431603, 42.00570109593095], [-70.97938693885281, 42.01090007775902], [-70.97858709143345, 42.007199939449684], [-70.9823869749555, 42.00610020577901], [-70.98518697973843, 42.005500044822654], [-70.99038696348026, 42.00389989436955], [-71.00258709313707, 41.99800005924247], [-71.0260880595966, 41.98989996010316], [-71.02748793519852, 41.98930027019163], [-71.03378794212766, 41.98720018786508], [-71.05435401498532, 41.98088017526976], [-71.05548901975993, 41.985499997316], [-71.08908996184665, 41.992000144295666], [-71.10179095097418, 41.99480013546444], [-71.10999106585993, 41.995400117138985], [-71.11516807409969, 41.99643785873483], [-71.11716706012766, 41.996666840976204], [-71.12059096698054, 41.99770014147144], [-71.15669308692134, 41.99999924464477], [-71.16859498022158, 42.061701772601076], [-71.17801390867047, 42.057970892097615], [-71.18421207111143, 42.066926771028996], [-71.19356202435627, 42.07942907485115], [-71.19560699469415, 42.08264476699117], [-71.19348498248134, 42.097514219152984], [-71.19009396245515, 42.09943123146815], [-71.18878209148612, 42.10051088049378], [-71.18798406922967, 42.10084295575963], [-71.1881540618723, 42.1018467207886], [-71.18805807326285, 42.10281374823878], [-71.18718094078183, 42.104358230150076], [-71.1862699140264, 42.10541305966769], [-71.1857209392595, 42.10579419355471], [-71.18325990734398, 42.10679127887586], [-71.18184304154326, 42.107657855483076], [-71.18085500083077, 42.10897295983146], [-71.17996294935345, 42.11132707510654], [-71.17923200340894, 42.111659276750515], [-71.17688307374473, 42.11179897831136], [-71.17628295637472, 42.11170218705742], [-71.17498094061064, 42.110982178148745], [-71.17482997949594, 42.110725156699935], [-71.17016400409693, 42.11032974059515], [-71.16803200774856, 42.11032189382359], [-71.16694999687964, 42.110471245910006], [-71.16685196609355, 42.110863165697346], [-71.16598906943743, 42.11188083561444], [-71.1655100733727, 42.11275219207804], [-71.16523505357642, 42.114710724096746], [-71.16484199222812, 42.11551086518421], [-71.16454002314754, 42.11591175190751], [-71.16321107317492, 42.11689483529202], [-71.16076308524366, 42.11979510286566], [-71.15903090700857, 42.12138410008997], [-71.15397898348347, 42.12438223141814], [-71.1493370153442, 42.125639828541104], [-71.14739509377405, 42.12660003074374], [-71.14769395184904, 42.12729926491435], [-71.14799597091857, 42.12760011399972], [-71.14850905842675, 42.131114082026166], [-71.14978500830689, 42.133633833153425], [-71.15005600174962, 42.13473587015523], [-71.15005995829829, 42.1358010782137], [-71.14969900850535, 42.13702610414977], [-71.14903794359722, 42.138447718584985], [-71.1633269068132, 42.14141325997143], [-71.16210797792878, 42.145166831001305], [-71.17155909299626, 42.15127316132117], [-71.17640308094533, 42.15524103354231], [-71.17572890804863, 42.155644835222496], [-71.17766502424956, 42.163735164607886], [-71.17699596546305, 42.16389815249342], [-71.17669602806383, 42.16479818861313], [-71.175697010277, 42.164699145548745], [-71.17569606639185, 42.16569793399267], [-71.17349609135114, 42.16589820067295], [-71.17349595957053, 42.16779787253285], [-71.17189597904097, 42.16699821128598], [-71.17179593171728, 42.168098001679816], [-71.16879698576311, 42.16929918098433], [-71.16829606037417, 42.17099820913702], [-71.1685959762041, 42.17139802984665], [-71.1684959533927, 42.172698137557234], [-71.16440803391784, 42.17278190503316], [-71.16359507440879, 42.17331014781728], [-71.16474704238243, 42.1742627943555], [-71.16535706900092, 42.17499214555566], [-71.16410296789189, 42.17589498618992], [-71.16549600632153, 42.1767982503624], [-71.16739600005963, 42.17909789769454], [-71.16403595858108, 42.18119203138433], [-71.16515302239496, 42.18186997330637], [-71.16259698953202, 42.18499895949756], [-71.16234495586755, 42.18650793548359], [-71.15748009172034, 42.19463911580146], [-71.15289700935607, 42.19789910904756], [-71.15199706353003, 42.19799879318041], [-71.14586405714577, 42.205335029525486], [-71.14589595465776, 42.206297901023035], [-71.14749592570453, 42.20619816673659], [-71.1464969339562, 42.20859892994241], [-71.1423959080092, 42.211697928345565], [-71.14299602844996, 42.21329785247792], [-71.14229591269462, 42.214697908879366], [-71.14239609419909, 42.21669803993836], [-71.14109601909519, 42.21859814094474], [-71.1414970594732, 42.21959874072466], [-71.13949606022054, 42.22379805184818], [-71.1367960444377, 42.22669810554227], [-71.13069596873117, 42.22779783698065], [-71.12769590825523, 42.23079799536155], [-71.12449492080185, 42.232997829365104], [-71.12449509492455, 42.234598131285864], [-71.12229494656376, 42.234397908253754], [-71.122195073575, 42.234798217572745], [-71.12259508453536, 42.23539823974002], [-71.12619593925166, 42.238898159969914], [-71.12559609076918, 42.239398127375765], [-71.12179605512442, 42.24129826415585], [-71.12029502382269, 42.242298278799794], [-71.10919503440707, 42.24799824511081], [-71.10939498070304, 42.252297896945365], [-71.10929601449747, 42.25449881225022], [-71.10949492795723, 42.25549826737594], [-71.11379504808168, 42.259298039010176], [-71.11269496419463, 42.25979794250707], [-71.11099503356101, 42.261297958243446], [-71.10869495272111, 42.26109826533134], [-71.1076950589085, 42.260698156053486], [-71.10579508258624, 42.26099775321974], [-71.10499494199114, 42.26069790235908], [-71.10337494385088, 42.25971210915743], [-71.10139603998546, 42.260698970197474], [-71.09899592780091, 42.262398945335065], [-71.097994914587, 42.262897928831286], [-71.09489509476825, 42.266897899465526], [-71.09059505262422, 42.266698087151354], [-71.08999497381645, 42.26799801396112], [-71.08949493430606, 42.26969780571325], [-71.0857950011739, 42.26919779273726], [-71.08309504570933, 42.2683980042008], [-71.07959503971509, 42.269698003931076], [-71.07319399918357, 42.27039801448132], [-71.07189395495946, 42.27089790993417], [-71.0680939674599, 42.27099790822749], [-71.06539401707079, 42.270798095428276], [-71.06482582544314, 42.269939526868924], [-71.06541570215788, 42.269624965064565], [-71.06535385683257, 42.269418785781966], [-71.0651697814253, 42.26930498788155], [-71.0650766341685, 42.268802713936225], [-71.06433839376753, 42.267915363797854], [-71.06288997739341, 42.26699548501327], [-71.06159685961116, 42.26679361337047], [-71.0592873583752, 42.26704248645796], [-71.05888611287884, 42.26722100744912], [-71.05830155401577, 42.267015628600454], [-71.05799413302655, 42.2671832534762], [-71.05765502475346, 42.26768443205314], [-71.055683718473, 42.26763912148249], [-71.0556525283275, 42.26781962506713], [-71.0579631059397, 42.26834565640898], [-71.05759310658247, 42.26855017699411], [-71.05596065300028, 42.26884998117411], [-71.05503682347896, 42.26935282846024], [-71.05500637856284, 42.26999305424557], [-71.0548521825728, 42.270130878939206], [-71.05349629884581, 42.270632601000315], [-71.05229530772951, 42.2707888553298], [-71.05146398786452, 42.27129934950191], [-71.05109452840338, 42.2713153494125], [-71.05069447584954, 42.27099811466328], [-71.05094120703501, 42.26985850243015], [-71.05155669348343, 42.2693072181928], [-71.05180354450043, 42.2688704071684], [-71.0511875738228, 42.268341321367565], [-71.05078626284471, 42.26820414337678], [-71.05038651949592, 42.26816656669287], [-71.0498938090489, 42.2684184109391], [-71.04924744963144, 42.26827689069447], [-71.04977126802142, 42.26695267898975], [-71.04967860318014, 42.26671992355794], [-71.04940129670014, 42.26669801615889], [-71.0489698957802, 42.267543737833236], [-71.04878530273001, 42.26843825665603], [-71.04940117842806, 42.26905794852507], [-71.04980124670688, 42.26905051448868], [-71.05054060189178, 42.26871298158492], [-71.05084879444887, 42.268707435059525], [-71.05103359655507, 42.26887527734983], [-71.05100288393317, 42.269173384265386], [-71.05035556451045, 42.26980613132506], [-71.05026281145057, 42.27115904310794], [-71.05084836553327, 42.27170658338763], [-71.05226468751347, 42.27179820565531], [-71.05254206597094, 42.27202773967792], [-71.05278865849019, 42.273076995336204], [-71.0531270937902, 42.27367420338189], [-71.05451294348781, 42.27463109903071], [-71.05475908248519, 42.27502312420131], [-71.0548209578058, 42.27557142567959], [-71.05454353798518, 42.27607170822138], [-71.05417341146224, 42.2764208289212], [-71.05189384743241, 42.277605426498326], [-71.05010719681123, 42.277628827430426], [-71.04924539723832, 42.27753598057601], [-71.04576440535338, 42.27575203833498], [-71.04354741858836, 42.27562058207226], [-71.04262168956667, 42.27614920587641]]]}}