{"type": "Feature", "properties": {"district_name": "Hampshire, Franklin & Worcester District", "chamber": "senate", "vintage": "2012-2020"}, "geometry": {"type": "Polygon", "coordinates": [[[-72.791079, 42.736024], [-72.570932, 42.73014800000001], [-72.437778, 42.726282], [-72.285996, 42.72162599999998], [-72.124526, 42.717637], [-72.111071, 42.71717200000001], [-72.11619, 42.631975], [-72.116631, 42.62660699999999], [-72.140151, 42.623785999999996], [-72.14214000000001, 42.623647000000005], [-72.154185, 42.623851999999985], [-72.15664900000002, 42.62360000000001], [-72.15834600000001, 42.633211], [-72.164279, 42.632568], [-72.16527200000002, 42.63642199999999], [-72.167414, 42.64652299999999], [-72.212349, 42.640653999999984], [-72.22904799999999, 42.638324999999995], [-72.228515, 42.63725899999999], [-72.228391, 42.636461], [-72.22630099999999, 42.63449699999998], [-72.22623100000001, 42.63378899999999], [-72.225931, 42.633368000000004], [-72.22618299999999, 42.632439], [-72.225878, 42.632018999999985], [-72.22605700000001, 42.631688], [-72.22561, 42.631054000000006], [-72.22546299999999, 42.63026299999999], [-72.226646, 42.628734], [-72.22683099999999, 42.628144], [-72.226776, 42.627355], [-72.227047, 42.62688900000001], [-72.22861000000002, 42.62603999999998], [-72.229886, 42.626075], [-72.230622, 42.625912999999976], [-72.23124, 42.62571100000001], [-72.231628, 42.62530199999999], [-72.23155799999999, 42.624306000000004], [-72.230858, 42.62373700000001], [-72.229419, 42.62380900000001], [-72.229171, 42.623684999999995], [-72.229201, 42.623084000000034], [-72.229839, 42.62194299999999], [-72.228498, 42.62152299999998], [-72.2278, 42.62186000000001], [-72.22748, 42.62176199999999], [-72.227496, 42.62149299999999], [-72.22781499999999, 42.621061], [-72.227883, 42.620162999999984], [-72.228066, 42.619983], [-72.228453, 42.61871400000001], [-72.22796199999999, 42.617968], [-72.228117, 42.617169999999994], [-72.22794, 42.61673899999998], [-72.228034, 42.61629699999999], [-72.227817, 42.615877999999995], [-72.228071, 42.61547600000001], [-72.229573, 42.61436999999999], [-72.23015199999999, 42.614264999999996], [-72.23043899999999, 42.61466699999999], [-72.23074199999999, 42.61468500000003], [-72.231405, 42.61395399999999], [-72.231809, 42.613845999999995], [-72.233345, 42.614202], [-72.237236, 42.61403999999999], [-72.238075, 42.61458499999999], [-72.239477, 42.61362099999999], [-72.24004800000002, 42.613459], [-72.240887, 42.613936], [-72.24163, 42.61400199999999], [-72.24220199999999, 42.61389800000001], [-72.24269300000002, 42.61329899999999], [-72.254713, 42.611633000000005], [-72.253239, 42.605284], [-72.256329, 42.60512200000001], [-72.257132, 42.60423999999999], [-72.25881, 42.60372], [-72.25924300000001, 42.60225099999999], [-72.260042, 42.601133], [-72.26056799999999, 42.60085900000001], [-72.262321, 42.60029999999999], [-72.265447, 42.600957], [-72.26706399999999, 42.600812999999995], [-72.261321, 42.575868], [-72.263459, 42.57586], [-72.264096, 42.57620900000001], [-72.264679, 42.57704399999998], [-72.265162, 42.577385000000014], [-72.26649499999999, 42.57768100000001], [-72.26805, 42.577794000000004], [-72.269173, 42.57765199999999], [-72.270138, 42.57637400000001], [-72.2707, 42.57610699999999], [-72.271355, 42.576121], [-72.27201099999999, 42.57680500000001], [-72.271855, 42.577832], [-72.272239, 42.578677], [-72.272965, 42.579142000000004], [-72.274025, 42.579282], [-72.274287, 42.578663], [-72.274249, 42.578168999999995], [-72.274017, 42.577788], [-72.274628, 42.576657999999995], [-72.27552, 42.576615000000004], [-72.27645199999999, 42.57685], [-72.27663799999999, 42.571136999999986], [-72.27665999999999, 42.57043800000001], [-72.275308, 42.56627499999996], [-72.275134, 42.566172], [-72.275173, 42.56586999999998], [-72.27359, 42.560998999999995], [-72.272297, 42.553931999999996], [-72.271478, 42.54726100000001], [-72.271207, 42.54632999999999], [-72.269221, 42.533408999999985], [-72.26283699999999, 42.52832399999999], [-72.244952, 42.513552], [-72.262819, 42.500084], [-72.270609, 42.494676999999996], [-72.29142399999999, 42.47949500000001], [-72.283408, 42.441196], [-72.283695, 42.44081200000001], [-72.28503599999999, 42.439963000000006], [-72.286419, 42.43944999999998], [-72.286535, 42.439141], [-72.287218, 42.43867400000001], [-72.287538, 42.438315], [-72.28720899999999, 42.437549999999995], [-72.28747299999999, 42.437165000000014], [-72.28766499999999, 42.437107], [-72.288237, 42.437371000000006], [-72.289591, 42.43731100000001], [-72.29065, 42.43745199999999], [-72.290834, 42.43720099999999], [-72.290746, 42.436999], [-72.29003999999999, 42.43654999999999], [-72.289932, 42.43622199999999], [-72.289177, 42.436092], [-72.289203, 42.435874000000005], [-72.28890299999999, 42.435486], [-72.289928, 42.43466899999999], [-72.290078, 42.433386], [-72.290228, 42.43315200000001], [-72.290689, 42.433247], [-72.291153, 42.43403], [-72.291921, 42.43400899999999], [-72.292127, 42.433758999999995], [-72.291398, 42.43339399999999], [-72.29129, 42.432964999999996], [-72.291309, 42.432368999999994], [-72.291551, 42.431892000000005], [-72.292062, 42.431584000000015], [-72.29193099999999, 42.431265], [-72.29228599999999, 42.43080500000001], [-72.291967, 42.430149], [-72.29213899999999, 42.429863999999995], [-72.292853, 42.42961700000003], [-72.293934, 42.429748], [-72.29471099999999, 42.42888], [-72.29543799999999, 42.42845599999998], [-72.296148, 42.42757], [-72.29776799999999, 42.42695], [-72.297848, 42.426823999999996], [-72.29722, 42.426534999999994], [-72.29727799999999, 42.42641000000001], [-72.29883900000002, 42.426031999999985], [-72.299499, 42.42548199999999], [-72.30032299999999, 42.425487000000004], [-72.300437, 42.425378], [-72.300274, 42.42481499999999], [-72.30036799999999, 42.42447100000001], [-72.30181499999999, 42.424177], [-72.302433, 42.424398999999994], [-72.30247299999999, 42.423894999999995], [-72.301304, 42.42350299999999], [-72.30129699999999, 42.423142], [-72.30085799999999, 42.422131999999976], [-72.301121, 42.42185700000001], [-72.301527, 42.42182600000002], [-72.301596, 42.42172499999999], [-72.301328, 42.42147999999999], [-72.301726, 42.42125599999999], [-72.30183, 42.420971000000016], [-72.302146, 42.42094800000001], [-72.302109, 42.42031], [-72.304186, 42.42012799999999], [-72.304639, 42.41992899999999], [-72.30496, 42.420434], [-72.30514099999999, 42.420427], [-72.30530399999999, 42.419958], [-72.30552, 42.41986699999999], [-72.30628399999999, 42.420114000000005], [-72.306719, 42.419546], [-72.306658, 42.41899199999999], [-72.30605, 42.41788899999999], [-72.307062, 42.41719799999999], [-72.306587, 42.416322], [-72.30695, 42.41613100000001], [-72.30800099999999, 42.41598599999999], [-72.308014, 42.41583500000001], [-72.307399, 42.41539499999999], [-72.307382, 42.414891], [-72.307679, 42.414573999999995], [-72.30864799999999, 42.41462099999998], [-72.308923, 42.414269999999995], [-72.308725, 42.41282599999998], [-72.30949199999999, 42.41181399999999], [-72.309292, 42.41156099999999], [-72.308705, 42.411667], [-72.308663, 42.41134799999998], [-72.30926699999999, 42.41081399999999], [-72.309932, 42.41082599999999], [-72.31034, 42.410635000000006], [-72.310446, 42.40930999999999], [-72.310893, 42.40871600000001], [-72.310705, 42.408371], [-72.30998000000001, 42.408628000000014], [-72.309982, 42.40852700000001], [-72.310475, 42.40777400000001], [-72.311425, 42.407568999999995], [-72.31196, 42.40706900000001], [-72.312673, 42.406887999999995], [-72.313097, 42.40623600000001], [-72.313478, 42.40650600000001], [-72.313715, 42.406448999999995], [-72.313732, 42.405963], [-72.31309800000001, 42.40519599999999], [-72.313407, 42.40478600000001], [-72.312949, 42.404448], [-72.312974, 42.40418799999999], [-72.312685, 42.40390999999999], [-72.312624, 42.40328799999998], [-72.31275, 42.403096], [-72.31334799999999, 42.403074000000004], [-72.313206, 42.402687], [-72.313412, 42.40240299999998], [-72.313272, 42.401865], [-72.312971, 42.40159499999999], [-72.313733, 42.40196], [-72.313982, 42.401911000000005], [-72.31409699999999, 42.40165099999999], [-72.314055, 42.40138200000001], [-72.313332, 42.40055599999999], [-72.313571, 42.400364], [-72.313632, 42.39992000000001], [-72.314117, 42.399905000000004], [-72.314013, 42.39921700000001], [-72.31415, 42.39901599999999], [-72.314973, 42.399004], [-72.315189, 42.398837000000015], [-72.314489, 42.39801899999999], [-72.31474000000001, 42.397760000000005], [-72.314145, 42.397504999999995], [-72.314041, 42.396774], [-72.313594, 42.39641900000001], [-72.31549799999999, 42.39548999999998], [-72.315433, 42.395288], [-72.314857, 42.39541099999999], [-72.31452, 42.3953], [-72.314774, 42.39473900000001], [-72.315124, 42.394699], [-72.315561, 42.394919], [-72.31597, 42.394712], [-72.315994, 42.394544], [-72.31369, 42.39293699999999], [-72.31357, 42.392617000000016], [-72.31367399999999, 42.39236599999998], [-72.314514, 42.39190099999999], [-72.31460899999999, 42.391473], [-72.31393899999999, 42.39092399999998], [-72.31289, 42.390959999999986], [-72.31267, 42.390488999999995], [-72.312721, 42.389985999999986], [-72.312432, 42.389689999999995], [-72.312703, 42.389573999999996], [-72.313148, 42.390139], [-72.313564, 42.390209000000006], [-72.313723, 42.390075], [-72.31361799999999, 42.389479], [-72.312736, 42.388684999999995], [-72.311905, 42.38840400000001], [-72.310058, 42.38736099999999], [-72.311416, 42.38689], [-72.310507, 42.386508], [-72.310407, 42.38636399999999], [-72.31054300000001, 42.386298], [-72.311329, 42.386621000000005], [-72.311734, 42.386615000000006], [-72.31166900000001, 42.38638800000001], [-72.310931, 42.385922], [-72.31093299999999, 42.38574599999999], [-72.311454, 42.385496999999994], [-72.312321, 42.384646], [-72.311905, 42.384526000000015], [-72.311863, 42.384307], [-72.312754, 42.383213000000005], [-72.31304899999999, 42.383072], [-72.31343, 42.38329999999999], [-72.313996, 42.383025999999994], [-72.313975, 42.38290899999998], [-72.313344, 42.382862999999986], [-72.31298699999999, 42.38261000000001], [-72.313138, 42.382173999999985], [-72.313591, 42.382041999999984], [-72.31425399999999, 42.382172], [-72.31446199999999, 42.381703], [-72.313716, 42.38095999999999], [-72.313858, 42.380348], [-72.31325799999999, 42.379565], [-72.313689, 42.37938200000001], [-72.31320199999999, 42.37863300000001], [-72.31248800000002, 42.378897], [-72.312403, 42.378477000000004], [-72.31352799999999, 42.377711], [-72.313724, 42.37729299999999], [-72.313436, 42.37688000000001], [-72.312525, 42.376706999999996], [-72.312066, 42.376453], [-72.312944, 42.37552600000001], [-72.312395, 42.374588], [-72.312646, 42.37440499999998], [-72.31223200000001, 42.37417599999999], [-72.313085, 42.373838], [-72.3131, 42.373602999999996], [-72.311989, 42.373796], [-72.311155, 42.37293299999999], [-72.311073, 42.37241199999999], [-72.311303, 42.372162], [-72.311629, 42.372274000000004], [-72.311802, 42.372023], [-72.31159, 42.371854], [-72.31175100000002, 42.371704], [-72.314354, 42.37141499999999], [-72.314481, 42.371247999999994], [-72.31432, 42.370709], [-72.31496, 42.370252999999984], [-72.315056, 42.369908999999986], [-72.315631, 42.369956], [-72.315337, 42.36925699999998], [-72.314831, 42.36911899999999], [-72.314161, 42.36934000000002], [-72.31325199999999, 42.36891299999999], [-72.31276799999999, 42.36740700000001], [-72.312398, 42.36721899999999], [-72.311908, 42.36605700000002], [-72.311572, 42.36584399999999], [-72.311008, 42.365788999999985], [-72.31075299999999, 42.365484999999985], [-72.31065, 42.36486300000001], [-72.31035, 42.36453300000001], [-72.31036700000001, 42.364173], [-72.310634, 42.36373799999999], [-72.312662, 42.362655], [-72.31285, 42.36213600000002], [-72.31201399999999, 42.360736], [-72.312086, 42.359721000000015], [-72.311447, 42.35872599999998], [-72.31147299999999, 42.358490999999994], [-72.311636, 42.35818199999998], [-72.312102, 42.358034], [-72.31244699999999, 42.35833900000001], [-72.31253199999999, 42.358700999999996], [-72.31310599999999, 42.35878099999998], [-72.313463, 42.35840600000001], [-72.31371299999999, 42.35757699999999], [-72.313636, 42.35672900000001], [-72.312992, 42.35596899999997], [-72.313065, 42.35565], [-72.313579, 42.355309999999996], [-72.313794, 42.354531], [-72.312587, 42.35371600000002], [-72.31255, 42.353212000000006], [-72.31218199999999, 42.352906999999995], [-72.31203599999999, 42.35216699999998], [-72.313153, 42.350069000000005], [-72.31415299999999, 42.34892800000002], [-72.31441199999999, 42.347536], [-72.314081, 42.344873], [-72.314126, 42.34421899999999], [-72.314548, 42.343895], [-72.314841, 42.343216999999996], [-72.314606, 42.340934], [-72.314782, 42.339777], [-72.31517199999999, 42.339402], [-72.315647, 42.339389], [-72.316859, 42.339844000000014], [-72.317494, 42.339688999999986], [-72.318134, 42.33919900000001], [-72.31994000000002, 42.33707400000001], [-72.320048, 42.336663000000016], [-72.321969, 42.33515099999999], [-72.323061, 42.333884000000005], [-72.32316999999999, 42.33341500000001], [-72.323075, 42.33297700000001], [-72.322386, 42.332283999999994], [-72.32258399999999, 42.331168999999996], [-72.323084, 42.330972], [-72.324643, 42.330892], [-72.324985, 42.330676], [-72.325711, 42.329062], [-72.326079, 42.328628], [-72.32612, 42.328141999999986], [-72.324741, 42.326805], [-72.32458, 42.326215999999995], [-72.324754, 42.32595699999999], [-72.325884, 42.325177000000004], [-72.326336, 42.325131], [-72.326448, 42.32518999999999], [-72.326499, 42.32623100000001], [-72.326909, 42.326738000000006], [-72.32739400000001, 42.32679200000002], [-72.328032, 42.326395000000005], [-72.328336, 42.325768], [-72.328267, 42.325104], [-72.3274, 42.323477], [-72.327225, 42.32241], [-72.327351, 42.321529999999996], [-72.327161, 42.32069699999999], [-72.327344, 42.319800000000015], [-72.328127, 42.318791], [-72.32884299999999, 42.318503], [-72.328884, 42.319477], [-72.32950199999999, 42.31971699999999], [-72.330857, 42.319669], [-72.333193, 42.31902399999999], [-72.33377, 42.318164], [-72.334805, 42.31765200000001], [-72.334682, 42.316879], [-72.335157, 42.31608499999999], [-72.33492799999999, 42.315563], [-72.33500099999999, 42.31522800000002], [-72.336925, 42.314848], [-72.337936, 42.314462000000006], [-72.339112, 42.31430299999999], [-72.34016, 42.31446200000002], [-72.341989, 42.31443499999998], [-72.342399, 42.314169], [-72.343597, 42.31188699999999], [-72.344475, 42.311280999999994], [-72.345201, 42.311035000000004], [-72.346316, 42.30975099999999], [-72.348402, 42.309112999999996], [-72.34894299999999, 42.309208999999996], [-72.350326, 42.310278], [-72.35095799999999, 42.310316], [-72.351458, 42.310067999999994], [-72.351463, 42.30974099999998], [-72.3508, 42.308795999999994], [-72.349864, 42.30874600000001], [-72.34961799999999, 42.30858500000001], [-72.349668, 42.308283], [-72.350146, 42.30802699999999], [-72.35196499999999, 42.30787299999999], [-72.35260000000002, 42.30767600000001], [-72.352774, 42.307391999999986], [-72.352429, 42.307071], [-72.35195500000002, 42.30704199999999], [-72.351238, 42.30743899999998], [-72.350855, 42.30739399999998], [-72.350197, 42.306877000000014], [-72.34979, 42.30616899999999], [-72.349555, 42.30528599999999], [-72.34989399999999, 42.30451600000001], [-72.35074900000001, 42.303960999999994], [-72.351495, 42.30389900000001], [-72.351745, 42.30448900000001], [-72.3516, 42.30591499999999], [-72.35196599999999, 42.306354000000006], [-72.352316, 42.306289], [-72.354017, 42.30576500000001], [-72.354852, 42.305074999999995], [-72.355869, 42.303463], [-72.356403, 42.30322399999999], [-72.356583, 42.303275], [-72.356978, 42.304034], [-72.35731299999999, 42.30426300000001], [-72.35714899999999, 42.30469799999999], [-72.35778499999999, 42.305140000000016], [-72.357823, 42.305643], [-72.358069, 42.305805], [-72.35857899999999, 42.305673999999996], [-72.358814, 42.30580200000001], [-72.359195, 42.30675299999999], [-72.35957599999999, 42.306948999999996], [-72.359852, 42.30734600000001], [-72.360558, 42.30766200000002], [-72.360196, 42.307734999999994], [-72.36053500000001, 42.308476], [-72.36040899999999, 42.30860899999999], [-72.358895, 42.308697999999985], [-72.358632, 42.30889800000001], [-72.358674, 42.309125], [-72.358921, 42.30921899999999], [-72.358761, 42.30935199999999], [-72.35905, 42.309673000000004], [-72.35901299999999, 42.309849], [-72.358461, 42.309794999999994], [-72.35848899999999, 42.310181], [-72.357472, 42.310240000000015], [-72.35726199999999, 42.31070899999999], [-72.356411, 42.311013], [-72.356431, 42.31118099999999], [-72.357006, 42.311227], [-72.356371, 42.312161999999994], [-72.35687, 42.31277899999999], [-72.356887, 42.313131], [-72.356285, 42.31337], [-72.356077, 42.31369600000001], [-72.35614799999999, 42.314242], [-72.355975, 42.314501], [-72.35492099999999, 42.314769999999996], [-72.354467, 42.31569000000001], [-72.354608, 42.316034999999985], [-72.35498900000002, 42.316238999999996], [-72.35507299999999, 42.31670199999999], [-72.354599, 42.31740300000001], [-72.354917, 42.31801800000001], [-72.355254, 42.318138000000005], [-72.35453199999999, 42.31887099999999], [-72.354664, 42.31912400000001], [-72.355004, 42.319033999999995], [-72.355295, 42.319196], [-72.354995, 42.319604999999996], [-72.354726, 42.31951099999998], [-72.353009, 42.32106700000003], [-72.353308, 42.321455], [-72.353336, 42.32181600000001], [-72.353819, 42.321971000000005], [-72.35389599999999, 42.32214800000001], [-72.35343, 42.32236299999998], [-72.353742, 42.32261700000001], [-72.35358599999999, 42.32319499999999], [-72.353661, 42.32346400000001], [-72.354236, 42.323561], [-72.354346, 42.323763], [-72.35351299999999, 42.324336], [-72.353185, 42.324358], [-72.35297299999999, 42.32418099999999], [-72.352492, 42.32463], [-72.351314, 42.324906], [-72.351345, 42.32506600000001], [-72.35181899999999, 42.325095000000026], [-72.351734, 42.32551400000001], [-72.352578, 42.325697], [-72.353054, 42.326305000000005], [-72.352385, 42.326509], [-72.35251, 42.327232], [-72.35346299999999, 42.327668000000024], [-72.35322000000001, 42.32806000000001], [-72.352194, 42.328689999999995], [-72.35298, 42.329007], [-72.35241599999999, 42.32972399999998], [-72.352319, 42.329404999999994], [-72.352104, 42.32942799999999], [-72.351964, 42.329737999999985], [-72.351291, 42.32945499999999], [-72.351053, 42.329496], [-72.351106, 42.32974799999998], [-72.35153, 42.33001999999999], [-72.351747, 42.330626], [-72.352563, 42.33120299999999], [-72.35269699999999, 42.33204300000001], [-72.35239299999999, 42.332737000000016], [-72.35200499999999, 42.33296899999999], [-72.352172, 42.33318899999999], [-72.352077, 42.33343999999998], [-72.351798, 42.33321899999998], [-72.351648, 42.333479], [-72.351241, 42.33347499999999], [-72.351113, 42.33373499999998], [-72.351468, 42.334140000000005], [-72.35083300000001, 42.33432], [-72.351159, 42.334473999999986], [-72.350884, 42.334732], [-72.350966, 42.335253], [-72.351202, 42.335347000000006], [-72.351418, 42.33520600000001], [-72.351619, 42.33539199999999], [-72.35178499999999, 42.335603000000006], [-72.351567, 42.33587], [-72.351789, 42.336107], [-72.352125, 42.336259999999996], [-72.352212, 42.335774], [-72.352963, 42.33614899999999], [-72.352989, 42.336669], [-72.35323199999999, 42.337015], [-72.352893, 42.337054], [-72.35274199999999, 42.337271000000015], [-72.353529, 42.33755399999997], [-72.353481, 42.33773899999999], [-72.352948, 42.337877], [-72.352853, 42.338162000000004], [-72.353672, 42.338562999999986], [-72.353419, 42.338846], [-72.353561, 42.339166000000006], [-72.354227, 42.339196], [-72.353988, 42.340068000000024], [-72.354292, 42.340137], [-72.35463399999999, 42.339921000000004], [-72.35498199999999, 42.340058], [-72.355396, 42.34067800000002], [-72.378568, 42.34069799999999], [-72.38404, 42.34025], [-72.393708, 42.339296], [-72.39347, 42.338168999999986], [-72.405455, 42.336437], [-72.40941699999999, 42.35876199999999], [-72.472287, 42.35145800000001], [-72.464186, 42.308011], [-72.47924100000002, 42.30701899999999], [-72.483099, 42.30531800000001], [-72.487709, 42.30471499999999], [-72.49060899999999, 42.30363200000001], [-72.493586, 42.302268], [-72.49803399999999, 42.30511899999998], [-72.499117, 42.306263], [-72.500745, 42.305166], [-72.504151, 42.30547100000002], [-72.506737, 42.306374999999996], [-72.51019099999999, 42.305569], [-72.521421, 42.302182], [-72.52467299999999, 42.303155], [-72.52790999999999, 42.30143700000001], [-72.52789, 42.299838], [-72.53124, 42.297936], [-72.53363999999999, 42.29728999999999], [-72.53508099999999, 42.295542000000005], [-72.53633599999999, 42.294930000000015], [-72.537637, 42.294643000000015], [-72.53968400000001, 42.293065999999996], [-72.540146, 42.29217500000001], [-72.53999, 42.28981], [-72.540482, 42.28876400000001], [-72.540712, 42.287616], [-72.541485, 42.28655], [-72.543336, 42.285853], [-72.54693, 42.28514100000001], [-72.55645799999999, 42.281364], [-72.55860899999999, 42.280650000000016], [-72.555365, 42.24617099999998], [-72.546356, 42.216489], [-72.592418, 42.211691], [-72.596633, 42.21189100000001], [-72.60073299999999, 42.212790999999974], [-72.602233, 42.213291000000005], [-72.607933, 42.216291000000005], [-72.61023399999999, 42.218491000000014], [-72.612934, 42.22499100000001], [-72.62093399999999, 42.22929100000001], [-72.62393399999999, 42.233691], [-72.620189, 42.243576], [-72.61802999999999, 42.24807500000001], [-72.607918, 42.26017], [-72.600133, 42.26538999999999], [-72.598933, 42.26809], [-72.60133300000001, 42.281290000000006], [-72.605633, 42.28479000000001], [-72.613034, 42.28619], [-72.614449, 42.287506999999984], [-72.614921, 42.288658000000005], [-72.614701, 42.29019900000001], [-72.61823199999999, 42.29018800000001], [-72.622159, 42.28902599999997], [-72.624521, 42.28814800000001], [-72.627382, 42.28649199999999], [-72.627927, 42.28592299999999], [-72.629022, 42.28526699999998], [-72.630232, 42.28492899999999], [-72.633669, 42.285122], [-72.634849, 42.28538800000001], [-72.636196, 42.286113], [-72.63743699999999, 42.28739], [-72.640677, 42.284137000000015], [-72.64207999999999, 42.288174000000005], [-72.643832, 42.28851900000001], [-72.646048, 42.290339999999986], [-72.648652, 42.29176100000001], [-72.65383299999999, 42.290389999999995], [-72.656086, 42.289941999999996], [-72.660488, 42.28862799999999], [-72.660216, 42.28925399999998], [-72.672035, 42.290192999999995], [-72.672169, 42.290962000000015], [-72.672091, 42.29188699999999], [-72.736726, 42.284241], [-72.74121699999999, 42.36272999999999], [-72.67212599999999, 42.37135299999999], [-72.66919299999999, 42.40965799999999], [-72.704345, 42.405536000000005], [-72.702377, 42.430358000000005], [-72.700959, 42.452909999999996], [-72.65732799999999, 42.45837899999999], [-72.655716, 42.46125100000001], [-72.65737399999999, 42.466009000000014], [-72.65623, 42.470014000000006], [-72.662769, 42.469262000000015], [-72.660911, 42.480247999999996], [-72.648708, 42.52935999999996], [-72.652227, 42.53382400000001], [-72.65565, 42.540412], [-72.656279, 42.540979], [-72.65969799999999, 42.543123999999985], [-72.661018, 42.544187000000015], [-72.662249, 42.54671], [-72.663652, 42.548802999999985], [-72.66470000000001, 42.54941999999999], [-72.667366, 42.550427], [-72.66924399999999, 42.551452999999995], [-72.673, 42.55186500000001], [-72.67469899999999, 42.552532], [-72.67545199999999, 42.55301800000001], [-72.655344, 42.555234999999996], [-72.651974, 42.56863], [-72.638879, 42.570018], [-72.636821, 42.57798499999999], [-72.649929, 42.576874], [-72.632942, 42.645362999999996], [-72.73501, 42.633188], [-72.76609200000001, 42.62926], [-72.77264699999999, 42.658334], [-72.783861, 42.70591100000001], [-72.78965800000002, 42.729907], [-72.791421, 42.735268], [-72.791079, 42.736024]]]}}