{"type": "Feature", "properties": {"district_name": "Second Plymouth and Norfolk District", "chamber": "senate", "vintage": "2022-present"}, "geometry": {"type": "Polygon", "coordinates": [[[-71.080483, 42.095539], [-71.061256, 42.103194], [-71.060335, 42.106962], [-71.070973, 42.13214500000001], [-71.065038, 42.138722], [-71.063846, 42.14047299999999], [-71.056511, 42.153815], [-71.053927, 42.151195], [-71.05298, 42.151650000000004], [-71.0521, 42.151779999999995], [-71.05141, 42.15247000000001], [-71.05093, 42.15257999999999], [-71.05101, 42.15312000000001], [-71.05256, 42.15343000000001], [-71.05234, 42.15437], [-71.05186, 42.154989999999984], [-71.053987, 42.156174], [-71.053375, 42.156716], [-71.052416, 42.156862], [-71.05282, 42.15755], [-71.05244, 42.15775], [-71.052044, 42.158643000000005], [-71.052233, 42.159921000000004], [-71.05231, 42.16301], [-71.0531, 42.16331000000001], [-71.05325, 42.16383000000002], [-71.05373, 42.164460000000005], [-71.053849, 42.16547099999999], [-71.05235, 42.16514000000001], [-71.0508, 42.16505000000001], [-71.04659, 42.16526000000001], [-71.046523, 42.165559], [-71.044236, 42.167127], [-71.046595, 42.17095599999999], [-71.04816, 42.174180000000014], [-71.05016, 42.17777000000001], [-71.04997, 42.17779999999999], [-71.05014, 42.17940999999999], [-71.04838000000001, 42.179559999999995], [-71.04838000000001, 42.18079000000001], [-71.04599, 42.180509999999984], [-71.04507, 42.18056], [-71.04467, 42.182380000000016], [-71.04342, 42.18195999999998], [-71.041509, 42.18178300000001], [-71.03589, 42.181921999999986], [-71.03236, 42.18282], [-71.03187, 42.1834], [-71.0299, 42.183580000000006], [-71.02982, 42.18296000000001], [-71.02818000000002, 42.18309000000001], [-71.02818000000002, 42.18270999999999], [-71.019369, 42.18452000000001], [-71.019411, 42.18425999999999], [-71.018988, 42.184057], [-71.019459, 42.18378900000001], [-71.019229, 42.18351100000001], [-71.019456, 42.183246], [-71.019941, 42.181895999999995], [-71.019646, 42.18147999999999], [-71.019691, 42.18125899999999], [-71.020164, 42.180970999999985], [-71.019898, 42.18029399999999], [-71.020167, 42.179622], [-71.019746, 42.179326], [-71.019751, 42.179013999999995], [-71.019549, 42.17879400000002], [-71.019665, 42.178529], [-71.019994, 42.178514], [-71.019878, 42.177938000000005], [-71.020628, 42.17757], [-71.020574, 42.176565], [-71.021054, 42.176210999999995], [-71.021134, 42.17589799999999], [-71.020816, 42.175015000000016], [-71.021034, 42.17460299999999], [-71.021614, 42.17409899999999], [-71.021298, 42.17340999999999], [-71.022428, 42.170546], [-71.021606, 42.1703], [-71.021984, 42.16941700000001], [-71.021942, 42.16916200000001], [-71.027565, 42.15632099999999], [-71.035093, 42.13563400000001], [-71.02721, 42.13293899999998], [-71.027576, 42.12759600000001], [-71.027521, 42.126414999999994], [-71.026953, 42.123734], [-71.021859, 42.118745], [-71.001974, 42.12652599999999], [-70.998594, 42.111636], [-70.979117, 42.114076999999995], [-70.978774, 42.11339699999999], [-70.978863, 42.11298599999999], [-70.979301, 42.11267600000001], [-70.979873, 42.11162399999999], [-70.980818, 42.11118199999998], [-70.980925, 42.110632], [-70.980539, 42.10992600000001], [-70.980663, 42.109255], [-70.980512, 42.10902000000001], [-70.978747, 42.108461], [-70.97813, 42.107862], [-70.977925, 42.10649799999999], [-70.977479, 42.10611999999999], [-70.977364, 42.10577299999999], [-70.977875, 42.104768000000014], [-70.977603, 42.104369999999996], [-70.977374, 42.10434299999999], [-70.97742, 42.10417000000002], [-70.976855, 42.103358000000014], [-70.976725, 42.10265900000001], [-70.976688, 42.10185799999999], [-70.976969, 42.101314], [-70.976895, 42.101199], [-70.977058, 42.10109900000001], [-70.976733, 42.100534999999994], [-70.977144, 42.100253000000016], [-70.977174, 42.09978000000001], [-70.976737, 42.09915099999999], [-70.976674, 42.098707], [-70.975954, 42.09830799999999], [-70.97507200000001, 42.096228999999994], [-70.975188, 42.09572699999999], [-70.975533, 42.09531500000001], [-70.975243, 42.09508500000002], [-70.97518, 42.094816], [-70.975437, 42.09418100000001], [-70.975458, 42.09283400000001], [-70.975703, 42.092348999999984], [-70.975226, 42.09170700000001], [-70.975356, 42.091229000000006], [-70.97525, 42.09069400000002], [-70.975587, 42.090594], [-70.975465, 42.09011900000001], [-70.975864, 42.08990000000001], [-70.975788, 42.089346], [-70.975373, 42.089085999999995], [-70.975176, 42.088082], [-70.974989, 42.08796500000001], [-70.975411, 42.087467], [-70.946838, 42.094534], [-70.915908, 42.100123], [-70.902412, 42.08589700000001], [-70.874945, 42.089667000000006], [-70.874653, 42.08873299999998], [-70.87433, 42.08847899999999], [-70.870011, 42.087303], [-70.867686, 42.08826900000002], [-70.867077, 42.08905399999999], [-70.86616, 42.08964999999999], [-70.8657, 42.09048599999999], [-70.865295, 42.090624000000005], [-70.864512, 42.090412], [-70.864303, 42.089794000000005], [-70.863102, 42.089544999999994], [-70.862187, 42.089162], [-70.861281, 42.089225], [-70.861101, 42.089653], [-70.85965800000001, 42.09023100000001], [-70.859452, 42.090667], [-70.858824, 42.09104199999999], [-70.857481, 42.09137200000001], [-70.855486, 42.09242300000001], [-70.854976, 42.093339], [-70.855137, 42.094166], [-70.854537, 42.09482299999999], [-70.853573, 42.09544700000002], [-70.853039, 42.095264], [-70.852084, 42.09531900000001], [-70.851153, 42.094953], [-70.850642, 42.094927999999996], [-70.84835, 42.09622000000002], [-70.847401, 42.096335999999994], [-70.846571, 42.095859], [-70.845405, 42.09548200000001], [-70.844986, 42.09507299999999], [-70.843349, 42.094762], [-70.843786, 42.094128000000005], [-70.845513, 42.092856999999995], [-70.845639, 42.092217000000005], [-70.845546, 42.091884], [-70.844267, 42.09021499999998], [-70.84266, 42.088868999999995], [-70.843897, 42.077184999999986], [-70.841789, 42.071736], [-70.838219, 42.06388500000001], [-70.840011, 42.06126599999999], [-70.841008, 42.060406999999984], [-70.839007, 42.05938499999999], [-70.839059, 42.05928600000002], [-70.836825, 42.05929099999999], [-70.84583, 42.055073], [-70.845367, 42.05409099999999], [-70.845417, 42.053857], [-70.846832, 42.052223999999995], [-70.847145, 42.051444999999994], [-70.847251, 42.050672], [-70.847022, 42.050188], [-70.847246, 42.049684], [-70.847013, 42.048158999999984], [-70.846517, 42.04772200000001], [-70.846306, 42.04736299999999], [-70.846294, 42.04696299999999], [-70.845658, 42.046155], [-70.841071, 42.04489300000002], [-70.842246, 42.04343200000002], [-70.844766, 42.04269799999999], [-70.833463, 42.019548], [-70.814978, 42.02397500000001], [-70.812975, 42.022721999999995], [-70.813757, 42.021208999999985], [-70.813367, 42.020424000000006], [-70.813772, 42.019871], [-70.81363, 42.019416], [-70.812296, 42.01862700000001], [-70.812289, 42.01818800000001], [-70.811855, 42.017629], [-70.809389, 42.01666800000001], [-70.809765, 42.015848], [-70.809676, 42.01530799999999], [-70.808804, 42.014586], [-70.808193, 42.013679], [-70.807318, 42.01311], [-70.807251, 42.01287599999998], [-70.807494, 42.012489999999985], [-70.807668, 42.012491], [-70.807989, 42.01212600000001], [-70.807931, 42.01167099999999], [-70.807517, 42.011084000000025], [-70.806495, 42.01033300000002], [-70.818698, 41.996724], [-70.822885, 41.984503], [-70.863066, 41.956802], [-70.860882, 41.95498799999999], [-70.869128, 41.94827700000001], [-70.908533, 41.966387000000005], [-70.907629, 41.96700299999999], [-70.907273, 41.967536], [-70.90724, 41.96986399999998], [-70.907368, 41.97047], [-70.908448, 41.97153500000002], [-70.908841, 41.97220500000001], [-70.908345, 41.97388699999998], [-70.910139, 41.975954], [-70.911726, 41.97700699999998], [-70.912119, 41.977692000000005], [-70.912177, 41.97865799999998], [-70.91155, 41.979759], [-70.91148, 41.980227], [-70.901399, 41.98298100000001], [-70.899775, 41.988284], [-70.899187, 41.99637100000001], [-70.903366, 41.996627], [-70.908439, 41.996164], [-70.909652, 41.99641699999999], [-70.910681, 41.99692799999998], [-70.91112600000001, 41.99672799999999], [-70.912833, 41.997004999999994], [-70.913485, 41.997486], [-70.914077, 41.998452000000015], [-70.91409, 41.99882100000001], [-70.914498, 41.99933200000001], [-70.917343, 42.002263], [-70.917479, 42.00272999999999], [-70.917307, 42.00356], [-70.91739, 42.004636], [-70.918555, 42.005928], [-70.919516, 42.00666799999999], [-70.920672, 42.007259000000005], [-70.925364, 42.00890900000001], [-70.926923, 42.008873], [-70.930446, 42.007809], [-70.935392, 42.00782900000002], [-70.939364, 42.007281], [-70.942994, 42.006541000000006], [-70.95366400000002, 42.00585], [-70.979585, 42.010999], [-70.987159, 42.046568], [-71.022924, 42.04217799999999], [-71.025776, 42.055088999999995], [-71.069595, 42.049704], [-71.080483, 42.095539]]]}}