{"type": "Feature", "properties": {"district_name": "Hampden and Hampshire District", "chamber": "senate", "vintage": "2022-present"}, "geometry": {"type": "Polygon", "coordinates": [[[-72.895663, 42.12391699999999], [-72.874469, 42.20677600000001], [-72.87218, 42.216438999999994], [-72.868418, 42.22374799999999], [-72.864279, 42.23226599999999], [-72.857634, 42.240480000000005], [-72.813422, 42.245003999999994], [-72.81440500000001, 42.25681900000002], [-72.735758, 42.266518], [-72.736726, 42.284241], [-72.672091, 42.29188700000002], [-72.672169, 42.290962000000015], [-72.672035, 42.290192999999995], [-72.660216, 42.28925399999998], [-72.660468, 42.288695999999995], [-72.648766, 42.291824000000005], [-72.646138, 42.290468], [-72.643832, 42.28851900000001], [-72.64208, 42.288174000000005], [-72.640677, 42.284137000000015], [-72.637441, 42.287406], [-72.636196, 42.286113], [-72.634849, 42.28538800000001], [-72.633669, 42.285122], [-72.630232, 42.28492899999999], [-72.629022, 42.28526699999998], [-72.627927, 42.28592299999999], [-72.627382, 42.286492], [-72.624521, 42.28814800000001], [-72.622198, 42.289012], [-72.621085, 42.28962], [-72.619303, 42.290067], [-72.614701, 42.29019900000001], [-72.614921, 42.288658000000005], [-72.614449, 42.287506999999984], [-72.612978, 42.286073999999985], [-72.612007, 42.285573], [-72.611098, 42.285334], [-72.605056, 42.28440100000001], [-72.60432000000002, 42.284021], [-72.601209, 42.281259], [-72.600797, 42.279986000000015], [-72.600714, 42.27858700000001], [-72.600376, 42.27739299999998], [-72.599959, 42.276845], [-72.599364, 42.275336], [-72.59884, 42.27066800000001], [-72.59895200000001, 42.268392999999996], [-72.599173, 42.26738100000001], [-72.599917, 42.265741], [-72.600278, 42.265311], [-72.607781, 42.26057999999999], [-72.611248, 42.25725], [-72.612579, 42.255310000000016], [-72.613621, 42.254248999999994], [-72.615071, 42.252013999999996], [-72.618009, 42.248368999999975], [-72.620071, 42.24452099999999], [-72.623983, 42.235925], [-72.62411, 42.23507299999999], [-72.624007, 42.234031000000016], [-72.623656, 42.23165599999999], [-72.623465, 42.23131199999999], [-72.622463, 42.23021099999999], [-72.615725, 42.22711500000001], [-72.614115, 42.226064], [-72.61273, 42.224653999999994], [-72.611959, 42.223611000000005], [-72.611654, 42.22294599999999], [-72.610749, 42.219419999999985], [-72.610078, 42.218189], [-72.60949, 42.217466], [-72.606533, 42.215297], [-72.603803, 42.21386699999999], [-72.602352, 42.21331500000001], [-72.599481, 42.212474], [-72.596133, 42.211774999999996], [-72.593448, 42.211557000000006], [-72.572188, 42.21375500000001], [-72.570966, 42.207444999999986], [-72.57087800000001, 42.205980000000004], [-72.571201, 42.203697], [-72.572399, 42.200712], [-72.57360700000001, 42.20146200000001], [-72.575742, 42.201927], [-72.578933, 42.201615999999994], [-72.57844, 42.197575000000015], [-72.577576, 42.194367], [-72.577272, 42.194233999999994], [-72.575217, 42.19444599999999], [-72.576176, 42.192330000000005], [-72.576324, 42.192378000000005], [-72.576496, 42.191995000000006], [-72.580562, 42.193148], [-72.583769, 42.193639000000005], [-72.584442, 42.193002], [-72.584933, 42.19289199999998], [-72.585454, 42.19351], [-72.588219, 42.192664000000015], [-72.590981, 42.19331600000002], [-72.591297, 42.19283], [-72.592965, 42.19248900000001], [-72.594974, 42.192871], [-72.595059, 42.19212100000001], [-72.595671, 42.191527], [-72.597301, 42.19170100000001], [-72.598097, 42.19157899999998], [-72.59865, 42.191056999999994], [-72.598806, 42.19108000000002], [-72.598889, 42.19053799999999], [-72.599614, 42.190912000000004], [-72.601179, 42.18945500000001], [-72.600503, 42.188834999999976], [-72.60119, 42.18803599999999], [-72.603157, 42.186761000000004], [-72.60265, 42.18761], [-72.603648, 42.187142], [-72.603923, 42.187369], [-72.605129, 42.186208999999984], [-72.606288, 42.18491999999999], [-72.605381, 42.18301899999997], [-72.605275, 42.182038000000006], [-72.605408, 42.181276000000004], [-72.606284, 42.18191300000001], [-72.607509, 42.18242900000002], [-72.610894, 42.182859000000015], [-72.609575, 42.185234], [-72.61029600000002, 42.185223999999984], [-72.610037, 42.185413], [-72.61179, 42.186748], [-72.609958, 42.188078000000004], [-72.608933, 42.188454000000014], [-72.609859, 42.18979], [-72.618778, 42.18661500000001], [-72.621249, 42.18596999999999], [-72.623113, 42.18508400000002], [-72.623745, 42.184552], [-72.625053, 42.18302099999999], [-72.625624, 42.182096], [-72.626133, 42.18112500000001], [-72.627062, 42.17860599999999], [-72.627655, 42.17662800000001], [-72.628258, 42.173590000000004], [-72.628498, 42.171974000000006], [-72.62861, 42.166227], [-72.628407, 42.165162], [-72.627342, 42.16203200000001], [-72.627303, 42.16049000000001], [-72.627843, 42.157833], [-72.62788, 42.155576], [-72.627732, 42.153986999999994], [-72.627036, 42.15133500000001], [-72.625357, 42.149189], [-72.620208, 42.14536900000001], [-72.618363, 42.143706], [-72.615894, 42.13995200000001], [-72.614968, 42.137589], [-72.61501, 42.13682300000001], [-72.615794, 42.13334600000001], [-72.617701, 42.129653000000005], [-72.62089, 42.125092999999985], [-72.621481, 42.123788000000005], [-72.62213100000001, 42.121424000000005], [-72.622132, 42.12035899999999], [-72.620946, 42.116381], [-72.620554, 42.11571], [-72.615425, 42.10970300000001], [-72.61316, 42.107967], [-72.610509, 42.10634499999998], [-72.608958, 42.105598], [-72.601077, 42.10246600000001], [-72.597949, 42.101017000000006], [-72.596765, 42.100344], [-72.592636, 42.097436999999985], [-72.588487, 42.09321200000001], [-72.585619, 42.09002000000001], [-72.584912, 42.088843], [-72.584112, 42.08699699999999], [-72.582612, 42.08106200000002], [-72.582671, 42.079518], [-72.583177, 42.07867200000001], [-72.583722, 42.07799100000002], [-72.587002, 42.07513099999996], [-72.588765, 42.073164], [-72.589383, 42.07219099999998], [-72.591813, 42.069561], [-72.600451, 42.057759], [-72.605747, 42.049178000000005], [-72.606804, 42.046737], [-72.607337, 42.044856999999986], [-72.607984, 42.03904200000001], [-72.60813000000002, 42.03274600000001], [-72.607978, 42.031083], [-72.611739, 42.03106799999999], [-72.640191, 42.03204800000002], [-72.673032, 42.035195], [-72.69933, 42.036957], [-72.714561, 42.03691100000001], [-72.713119, 42.038908], [-72.712461, 42.04122400000001], [-72.712619, 42.043941000000004], [-72.711596, 42.048126999999994], [-72.710975, 42.049806000000004], [-72.709555, 42.052075], [-72.708075, 42.05554300000001], [-72.70763, 42.059245000000004], [-72.708078, 42.06448399999999], [-72.706154, 42.07347], [-72.70673, 42.073792000000005], [-72.705989, 42.08079700000001], [-72.837212, 42.10221800000001], [-72.839319, 42.111726999999995], [-72.853897, 42.11500600000001], [-72.895663, 42.12391699999999]]]}}