{"type": "Feature", "properties": {"district_name": "4th Congressional District", "chamber": "us-house", "vintage": "2012-2020"}, "geometry": {"type": "Polygon", "coordinates": [[[-71.602221, 42.218101], [-71.586759, 42.25954500000002], [-71.564917, 42.26689400000001], [-71.56219399999999, 42.267651], [-71.56058399999999, 42.267864], [-71.55983499999999, 42.267582999999995], [-71.559483, 42.267754999999994], [-71.55872099999999, 42.267803000000036], [-71.558506, 42.26749699999999], [-71.558122, 42.267407], [-71.557113, 42.26780300000002], [-71.556859, 42.26807899999999], [-71.555605, 42.267855], [-71.55545099999999, 42.267587999999996], [-71.554596, 42.267805], [-71.552903, 42.267604], [-71.55222599999999, 42.267312999999994], [-71.55176300000001, 42.26635799999999], [-71.55148799999999, 42.266234000000004], [-71.550755, 42.26625500000001], [-71.55011499999999, 42.266023], [-71.54814, 42.26603099999999], [-71.547748, 42.265661000000016], [-71.547186, 42.26563299999997], [-71.546971, 42.26526], [-71.546601, 42.26550700000001], [-71.545917, 42.26521999999999], [-71.546078, 42.264906], [-71.545994, 42.26478200000001], [-71.544901, 42.264514], [-71.544624, 42.264847999999986], [-71.54437, 42.26485000000001], [-71.544131, 42.264714999999995], [-71.54417, 42.264448999999985], [-71.543716, 42.26398599999998], [-71.542993, 42.263917000000006], [-71.54251599999999, 42.26408500000001], [-71.5417, 42.26398099999997], [-71.541223, 42.263334], [-71.540054, 42.262716], [-71.53963, 42.262780000000014], [-71.539061, 42.263180000000006], [-71.53839099999999, 42.264203], [-71.53790599999999, 42.264615], [-71.537052, 42.264643000000014], [-71.53514299999999, 42.265058999999994], [-71.53197999999999, 42.266127999999995], [-71.52797, 42.26642400000001], [-71.52654, 42.266333], [-71.525508, 42.265901999999976], [-71.524661, 42.265834999999996], [-71.52333, 42.265944999999995], [-71.52259099999999, 42.26641199999999], [-71.522184, 42.266444000000014], [-71.522757, 42.255207], [-71.486001, 42.24696], [-71.486297, 42.23124999999998], [-71.475359, 42.22948499999999], [-71.46716099999999, 42.23078699999999], [-71.463951, 42.226645], [-71.46027099999999, 42.216251], [-71.482345, 42.204035000000005], [-71.496335, 42.195058], [-71.50262599999999, 42.191416], [-71.497378, 42.166643000000015], [-71.492429, 42.16608600000001], [-71.478028, 42.165743000000006], [-71.47811899999999, 42.156782], [-71.47274399999999, 42.15687299999999], [-71.463957, 42.158239], [-71.44406699999999, 42.17488900000001], [-71.430174, 42.179386], [-71.423598, 42.179258], [-71.423326, 42.17798200000002], [-71.415047, 42.178483], [-71.40222, 42.178797999999986], [-71.404381, 42.188215], [-71.385244, 42.19180500000001], [-71.384756, 42.19203300000001], [-71.378391, 42.193472], [-71.361986, 42.195761000000005], [-71.34416999999999, 42.200703000000004], [-71.34417599999999, 42.201287], [-71.345772, 42.202196], [-71.34642, 42.202932], [-71.346847, 42.20371399999999], [-71.34653000000002, 42.20417500000001], [-71.34658, 42.20476599999999], [-71.34803099999999, 42.204682999999996], [-71.349338, 42.20507499999999], [-71.35086600000001, 42.20600799999999], [-71.35186999999999, 42.207049999999995], [-71.352054, 42.20770099999998], [-71.351434, 42.208997999999994], [-71.351657, 42.209832999999996], [-71.351591, 42.211044], [-71.350387, 42.213522], [-71.349023, 42.21454299999999], [-71.34698, 42.21555499999999], [-71.346076, 42.21552400000003], [-71.34111899999999, 42.214246], [-71.340171, 42.21384899999999], [-71.33945, 42.214099000000004], [-71.33845699999999, 42.21518299999999], [-71.338369, 42.21580999999998], [-71.338683, 42.216778], [-71.33963299999999, 42.217562], [-71.341071, 42.218126000000005], [-71.342126, 42.219519], [-71.34298000000001, 42.220039], [-71.34302, 42.22123199999999], [-71.342693, 42.22148599999999], [-71.341635, 42.22180100000001], [-71.341559, 42.22268899999998], [-71.340679, 42.224788999999994], [-71.338225, 42.226727999999994], [-71.33655399999999, 42.227643], [-71.334538, 42.229381999999994], [-71.33390399999999, 42.230180000000004], [-71.330991, 42.231966], [-71.329802, 42.233168], [-71.329561, 42.233670000000004], [-71.329897, 42.234885], [-71.330992, 42.23667000000002], [-71.331124, 42.23880199999999], [-71.33058, 42.24182299999998], [-71.329776, 42.242823], [-71.32921999999999, 42.24530800000001], [-71.330176, 42.24637300000001], [-71.33153899999999, 42.247115], [-71.332025, 42.247620000000005], [-71.33243399999999, 42.247729000000014], [-71.33267599999999, 42.248449999999984], [-71.33249599999999, 42.249075000000005], [-71.302922, 42.24827400000001], [-71.30848399999999, 42.270793999999995], [-71.323662, 42.297415], [-71.32974999999999, 42.312991000000004], [-71.327327, 42.313745999999995], [-71.319101, 42.31559700000002], [-71.31158599999999, 42.31779900000001], [-71.300102, 42.32039700000001], [-71.293666, 42.322152], [-71.269919, 42.32809599999999], [-71.27028000000001, 42.328731000000005], [-71.269763, 42.32976399999999], [-71.270279, 42.330522], [-71.270246, 42.33098], [-71.269767, 42.33118100000001], [-71.268183, 42.33057900000001], [-71.26570099999999, 42.33131799999999], [-71.265225, 42.33193], [-71.26518899999999, 42.332497], [-71.265393, 42.33300900000001], [-71.264884, 42.33330899999999], [-71.264802, 42.33417399999999], [-71.264455, 42.334604000000006], [-71.263278, 42.334983], [-71.26122, 42.334605], [-71.260075, 42.334844], [-71.25920099999999, 42.335685], [-71.258901, 42.33678999999999], [-71.256952, 42.337980999999985], [-71.25583, 42.338995999999995], [-71.25573899999999, 42.339538999999995], [-71.255873, 42.33996599999999], [-71.257082, 42.34073400000001], [-71.2586, 42.341206], [-71.260645, 42.34091999999999], [-71.261344, 42.341239], [-71.261884, 42.34186900000001], [-71.261407, 42.343594], [-71.261344, 42.344373000000004], [-71.25985299999999, 42.34551900000001], [-71.25974599999999, 42.345898], [-71.25979099999999, 42.34650300000001], [-71.260251, 42.347079000000015], [-71.26055699999999, 42.347938], [-71.260515, 42.348222000000014], [-71.25988199999999, 42.348659999999995], [-71.259065, 42.348803], [-71.258686, 42.349484], [-71.25914500000002, 42.35172399999999], [-71.260385, 42.35363299999999], [-71.25645999999999, 42.354816], [-71.256466, 42.354031], [-71.25568299999999, 42.353836], [-71.254103, 42.35472], [-71.25350999999999, 42.354873000000005], [-71.253068, 42.35570399999998], [-71.25113200000001, 42.35653099999998], [-71.21709299999999, 42.36661399999999], [-71.216445, 42.365913], [-71.21553399999999, 42.365608], [-71.214973, 42.365697999999995], [-71.214368, 42.36558100000002], [-71.213326, 42.364896], [-71.211362, 42.364297], [-71.210318, 42.364149999999995], [-71.208922, 42.364536], [-71.207948, 42.364176000000015], [-71.207466, 42.364159999999984], [-71.206321, 42.36461299999999], [-71.205023, 42.36571500000001], [-71.20302699999999, 42.36577299999999], [-71.20109599999999, 42.36613599999999], [-71.198649, 42.36739299999999], [-71.19789399999999, 42.367480000000015], [-71.197234, 42.367123000000014], [-71.196805, 42.36711000000001], [-71.195821, 42.36782100000001], [-71.195301, 42.367872999999996], [-71.195061, 42.367702000000016], [-71.194865, 42.36715799999999], [-71.19348099999999, 42.36656], [-71.192101, 42.365505999999996], [-71.196058, 42.361747], [-71.18368, 42.358829], [-71.182042, 42.36080600000001], [-71.178845, 42.35978], [-71.17485599999999, 42.35926799999999], [-71.17232899999999, 42.359414999999984], [-71.169506, 42.36019], [-71.167625, 42.360073000000014], [-71.16999899999999, 42.357397000000006], [-71.17119799999999, 42.356396], [-71.172798, 42.35469599999999], [-71.173997, 42.353195], [-71.17479800000001, 42.35079599999998], [-71.17479800000001, 42.35026500000001], [-71.16668299999999, 42.340104000000004], [-71.166808, 42.33928999999997], [-71.168633, 42.338629], [-71.169217, 42.33806800000001], [-71.168886, 42.33582599999999], [-71.16857, 42.335143], [-71.168191, 42.33479100000001], [-71.167565, 42.333441], [-71.16273199999999, 42.33396099999999], [-71.161295, 42.33378299999999], [-71.159325, 42.332767999999994], [-71.15683299999999, 42.33018899999999], [-71.14979699999999, 42.334497000000006], [-71.14999, 42.33449599999999], [-71.150498, 42.334996], [-71.15006, 42.335386], [-71.148398, 42.33579800000002], [-71.148769, 42.336777000000005], [-71.146197, 42.33739800000001], [-71.146597, 42.33849699999999], [-71.14421200000001, 42.34002199999999], [-71.141939, 42.340008], [-71.141302, 42.341072999999994], [-71.135278, 42.345940999999996], [-71.133381, 42.347122000000006], [-71.12928099999999, 42.34906699999999], [-71.12858299999999, 42.349833000000004], [-71.126854, 42.35008799999999], [-71.12421599999999, 42.35152499999999], [-71.123434, 42.35144899999999], [-71.12242599999999, 42.35180999999997], [-71.10656999999999, 42.349912], [-71.107185, 42.34701099999997], [-71.105697, 42.343994999999985], [-71.108412, 42.341888], [-71.110637, 42.34041000000001], [-71.111584, 42.33764800000001], [-71.111378, 42.33688300000001], [-71.11165199999999, 42.336696], [-71.11145599999999, 42.335898], [-71.110693, 42.335324], [-71.11237899999999, 42.33373599999997], [-71.113162, 42.33257499999999], [-71.113784, 42.33059600000001], [-71.114775, 42.328987999999995], [-71.11471499999999, 42.32856100000001], [-71.114869, 42.328472999999995], [-71.114992, 42.32861900000001], [-71.115116, 42.328427999999995], [-71.11501299999999, 42.32815899999999], [-71.115303, 42.32785700000004], [-71.115304, 42.32723999999998], [-71.115597, 42.326859999999996], [-71.116608, 42.32394999999998], [-71.11736499999999, 42.32359500000001], [-71.118507, 42.323357999999985], [-71.11887, 42.322858], [-71.119436, 42.322735], [-71.12011199999999, 42.32283499999998], [-71.121528, 42.323882], [-71.12336700000002, 42.32257099999998], [-71.123711, 42.32271600000002], [-71.124269, 42.321856], [-71.127096, 42.31849700000001], [-71.13079499999999, 42.31449699999999], [-71.13650200000001, 42.306204], [-71.140096, 42.30217300000001], [-71.146883, 42.29728], [-71.15219499999999, 42.294597], [-71.153196, 42.295498], [-71.156802, 42.29789600000001], [-71.15683899999999, 42.298058000000005], [-71.16150999999999, 42.30149399999999], [-71.164804, 42.303763999999994], [-71.178636, 42.29459500000001], [-71.191155, 42.283058999999994], [-71.190681, 42.28184600000001], [-71.18816699999999, 42.280412000000005], [-71.18930499999999, 42.279197], [-71.190202, 42.277797], [-71.197011, 42.26896500000001], [-71.198791, 42.268431], [-71.199089, 42.268114999999995], [-71.200007, 42.267725999999996], [-71.205035, 42.267138], [-71.205975, 42.26761200000001], [-71.208049, 42.26785100000001], [-71.209262, 42.267514000000006], [-71.211174, 42.267298000000004], [-71.2151, 42.267854], [-71.216754, 42.268519999999995], [-71.21798, 42.268708000000004], [-71.218311, 42.26845799999999], [-71.21812299999999, 42.267665], [-71.21867499999999, 42.265387000000004], [-71.219875, 42.263532000000005], [-71.221567, 42.26342700000001], [-71.222488, 42.262881], [-71.223188, 42.26269699999999], [-71.22429, 42.26318099999999], [-71.22565600000001, 42.26413300000001], [-71.227284, 42.263909000000005], [-71.228685, 42.264309], [-71.229455, 42.263906999999996], [-71.230626, 42.26086599999998], [-71.232404, 42.25847699999999], [-71.232237, 42.256898], [-71.25141599999999, 42.202613], [-71.25412399999999, 42.2028], [-71.25640299999999, 42.203672000000005], [-71.258194, 42.204071], [-71.258263, 42.20391000000001], [-71.25979099999999, 42.204115000000016], [-71.26105500000001, 42.204096], [-71.263711, 42.203328000000006], [-71.267523, 42.200938999999984], [-71.26956899999999, 42.20049899999999], [-71.275671, 42.18166700000001], [-71.275025, 42.148622999999986], [-71.30375099999999, 42.14949999999999], [-71.303566, 42.148693], [-71.30322699999999, 42.148669000000005], [-71.303225, 42.14843800000001], [-71.302846, 42.14846300000001], [-71.302652, 42.148635000000006], [-71.30260299999999, 42.14897799999999], [-71.30234000000002, 42.149026], [-71.302202, 42.14865099999999], [-71.30196699999999, 42.148572], [-71.301965, 42.148165999999996], [-71.301282, 42.148253000000004], [-71.300817, 42.14809099999997], [-71.300853, 42.147532], [-71.30042999999999, 42.147444000000014], [-71.300118, 42.147175999999995], [-71.30044099999999, 42.14692900000001], [-71.300302, 42.14658199999999], [-71.30067799999999, 42.14625100000001], [-71.300275, 42.146039], [-71.300118, 42.14573100000001], [-71.300696, 42.14506799999997], [-71.30035099999999, 42.14472099999999], [-71.300386, 42.14433799999999], [-71.29987799999999, 42.144072999999985], [-71.29984999999999, 42.143761999999974], [-71.300443, 42.143138], [-71.300506, 42.142874], [-71.30022799999999, 42.142695], [-71.300263, 42.14234799999999], [-71.300005, 42.14198699999999], [-71.29940599999999, 42.141771000000006], [-71.299416, 42.14141399999998], [-71.299724, 42.141226], [-71.29972099999999, 42.140854], [-71.299193, 42.140677999999994], [-71.298947, 42.140420000000006], [-71.299194, 42.13952699999999], [-71.29909300000001, 42.13886300000002], [-71.29959699999999, 42.13881700000001], [-71.299747, 42.138495999999996], [-71.30032299999999, 42.138658], [-71.300585, 42.138315], [-71.30060600000002, 42.137923000000015], [-71.301249, 42.137716000000005], [-71.301271, 42.13723900000001], [-71.301885, 42.13713199999999], [-71.302155, 42.136838], [-71.30165699999999, 42.136631999999985], [-71.29991199999999, 42.12940899999999], [-71.29894, 42.1265], [-71.300223, 42.12591], [-71.29715399999999, 42.12050899999999], [-71.295901, 42.116614], [-71.28026799999999, 42.08849199999998], [-71.27173599999999, 42.09844499999999], [-71.255347, 42.10413099999999], [-71.25330199999999, 42.105343999999995], [-71.238829, 42.10640800000001], [-71.238942, 42.10688599999999], [-71.23869499999999, 42.10952999999999], [-71.238917, 42.112220000000015], [-71.238241, 42.113018], [-71.238547, 42.114161], [-71.23919099999999, 42.115134], [-71.239329, 42.115969], [-71.239175, 42.116823], [-71.238914, 42.11703099999998], [-71.238621, 42.117784], [-71.238944, 42.118114999999996], [-71.238912, 42.11845799999998], [-71.239081, 42.11867600000001], [-71.23900400000001, 42.119078], [-71.239403, 42.120061], [-71.240093, 42.12078099999999], [-71.239187, 42.12096100000002], [-71.238818, 42.12128299999999], [-71.238112, 42.12140499999999], [-71.23767, 42.121998000000005], [-71.237842, 42.122214000000014], [-71.23778, 42.122420000000005], [-71.23627100000002, 42.12228500000001], [-71.233293, 42.12341200000001], [-71.23316799999999, 42.12300099999999], [-71.231098, 42.123298000000005], [-71.233307, 42.125958999999995], [-71.233475, 42.128569], [-71.232201, 42.13059399999999], [-71.231945, 42.13150699999999], [-71.23088899999999, 42.131935999999996], [-71.23024699999999, 42.132720999999975], [-71.22971199999999, 42.13300199999999], [-71.229074, 42.132966999999994], [-71.228068, 42.13330000000001], [-71.225989, 42.13540499999999], [-71.186885, 42.153264000000014], [-71.188627, 42.16081600000001], [-71.186511, 42.161676], [-71.185347, 42.162436], [-71.183459, 42.162855000000015], [-71.182676, 42.163095000000006], [-71.182536, 42.163320999999996], [-71.181877, 42.16345500000003], [-71.18149199999999, 42.165012], [-71.18093999999999, 42.16552099999999], [-71.180189, 42.16561000000001], [-71.179799, 42.165050000000015], [-71.17926100000001, 42.16511900000001], [-71.17903199999999, 42.16534800000001], [-71.179256, 42.16588699999999], [-71.178624, 42.165935], [-71.178494, 42.165809], [-71.178381, 42.16454399999999], [-71.17801299999999, 42.16396099999999], [-71.175759, 42.155595], [-71.176298, 42.155302], [-71.17163500000001, 42.151324999999986], [-71.162198, 42.145279], [-71.16354199999999, 42.141456999999996], [-71.149154, 42.13864099999999], [-71.150078, 42.13656499999998], [-71.150165, 42.13585299999998], [-71.149757, 42.133631], [-71.14854199999999, 42.131160999999985], [-71.14845600000001, 42.12874900000001], [-71.14815399999999, 42.12802299999999], [-71.147209, 42.12655600000001], [-71.145906, 42.12527299999999], [-71.142529, 42.12298900000001], [-71.139102, 42.120235], [-71.138604, 42.119546], [-71.136462, 42.11530600000002], [-71.135774, 42.113489999999985], [-71.133977, 42.11174099999999], [-71.13349099999999, 42.110989000000004], [-71.133021, 42.10936], [-71.13202799999999, 42.10749999999999], [-71.131739, 42.106548000000004], [-71.131596, 42.105500000000006], [-71.13168, 42.10419], [-71.13113, 42.10179000000001], [-71.13139199999999, 42.100478], [-71.1324, 42.09893000000001], [-71.13311999999999, 42.09681000000001], [-71.13377, 42.09579], [-71.13526, 42.09255999999999], [-71.13581, 42.09082000000002], [-71.13665999999999, 42.089649999999985], [-71.13766, 42.08865000000001], [-71.13837, 42.086780000000005], [-71.139428, 42.08486999999999], [-71.13933999999999, 42.08452], [-71.138728, 42.08368600000001], [-71.1388, 42.08311], [-71.13941299999999, 42.082044], [-71.139592, 42.08127799999998], [-71.13941, 42.07976000000002], [-71.13946899999999, 42.07829399999999], [-71.139001, 42.07715], [-71.13846199999999, 42.076560000000015], [-71.13902, 42.074831], [-71.13861899999999, 42.07281300000001], [-71.098991, 42.08820000000001], [-71.080192, 42.09569899999998], [-71.080483, 42.095539], [-71.073791, 42.067198999999995], [-71.06949, 42.049700000000016], [-71.069026, 42.04705999999998], [-71.06779, 42.04250000000002], [-71.06769, 42.04110000000001], [-71.054718, 41.985057000000005], [-71.08716, 41.99084599999999], [-71.08533100000001, 41.98234300000001], [-71.083182, 41.98028800000001], [-71.082438, 41.979891], [-71.08066, 41.977299000000016], [-71.080398, 41.975455000000004], [-71.08108299999999, 41.972235999999995], [-71.083106, 41.96888899999997], [-71.083764, 41.96561700000001], [-71.081206, 41.961228], [-71.080523, 41.959556], [-71.08367199999999, 41.954456000000015], [-71.085589, 41.949934], [-71.085905, 41.94758699999999], [-71.086275, 41.94625099999999], [-71.088841, 41.94347599999999], [-71.089181, 41.942934], [-71.08549, 41.941743], [-71.075073, 41.94698900000003], [-71.074264, 41.94779], [-71.073919, 41.948429], [-71.07350799999999, 41.954854000000005], [-71.070324, 41.954069], [-71.070909, 41.95227799999999], [-71.07289399999999, 41.94899499999999], [-71.067717, 41.94721699999998], [-71.064835, 41.94669700000001], [-71.060862, 41.94532200000001], [-71.059535, 41.944756000000005], [-71.056722, 41.943101999999996], [-71.053972, 41.94100599999999], [-71.053141, 41.94011400000001], [-71.051243, 41.93510099999998], [-71.051081, 41.93382899999998], [-71.049999, 41.93374399999999], [-71.04718, 41.933929], [-71.046191, 41.93616200000001], [-71.040948, 41.93508100000001], [-71.038933, 41.938899], [-71.037486, 41.93845699999999], [-71.038703, 41.93614800000001], [-71.038809, 41.935646000000006], [-71.038425, 41.935027], [-71.036997, 41.934228000000004], [-71.037753, 41.93346299999999], [-71.037153, 41.93225799999998], [-71.036036, 41.933088999999995], [-71.03170399999999, 41.93072499999999], [-71.03215, 41.93021099999999], [-71.033716, 41.92754800000001], [-71.03451, 41.926754], [-71.033542, 41.92614199999999], [-71.035648, 41.923657], [-71.03338099999999, 41.923058999999995], [-71.028278, 41.922536999999984], [-71.027171, 41.922662], [-71.02517, 41.92322599999999], [-71.021672, 41.923474000000006], [-71.01883699999999, 41.924260000000004], [-71.016369, 41.920366], [-71.01568499999999, 41.917722999999995], [-71.01334, 41.91323799999999], [-71.013459, 41.91082099999999], [-71.012449, 41.908567], [-71.01118799999999, 41.90700099999997], [-71.01042600000001, 41.907202999999974], [-71.006978, 41.908953], [-71.005709, 41.90938], [-71.00478, 41.910262], [-71.004629, 41.910582999999995], [-71.00462499999999, 41.911311], [-71.005437, 41.913693], [-71.00536799999999, 41.914753000000005], [-71.003484, 41.917362999999995], [-71.001003, 41.917673], [-71.001089, 41.91880599999999], [-71.000303, 41.91888600000001], [-70.999888, 41.918637], [-70.998995, 41.918693000000005], [-70.997494, 41.91844], [-70.997447, 41.91734599999998], [-70.997151, 41.91648699999997], [-70.996856, 41.915983], [-70.995773, 41.915046999999994], [-70.994985, 41.91482200000001], [-70.994176, 41.914804999999994], [-70.994, 41.914979], [-70.993869, 41.91574700000001], [-70.993414, 41.91608799999998], [-70.992075, 41.915715], [-70.99179400000001, 41.914950000000005], [-70.99137499999999, 41.912183000000006], [-70.99092999999999, 41.91048400000001], [-70.99105899999999, 41.908936999999995], [-70.9916, 41.907608999999994], [-70.992231, 41.906994000000005], [-70.993524, 41.90622], [-70.99421199999999, 41.90503699999999], [-70.995481, 41.90406499999996], [-70.995972, 41.90325999999999], [-70.995526, 41.903853999999995], [-70.99430000000002, 41.904807000000005], [-70.993475, 41.906179000000016], [-70.993168, 41.906358], [-70.992864, 41.906438], [-70.99195, 41.906094], [-70.99148, 41.90631399999999], [-70.991289, 41.90658699999998], [-70.99059799999999, 41.90673000000001], [-70.990157, 41.90640400000001], [-70.99001, 41.906609], [-70.989745, 41.906555000000004], [-70.989479, 41.906119], [-70.98899399999999, 41.905843], [-70.987596, 41.90574600000001], [-70.985716, 41.90692199999999], [-70.985225, 41.907488999999984], [-70.984894, 41.90747300000001], [-70.984157, 41.906561999999994], [-70.983671, 41.906399], [-70.983494, 41.906015000000004], [-70.98234599999999, 41.905750999999974], [-70.98183, 41.905314], [-70.981301, 41.90517500000001], [-70.980121, 41.90359199999998], [-70.97964999999999, 41.903542], [-70.978828, 41.903871], [-70.97843, 41.903684], [-70.977797, 41.903046999999994], [-70.977825, 41.90271799999999], [-70.977531, 41.902642], [-70.977457, 41.90229199999999], [-70.976661, 41.90157999999999], [-70.976661, 41.901382000000005], [-70.976308, 41.90118600000002], [-70.97577799999999, 41.901306999999996], [-70.975146, 41.901188000000005], [-70.97483799999999, 41.901351], [-70.974396, 41.90110200000001], [-70.972779, 41.901256000000004], [-70.971544, 41.901597], [-70.96838199999999, 41.90117300000001], [-70.96602, 41.900411999999996], [-70.964633, 41.899529], [-70.963911, 41.898134000000006], [-70.963275, 41.896377], [-70.91920499999999, 41.87902299999999], [-70.91637399999999, 41.876852], [-70.916555, 41.876512999999996], [-70.916151, 41.875240999999995], [-70.91645199999999, 41.872471], [-70.91626099999999, 41.872294], [-70.91492199999999, 41.872065000000006], [-70.914258, 41.87126099999998], [-70.913352, 41.87060899999997], [-70.913231, 41.87031], [-70.913437, 41.86976900000002], [-70.914624, 41.86904500000001], [-70.91492, 41.868431], [-70.915205, 41.86819199999999], [-70.916523, 41.86757100000003], [-70.916758, 41.867305999999985], [-70.916769, 41.867039999999996], [-70.916544, 41.86672799999999], [-70.915306, 41.866046000000004], [-70.91601, 41.86552599999998], [-70.915829, 41.86529899999999], [-70.915139, 41.865171000000004], [-70.914896, 41.86497200000001], [-70.91541500000001, 41.86417999999999], [-70.915043, 41.86393], [-70.914687, 41.86333199999999], [-70.914737, 41.862745999999994], [-70.91458999999999, 41.86222600000001], [-70.914003, 41.861835000000006], [-70.91300799999999, 41.86183800000001], [-70.912908, 41.861543000000005], [-70.91337399999999, 41.860575999999995], [-70.914185, 41.86034199999998], [-70.91427399999999, 41.859587999999995], [-70.9162, 41.859754], [-70.917523, 41.858650999999995], [-70.917239, 41.85790399999999], [-70.916799, 41.85742500000001], [-70.916754, 41.85706100000001], [-70.91710599999999, 41.85629400000002], [-70.91716699999999, 41.855536], [-70.9186, 41.853018], [-70.918689, 41.85204200000001], [-70.91511299999999, 41.848834999999994], [-70.910984, 41.844686], [-70.893973, 41.828881], [-70.893454, 41.82790100000001], [-70.893777, 41.82659100000002], [-70.89864399999999, 41.81487700000002], [-70.896053, 41.79437500000002], [-70.921792, 41.79126399999999], [-70.92158599999999, 41.79086999999999], [-70.921708, 41.790853999999996], [-70.915095, 41.77874699999999], [-70.907184, 41.76354299999999], [-70.926104, 41.758907000000015], [-70.92605999999999, 41.758608], [-70.926309, 41.75843199999999], [-70.926424, 41.75761700000001], [-70.926146, 41.757017000000005], [-70.925292, 41.75659500000001], [-70.924913, 41.75658999999998], [-70.92488999999999, 41.756303], [-70.924611, 41.75624799999999], [-70.92455, 41.75602800000001], [-70.924052, 41.75565499999999], [-70.923552, 41.755548], [-70.923444, 41.755719000000006], [-70.92322, 41.75565199999999], [-70.92308, 41.755355], [-70.922696, 41.755358], [-70.92273899999999, 41.75508300000001], [-70.92249799999999, 41.755122], [-70.92232, 41.754799999999996], [-70.943305, 41.74451499999999], [-71.011896, 41.711777999999995], [-71.009537, 41.74619200000001], [-71.072032, 41.75749300000001], [-71.07285399999999, 41.754334], [-71.073829, 41.752019000000004], [-71.074921, 41.748386], [-71.075073, 41.744797999999996], [-71.075682, 41.74228599999999], [-71.075955, 41.741616999999984], [-71.077297, 41.740066000000006], [-71.07848299999999, 41.73963899999999], [-71.084791, 41.73919900000001], [-71.085909, 41.73896400000001], [-71.09016199999999, 41.735586999999995], [-71.09020799999999, 41.73521500000001], [-71.092581, 41.735822999999996], [-71.095646, 41.73621099999998], [-71.09799699999999, 41.736763], [-71.09978199999999, 41.73671], [-71.10161699999999, 41.73606899999999], [-71.101522, 41.735090000000014], [-71.101697, 41.733833], [-71.101998, 41.73391000000001], [-71.102766, 41.732866], [-71.103044, 41.731747], [-71.103593, 41.73082400000001], [-71.103504, 41.72977000000001], [-71.103174, 41.729182999999985], [-71.103606, 41.728502999999996], [-71.104558, 41.727683999999996], [-71.104191, 41.72726199999997], [-71.10394099999999, 41.726487999999996], [-71.104571, 41.725719], [-71.104578, 41.725516000000006], [-71.104226, 41.724781], [-71.103647, 41.72425400000001], [-71.104708, 41.723194], [-71.10560199999999, 41.72310600000001], [-71.106049, 41.72269999999999], [-71.105997, 41.72247499999999], [-71.105448, 41.72268899999999], [-71.105301, 41.722558], [-71.105741, 41.722102], [-71.105798, 41.721114], [-71.107036, 41.720366999999996], [-71.10663199999999, 41.719516000000006], [-71.107108, 41.71908199999999], [-71.107415, 41.71845099999999], [-71.107452, 41.717979], [-71.108696, 41.71701300000001], [-71.10881300000001, 41.716239], [-71.108395, 41.715844000000004], [-71.108263, 41.71537200000001], [-71.108554, 41.713044000000004], [-71.10886099999999, 41.71256700000001], [-71.109565, 41.712230999999996], [-71.109897, 41.709754000000004], [-71.110905, 41.707], [-71.118336, 41.70822299999999], [-71.118762, 41.707905999999994], [-71.11900299999999, 41.70723699999998], [-71.119266, 41.707956999999986], [-71.122907, 41.69592299999999], [-71.13103699999999, 41.697424], [-71.13101999999999, 41.696870000000004], [-71.133065, 41.69677799999998], [-71.133157, 41.697834], [-71.135466, 41.69827000000001], [-71.135695, 41.69785399999999], [-71.135598, 41.696421000000015], [-71.13663199999999, 41.69644900000001], [-71.137283, 41.696650999999996], [-71.137123, 41.697339], [-71.13768499999999, 41.697435000000006], [-71.13788699999999, 41.69676200000001], [-71.139622, 41.697072999999996], [-71.14169, 41.69712100000001], [-71.141668, 41.696372000000004], [-71.14689299999999, 41.698817], [-71.15302, 41.69999699999998], [-71.15328, 41.699868999999985], [-71.15081099999999, 41.69735899999999], [-71.14988, 41.696614000000004], [-71.152217, 41.69536699999997], [-71.15659699999999, 41.697506000000004], [-71.1584, 41.698087], [-71.158898, 41.698471], [-71.16180899999999, 41.69893600000001], [-71.162533, 41.69628199999996], [-71.164632, 41.696636], [-71.163612, 41.700268], [-71.165308, 41.700567], [-71.16582300000002, 41.700365999999995], [-71.165887, 41.70058799999999], [-71.164553, 41.70207599999999], [-71.163088, 41.70432199999999], [-71.16266399999999, 41.70452800000002], [-71.161377, 41.70435500000001], [-71.168431, 41.708337], [-71.17419000000001, 41.70220199999999], [-71.18979, 41.691502], [-71.19619, 41.68630200000001], [-71.201162, 41.681909], [-71.222471, 41.707679], [-71.226218, 41.71251199999999], [-71.249492, 41.738572999999995], [-71.260982, 41.752118], [-71.306279, 41.771266], [-71.30887899999999, 41.772079999999995], [-71.310366, 41.77299400000001], [-71.31777, 41.77611300000001], [-71.321596, 41.777901], [-71.32649599999999, 41.779801], [-71.328639, 41.78087199999998], [-71.32909599999999, 41.782719000000014], [-71.329315, 41.782593], [-71.32941799999999, 41.781884000000005], [-71.329582, 41.781836000000006], [-71.329803, 41.782038], [-71.32989599999999, 41.78262600000001], [-71.329663, 41.783077000000006], [-71.329854, 41.783406], [-71.329869, 41.784315], [-71.330232, 41.78471799999999], [-71.33039099999999, 41.785381000000015], [-71.329627, 41.787018], [-71.329652, 41.78773799999999], [-71.329432, 41.78827400000001], [-71.329681, 41.788498000000004], [-71.330415, 41.78865399999999], [-71.330235, 41.78888299999999], [-71.33051, 41.789125000000006], [-71.33089199999999, 41.789136000000006], [-71.330922, 41.789594], [-71.33125199999999, 41.789394], [-71.33236699999999, 41.790141], [-71.332448, 41.790476999999996], [-71.331803, 41.79093199999999], [-71.332199, 41.79105899999999], [-71.332448, 41.791436999999995], [-71.33304199999999, 41.791722], [-71.332602, 41.792046], [-71.33294, 41.792309], [-71.33272, 41.79253899999999], [-71.33305, 41.79268100000001], [-71.332771, 41.793077999999994], [-71.333395, 41.793119000000004], [-71.333754, 41.7939], [-71.33403299999999, 41.794011999999995], [-71.33429, 41.79439399999998], [-71.334136, 41.794653], [-71.335053, 41.79511699999999], [-71.336666, 41.795151000000004], [-71.337972, 41.79578700000001], [-71.339461, 41.79603999999999], [-71.339593, 41.796434], [-71.34043, 41.79719599999999], [-71.340305, 41.79776100000001], [-71.34119299999999, 41.798233999999994], [-71.341245, 41.79847999999998], [-71.34079, 41.799155999999975], [-71.341098, 41.799469999999985], [-71.341297, 41.800344], [-71.341048, 41.80118599999999], [-71.34066, 41.80164400000001], [-71.34089399999999, 41.802108000000004], [-71.340616, 41.802834000000004], [-71.34024900000001, 41.803161], [-71.33980199999999, 41.80420600000001], [-71.339568, 41.805004000000004], [-71.33979599999999, 41.805566000000006], [-71.338897, 41.80830000000001], [-71.339897, 41.810399999999994], [-71.347197, 41.82310099999999], [-71.34669699999999, 41.82390000000001], [-71.346497, 41.82469999999999], [-71.344897, 41.82799999999999], [-71.342997, 41.82930000000002], [-71.34199699999999, 41.830200000000005], [-71.341197, 41.830600000000004], [-71.340696, 41.831202], [-71.33774199999999, 41.833635], [-71.335197, 41.83549999999999], [-71.340899, 41.842502], [-71.342198, 41.84430000000002], [-71.342098, 41.845200000000006], [-71.341298, 41.847100000000005], [-71.340597, 41.84860000000001], [-71.34029699999999, 41.84890000000001], [-71.337395, 41.85500100000001], [-71.337397, 41.85549999999999], [-71.333997, 41.862300000000005], [-71.337598, 41.87200199999999], [-71.337818, 41.87317099999999], [-71.34085700000001, 41.878721], [-71.340698, 41.88290000000001], [-71.339298, 41.89339899999998], [-71.339354, 41.894532999999996], [-71.339069, 41.895309], [-71.338698, 41.898399000000005], [-71.339708, 41.89819800000001], [-71.34379799999999, 41.897899], [-71.34759799999999, 41.89739899999999], [-71.34866699999999, 41.897124999999996], [-71.352062, 41.896997000000006], [-71.359491, 41.895900999999974], [-71.364538, 41.895451000000016], [-71.36508599999999, 41.89558399999999], [-71.370999, 41.89459900000001], [-71.373772, 41.894463000000016], [-71.376583, 41.89391200000003], [-71.38170000000001, 41.893198999999996], [-71.3814, 41.895698999999986], [-71.3815, 41.89649900000001], [-71.3814, 41.898599000000004], [-71.3816, 41.89959899999998], [-71.38170000000001, 41.903299], [-71.38170000000001, 41.910098999999995], [-71.3815, 41.91049900000001], [-71.3816, 41.912499], [-71.3814, 41.913499000000016], [-71.3816, 41.916298999999995], [-71.38149899999999, 41.921473], [-71.38170000000001, 41.92269899999999], [-71.381401, 41.96298300000001], [-71.381534, 41.96452000000001], [-71.38134699999999, 41.964603], [-71.381344, 41.965111], [-71.381508, 41.96687799999999], [-71.381399, 41.972224], [-71.38150499999999, 41.97679299999998], [-71.381301, 41.97749800000001], [-71.38120099999999, 41.981198], [-71.38150499999999, 42.00001099999999], [-71.381401, 42.018798000000004], [-71.392722, 42.0188], [-71.415902, 42.018498], [-71.45810399999999, 42.017797999999985], [-71.454754, 42.04411699999999], [-71.45468699999999, 42.052223999999995], [-71.45485699999999, 42.059008], [-71.45647199999999, 42.058698], [-71.45771599999999, 42.058195], [-71.459354, 42.057241999999995], [-71.462003, 42.055317], [-71.463037, 42.050549], [-71.461951, 42.05031099999999], [-71.46053599999999, 42.04880899999999], [-71.459595, 42.04833399999999], [-71.45941599999999, 42.047917999999996], [-71.45932599999999, 42.046112000000015], [-71.45996099999999, 42.04562299999999], [-71.461109, 42.04541400000002], [-71.461533, 42.04613899999999], [-71.463027, 42.04636399999999], [-71.46518, 42.04718999999999], [-71.46522999999999, 42.045519999999996], [-71.46659, 42.03586], [-71.472287, 42.035979000000005], [-71.475556, 42.035708], [-71.47878, 42.03601], [-71.479792, 42.03584500000001], [-71.481676, 42.035045], [-71.48201399999999, 42.035592999999984], [-71.482001, 42.035900000000005], [-71.47962, 42.03919], [-71.47769, 42.03853], [-71.47707, 42.03914999999999], [-71.47910499999999, 42.03986199999999], [-71.47767, 42.04171], [-71.47950999999999, 42.041889999999995], [-71.480611, 42.041257], [-71.480724, 42.04188], [-71.487911, 42.03674399999999], [-71.49826, 42.03159], [-71.49824, 42.091412], [-71.497987, 42.092776], [-71.49816299999999, 42.093427999999996], [-71.497691, 42.094224000000004], [-71.497877, 42.09481], [-71.497469, 42.095411], [-71.497543, 42.095762000000015], [-71.497355, 42.09644899999999], [-71.496591, 42.09719999999999], [-71.496549, 42.097854], [-71.49609000000001, 42.098070999999976], [-71.49539800000001, 42.09991400000002], [-71.496015, 42.10032400000001], [-71.49595599999999, 42.10073500000003], [-71.496573, 42.101122], [-71.496438, 42.101499], [-71.497284, 42.101768], [-71.497209, 42.10192800000001], [-71.496749, 42.10205899999998], [-71.496766, 42.10222999999999], [-71.497826, 42.102405], [-71.498796, 42.102771], [-71.49929000000002, 42.10305299999999], [-71.499575, 42.103508], [-71.507307, 42.10247799999999], [-71.516555, 42.09956700000001], [-71.51863, 42.099312999999995], [-71.521759, 42.100062], [-71.52287, 42.10065300000001], [-71.52416600000001, 42.101775], [-71.528549, 42.10354499999998], [-71.529254, 42.10400100000001], [-71.529443, 42.10463999999999], [-71.531635, 42.10650599999998], [-71.533463, 42.108906000000005], [-71.53549, 42.110806000000004], [-71.536521, 42.112570000000005], [-71.539746, 42.11634900000001], [-71.541827, 42.118424999999995], [-71.54459899999999, 42.12028300000001], [-71.54465499999999, 42.120549000000004], [-71.548627, 42.12200200000001], [-71.550044, 42.12267999999999], [-71.550816, 42.123507], [-71.55228799999999, 42.126028999999996], [-71.553902, 42.12773199999999], [-71.55464599999999, 42.12792100000001], [-71.55601899999999, 42.12862600000001], [-71.557896, 42.130084000000004], [-71.559674, 42.132142000000016], [-71.561021, 42.133048], [-71.569338, 42.142637], [-71.571591, 42.14236699999999], [-71.57140199999999, 42.151844999999994], [-71.56103100000001, 42.15833999999996], [-71.56110799999999, 42.158640000000005], [-71.561877, 42.159015], [-71.561999, 42.15948], [-71.562376, 42.159696999999994], [-71.562322, 42.160081], [-71.562906, 42.160194], [-71.563113, 42.16047299999999], [-71.563498, 42.16053199999999], [-71.56384299999999, 42.161303], [-71.56356699999999, 42.161588], [-71.56388199999999, 42.16239600000001], [-71.56349, 42.16277900000003], [-71.56350499999999, 42.16329200000001], [-71.563728, 42.16399399999999], [-71.564135, 42.164069999999995], [-71.56440599999999, 42.16437500000001], [-71.564193, 42.166338], [-71.56363300000001, 42.167179000000004], [-71.56268, 42.168051999999996], [-71.56220400000001, 42.168133999999995], [-71.560937, 42.167888], [-71.560499, 42.168695], [-71.56082599999999, 42.16901599999999], [-71.561362, 42.170499000000014], [-71.56215399999999, 42.17104399999999], [-71.563114, 42.172219999999996], [-71.563022, 42.17242999999999], [-71.562422, 42.172790000000006], [-71.562384, 42.174164], [-71.56183899999999, 42.17436500000001], [-71.561677, 42.17457599999998], [-71.561914, 42.176466], [-71.561593, 42.177135000000014], [-71.561992, 42.17826099999999], [-71.561946, 42.17849600000001], [-71.561332, 42.178914999999996], [-71.560417, 42.17899], [-71.55964900000001, 42.178858000000005], [-71.558649, 42.179100999999996], [-71.558043, 42.17845800000001], [-71.557166, 42.17843199999999], [-71.556044, 42.17742099999999], [-71.555376, 42.177391], [-71.554853, 42.17806000000001], [-71.553923, 42.178284], [-71.553462, 42.178132000000005], [-71.552556, 42.177472000000016], [-71.55233299999999, 42.177603000000005], [-71.552125, 42.178193000000014], [-71.551626, 42.17884800000001], [-71.551626, 42.17930700000001], [-71.55178699999999, 42.17949799999998], [-71.552594, 42.17987999999999], [-71.552671, 42.18091400000001], [-71.55284000000002, 42.18122100000001], [-71.55353099999999, 42.181502999999985], [-71.553846, 42.18195999999999], [-71.554177, 42.18181700000001], [-71.555798, 42.182159], [-71.555491, 42.182381999999976], [-71.555898, 42.18280999999999], [-71.555522, 42.183453000000014], [-71.55512999999999, 42.184961], [-71.555414, 42.184852], [-71.55561399999999, 42.184968999999995], [-71.555475, 42.18543599999999], [-71.55578299999999, 42.185748000000004], [-71.556951, 42.185938000000014], [-71.556698, 42.18651600000001], [-71.55635099999999, 42.186816000000015], [-71.556382, 42.187252], [-71.556136, 42.187892999999995], [-71.556544, 42.18810400000001], [-71.556167, 42.188329], [-71.556067, 42.188497999999996], [-71.55618199999999, 42.18871599999999], [-71.55582900000002, 42.18898500000001], [-71.555752, 42.190018], [-71.55605200000001, 42.19055999999999], [-71.556029, 42.191438999999995], [-71.556204, 42.191857000000006], [-71.57233800000002, 42.192228000000014], [-71.572129, 42.19349], [-71.57154799999999, 42.19465299999999], [-71.58291000000001, 42.195558999999996], [-71.602221, 42.218101]]]}}