{"type": "Feature", "properties": {"district_name": "5th Congressional District", "chamber": "us-house", "vintage": "2001-2010"}, "geometry": {"type": "MultiPolygon", "coordinates": [[[[-71.04404, 42.752666], [-71.0437, 42.752780000000016], [-71.043508, 42.752691], [-71.04388999999999, 42.75219199999999], [-71.04404, 42.752666]]], [[[-71.058393, 42.733722], [-71.058336, 42.733715000000004], [-71.058381, 42.733543], [-71.058393, 42.733722]]], [[[-71.376991, 42.314572999999996], [-71.376058, 42.314609000000004], [-71.375682, 42.31445], [-71.376126, 42.31317899999999], [-71.376991, 42.314572999999996]]], [[[-71.712542, 42.52109199999999], [-71.711187, 42.52251], [-71.711021, 42.523017], [-71.702315, 42.53380399999999], [-71.687214, 42.53169000000001], [-71.67898, 42.53035099999999], [-71.67773, 42.539397], [-71.677015, 42.541751000000005], [-71.676417, 42.545275], [-71.675414, 42.54979], [-71.675314, 42.552189999999996], [-71.674714, 42.55459], [-71.674301, 42.557361], [-71.674438, 42.55742000000002], [-71.670937, 42.577158999999995], [-71.66362500000001, 42.61723], [-71.66184600000001, 42.62518499999999], [-71.661807, 42.625623999999995], [-71.663167, 42.628819], [-71.660414, 42.63508900000001], [-71.657913, 42.649648], [-71.657714, 42.64998900000001], [-71.656511, 42.649744], [-71.65378, 42.64667800000001], [-71.651978, 42.64540799999999], [-71.650362, 42.64461399999998], [-71.648257, 42.64389499999999], [-71.647021, 42.644113000000004], [-71.642455, 42.64078200000001], [-71.640953, 42.639212], [-71.624748, 42.63297999999998], [-71.619585, 42.631178], [-71.618325, 42.63024600000001], [-71.616346, 42.62965399999999], [-71.614165, 42.62840300000001], [-71.611931, 42.628237], [-71.610425, 42.628659], [-71.607502, 42.628333000000005], [-71.607123, 42.630468], [-71.60657599999999, 42.63079400000001], [-71.605621, 42.631025999999984], [-71.604828, 42.63081899999999], [-71.603562, 42.629864], [-71.60161599999999, 42.626981], [-71.60091, 42.62625400000001], [-71.600309, 42.625972], [-71.59915, 42.625813], [-71.59715299999999, 42.62601999999999], [-71.59598799999999, 42.62633699999999], [-71.593308, 42.62631700000001], [-71.593366, 42.626642000000025], [-71.59308, 42.62668999999999], [-71.593563, 42.62750599999999], [-71.593705, 42.628223], [-71.59320799999999, 42.62905399999999], [-71.591601, 42.629926000000005], [-71.58847, 42.630438000000005], [-71.587919, 42.630832999999974], [-71.587874, 42.63115299999999], [-71.588043, 42.631626999999995], [-71.588483, 42.631965], [-71.588653, 42.632451], [-71.589128, 42.63286399999999], [-71.590195, 42.632963], [-71.59234599999999, 42.632836000000005], [-71.592958, 42.63312199999999], [-71.59311199999999, 42.63336699999999], [-71.593087, 42.63383], [-71.592832, 42.63434000000001], [-71.591478, 42.635183000000005], [-71.591248, 42.635501999999995], [-71.591262, 42.63572800000001], [-71.591555, 42.635985], [-71.592298, 42.636397], [-71.592426, 42.636567], [-71.59236299999999, 42.636964000000006], [-71.592134, 42.63721700000001], [-71.591431, 42.637454999999996], [-71.589508, 42.63712800000001], [-71.588852, 42.63719699999999], [-71.588425, 42.63743300000001], [-71.58819600000001, 42.637783999999996], [-71.58728599999999, 42.63956900000001], [-71.58701099999999, 42.640741], [-71.586914, 42.64226300000001], [-71.58606, 42.643902999999995], [-71.586212, 42.644330000000004], [-71.58706699999999, 42.644994000000004], [-71.58717399999999, 42.64542900000001], [-71.586914, 42.64604699999999], [-71.58664, 42.64629099999999], [-71.585694, 42.646589], [-71.584473, 42.64641999999999], [-71.583568, 42.645756999999996], [-71.58321300000001, 42.644525], [-71.582961, 42.64413799999999], [-71.58261999999999, 42.644037000000004], [-71.582081, 42.64434399999999], [-71.58163499999999, 42.64563500000001], [-71.580432, 42.646800000000006], [-71.57985, 42.64791099999999], [-71.57992899999999, 42.649289], [-71.57910000000001, 42.65138500000001], [-71.579436, 42.65415000000001], [-71.578887, 42.65441399999999], [-71.576957, 42.65477800000001], [-71.574602, 42.658812], [-71.57354099999999, 42.658674000000005], [-71.570281, 42.65714299999999], [-71.55783699999999, 42.659261], [-71.556597, 42.65963400000002], [-71.555035, 42.659582], [-71.55609700000001, 42.657636], [-71.549363, 42.659145999999986], [-71.549842, 42.65928499999998], [-71.541788, 42.660650999999994], [-71.53746799999999, 42.663306999999996], [-71.53658, 42.663469000000006], [-71.532572, 42.669050999999996], [-71.538911, 42.674288999999995], [-71.557112, 42.676489], [-71.556103, 42.67729799999999], [-71.555813, 42.67771799999999], [-71.555512, 42.67868900000001], [-71.55592399999999, 42.680242000000014], [-71.555695, 42.682522999999996], [-71.556382, 42.68415600000001], [-71.556473, 42.684895999999995], [-71.55660999999999, 42.688581], [-71.556443, 42.689321], [-71.555512, 42.69045799999999], [-71.55422999999999, 42.691243], [-71.553101, 42.692646999999994], [-71.552262, 42.69332600000001], [-71.550873, 42.693608999999995], [-71.54979, 42.694127], [-71.54843199999999, 42.69518799999999], [-71.547241, 42.696569000000004], [-71.544616, 42.69853], [-71.54399, 42.69920100000001], [-71.54344100000002, 42.701153999999995], [-71.542411, 42.70268899999999], [-71.49951, 42.701785], [-71.467584, 42.70068799999998], [-71.423538, 42.69979199999998], [-71.38813, 42.698794999999976], [-71.383667, 42.698809], [-71.365307, 42.69819000000001], [-71.35180799999999, 42.69816699999999], [-71.344906, 42.69769000000001], [-71.33020599999999, 42.69719], [-71.31705699999999, 42.69699], [-71.29420499999999, 42.69699], [-71.288789, 42.702389], [-71.278488, 42.71175300000001], [-71.26790799999999, 42.72588599999999], [-71.255605, 42.73638899999999], [-71.251522, 42.739129000000005], [-71.248718, 42.740581], [-71.245504, 42.74258899999999], [-71.23342, 42.74548499999998], [-71.223917, 42.74668900000001], [-71.208604, 42.74339], [-71.202186, 42.74183400000001], [-71.181803, 42.737590000000004], [-71.182706, 42.75118700000003], [-71.18330499999999, 42.75450099999999], [-71.186103, 42.790673999999996], [-71.185208, 42.791685], [-71.17440100000002, 42.80171599999999], [-71.166665, 42.808337999999985], [-71.149715, 42.815486], [-71.132503, 42.82138800000001], [-71.118802, 42.818087999999996], [-71.115894, 42.817690000000006], [-71.112993, 42.817088999999996], [-71.10779099999999, 42.815788999999995], [-71.101794, 42.814587], [-71.0651, 42.806289], [-71.064201, 42.806289], [-71.060564, 42.81597899999999], [-71.058099, 42.821987], [-71.05780299999999, 42.823091999999995], [-71.053601, 42.833088999999994], [-71.03742299999999, 42.82656199999999], [-71.03357, 42.82475000000001], [-71.007809, 42.813943], [-71.007632, 42.81415500000001], [-71.006928, 42.81381700000001], [-71.007008, 42.813609], [-71.002139, 42.811529000000014], [-70.999714, 42.81069100000002], [-70.999043, 42.80974599999999], [-70.998364, 42.808084], [-71.002748, 42.801460999999996], [-71.011032, 42.797137], [-71.01552199999999, 42.794123], [-71.017018, 42.792617], [-71.0209, 42.78449000000001], [-71.02277099999999, 42.77757299999999], [-71.026624, 42.77325999999999], [-71.034334, 42.763933], [-71.03857599999999, 42.758472000000005], [-71.04017999999999, 42.75784999999999], [-71.042332, 42.75728200000001], [-71.042217, 42.75524799999999], [-71.041718, 42.754548], [-71.041957, 42.754314], [-71.042847, 42.754335], [-71.042901, 42.753978], [-71.044096, 42.753214000000014], [-71.04465400000001, 42.749082], [-71.045755, 42.748156], [-71.048715, 42.74629500000001], [-71.04954, 42.74479200000001], [-71.053071, 42.74002999999999], [-71.05812, 42.734540999999986], [-71.058847, 42.732549000000006], [-71.07217299999999, 42.732720999999984], [-71.074187, 42.734604999999995], [-71.078761, 42.735929], [-71.080564, 42.736725000000014], [-71.082212, 42.736925000000014], [-71.082703, 42.73681100000001], [-71.08331299999999, 42.73692000000001], [-71.087723, 42.736395999999985], [-71.089551, 42.73705300000002], [-71.091651, 42.737052999999996], [-71.095429, 42.736146999999995], [-71.097543, 42.73538799999999], [-71.109104, 42.73568300000002], [-71.115603, 42.74119100000001], [-71.120037, 42.73578799999999], [-71.134203, 42.72139099999999], [-71.134373, 42.719677], [-71.133802, 42.713591], [-71.134149, 42.71146799999999], [-71.135102, 42.70879100000001], [-71.137253, 42.70719700000001], [-71.137344, 42.705618], [-71.13718999999999, 42.705509999999975], [-71.13768499999999, 42.70474699999999], [-71.13855099999999, 42.704533999999995], [-71.139934, 42.70361999999998], [-71.14037499999999, 42.70354999999999], [-71.140345, 42.703019], [-71.142484, 42.69947199999999], [-71.143079, 42.69915100000001], [-71.14455, 42.69924599999999], [-71.145005, 42.69887999999998], [-71.145748, 42.69860900000001], [-71.14435399999999, 42.697642], [-71.14367399999999, 42.69697999999999], [-71.143075, 42.694059], [-71.141188, 42.69400900000001], [-71.140411, 42.69346], [-71.139405, 42.69314699999999], [-71.139303, 42.69303199999998], [-71.139439, 42.692704], [-71.139312, 42.69257599999999], [-71.138442, 42.69271399999999], [-71.138172, 42.692488999999995], [-71.137981, 42.691942999999995], [-71.138234, 42.69133399999999], [-71.13759499999999, 42.69045599999998], [-71.13761099999999, 42.68974999999999], [-71.13795499999999, 42.689662999999996], [-71.138639, 42.690327999999994], [-71.139062, 42.690402000000006], [-71.139595, 42.69017599999999], [-71.140155, 42.68936299999999], [-71.14005999999999, 42.688987999999995], [-71.138603, 42.687842999999994], [-71.138627, 42.687695999999995], [-71.139521, 42.68749400000001], [-71.139678, 42.68688200000001], [-71.13933999999999, 42.686717], [-71.137947, 42.686668000000026], [-71.139478, 42.68545899999999], [-71.13933, 42.685156], [-71.138092, 42.68521300000001], [-71.137827, 42.684996000000005], [-71.13927699999999, 42.68440699999999], [-71.138061, 42.683667], [-71.133584, 42.679428], [-71.134444, 42.676812999999996], [-71.12882700000002, 42.67445], [-71.12434, 42.668329], [-71.123897, 42.667885000000005], [-71.114002, 42.654738], [-71.108599, 42.647479], [-71.108723, 42.647253000000006], [-71.10745299999999, 42.64801000000001], [-71.106872, 42.647710999999994], [-71.10623799999999, 42.64806000000001], [-71.105819, 42.64809900000001], [-71.10537099999999, 42.64866099999998], [-71.105053, 42.648816], [-71.105797, 42.649027000000004], [-71.104682, 42.649516], [-71.10462799999999, 42.650147], [-71.10513200000001, 42.650462], [-71.10600699999999, 42.65029299999999], [-71.106309, 42.649968], [-71.106355, 42.649453999999984], [-71.10658699999999, 42.64916099999999], [-71.10777999999999, 42.649350999999996], [-71.107602, 42.64983099999999], [-71.107726, 42.65023], [-71.106983, 42.651189], [-71.10521899999999, 42.652365], [-71.10421199999999, 42.65200999999998], [-71.10346, 42.651974], [-71.102493, 42.652411000000015], [-71.10121, 42.65244599999999], [-71.100923, 42.652257000000006], [-71.10029399999999, 42.65224799999999], [-71.098985, 42.65280400000001], [-71.098644, 42.652499], [-71.097149, 42.651892], [-71.096436, 42.651378], [-71.096265, 42.650413], [-71.097465, 42.649716000000005], [-71.09916799999999, 42.649257000000006], [-71.10119, 42.649170000000005], [-71.10244399999999, 42.648638000000005], [-71.10405, 42.644650999999996], [-71.106532, 42.644692000000006], [-71.094938, 42.629575], [-71.088743, 42.620971], [-71.089079, 42.62054599999999], [-71.08877, 42.619981999999986], [-71.087225, 42.618938000000014], [-71.086749, 42.618095999999994], [-71.085944, 42.61719399999999], [-71.085886, 42.616583000000006], [-71.0798, 42.608507], [-71.076133, 42.604077], [-71.13529, 42.599061], [-71.141528, 42.603386], [-71.143074, 42.604080999999994], [-71.145749, 42.60828000000001], [-71.14656, 42.609979999999986], [-71.148613, 42.61324899999999], [-71.154336, 42.615277000000006], [-71.156564, 42.61497700000001], [-71.15861699999999, 42.61294799999999], [-71.15926499999999, 42.607803999999994], [-71.160667, 42.605318], [-71.163664, 42.60212999999999], [-71.165015, 42.59795899999999], [-71.17570599999999, 42.591947999999974], [-71.17921299999999, 42.586436000000006], [-71.181823, 42.582727999999996], [-71.182245, 42.58245599999999], [-71.18616399999999, 42.575321], [-71.186177, 42.574583999999994], [-71.1885, 42.571119], [-71.189166, 42.57059900000001], [-71.189267, 42.569670000000016], [-71.189955, 42.56897299999999], [-71.190499, 42.568732000000004], [-71.190959, 42.56724800000001], [-71.1923, 42.56491599999999], [-71.19290200000002, 42.564336999999995], [-71.193651, 42.565018999999985], [-71.196904, 42.56634], [-71.197959, 42.567107], [-71.203383, 42.569483], [-71.206999, 42.571305999999986], [-71.20873399999999, 42.57238099999999], [-71.211379, 42.57328299999999], [-71.211533, 42.57292499999999], [-71.212206, 42.57241700000001], [-71.212825, 42.572593999999995], [-71.21391500000001, 42.570519999999995], [-71.214108, 42.57053400000001], [-71.214023, 42.570927], [-71.214147, 42.57097399999999], [-71.215121, 42.57046499999999], [-71.21527499999999, 42.57016900000001], [-71.21510599999999, 42.567041], [-71.21560699999999, 42.566264999999994], [-71.215774, 42.56546600000001], [-71.215965, 42.563542000000005], [-71.215689, 42.56317099999998], [-71.215786, 42.56259], [-71.215948, 42.562404999999984], [-71.21700299999999, 42.562274], [-71.217049, 42.56210200000001], [-71.216655, 42.562158999999994], [-71.216601, 42.561997999999996], [-71.217536, 42.56179399999999], [-71.21792599999999, 42.56139699999999], [-71.218884, 42.561467999999984], [-71.218953, 42.56101799999999], [-71.21773, 42.559965999999996], [-71.217039, 42.55966499999998], [-71.215732, 42.559507], [-71.214196, 42.558626999999994], [-71.21304099999999, 42.55776200000002], [-71.21161699999999, 42.55621099999998], [-71.208739, 42.554218000000006], [-71.209308, 42.553825999999994], [-71.21061, 42.55339], [-71.210222, 42.552614999999996], [-71.209538, 42.551958000000006], [-71.20956799999999, 42.55115399999998], [-71.21032, 42.54903900000001], [-71.210639, 42.54753799999999], [-71.213719, 42.54740100000001], [-71.210292, 42.545835000000004], [-71.206914, 42.545711], [-71.206001, 42.54524699999998], [-71.20503200000002, 42.54447299999999], [-71.208328, 42.539245], [-71.208744, 42.53945300000001], [-71.209955, 42.537634999999995], [-71.21222399999999, 42.53318700000001], [-71.21220699999999, 42.53292200000002], [-71.21803899999999, 42.52392], [-71.221976, 42.52516], [-71.222905, 42.52297900000001], [-71.224791, 42.519673000000004], [-71.227436, 42.514526999999994], [-71.227612, 42.51386000000001], [-71.229203, 42.511434], [-71.231635, 42.506544000000005], [-71.232764, 42.508089000000005], [-71.237387, 42.51205], [-71.23995200000002, 42.519383], [-71.240779, 42.52024199999999], [-71.24119499999999, 42.52043700000001], [-71.242385, 42.520143], [-71.242678, 42.519832000000015], [-71.250034, 42.52552000000003], [-71.254357, 42.522448], [-71.256396, 42.523992], [-71.262767, 42.52444900000001], [-71.265739, 42.52432300000001], [-71.269785, 42.52509299999999], [-71.270147, 42.524168], [-71.270881, 42.52439199999999], [-71.270479, 42.524778000000005], [-71.27042, 42.525211000000006], [-71.277911, 42.526630000000004], [-71.280923, 42.526436999999994], [-71.28461, 42.525467000000006], [-71.285586, 42.524967], [-71.296137, 42.52179399999999], [-71.30377, 42.51988699999999], [-71.30604199999999, 42.52038299999999], [-71.306647, 42.51802599999999], [-71.30665499999999, 42.517101000000004], [-71.305983, 42.51467399999999], [-71.306493, 42.513732999999995], [-71.308324, 42.513166999999996], [-71.309569, 42.51188399999999], [-71.311098, 42.510751], [-71.31416999999999, 42.50913299999999], [-71.316559, 42.50705], [-71.31742899999999, 42.505611], [-71.318032, 42.503974], [-71.317464, 42.502193000000005], [-71.31836899999999, 42.497536], [-71.318257, 42.496894000000026], [-71.318536, 42.49415699999999], [-71.318556, 42.49175599999999], [-71.319152, 42.48985700000002], [-71.319237, 42.48826], [-71.319704, 42.48661], [-71.317655, 42.484972], [-71.317089, 42.48414799999999], [-71.317067, 42.483875999999995], [-71.317161, 42.48356599999999], [-71.318147, 42.482839], [-71.320933, 42.482119000000004], [-71.32117099999999, 42.480272], [-71.32018599999999, 42.480264], [-71.318103, 42.47806299999998], [-71.316497, 42.47604900000001], [-71.31375799999999, 42.47409599999999], [-71.30938499999999, 42.47634], [-71.306445, 42.474339], [-71.304216, 42.474693], [-71.301903, 42.473254], [-71.300893, 42.47358599999999], [-71.298763, 42.47286499999999], [-71.293692, 42.46920100000001], [-71.289439, 42.465545000000006], [-71.28904899999999, 42.464384], [-71.289929, 42.464202], [-71.29298299999999, 42.46188799999999], [-71.294367, 42.459713], [-71.29700199999999, 42.461655], [-71.298827, 42.46264199999998], [-71.302003, 42.46192099999998], [-71.30208499999999, 42.46111700000001], [-71.302939, 42.461293999999995], [-71.303169, 42.45999700000001], [-71.303936, 42.45789699999999], [-71.304504, 42.45273200000001], [-71.309929, 42.453247999999995], [-71.310931, 42.453594], [-71.313285, 42.45488600000001], [-71.322699, 42.447448], [-71.32446, 42.44625200000001], [-71.324756, 42.446200999999995], [-71.32929399999999, 42.442249000000004], [-71.335937, 42.43692599999999], [-71.351843, 42.427098], [-71.352304, 42.426725000000005], [-71.35292299999999, 42.42581000000001], [-71.353146, 42.425131], [-71.354208, 42.42326199999997], [-71.354162, 42.42293799999999], [-71.35446100000001, 42.422816000000005], [-71.355013, 42.42184399999999], [-71.35494, 42.421682], [-71.35623, 42.420885], [-71.356684, 42.420043], [-71.357378, 42.42000600000001], [-71.359805, 42.420857], [-71.361935, 42.421113999999996], [-71.363536, 42.420901], [-71.36479899999999, 42.420330000000014], [-71.364733, 42.419067], [-71.36487799999999, 42.41872999999999], [-71.36488, 42.417860999999995], [-71.364706, 42.41725300000001], [-71.364813, 42.416903999999995], [-71.364224, 42.416484000000004], [-71.36413, 42.415932000000005], [-71.36549099999999, 42.41450299999999], [-71.36532799999999, 42.41387199999999], [-71.365425, 42.413509999999995], [-71.366934, 42.412691], [-71.353894, 42.407976000000005], [-71.33936, 42.401838], [-71.338469, 42.401742], [-71.335869, 42.400793], [-71.332375, 42.399127], [-71.335403, 42.393620999999996], [-71.334816, 42.386175000000016], [-71.332711, 42.36783899999999], [-71.332261, 42.363128999999994], [-71.332358, 42.362410999999994], [-71.33153899999999, 42.35766299999999], [-71.33102199999999, 42.353530000000006], [-71.32860000000001, 42.331666000000006], [-71.330795, 42.331883999999995], [-71.333603, 42.332395999999996], [-71.334403, 42.33062299999999], [-71.33739299999999, 42.325174999999994], [-71.339334, 42.32214199999999], [-71.342332, 42.318815], [-71.34553, 42.31485299999999], [-71.345888, 42.31492900000001], [-71.345998, 42.314803999999995], [-71.350267, 42.315854], [-71.353893, 42.31679599999999], [-71.35507199999999, 42.317253], [-71.35973299999999, 42.317236], [-71.363115, 42.315892000000005], [-71.364342, 42.316092000000005], [-71.365127, 42.31506199999999], [-71.369209, 42.31139300000001], [-71.36932999999999, 42.31107200000001], [-71.36989799999999, 42.31077200000001], [-71.370425, 42.310848], [-71.370944, 42.31072099999999], [-71.372271, 42.310067000000004], [-71.37261699999999, 42.31007400000001], [-71.373981, 42.310405999999986], [-71.374426, 42.31118300000001], [-71.37515499999999, 42.311875999999984], [-71.374332, 42.311781], [-71.372793, 42.31250999999999], [-71.372948, 42.31224299999999], [-71.372804, 42.31216499999999], [-71.371335, 42.31318299999999], [-71.36708999999999, 42.315591000000005], [-71.367615, 42.316284], [-71.36787, 42.317011], [-71.367784, 42.320150999999996], [-71.367235, 42.32206900000001], [-71.365448, 42.321425], [-71.364452, 42.321348], [-71.364431, 42.325265], [-71.362966, 42.329301000000015], [-71.361494, 42.331837], [-71.361288, 42.333387], [-71.360619, 42.33473499999999], [-71.360322, 42.33660700000001], [-71.36057699999999, 42.33778300000001], [-71.36053100000001, 42.338288], [-71.359293, 42.339921000000004], [-71.35857, 42.34208700000001], [-71.358764, 42.345364000000004], [-71.359025, 42.34679099999999], [-71.358936, 42.348686], [-71.359293, 42.348317000000016], [-71.359394, 42.34761999999999], [-71.359686, 42.347069999999995], [-71.36087100000002, 42.34580299999999], [-71.364453, 42.344103], [-71.367505, 42.343151], [-71.368166, 42.342766999999995], [-71.369321, 42.341795999999974], [-71.37118699999999, 42.34056], [-71.37168799999999, 42.339829999999964], [-71.37231100000001, 42.33832199999999], [-71.372918, 42.337728999999996], [-71.374472, 42.33670600000001], [-71.37550999999999, 42.337079999999986], [-71.374254, 42.33826000000001], [-71.374006, 42.339109], [-71.37424, 42.339317], [-71.37696199999999, 42.339316], [-71.378176, 42.339034], [-71.379435, 42.33921100000001], [-71.37970299999999, 42.33911899999999], [-71.38004699999999, 42.33862300000001], [-71.381141, 42.33911699999998], [-71.38162, 42.33917299999999], [-71.383139, 42.33887099999999], [-71.38505099999999, 42.33813399999999], [-71.38692, 42.33838], [-71.38906899999999, 42.337914], [-71.390142, 42.337906999999994], [-71.392749, 42.338547], [-71.394718, 42.338652], [-71.39480499999999, 42.338995999999995], [-71.396704, 42.340883], [-71.407304, 42.34262099999999], [-71.424708, 42.344823999999996], [-71.454994, 42.34900700000001], [-71.46612499999999, 42.350640000000006], [-71.469898, 42.35139300000002], [-71.470274, 42.351224999999985], [-71.484949, 42.352687], [-71.48248699999999, 42.356165999999995], [-71.47981899999999, 42.36413799999999], [-71.47533500000002, 42.380603999999984], [-71.49037899999999, 42.378845], [-71.544001, 42.373548], [-71.55566999999999, 42.371900999999994], [-71.55597999999999, 42.371733000000006], [-71.56601599999999, 42.371232000000006], [-71.56646599999999, 42.371394999999985], [-71.56665699999999, 42.37125699999999], [-71.569718, 42.37104799999999], [-71.56904, 42.37222899999999], [-71.576747, 42.370037], [-71.58061300000001, 42.369609], [-71.585284, 42.369817000000005], [-71.592238, 42.368649], [-71.59342, 42.36685100000001], [-71.59374199999999, 42.36687299999999], [-71.59552699999999, 42.36810699999999], [-71.595728, 42.367999], [-71.59770999999999, 42.368031999999985], [-71.60306299999999, 42.367501000000004], [-71.605671, 42.363799], [-71.606273, 42.363481], [-71.606355, 42.36284400000002], [-71.607304, 42.361467], [-71.607809, 42.36103000000001], [-71.610055, 42.357693000000005], [-71.624781, 42.35041300000001], [-71.630247, 42.355008999999995], [-71.63035599999999, 42.355446999999984], [-71.630848, 42.35587799999999], [-71.63435799999999, 42.35871500000002], [-71.642999, 42.359669000000004], [-71.64349399999999, 42.359578], [-71.64403899999999, 42.359749], [-71.64482699999999, 42.35972400000001], [-71.646328, 42.36033400000002], [-71.65434499999999, 42.361696], [-71.677562, 42.36521], [-71.670456, 42.386743], [-71.678521, 42.389244000000005], [-71.676322, 42.39610400000001], [-71.668054, 42.39461200000001], [-71.66693599999999, 42.398168999999996], [-71.666471, 42.399114000000004], [-71.66166799999999, 42.40697900000001], [-71.66058199999999, 42.41851400000002], [-71.65955199999999, 42.42219], [-71.65971499999999, 42.42261], [-71.659689, 42.423327], [-71.658393, 42.42572699999999], [-71.658011, 42.42902499999998], [-71.656862, 42.43169799999999], [-71.663395, 42.433247], [-71.670232, 42.43344400000001], [-71.67120800000001, 42.43358699999999], [-71.67911699999999, 42.43517800000001], [-71.679453, 42.43586099999999], [-71.680809, 42.43545199999999], [-71.686038, 42.436336000000004], [-71.688105, 42.43686], [-71.690661, 42.435021], [-71.691874, 42.433597000000006], [-71.692611, 42.43340900000001], [-71.693576, 42.43199100000003], [-71.69515299999999, 42.430826], [-71.69586699999999, 42.429994000000015], [-71.698315, 42.42817800000001], [-71.69898599999999, 42.427468], [-71.698922, 42.427324000000006], [-71.70036300000001, 42.425997], [-71.706246, 42.420944], [-71.70729399999999, 42.417171999999994], [-71.709403, 42.41725700000002], [-71.710769, 42.41680500000001], [-71.71387899999999, 42.413738], [-71.71481, 42.413148], [-71.716602, 42.41151600000001], [-71.718362, 42.410263999999984], [-71.71811799999999, 42.41047499999999], [-71.71824699999999, 42.42593000000001], [-71.718743, 42.43540599999999], [-71.718868, 42.462084], [-71.71785899999999, 42.473231], [-71.727648, 42.474699], [-71.72391999999999, 42.48553700000001], [-71.72343599999999, 42.488048], [-71.722713, 42.49048099999998], [-71.72232799999999, 42.493845], [-71.719033, 42.507590999999984], [-71.71667599999999, 42.518937], [-71.712542, 42.52109199999999]], [[-71.11883999999999, 42.660861], [-71.118815, 42.660909999999994], [-71.118892, 42.660931], [-71.11883999999999, 42.660861]], [[-71.359456, 42.31730699999999], [-71.359399, 42.317308999999995], [-71.35961, 42.317285], [-71.359456, 42.31730699999999]], [[-71.114002, 42.654738], [-71.114499, 42.654624], [-71.11411199999999, 42.654114], [-71.114072, 42.654196000000006], [-71.114002, 42.654738]]]]}}