{"type": "Feature", "properties": {"district_name": "3rd Congressional District", "chamber": "us-house", "vintage": "2022-present"}, "geometry": {"type": "Polygon", "coordinates": [[[-72.116631, 42.62660699999999], [-72.111059, 42.717206000000004], [-71.98157800000001, 42.71323199999999], [-71.931072, 42.712165999999996], [-71.749224, 42.707471000000005], [-71.696505, 42.705721999999994], [-71.651584, 42.70476100000002], [-71.601599, 42.703950999999996], [-71.518947, 42.702196], [-71.457786, 42.70052699999998], [-71.433239, 42.70008199999999], [-71.388184, 42.69897799999999], [-71.351635, 42.697901000000016], [-71.321814, 42.697306999999995], [-71.317065, 42.697389000000015], [-71.294637, 42.69704200000002], [-71.289324, 42.70217000000001], [-71.278949, 42.71135000000003], [-71.275441, 42.715787000000006], [-71.267873, 42.726026], [-71.2551, 42.736592], [-71.245426, 42.74254600000002], [-71.237432, 42.744895], [-71.22383, 42.746484], [-71.181786, 42.737340999999994], [-71.182693, 42.75026299999998], [-71.18614, 42.79093499999999], [-71.166647, 42.80888100000001], [-71.147939, 42.816176], [-71.132805, 42.821476000000004], [-71.064416, 42.80627499999997], [-71.054005, 42.83328199999999], [-70.999611, 42.81054499999998], [-70.999079, 42.80967400000001], [-70.99868500000001, 42.80862700000001], [-70.998602, 42.80753099999999], [-70.99875, 42.806964999999984], [-70.999834, 42.80503999999999], [-71.001711, 42.802800000000005], [-71.003435, 42.801100999999996], [-71.005525, 42.79979599999999], [-71.013256, 42.796008000000015], [-71.01703, 42.793288000000004], [-71.018708, 42.79160500000001], [-71.019301, 42.790701], [-71.019757, 42.78952599999999], [-71.020193, 42.78727], [-71.020381, 42.78429599999999], [-71.021904, 42.779633], [-71.024235, 42.77576000000001], [-71.026732, 42.772696999999994], [-71.030065, 42.769217], [-71.037965, 42.75894500000003], [-71.040017, 42.757721000000004], [-71.042567, 42.757041], [-71.042073, 42.755053999999994], [-71.041774, 42.754654000000016], [-71.041998, 42.754416000000006], [-71.04275, 42.75433799999999], [-71.042901, 42.753978], [-71.044096, 42.753214000000014], [-71.044524, 42.74903400000002], [-71.048341, 42.746144999999984], [-71.052849, 42.73988700000001], [-71.058116, 42.734209], [-71.058883, 42.73246300000001], [-71.072111, 42.73266800000001], [-71.07406, 42.73448599999999], [-71.08191, 42.736685], [-71.088064, 42.73614399999999], [-71.090078, 42.736969], [-71.092467, 42.737000000000016], [-71.097834, 42.73521999999999], [-71.108632, 42.735281], [-71.115579, 42.74110399999999], [-71.11586800000002, 42.74013100000002], [-71.116448, 42.739085999999986], [-71.118606, 42.736622999999994], [-71.121623, 42.73384899999999], [-71.124461, 42.731654], [-71.12681, 42.72835700000001], [-71.130706, 42.724451], [-71.133696, 42.72199700000001], [-71.134458, 42.721162], [-71.134909, 42.719891], [-71.134966, 42.718222], [-71.13475800000002, 42.717271000000004], [-71.133843, 42.715086], [-71.133498, 42.713549000000015], [-71.133454, 42.71248], [-71.133956, 42.71041400000001], [-71.13455, 42.70941500000001], [-71.136292, 42.707214], [-71.137559, 42.706525], [-71.137525, 42.704806], [-71.137116, 42.70438700000002], [-71.139323, 42.70340400000001], [-71.14089, 42.703345000000006], [-71.142372, 42.69938399999999], [-71.142778, 42.698923000000015], [-71.144381, 42.699262999999995], [-71.144822, 42.69910999999999], [-71.144976, 42.698746], [-71.14547, 42.698757000000015], [-71.145857, 42.69848099999999], [-71.145718, 42.698169000000014], [-71.145446, 42.698194999999984], [-71.14546, 42.698062000000014], [-71.145005, 42.697947], [-71.144903, 42.697756999999996], [-71.143395, 42.69702800000001], [-71.143149, 42.69420000000001], [-71.141703, 42.694316999999984], [-71.141674, 42.69412], [-71.140597, 42.69385299999999], [-71.140418, 42.69358900000001], [-71.140264, 42.69366300000003], [-71.140169, 42.693419999999996], [-71.140009, 42.69351700000001], [-71.139219, 42.69320900000002], [-71.139296, 42.69274300000002], [-71.138637, 42.692756], [-71.137936, 42.69250700000001], [-71.138022, 42.692398000000004], [-71.137818, 42.692282], [-71.13798, 42.69226], [-71.137743, 42.69203900000001], [-71.137863, 42.691925], [-71.137712, 42.691880999999995], [-71.137922, 42.69182099999999], [-71.137897, 42.69153800000001], [-71.137599, 42.69164900000001], [-71.137522, 42.69140599999999], [-71.137637, 42.691286999999996], [-71.13732, 42.691136], [-71.137503, 42.691089999999996], [-71.137394, 42.690820000000016], [-71.137678, 42.69060900000001], [-71.137296, 42.69041299999999], [-71.13745200000001, 42.69007299999999], [-71.137392, 42.68995199999999], [-71.137222, 42.690036000000006], [-71.137173, 42.689817], [-71.137532, 42.689595000000004], [-71.137428, 42.689485], [-71.13729, 42.689582], [-71.137319, 42.689343000000015], [-71.137866, 42.68921999999999], [-71.137936, 42.689021], [-71.13828, 42.68907500000001], [-71.138508, 42.688837], [-71.138372, 42.68861299999999], [-71.138555, 42.68846000000001], [-71.138385, 42.688325], [-71.138523, 42.688285], [-71.138499, 42.687594], [-71.138868, 42.68745100000001], [-71.138968, 42.687705], [-71.139193, 42.68773800000001], [-71.139809, 42.68718599999999], [-71.139457, 42.68678], [-71.139202, 42.68673499999999], [-71.13844, 42.68664999999998], [-71.138333, 42.686848000000005], [-71.137981, 42.68690099999999], [-71.137908, 42.686571], [-71.137679, 42.686438], [-71.137949, 42.686403], [-71.138121, 42.686044], [-71.138291, 42.686036], [-71.138317, 42.68618099999999], [-71.138824, 42.685732], [-71.139297, 42.685694], [-71.139465, 42.685344], [-71.139177, 42.68515], [-71.137998, 42.685323], [-71.137787, 42.685046000000014], [-71.1383, 42.68470599999999], [-71.139402, 42.684477], [-71.133584, 42.679428], [-71.134452, 42.67677799999999], [-71.151213, 42.681707], [-71.185503, 42.675868], [-71.188862, 42.69626800000001], [-71.190985, 42.69742900000001], [-71.194549, 42.69838299999999], [-71.20249, 42.698910000000005], [-71.212079, 42.70108499999999], [-71.213471, 42.701243999999996], [-71.215536, 42.70119800000002], [-71.218173, 42.700630000000004], [-71.220122, 42.699577], [-71.221174, 42.69849599999998], [-71.224251, 42.69450600000001], [-71.224807, 42.69342999999999], [-71.225389, 42.68686699999999], [-71.225649, 42.685783], [-71.226074, 42.684431999999994], [-71.228171, 42.68003600000001], [-71.229367, 42.67819999999999], [-71.234094, 42.672518000000004], [-71.235607, 42.67116200000001], [-71.238103, 42.669490999999994], [-71.239285, 42.66819500000001], [-71.240397, 42.66673], [-71.241409, 42.663685], [-71.24189, 42.66289600000002], [-71.24249, 42.662345999999985], [-71.244172, 42.661514000000004], [-71.245454, 42.661195000000006], [-71.24682, 42.66101400000001], [-71.249479, 42.66110100000001], [-71.250763, 42.66078200000001], [-71.252879, 42.659544000000004], [-71.254966, 42.657775], [-71.256733, 42.657001], [-71.258482, 42.65692299999999], [-71.261963, 42.657483], [-71.26434700000001, 42.657667], [-71.272607, 42.656664], [-71.275154, 42.656216], [-71.272018, 42.64921600000001], [-71.27170700000002, 42.64801799999999], [-71.271682, 42.646305], [-71.271446, 42.64609200000002], [-71.271188, 42.644241999999984], [-71.274709, 42.62885899999998], [-71.277791, 42.62084700000002], [-71.283427, 42.61529900000001], [-71.296319, 42.61266700000001], [-71.225669, 42.580036000000014], [-71.229066, 42.578374], [-71.231615, 42.577549], [-71.233839, 42.576176999999994], [-71.235304, 42.575967999999996], [-71.236753, 42.57543900000002], [-71.238587, 42.57503600000001], [-71.24173300000001, 42.573736999999994], [-71.247719, 42.568085], [-71.249305, 42.566985], [-71.250402, 42.566526999999994], [-71.250091, 42.56609000000001], [-71.249765, 42.564181999999995], [-71.249581, 42.563942000000004], [-71.2513, 42.563266999999996], [-71.254273, 42.562899], [-71.254051, 42.562388], [-71.25201, 42.56083300000001], [-71.251295, 42.559763], [-71.25797400000002, 42.557566], [-71.26023, 42.554261], [-71.264154, 42.552873000000005], [-71.265806, 42.555070000000015], [-71.267835, 42.554594], [-71.267634, 42.54996500000001], [-71.266861, 42.55015399999999], [-71.266676, 42.54994600000002], [-71.266684, 42.548694], [-71.267064, 42.54782199999999], [-71.267365, 42.54751], [-71.267103, 42.546768], [-71.267296, 42.546192000000005], [-71.267189, 42.54550100000002], [-71.266733, 42.54515000000002], [-71.266556, 42.544627], [-71.267553, 42.54429199999999], [-71.268921, 42.544215], [-71.269833, 42.544323], [-71.270142, 42.544502], [-71.271719, 42.544506000000005], [-71.272199, 42.54472199999999], [-71.272398, 42.545215000000006], [-71.274364, 42.545073], [-71.27639500000001, 42.544383], [-71.273781, 42.54208799999999], [-71.274947, 42.541361999999964], [-71.275981, 42.541065], [-71.275903, 42.54053699999999], [-71.276085, 42.539312], [-71.274166, 42.53985599999999], [-71.273627, 42.538768000000005], [-71.274445, 42.53835799999999], [-71.273587, 42.53748], [-71.272687, 42.53791499999999], [-71.272102, 42.53748099999999], [-71.271261, 42.537893999999994], [-71.270657, 42.53784400000001], [-71.269464, 42.538272000000006], [-71.266941, 42.538469], [-71.266098, 42.53872500000001], [-71.265006, 42.53936500000001], [-71.263627, 42.53962299999999], [-71.263916, 42.539178], [-71.26296500000001, 42.53916400000003], [-71.262687, 42.53882300000001], [-71.262733, 42.538340000000005], [-71.263314, 42.53779300000001], [-71.263376, 42.53735899999998], [-71.263007, 42.536752999999976], [-71.262035, 42.537169], [-71.261716, 42.53709800000001], [-71.261387, 42.53733199999997], [-71.26103, 42.53716200000001], [-71.260161, 42.53746600000001], [-71.258693, 42.537566999999996], [-71.258405, 42.53463500000001], [-71.257798, 42.532086], [-71.260424, 42.530936], [-71.25249, 42.524078], [-71.254572, 42.522593], [-71.256396, 42.523992], [-71.264098, 42.524081000000024], [-71.278107, 42.526712999999994], [-71.281051, 42.526348000000006], [-71.303739, 42.519926], [-71.306699, 42.52059299999999], [-71.306561, 42.518917000000016], [-71.306918, 42.517081000000005], [-71.30619500000002, 42.515079], [-71.30633, 42.514393], [-71.306653, 42.51405100000001], [-71.307871, 42.513686], [-71.308658, 42.513253999999996], [-71.311253, 42.511014], [-71.313421, 42.50971700000001], [-71.314641, 42.50856200000001], [-71.316422, 42.50733500000002], [-71.316968, 42.506463000000004], [-71.317708, 42.504796], [-71.31780900000001, 42.504217000000004], [-71.317538, 42.502425], [-71.31755100000001, 42.501414000000004], [-71.318305, 42.49819399999999], [-71.318585, 42.49115700000001], [-71.319026, 42.489677999999984], [-71.319138, 42.48806500000002], [-71.319644, 42.486933], [-71.319303, 42.486289000000006], [-71.31739, 42.48490599999999], [-71.316987, 42.484181000000014], [-71.317214, 42.483560999999995], [-71.318038, 42.48287700000001], [-71.319016, 42.482538999999996], [-71.32077, 42.482256000000014], [-71.321268, 42.480515], [-71.320124, 42.48033199999999], [-71.316891, 42.476623999999994], [-71.31704, 42.476479000000005], [-71.313768, 42.474182000000006], [-71.309465, 42.476404], [-71.306552, 42.47442700000001], [-71.304246, 42.474717999999996], [-71.30182400000001, 42.473240999999994], [-71.300818, 42.47365200000001], [-71.29872, 42.472909000000016], [-71.289676, 42.466182], [-71.289302, 42.46455700000003], [-71.29521, 42.463235000000005], [-71.29519, 42.46344600000001], [-71.302282, 42.46201000000001], [-71.302155, 42.461116000000025], [-71.303191, 42.461254], [-71.304804, 42.452759999999984], [-71.309929, 42.453248], [-71.310931, 42.453594], [-71.313618, 42.455023], [-71.335379, 42.437775999999985], [-71.35256, 42.42692300000001], [-71.353626, 42.42470300000001], [-71.354626, 42.421782999999984], [-71.355868, 42.42092600000001], [-71.356578, 42.419923], [-71.357084, 42.41982599999999], [-71.359152, 42.42066599999999], [-71.361458, 42.42112199999998], [-71.362562, 42.421056], [-71.364416, 42.42044099999999], [-71.364573, 42.420079], [-71.364581, 42.41813799999999], [-71.363933, 42.416558], [-71.363928, 42.416022000000005], [-71.365141, 42.414182999999994], [-71.365212, 42.413352999999994], [-71.36634, 42.41272], [-71.430389, 42.436937], [-71.464349, 42.45030000000003], [-71.478382, 42.437104], [-71.46944300000001, 42.40259300000001], [-71.472689, 42.389984999999996], [-71.475505, 42.380632000000006], [-71.483298, 42.353129999999986], [-71.486797, 42.33018899999999], [-71.50821600000002, 42.327928], [-71.516527, 42.33033600000001], [-71.551126, 42.326395000000005], [-71.569085, 42.32037299999999], [-71.58521, 42.31095199999999], [-71.592502, 42.317901], [-71.597363, 42.321016000000014], [-71.601885, 42.32697099999999], [-71.60371, 42.328548000000005], [-71.605266, 42.33016], [-71.603591, 42.33167600000001], [-71.604099, 42.336769000000004], [-71.604663, 42.336746000000005], [-71.611529, 42.338993], [-71.616047, 42.341463999999995], [-71.61755, 42.341967999999994], [-71.619131, 42.343348999999996], [-71.620658, 42.345248999999995], [-71.625825, 42.34972399999999], [-71.624702, 42.35046500000001], [-71.63394200000002, 42.35839800000001], [-71.677794, 42.365154000000025], [-71.67055100000002, 42.38666500000001], [-71.701017, 42.39580800000002], [-71.725979, 42.39028900000002], [-71.721578, 42.409239000000014], [-71.718362, 42.410219999999995], [-71.718699, 42.473373999999986], [-71.728385, 42.475128000000005], [-71.71674, 42.518971], [-71.712384, 42.52132899999999], [-71.702236, 42.53389499999997], [-71.711231, 42.535354000000005], [-71.720417, 42.55232900000001], [-71.745072, 42.573859999999996], [-71.76295, 42.56392400000001], [-71.757247, 42.562068], [-71.755875, 42.56117000000001], [-71.754096, 42.559456], [-71.75045, 42.553461999999996], [-71.747769, 42.549935], [-71.749869, 42.54975900000001], [-71.749149, 42.54905000000001], [-71.749679, 42.54520199999998], [-71.754166, 42.54605199999999], [-71.757766, 42.548567999999996], [-71.760362, 42.54762200000001], [-71.761951, 42.549808000000006], [-71.761588, 42.55190399999999], [-71.764287, 42.55505600000001], [-71.76918, 42.558142000000004], [-71.771342, 42.559248], [-71.786023, 42.551047000000004], [-71.78937, 42.550931], [-71.797118, 42.552551000000015], [-71.798699, 42.552594000000006], [-71.800126, 42.552110000000006], [-71.803752, 42.548897], [-71.804663, 42.548261999999994], [-71.806546, 42.54747200000001], [-71.8079, 42.54716400000001], [-71.814214, 42.54725300000001], [-71.819247, 42.54659899999999], [-71.821281, 42.546539], [-71.822928, 42.546794], [-71.829067, 42.548641999999994], [-71.83088, 42.54901800000001], [-71.832831, 42.54900200000001], [-71.837123, 42.548551], [-71.842004, 42.514679000000015], [-71.844954, 42.51443900000001], [-71.84737, 42.514704999999985], [-71.849404, 42.517903000000004], [-71.856837, 42.51908299999999], [-71.86104, 42.51637400000001], [-71.864531, 42.51693300000001], [-71.874865, 42.509519999999995], [-71.876761, 42.51108200000001], [-71.877329, 42.512498000000015], [-71.87762, 42.51284100000001], [-71.878465, 42.51354899999998], [-71.88015, 42.51458199999999], [-71.880781, 42.51484900000001], [-71.88323600000001, 42.515357], [-71.886937, 42.517309], [-71.890166, 42.517720000000004], [-71.890795, 42.517976], [-71.891834, 42.519978], [-71.892055, 42.521317], [-71.892049, 42.522785999999996], [-71.892932, 42.526251], [-71.893621, 42.527642000000014], [-71.895599, 42.530162000000004], [-71.896422, 42.53175199999999], [-71.897248, 42.531929999999996], [-71.898665, 42.532959], [-71.900833, 42.53368799999999], [-71.902143, 42.53492200000001], [-71.902439, 42.535679], [-71.903796, 42.534684999999996], [-71.904618, 42.533796], [-71.905082, 42.531265000000005], [-71.906503, 42.52923099999998], [-71.907369, 42.52853900000001], [-71.908493, 42.526557], [-71.911638, 42.524342999999995], [-71.913481, 42.52379199999999], [-71.91431, 42.52328199999997], [-71.916429, 42.524303], [-71.918559, 42.525772], [-71.92053, 42.52835], [-71.920466, 42.529876], [-71.921756, 42.52802000000001], [-71.925279, 42.52440500000001], [-71.926256, 42.52320600000001], [-71.927179, 42.523488000000015], [-71.929081, 42.52505200000002], [-71.929694, 42.52894799999999], [-71.932808, 42.52636400000002], [-71.936505, 42.52665100000001], [-71.937774, 42.526555], [-71.940649, 42.52617900000001], [-71.942943, 42.525342], [-71.945598, 42.525122], [-71.94847, 42.524485000000006], [-71.949314, 42.524045], [-71.949362, 42.523369], [-71.950129, 42.521885], [-71.949875, 42.52055700000001], [-71.950235, 42.519707000000004], [-71.95017, 42.519144000000004], [-71.951093, 42.51836], [-71.951318, 42.517904], [-71.951072, 42.517633], [-71.950913, 42.516807], [-71.950128, 42.51594799999998], [-71.949778, 42.51408000000001], [-71.949882, 42.513686], [-71.949603, 42.513122], [-71.949793, 42.51188600000002], [-71.979686, 42.53231000000001], [-72.001447, 42.54665799999999], [-72.02701, 42.563240999999984], [-72.014999, 42.567943000000014], [-72.016577, 42.569883000000004], [-72.018782, 42.570338], [-72.019454, 42.570778], [-72.019495, 42.57101], [-72.019242, 42.571222], [-72.017049, 42.572263], [-72.016633, 42.57305699999999], [-72.015999, 42.573655], [-72.016328, 42.574213], [-72.01687, 42.57439999999998], [-72.017029, 42.575535000000016], [-72.017889, 42.57646499999999], [-72.018607, 42.576699999999995], [-72.019366, 42.576706], [-72.019493, 42.576654], [-72.019595, 42.57591299999999], [-72.020021, 42.57549999999999], [-72.023074, 42.574409999999986], [-72.023419, 42.573673], [-72.026699, 42.57326600000002], [-72.026975, 42.573366], [-72.027441, 42.573930000000004], [-72.028502, 42.573904], [-72.029459, 42.574255], [-72.03072, 42.57399099999999], [-72.031218, 42.574211000000005], [-72.03135700000001, 42.57443599999999], [-72.031114, 42.575948000000004], [-72.032431, 42.575883], [-72.032926, 42.576324], [-72.032792, 42.57681399999999], [-72.032432, 42.576937], [-72.032207, 42.577250000000014], [-72.031729, 42.57833599999999], [-72.032829, 42.578765999999995], [-72.034599, 42.579992], [-72.035494, 42.580104], [-72.035686, 42.57990999999999], [-72.035723, 42.579038], [-72.036323, 42.57819700000001], [-72.037054, 42.57740900000001], [-72.037997, 42.577070000000006], [-72.038207, 42.57715700000001], [-72.038217, 42.57733000000001], [-72.03751, 42.57786499999999], [-72.037492, 42.578097000000014], [-72.037849, 42.578408], [-72.038263, 42.578639], [-72.038852, 42.57847599999999], [-72.039315, 42.578655], [-72.040386, 42.57861400000001], [-72.041019, 42.57931399999999], [-72.042024, 42.579794], [-72.042183, 42.58030199999999], [-72.041546, 42.58086799999999], [-72.042038, 42.582137], [-72.041514, 42.582894], [-72.041626, 42.583245], [-72.042237, 42.58362499999999], [-72.042293, 42.583909], [-72.041609, 42.584776], [-72.039315, 42.585564], [-72.038829, 42.586220000000004], [-72.038802, 42.586481000000006], [-72.039444, 42.586849000000015], [-72.039717, 42.587697], [-72.040869, 42.58822499999999], [-72.042209, 42.589363999999996], [-72.041883, 42.59031699999999], [-72.041811, 42.591978], [-72.035983, 42.593857], [-72.075749, 42.625235], [-72.116458, 42.62658200000001], [-72.116631, 42.62660699999999]]]}}