{"type": "Feature", "properties": {"district_name": "6th Congressional District", "chamber": "us-house", "vintage": "2022-present"}, "geometry": {"type": "Polygon", "coordinates": [[[-71.321268, 42.480515], [-71.32077, 42.482256000000014], [-71.319016, 42.482538999999996], [-71.318038, 42.48287700000001], [-71.317214, 42.483560999999995], [-71.316987, 42.484181000000014], [-71.31739, 42.48490599999999], [-71.319303, 42.486289000000006], [-71.319644, 42.486933], [-71.319138, 42.48806500000002], [-71.319026, 42.489677999999984], [-71.318585, 42.49115700000001], [-71.318305, 42.49819399999999], [-71.31755100000001, 42.501414000000004], [-71.317538, 42.502425], [-71.317835, 42.503817], [-71.317708, 42.504796], [-71.316968, 42.506463000000004], [-71.316093, 42.50763], [-71.314641, 42.50856200000001], [-71.313421, 42.50971700000001], [-71.31107, 42.511151000000005], [-71.308658, 42.513253999999996], [-71.307871, 42.513686], [-71.306653, 42.51405100000001], [-71.30633, 42.514393], [-71.30619500000002, 42.515079], [-71.306918, 42.517081000000005], [-71.306561, 42.518917000000016], [-71.306699, 42.52059299999999], [-71.303739, 42.519926], [-71.281051, 42.526348000000006], [-71.278107, 42.526712999999994], [-71.264098, 42.524081000000024], [-71.256396, 42.523992], [-71.254572, 42.522593], [-71.25249, 42.524078], [-71.260424, 42.530936], [-71.257798, 42.532086], [-71.258405, 42.53463500000001], [-71.258693, 42.537566999999996], [-71.260161, 42.53746600000001], [-71.26103, 42.53716200000001], [-71.261387, 42.53733199999997], [-71.261716, 42.53709800000001], [-71.262035, 42.537169], [-71.263007, 42.536752999999976], [-71.263376, 42.53735899999998], [-71.263314, 42.53779300000001], [-71.262733, 42.538340000000005], [-71.262687, 42.53882300000001], [-71.26296500000001, 42.53916400000003], [-71.263916, 42.539178], [-71.263627, 42.53962299999999], [-71.265006, 42.53936500000001], [-71.266098, 42.53872500000001], [-71.266941, 42.538469], [-71.269464, 42.538272000000006], [-71.270657, 42.53784400000001], [-71.271261, 42.537893999999994], [-71.272102, 42.53748099999999], [-71.272687, 42.53791499999999], [-71.273587, 42.53748], [-71.274445, 42.53835799999999], [-71.273627, 42.538768000000005], [-71.274166, 42.53985599999999], [-71.276085, 42.539312], [-71.275903, 42.54053699999999], [-71.275981, 42.541065], [-71.274947, 42.541361999999964], [-71.273781, 42.54208799999999], [-71.27639500000001, 42.544383], [-71.274364, 42.545073], [-71.272398, 42.545215000000006], [-71.272199, 42.54472199999999], [-71.271719, 42.544506000000005], [-71.270142, 42.544502], [-71.269833, 42.544323], [-71.268921, 42.544215], [-71.267553, 42.54429199999999], [-71.266556, 42.544627], [-71.266733, 42.54515000000002], [-71.267189, 42.54550100000002], [-71.267296, 42.546192000000005], [-71.267103, 42.546768], [-71.267365, 42.54751], [-71.267064, 42.54782199999999], [-71.266684, 42.548694], [-71.266676, 42.54994600000002], [-71.266861, 42.55015399999999], [-71.267634, 42.54996500000001], [-71.267835, 42.554594], [-71.265806, 42.555070000000015], [-71.264154, 42.552873000000005], [-71.26023, 42.554261], [-71.25797400000002, 42.557566], [-71.251295, 42.559763], [-71.25201, 42.56083300000001], [-71.254051, 42.562388], [-71.254273, 42.562899], [-71.2513, 42.563266999999996], [-71.249581, 42.563942000000004], [-71.249765, 42.564181999999995], [-71.250091, 42.56609000000001], [-71.250402, 42.566526999999994], [-71.249305, 42.566985], [-71.247719, 42.568085], [-71.24173300000001, 42.573736999999994], [-71.238587, 42.57503600000001], [-71.236753, 42.57543900000002], [-71.235304, 42.575967999999996], [-71.233839, 42.576176999999994], [-71.231615, 42.577549], [-71.229066, 42.578374], [-71.225669, 42.580036000000014], [-71.296319, 42.61266700000001], [-71.283427, 42.61529900000001], [-71.277791, 42.62084700000002], [-71.274709, 42.62885899999998], [-71.271188, 42.644241999999984], [-71.271446, 42.64609200000002], [-71.271682, 42.646305], [-71.27170700000002, 42.64801799999999], [-71.272018, 42.64921600000001], [-71.275154, 42.656216], [-71.272607, 42.656664], [-71.26434700000001, 42.657667], [-71.261963, 42.657483], [-71.258482, 42.65692299999999], [-71.256733, 42.657001], [-71.254966, 42.657775], [-71.252879, 42.659544000000004], [-71.250763, 42.66078200000001], [-71.249479, 42.66110100000001], [-71.24682, 42.66101400000001], [-71.245454, 42.661195000000006], [-71.244172, 42.661514000000004], [-71.24249, 42.662345999999985], [-71.24189, 42.66289600000002], [-71.241409, 42.663685], [-71.240397, 42.66673], [-71.239285, 42.66819500000001], [-71.238103, 42.669490999999994], [-71.235607, 42.67116200000001], [-71.234094, 42.672518000000004], [-71.229367, 42.67819999999999], [-71.228171, 42.68003600000001], [-71.226074, 42.684431999999994], [-71.225649, 42.685783], [-71.225389, 42.68686699999999], [-71.224807, 42.69342999999999], [-71.224251, 42.69450600000001], [-71.221174, 42.69849599999998], [-71.220122, 42.699577], [-71.218173, 42.700630000000004], [-71.215536, 42.70119800000002], [-71.213471, 42.701243999999996], [-71.212079, 42.70108499999999], [-71.20249, 42.698910000000005], [-71.194549, 42.69838299999999], [-71.190985, 42.69742900000001], [-71.188862, 42.69626800000001], [-71.185503, 42.675868], [-71.151213, 42.681707], [-71.134452, 42.67677799999999], [-71.133584, 42.679428], [-71.139402, 42.684477], [-71.1383, 42.68470599999999], [-71.137787, 42.685046000000014], [-71.137998, 42.685323], [-71.139177, 42.68515], [-71.139465, 42.685344], [-71.139297, 42.685694], [-71.138824, 42.685732], [-71.138317, 42.68618099999999], [-71.138291, 42.686036], [-71.138121, 42.686044], [-71.137949, 42.686403], [-71.137679, 42.686438], [-71.137908, 42.686571], [-71.137981, 42.68690099999999], [-71.138333, 42.686848000000005], [-71.13844, 42.68664999999998], [-71.139202, 42.68673499999999], [-71.139457, 42.68678], [-71.139809, 42.68718599999999], [-71.139193, 42.68773800000001], [-71.138968, 42.687705], [-71.138868, 42.68745100000001], [-71.138499, 42.687594], [-71.138523, 42.688285], [-71.138385, 42.688325], [-71.138555, 42.68846000000001], [-71.138372, 42.68861299999999], [-71.138508, 42.688837], [-71.13828, 42.68907500000001], [-71.137936, 42.689021], [-71.137866, 42.68921999999999], [-71.137319, 42.689343000000015], [-71.13729, 42.689582], [-71.137428, 42.689485], [-71.137532, 42.689595000000004], [-71.137173, 42.689817], [-71.137222, 42.690036000000006], [-71.137392, 42.68995199999999], [-71.13745200000001, 42.69007299999999], [-71.137296, 42.69041299999999], [-71.137678, 42.69060900000001], [-71.137394, 42.690820000000016], [-71.137503, 42.691089999999996], [-71.13732, 42.691136], [-71.137637, 42.691286999999996], [-71.137522, 42.69140599999999], [-71.137599, 42.69164900000001], [-71.137897, 42.69153800000001], [-71.137922, 42.69182099999999], [-71.137712, 42.691880999999995], [-71.137863, 42.691925], [-71.137743, 42.69203900000001], [-71.13798, 42.69226], [-71.137818, 42.692282], [-71.138022, 42.692398000000004], [-71.137936, 42.69250700000001], [-71.138637, 42.692756], [-71.139296, 42.69274300000002], [-71.139219, 42.69320900000002], [-71.140009, 42.69351700000001], [-71.140169, 42.693419999999996], [-71.140264, 42.69366300000003], [-71.140418, 42.69358900000001], [-71.140597, 42.69385299999999], [-71.141674, 42.69412], [-71.141703, 42.694316999999984], [-71.143149, 42.69420000000001], [-71.143395, 42.69702800000001], [-71.144903, 42.697756999999996], [-71.145005, 42.697947], [-71.14546, 42.698062000000014], [-71.145446, 42.698194999999984], [-71.145718, 42.698169000000014], [-71.145857, 42.69848099999999], [-71.14547, 42.698757000000015], [-71.144976, 42.698746], [-71.144822, 42.69910999999999], [-71.144381, 42.699262999999995], [-71.142778, 42.698923000000015], [-71.142372, 42.69938399999999], [-71.14089, 42.703345000000006], [-71.139323, 42.70340400000001], [-71.137116, 42.70438700000002], [-71.137525, 42.704806], [-71.137559, 42.706525], [-71.136292, 42.707214], [-71.13455, 42.70941500000001], [-71.133956, 42.71041400000001], [-71.133454, 42.71248], [-71.133498, 42.713549000000015], [-71.133843, 42.715086], [-71.13475800000002, 42.717271000000004], [-71.134966, 42.718222], [-71.134909, 42.719891], [-71.134458, 42.721162], [-71.133696, 42.72199700000001], [-71.130706, 42.724451], [-71.12681, 42.72835700000001], [-71.124461, 42.731654], [-71.121623, 42.73384899999999], [-71.118606, 42.736622999999994], [-71.116448, 42.739085999999986], [-71.11586800000002, 42.74013100000002], [-71.115579, 42.74110399999999], [-71.108632, 42.735281], [-71.097834, 42.73521999999999], [-71.092467, 42.737000000000016], [-71.090078, 42.736969], [-71.088064, 42.73614399999999], [-71.08191, 42.736685], [-71.07406, 42.73448599999999], [-71.072111, 42.73266800000001], [-71.058883, 42.73246300000001], [-71.058116, 42.734209], [-71.052849, 42.73988700000001], [-71.048341, 42.746144999999984], [-71.044524, 42.74903400000002], [-71.044096, 42.753214000000014], [-71.042901, 42.753978], [-71.04275, 42.75433799999999], [-71.041998, 42.754416000000006], [-71.041774, 42.754654000000016], [-71.042073, 42.755053999999994], [-71.042567, 42.757041], [-71.040017, 42.757721000000004], [-71.037965, 42.75894500000003], [-71.030065, 42.769217], [-71.026732, 42.772696999999994], [-71.024235, 42.77576000000001], [-71.021904, 42.779633], [-71.020381, 42.78429599999999], [-71.020193, 42.78727], [-71.019757, 42.78952599999999], [-71.019301, 42.790701], [-71.018708, 42.79160500000001], [-71.01703, 42.793288000000004], [-71.013256, 42.796008000000015], [-71.005525, 42.79979599999999], [-71.003435, 42.801100999999996], [-71.00110900000001, 42.80347700000001], [-70.999834, 42.80503999999999], [-70.999086, 42.806292999999975], [-70.998602, 42.80753099999999], [-70.99868500000001, 42.80862700000001], [-70.999079, 42.80967400000001], [-70.999611, 42.81054499999998], [-71.054005, 42.83328199999999], [-71.04492, 42.848667000000006], [-71.031201, 42.859086999999995], [-71.023519, 42.860530999999995], [-71.016339, 42.86168200000001], [-70.967018, 42.86880000000001], [-70.948984, 42.87619099999999], [-70.929594, 42.885032000000045], [-70.914631, 42.88664799999999], [-70.903533, 42.88677800000001], [-70.885602, 42.882834], [-70.847718, 42.86086699999999], [-70.836725, 42.864680000000014], [-70.829693, 42.868725000000005], [-70.820238, 42.87178700000001], [-70.81697900000002, 42.87194800000001], [-70.812519, 42.87244300000002], [-70.792495, 42.87329100000001], [-70.749494, 42.87469399999999], [-70.735005, 42.87468500000001], [-70.738642, 42.869254999999995], [-70.746282, 42.860842999999996], [-70.74883, 42.858831], [-70.747134, 42.853712], [-70.746262, 42.850166000000016], [-70.746166, 42.84755500000001], [-70.745522, 42.844442999999984], [-70.743971, 42.843174000000005], [-70.74146, 42.839664000000006], [-70.739038, 42.83581799999999], [-70.737393, 42.832607], [-70.736248, 42.82919400000001], [-70.735789, 42.82701900000001], [-70.734874, 42.824477], [-70.734409, 42.818552999999994], [-70.734312, 42.81517300000001], [-70.734488, 42.81175800000001], [-70.733892, 42.808814], [-70.73388700000001, 42.806236], [-70.733655, 42.80365900000002], [-70.734148, 42.79860500000001], [-70.73478, 42.795590999999995], [-70.737225, 42.787955999999994], [-70.731839, 42.77835699999999], [-70.73097, 42.77521200000001], [-70.730647, 42.773338], [-70.728045, 42.76788700000001], [-70.726856, 42.764039000000004], [-70.725848, 42.75902000000001], [-70.721974, 42.754270999999996], [-70.720288, 42.75186299999997], [-70.71927, 42.750095], [-70.71696, 42.74351699999999], [-70.714324, 42.73191100000002], [-70.70258, 42.72416199999999], [-70.68293, 42.72883], [-70.66131400000002, 42.73660999999999], [-70.641664, 42.739723000000005], [-70.625943, 42.739723999999995], [-70.590572, 42.73349999999999], [-70.549306, 42.724163999999995], [-70.529655, 42.70704799999999], [-70.513934, 42.680594], [-70.506074, 42.65102999999999], [-70.502143, 42.635470999999995], [-70.502143, 42.624579], [-70.511968, 42.60590700000001], [-70.521793, 42.593458999999996], [-70.531618, 42.584123], [-70.545374, 42.570119], [-70.566989, 42.56078300000001], [-70.582709, 42.553004], [-70.596464, 42.540556], [-70.60629, 42.53121999999999], [-70.617339, 42.500099], [-70.640006, 42.43166], [-70.648072, 42.40562799999999], [-70.749487, 42.400820000000024], [-70.851436, 42.393209000000006], [-70.901292, 42.384098000000016], [-70.924593, 42.386798], [-70.959494, 42.407498000000004], [-70.962093, 42.412397000000006], [-70.959093, 42.41859699999998], [-70.952993, 42.42939599999999], [-70.951393, 42.436996], [-70.950793, 42.44429599999999], [-70.966293, 42.44349700000001], [-70.968594, 42.444396], [-70.971594, 42.442696], [-70.975194, 42.436896000000004], [-70.979454, 42.432815], [-70.979894, 42.432396000000004], [-70.982294, 42.431296], [-70.983708, 42.431663], [-70.985754, 42.432557], [-70.987805, 42.43399799999998], [-70.99012, 42.43487700000001], [-70.992023, 42.43413499999999], [-70.994779, 42.43119600000001], [-70.995714, 42.430855000000015], [-70.998475, 42.431296], [-70.999857, 42.431296], [-71.00215, 42.43260800000001], [-71.002994, 42.432837], [-71.003302, 42.43270299999998], [-71.004632, 42.43305500000001], [-71.005691, 42.432981], [-71.006532, 42.43339399999999], [-71.006974, 42.43383800000001], [-71.007873, 42.433972], [-71.00858, 42.434346], [-71.009277, 42.43427799999999], [-71.010777, 42.43456799999998], [-71.010802, 42.435397999999985], [-71.011416, 42.435990999999994], [-71.01144, 42.436225000000015], [-71.010994, 42.43654200000001], [-71.011442, 42.436693000000005], [-71.01109, 42.436795], [-71.010927, 42.437083], [-71.010639, 42.43719599999999], [-71.010677, 42.437347], [-71.010425, 42.437583999999994], [-71.010736, 42.43776400000001], [-71.010625, 42.438102], [-71.01013, 42.43817599999999], [-71.010099, 42.438301], [-71.010536, 42.43844500000001], [-71.01067, 42.438739000000005], [-71.01093, 42.438597000000016], [-71.011141, 42.43906399999998], [-71.011802, 42.438997], [-71.012365, 42.439741000000005], [-71.011897, 42.439748000000016], [-71.011826, 42.439944000000004], [-71.009503, 42.440963999999994], [-71.011924, 42.442164], [-71.018757, 42.45011800000001], [-71.025836, 42.44470900000001], [-71.053365, 42.475925], [-71.061323, 42.474196], [-71.061269, 42.47265099999999], [-71.069305, 42.471636999999994], [-71.078152, 42.47402], [-71.077707, 42.47739099999998], [-71.076599, 42.47749200000003], [-71.07524000000001, 42.488008], [-71.085502, 42.492258000000014], [-71.090115, 42.501260999999985], [-71.100727, 42.502242], [-71.11976, 42.500291999999995], [-71.121959, 42.50427799999999], [-71.122395, 42.504153], [-71.123463, 42.506174], [-71.124176, 42.507526], [-71.123798, 42.50763399999999], [-71.123988, 42.50801400000002], [-71.135454, 42.53000099999998], [-71.170033, 42.515537], [-71.169635, 42.511461999999995], [-71.170258, 42.51045200000001], [-71.16954, 42.510242], [-71.169876, 42.50972099999999], [-71.169473, 42.509487000000014], [-71.169324, 42.507872], [-71.16972, 42.507451], [-71.169395, 42.507311], [-71.169923, 42.506730999999995], [-71.169199, 42.506508000000004], [-71.168444, 42.498299], [-71.168914, 42.490547000000014], [-71.170719, 42.48975500000001], [-71.168924, 42.487087], [-71.181501, 42.483622], [-71.181375, 42.483386], [-71.182944, 42.48212199999999], [-71.184641, 42.48173299999999], [-71.186506, 42.480979999999995], [-71.18548, 42.47996700000001], [-71.187396, 42.479364000000004], [-71.188279, 42.479696000000004], [-71.204317, 42.465845], [-71.210223, 42.470727000000004], [-71.210609, 42.46850700000001], [-71.210479, 42.468118000000004], [-71.210594, 42.46759899999999], [-71.210999, 42.466983], [-71.211348, 42.46689799999999], [-71.211528, 42.46658500000001], [-71.211807, 42.466567999999995], [-71.211807, 42.466388999999985], [-71.212116, 42.46624400000002], [-71.240906, 42.490013], [-71.244177, 42.48853900000001], [-71.245668, 42.48889500000001], [-71.249483, 42.490615], [-71.252021, 42.49263799999999], [-71.253447, 42.493292], [-71.254614, 42.493261999999994], [-71.256662, 42.492925], [-71.256391, 42.49160599999998], [-71.257061, 42.49044200000001], [-71.258193, 42.489358], [-71.261082, 42.48816900000001], [-71.261719, 42.486226000000016], [-71.261849, 42.48626099999999], [-71.261219, 42.485898], [-71.259605, 42.484041], [-71.260174, 42.48159599999999], [-71.260128, 42.481377999999985], [-71.25927, 42.480526999999995], [-71.260262, 42.479767], [-71.259727, 42.477744], [-71.259171, 42.477681000000004], [-71.256935, 42.47872100000001], [-71.256693, 42.47845600000001], [-71.261515, 42.47624600000001], [-71.272695, 42.459704], [-71.277889, 42.460710000000006], [-71.277982, 42.46023499999999], [-71.279501, 42.459675999999995], [-71.28012100000001, 42.460059], [-71.280711, 42.45999], [-71.280851, 42.460168], [-71.28184, 42.45964], [-71.28294, 42.461170999999986], [-71.29872, 42.472909000000016], [-71.300818, 42.47365200000001], [-71.30182400000001, 42.473240999999994], [-71.304246, 42.474717999999996], [-71.306552, 42.47442700000001], [-71.309465, 42.476404], [-71.313768, 42.474182000000006], [-71.31704, 42.476479000000005], [-71.316891, 42.476623999999994], [-71.320124, 42.48033199999999], [-71.321268, 42.480515]]]}}