{"type": "Feature", "properties": {"district_name": "4th Congressional District", "chamber": "us-house", "vintage": "2022-present"}, "geometry": {"type": "Polygon", "coordinates": [[[-71.592748, 42.12164800000001], [-71.573414, 42.135790000000014], [-71.570005, 42.13918400000001], [-71.571591, 42.14236699999999], [-71.571402, 42.151844999999994], [-71.560954, 42.158315], [-71.561914, 42.15896299999999], [-71.561999, 42.159344999999995], [-71.562295, 42.159512], [-71.562372, 42.159995], [-71.562817, 42.160155], [-71.563003, 42.16051300000001], [-71.56350400000001, 42.16068399999999], [-71.563714, 42.161172999999984], [-71.563532, 42.16152999999999], [-71.56385, 42.162174000000014], [-71.563522, 42.162384], [-71.563466, 42.163285], [-71.564029, 42.164054], [-71.564441, 42.164204], [-71.564259, 42.16448599999998], [-71.564463, 42.165096], [-71.564288, 42.165958], [-71.562839, 42.167838999999994], [-71.559809, 42.167108], [-71.559783, 42.167623], [-71.560155, 42.168027], [-71.560462, 42.16804200000001], [-71.560765, 42.16764599999999], [-71.561056, 42.167598000000005], [-71.561227, 42.167786], [-71.560504, 42.16852200000002], [-71.56055200000002, 42.16873800000001], [-71.561759, 42.17034899999999], [-71.562327, 42.171448999999996], [-71.563269, 42.171969999999995], [-71.563197, 42.172366999999994], [-71.562578, 42.17269600000003], [-71.562689, 42.173175], [-71.562516, 42.17409799999998], [-71.561874, 42.174305000000004], [-71.561736, 42.174715000000006], [-71.561985, 42.175444000000006], [-71.561861, 42.17579499999998], [-71.562029, 42.17593699999999], [-71.561972, 42.176491000000006], [-71.561626, 42.17673799999998], [-71.562017, 42.178614000000024], [-71.561498, 42.178672999999996], [-71.56146, 42.17887], [-71.560888, 42.178976999999996], [-71.560263, 42.178805999999994], [-71.55981500000001, 42.17893599999999], [-71.558832, 42.17884199999999], [-71.558352, 42.17873000000001], [-71.557946, 42.178312000000005], [-71.557472, 42.178469000000014], [-71.557187, 42.178342000000015], [-71.556969, 42.178049], [-71.556382, 42.17778099999999], [-71.556468, 42.17763799999998], [-71.555944, 42.177251999999996], [-71.555819, 42.177402000000015], [-71.555382, 42.17732899999999], [-71.555367, 42.17752500000001], [-71.555079, 42.17761], [-71.554898, 42.17811300000002], [-71.553711, 42.178242999999995], [-71.552525, 42.177408], [-71.551666, 42.17857100000001], [-71.552008, 42.17977499999998], [-71.552368, 42.180015], [-71.55259, 42.179984], [-71.552548, 42.180443], [-71.552866, 42.18109799999999], [-71.553646, 42.18140600000001], [-71.55382, 42.18182500000001], [-71.55431800000001, 42.18177099999999], [-71.555806, 42.182079], [-71.555915, 42.18222499999999], [-71.55557300000001, 42.182177999999986], [-71.555497, 42.18234200000001], [-71.555738, 42.182503000000004], [-71.539498, 42.189733999999994], [-71.506894, 42.188927], [-71.502626, 42.191416], [-71.497378, 42.166643000000015], [-71.49313600000002, 42.166209999999985], [-71.478027, 42.165871], [-71.478522, 42.13137799999999], [-71.461441, 42.13364099999999], [-71.442693, 42.13578400000001], [-71.442279, 42.13557200000001], [-71.442451, 42.13545600000001], [-71.442366, 42.135316], [-71.441841, 42.135248000000004], [-71.441769, 42.13503000000001], [-71.441426, 42.134829], [-71.440248, 42.13526700000001], [-71.439259, 42.135029000000024], [-71.438625, 42.13518500000001], [-71.437063, 42.134814000000006], [-71.436193, 42.134319], [-71.435529, 42.134208], [-71.434572, 42.134327], [-71.434451, 42.134508000000004], [-71.43482400000002, 42.13489700000001], [-71.434926, 42.135314000000015], [-71.434745, 42.13559000000001], [-71.434299, 42.135612999999985], [-71.434226, 42.135095], [-71.433797, 42.135161], [-71.433496, 42.135646], [-71.433865, 42.13597100000002], [-71.433089, 42.13649499999999], [-71.432788, 42.13714], [-71.431847, 42.138025999999996], [-71.43094, 42.138262], [-71.43083, 42.138628000000004], [-71.430229, 42.139012], [-71.429514, 42.13897200000002], [-71.42880100000002, 42.138288999999986], [-71.427852, 42.138108], [-71.427085, 42.138566], [-71.425821, 42.138670000000005], [-71.424382, 42.13904500000001], [-71.423191, 42.139115], [-71.421829, 42.13872800000001], [-71.419221, 42.138968000000006], [-71.418942, 42.138789], [-71.419036, 42.13832099999999], [-71.420237, 42.13782700000002], [-71.420535, 42.137541000000006], [-71.41999, 42.137201999999995], [-71.419674, 42.13760199999999], [-71.419323, 42.13744599999998], [-71.419044, 42.136478999999994], [-71.418845, 42.136402], [-71.417735, 42.136731000000005], [-71.416624, 42.137555000000006], [-71.415098, 42.13825900000001], [-71.414703, 42.137917], [-71.414707, 42.13733900000001], [-71.415053, 42.13651100000001], [-71.41571500000002, 42.136077], [-71.415833, 42.13563400000001], [-71.415409, 42.134981999999994], [-71.414368, 42.13414699999999], [-71.413643, 42.133766000000016], [-71.41269100000001, 42.133604], [-71.411328, 42.134415000000004], [-71.411062, 42.13445299999999], [-71.410049, 42.13398500000001], [-71.40924, 42.134044], [-71.408627, 42.13432099999999], [-71.406237, 42.136309000000004], [-71.405, 42.13679299999999], [-71.404177, 42.13756000000001], [-71.403259, 42.139134], [-71.402343, 42.139542999999996], [-71.40094, 42.13909900000001], [-71.39909, 42.138768999999996], [-71.398106, 42.138173], [-71.397519, 42.137614000000006], [-71.397083, 42.137447000000016], [-71.397103, 42.13732300000001], [-71.384991, 42.13527500000001], [-71.383494, 42.13519299999999], [-71.383092, 42.135515], [-71.382096, 42.13554700000001], [-71.381998, 42.135436999999996], [-71.382123, 42.13529499999999], [-71.382803, 42.135031], [-71.38292600000001, 42.134213], [-71.382527, 42.133942], [-71.38212, 42.13392199999999], [-71.382074, 42.13378199999999], [-71.382499, 42.133668], [-71.383132, 42.13381700000001], [-71.38332, 42.13365299999999], [-71.38328, 42.13349099999999], [-71.382716, 42.133145000000006], [-71.38249, 42.133451], [-71.38194, 42.13345799999999], [-71.381101, 42.13286600000002], [-71.380591, 42.13314299999998], [-71.380188, 42.132925], [-71.379534, 42.13313800000001], [-71.379326, 42.13324499999999], [-71.379242, 42.133614999999985], [-71.380044, 42.134592], [-71.379931, 42.135374000000006], [-71.379584, 42.13576], [-71.378944, 42.135834], [-71.378109, 42.13539200000001], [-71.37679, 42.13561], [-71.375618, 42.13545399999999], [-71.3793, 42.141639999999995], [-71.380366, 42.14316699999999], [-71.40229500000001, 42.17879400000002], [-71.404427, 42.18843300000001], [-71.384765, 42.19201399999999], [-71.380182, 42.201758999999996], [-71.388206, 42.20430300000001], [-71.388489, 42.20800499999999], [-71.391706, 42.20974200000001], [-71.393923, 42.207089], [-71.397341, 42.207889], [-71.397056, 42.20815100000001], [-71.397027, 42.20856799999999], [-71.397311, 42.20874299999999], [-71.39719, 42.20905900000001], [-71.397358, 42.209199000000005], [-71.397333, 42.209842], [-71.397529, 42.210302000000006], [-71.398603, 42.21120699999998], [-71.399672, 42.211725], [-71.400191, 42.211791000000005], [-71.40058, 42.212422999999994], [-71.40118, 42.212927000000015], [-71.402035, 42.213198999999996], [-71.402227, 42.213131], [-71.402468, 42.213577], [-71.403582, 42.21428699999999], [-71.403709, 42.214861000000006], [-71.401953, 42.21542], [-71.407331, 42.218164], [-71.407961, 42.217656], [-71.408256, 42.218444999999996], [-71.410022, 42.21874900000003], [-71.409893, 42.219198999999996], [-71.41009100000001, 42.219816], [-71.409118, 42.220425999999996], [-71.408829, 42.221092000000006], [-71.408615, 42.22111400000001], [-71.408758, 42.22219800000002], [-71.408966, 42.222387999999995], [-71.408953, 42.22295899999999], [-71.40968, 42.22401399999999], [-71.409088, 42.224340999999995], [-71.409049, 42.224575], [-71.409298, 42.224888000000014], [-71.409323, 42.225342], [-71.409586, 42.22560099999999], [-71.409605, 42.22593700000001], [-71.410074, 42.226558], [-71.410407, 42.226572000000004], [-71.411305, 42.22706500000001], [-71.411482, 42.227411999999994], [-71.412109, 42.227651000000016], [-71.412538, 42.228171], [-71.412801, 42.229355], [-71.413045, 42.229639000000006], [-71.412664, 42.23101400000001], [-71.413044, 42.23215], [-71.41339, 42.23256499999999], [-71.41321, 42.233583], [-71.413362, 42.234556999999995], [-71.413675, 42.23488900000001], [-71.414973, 42.235449000000024], [-71.416491, 42.23667799999999], [-71.417259, 42.23788799999998], [-71.4188, 42.238198000000004], [-71.420075, 42.23812300000001], [-71.418303, 42.246504], [-71.419298, 42.25728099999999], [-71.397769, 42.261527999999984], [-71.390365, 42.27191600000001], [-71.376833, 42.269489], [-71.356907, 42.263495], [-71.356656, 42.263314], [-71.35645, 42.26248900000001], [-71.356599, 42.262206], [-71.357141, 42.261882], [-71.357098, 42.261435000000006], [-71.35671, 42.26134499999999], [-71.356487, 42.261016], [-71.356686, 42.259983999999996], [-71.35623200000002, 42.25922500000001], [-71.355453, 42.259001999999995], [-71.355, 42.258662000000015], [-71.354443, 42.25862699999999], [-71.354267, 42.258361], [-71.354493, 42.258039000000004], [-71.354399, 42.257686], [-71.353681, 42.25679299999999], [-71.353372, 42.256874], [-71.351776, 42.255816], [-71.350829, 42.25589599999999], [-71.348409, 42.254704000000004], [-71.344932, 42.25384], [-71.341777, 42.253537], [-71.342459, 42.25045499999999], [-71.332908, 42.24783800000001], [-71.332434, 42.247729000000014], [-71.332676, 42.248449999999984], [-71.332496, 42.249075000000005], [-71.302922, 42.24827400000001], [-71.30846, 42.270709], [-71.308115, 42.271223], [-71.308029, 42.27181099999999], [-71.308476, 42.27229400000001], [-71.309013, 42.27334200000002], [-71.309025, 42.27480799999999], [-71.309496, 42.275704], [-71.309302, 42.276378999999984], [-71.308875, 42.27667399999999], [-71.307341, 42.27710499999999], [-71.304636, 42.27835799999999], [-71.302477, 42.28016], [-71.300997, 42.282361], [-71.300315, 42.282897000000006], [-71.299949, 42.282911000000006], [-71.29822, 42.28176199999998], [-71.297109, 42.28197900000001], [-71.297016, 42.282434], [-71.297465, 42.28279200000001], [-71.297681, 42.283263], [-71.297548, 42.283543], [-71.296125, 42.28421499999999], [-71.295115, 42.28506], [-71.294222, 42.28553199999998], [-71.292847, 42.28846899999999], [-71.29199100000001, 42.28901700000001], [-71.291693, 42.289401000000005], [-71.291722, 42.291148], [-71.291202, 42.291882999999984], [-71.29128900000002, 42.292794999999984], [-71.291174, 42.293203], [-71.290587, 42.293917000000015], [-71.28951, 42.294654000000016], [-71.288317, 42.29582700000001], [-71.28797, 42.295978000000005], [-71.2869, 42.294700000000006], [-71.28411, 42.29379999999998], [-71.28127, 42.29228], [-71.28018, 42.29202999999999], [-71.27917, 42.29204999999999], [-71.27845, 42.2924], [-71.27526, 42.29473000000001], [-71.276059, 42.296708], [-71.276776, 42.29732700000001], [-71.279256, 42.29883999999999], [-71.277786, 42.299042000000014], [-71.27663, 42.30001], [-71.27579, 42.30022000000001], [-71.26437, 42.300180000000005], [-71.26835, 42.30237999999998], [-71.26899, 42.302600000000005], [-71.27055, 42.30278], [-71.27282, 42.30382999999999], [-71.272, 42.30469], [-71.27274, 42.305080000000004], [-71.273, 42.30578999999997], [-71.27407, 42.30567], [-71.27431, 42.305400000000006], [-71.27512, 42.305020000000006], [-71.275926, 42.30565800000002], [-71.27803, 42.30675999999999], [-71.278588, 42.308308], [-71.27615, 42.31064000000002], [-71.27712, 42.31198], [-71.275603, 42.312565000000006], [-71.274648, 42.313445], [-71.273806, 42.313912], [-71.271917, 42.31431100000002], [-71.266215, 42.314781], [-71.260518, 42.314110000000014], [-71.253327, 42.314824000000016], [-71.248799, 42.315557999999996], [-71.24663000000001, 42.31573000000001], [-71.246917, 42.31689100000002], [-71.247444, 42.317498000000015], [-71.246777, 42.317645], [-71.247023, 42.318270999999996], [-71.246699, 42.31891200000001], [-71.24636, 42.31907200000001], [-71.246329, 42.319541], [-71.245942, 42.32025999999999], [-71.246146, 42.321012999999994], [-71.246799, 42.321061], [-71.247352, 42.32137800000001], [-71.248307, 42.32252999999999], [-71.248756, 42.32344700000001], [-71.249938, 42.32386300000002], [-71.250229, 42.324551], [-71.251245, 42.325271], [-71.251746, 42.326123], [-71.252937, 42.32675600000001], [-71.253575, 42.32673200000001], [-71.254308, 42.326052], [-71.25447, 42.325391999999994], [-71.254888, 42.32512600000001], [-71.256295, 42.324659000000004], [-71.257818, 42.324506], [-71.258398, 42.32493799999999], [-71.258999, 42.326340999999985], [-71.259565, 42.326674], [-71.260249, 42.32679], [-71.261952, 42.32664900000001], [-71.262488, 42.326509], [-71.263092, 42.326052], [-71.263536, 42.32601699999999], [-71.266097, 42.327391000000006], [-71.269559, 42.327779], [-71.270255, 42.328555], [-71.270249, 42.328929999999986], [-71.269763, 42.32976399999999], [-71.270279, 42.33052200000001], [-71.270292, 42.330864000000005], [-71.269767, 42.33118100000001], [-71.268477, 42.33066900000001], [-71.267819, 42.330574999999996], [-71.265666, 42.33127300000001], [-71.26513, 42.33182999999999], [-71.264726, 42.333944], [-71.264415, 42.334472999999996], [-71.263138, 42.334903000000004], [-71.26122, 42.334605], [-71.259933, 42.334825000000016], [-71.259204, 42.33541899999999], [-71.25893400000001, 42.336019], [-71.258964, 42.336579], [-71.256746, 42.338040000000014], [-71.255689, 42.339290999999996], [-71.255885, 42.340111], [-71.256864, 42.340648], [-71.258248, 42.341190000000005], [-71.26037, 42.34089900000001], [-71.261042, 42.341002], [-71.261596, 42.341353999999995], [-71.261884, 42.34186900000001], [-71.261236, 42.34428200000001], [-71.259759, 42.346111], [-71.259793, 42.34661000000002], [-71.260432, 42.34761200000001], [-71.260306, 42.348194], [-71.259963, 42.34855700000001], [-71.258747, 42.349107999999994], [-71.258624, 42.349360999999995], [-71.25863100000001, 42.350052], [-71.25914500000002, 42.35172399999999], [-71.260099, 42.353016], [-71.260358, 42.35365800000002], [-71.256465, 42.354905], [-71.256356, 42.354012000000004], [-71.255731, 42.353754], [-71.255217, 42.353928], [-71.254034, 42.35477], [-71.253146, 42.355897000000006], [-71.23468, 42.361377], [-71.217061, 42.366569], [-71.21634100000001, 42.36584799999999], [-71.215534, 42.365608], [-71.21451, 42.36568200000001], [-71.21373, 42.36512400000001], [-71.211259, 42.36428499999996], [-71.209942, 42.364132], [-71.208812, 42.364577999999995], [-71.20745800000002, 42.36409999999999], [-71.206321, 42.36461299999999], [-71.205098, 42.365749], [-71.202866, 42.365686999999994], [-71.202029, 42.36582], [-71.200515, 42.366271999999995], [-71.198323, 42.367402000000006], [-71.197744, 42.36733999999999], [-71.19708, 42.36693900000001], [-71.196485, 42.367024000000015], [-71.19585400000001, 42.367694], [-71.19542200000001, 42.367825], [-71.195206, 42.36773399999999], [-71.19476500000002, 42.366871], [-71.192215, 42.36542399999999], [-71.196298, 42.361802000000004], [-71.18368, 42.358829], [-71.182126, 42.360681], [-71.17824, 42.359565999999994], [-71.175272, 42.359272], [-71.172754, 42.35933100000001], [-71.169381, 42.360136], [-71.167625, 42.360073000000014], [-71.173916, 42.35346499999999], [-71.17485, 42.350337], [-71.166683, 42.340104000000004], [-71.166808, 42.33928999999997], [-71.168633, 42.338629], [-71.169217, 42.33806800000001], [-71.168886, 42.33582599999999], [-71.16857, 42.335143], [-71.168191, 42.33479100000001], [-71.167565, 42.333441], [-71.162732, 42.333961], [-71.161295, 42.33378299999999], [-71.159325, 42.332767999999994], [-71.157036, 42.33039], [-71.149853, 42.334635], [-71.150461, 42.334968], [-71.15005900000001, 42.33539299999999], [-71.148295, 42.335806999999996], [-71.148742, 42.336866], [-71.146156, 42.33744200000002], [-71.146606, 42.33853700000002], [-71.146245, 42.338595], [-71.14421200000001, 42.34002199999999], [-71.141939, 42.340008], [-71.141326, 42.341048], [-71.135278, 42.345940999999996], [-71.133381, 42.347122000000006], [-71.129281, 42.34906699999999], [-71.128583, 42.349833000000004], [-71.126854, 42.35008799999999], [-71.124067, 42.351552], [-71.122942, 42.35141599999997], [-71.122855, 42.351860999999985], [-71.10657, 42.349912], [-71.107213, 42.347049000000005], [-71.105516, 42.343812], [-71.106072, 42.34358299999999], [-71.10651400000002, 42.34310599999999], [-71.10802700000002, 42.34247799999999], [-71.10849, 42.34183699999999], [-71.109553, 42.34149399999999], [-71.110579, 42.340443], [-71.110885, 42.338884], [-71.111559, 42.33738100000001], [-71.110708, 42.336307999999995], [-71.11099, 42.335757], [-71.110533, 42.33532999999999], [-71.112192, 42.333801000000015], [-71.113212, 42.332458], [-71.113575, 42.330467000000006], [-71.11504, 42.32730800000001], [-71.115271, 42.326933999999994], [-71.115965, 42.32637900000001], [-71.115948, 42.325734999999995], [-71.116537, 42.32393900000002], [-71.116772, 42.323769999999996], [-71.118398, 42.323454999999996], [-71.118509, 42.323116], [-71.11887, 42.322858], [-71.119436, 42.322735], [-71.120112, 42.32283499999998], [-71.121528, 42.323882], [-71.12336700000002, 42.322571], [-71.123711, 42.32271600000002], [-71.124269, 42.321856], [-71.13186300000001, 42.31317800000001], [-71.13650200000001, 42.306204], [-71.140096, 42.302173000000025], [-71.146883, 42.29728], [-71.152113, 42.29458799999998], [-71.164702, 42.30382999999999], [-71.178636, 42.29459500000001], [-71.191247, 42.28299200000001], [-71.191131, 42.282363999999994], [-71.190753, 42.28184000000002], [-71.188212, 42.280438000000004], [-71.196694, 42.269223999999994], [-71.197125, 42.26895300000001], [-71.198791, 42.268431], [-71.199208, 42.26796700000001], [-71.199786, 42.26770199999999], [-71.205024, 42.267058999999996], [-71.205727, 42.26757], [-71.208049, 42.26785100000001], [-71.209262, 42.267514000000006], [-71.21093, 42.267302], [-71.214565, 42.26770199999999], [-71.217005, 42.26852299999999], [-71.217973, 42.268678], [-71.218311, 42.268458], [-71.218123, 42.267665], [-71.218675, 42.265387000000004], [-71.219875, 42.263532000000005], [-71.221567, 42.26342700000001], [-71.222488, 42.262881], [-71.223188, 42.262696999999996], [-71.22429, 42.26318100000001], [-71.22565600000001, 42.26413300000001], [-71.227284, 42.263909000000005], [-71.228685, 42.264309], [-71.229455, 42.263906999999996], [-71.230347, 42.261361999999984], [-71.232285, 42.258424999999995], [-71.232237, 42.256898], [-71.251416, 42.202613], [-71.254124, 42.2028], [-71.256403, 42.203672000000005], [-71.258194, 42.204071], [-71.258263, 42.20391000000001], [-71.259791, 42.204115000000016], [-71.26105500000001, 42.204096], [-71.263711, 42.203328000000006], [-71.267523, 42.200938999999984], [-71.269569, 42.20049899999999], [-71.275671, 42.18166700000001], [-71.275025, 42.148622999999986], [-71.303751, 42.14949999999999], [-71.303566, 42.148693], [-71.303227, 42.148669000000005], [-71.303225, 42.14843800000001], [-71.302846, 42.14846300000001], [-71.302603, 42.14897799999999], [-71.30234000000002, 42.149026], [-71.302202, 42.14865099999999], [-71.301967, 42.148572], [-71.301965, 42.148165999999996], [-71.301282, 42.148253000000004], [-71.300817, 42.14809099999997], [-71.300873, 42.14750299999999], [-71.300562, 42.147506], [-71.300118, 42.147176], [-71.300441, 42.14692900000001], [-71.300302, 42.146582], [-71.300678, 42.14625100000001], [-71.300275, 42.146039], [-71.300118, 42.14573100000001], [-71.300696, 42.14506799999997], [-71.300351, 42.14472099999999], [-71.300386, 42.14433799999999], [-71.299878, 42.144072999999985], [-71.29985, 42.14376199999999], [-71.300443, 42.143138], [-71.300506, 42.142874], [-71.300228, 42.14269500000001], [-71.300263, 42.14234799999999], [-71.300005, 42.14198699999999], [-71.299406, 42.141771000000006], [-71.299416, 42.14141399999998], [-71.299724, 42.141226], [-71.299721, 42.140854], [-71.299193, 42.140677999999994], [-71.298947, 42.140420000000006], [-71.29921, 42.13986], [-71.29909300000001, 42.13886300000002], [-71.299597, 42.13881700000001], [-71.299748, 42.138501000000005], [-71.300323, 42.138658], [-71.300347, 42.13847399999999], [-71.300665, 42.13830399999998], [-71.300584, 42.138083], [-71.301348, 42.13777300000002], [-71.301379, 42.137194], [-71.301655, 42.137224999999994], [-71.302186, 42.136871], [-71.30212900000001, 42.13669900000001], [-71.30176, 42.136634], [-71.29991200000002, 42.129408999999995], [-71.29894, 42.1265], [-71.300223, 42.12591], [-71.297154, 42.12050899999999], [-71.295901, 42.116614], [-71.280268, 42.088491999999995], [-71.271736, 42.09844499999999], [-71.255347, 42.104131], [-71.253302, 42.105343999999995], [-71.238804, 42.106401], [-71.238695, 42.10952999999999], [-71.238917, 42.112220000000015], [-71.237993, 42.11289600000002], [-71.238432, 42.114277000000016], [-71.239142, 42.11494299999999], [-71.239417, 42.115505999999996], [-71.239362, 42.11593400000001], [-71.23908, 42.11604799999998], [-71.23903, 42.116797], [-71.238736, 42.117042999999995], [-71.23884, 42.11714099999998], [-71.238449, 42.11775099999999], [-71.238764, 42.11807199999999], [-71.23878100000002, 42.118478999999994], [-71.238979, 42.118551], [-71.238927, 42.11882200000001], [-71.23913, 42.118826000000006], [-71.238862, 42.119335], [-71.239148, 42.119688], [-71.239116, 42.120001], [-71.239616, 42.12029400000001], [-71.239898, 42.12083], [-71.239073, 42.12096100000002], [-71.238681, 42.121358999999984], [-71.238117, 42.12135800000001], [-71.237955, 42.121614999999984], [-71.233293, 42.12341200000001], [-71.233168, 42.12300099999999], [-71.231098, 42.123298000000005], [-71.233307, 42.125958999999995], [-71.233475, 42.128569], [-71.232201, 42.13059400000001], [-71.231873, 42.131633], [-71.230666, 42.13205900000001], [-71.230398, 42.13257400000001], [-71.229082, 42.132605000000005], [-71.227832, 42.13308000000001], [-71.227436, 42.13346000000001], [-71.22699, 42.134363000000015], [-71.22599, 42.13541000000001], [-71.186885, 42.153264000000014], [-71.188691, 42.161127000000015], [-71.188146, 42.16148900000001], [-71.188108, 42.16132499999998], [-71.187881, 42.161308000000005], [-71.186607, 42.161486], [-71.185833, 42.16216099999999], [-71.185032, 42.16245900000002], [-71.184323, 42.16249200000001], [-71.183467, 42.163041], [-71.183387, 42.16323800000002], [-71.18280300000002, 42.16328699999999], [-71.18253, 42.163722000000014], [-71.182179, 42.163883], [-71.182219, 42.164145999999995], [-71.182066, 42.164221999999995], [-71.182014, 42.16457199999999], [-71.181712, 42.16475], [-71.181753, 42.165141999999996], [-71.181313, 42.16552300000001], [-71.180182, 42.165496000000005], [-71.180005, 42.165084], [-71.179796, 42.164978000000005], [-71.17902, 42.16528299999999], [-71.179188, 42.16590299999999], [-71.178516, 42.165881000000006], [-71.177974, 42.165654999999994], [-71.178135, 42.165045000000006], [-71.177853, 42.16413599999999], [-71.178013, 42.16396099999999], [-71.175763, 42.15559899999999], [-71.176368, 42.155360000000016], [-71.171993, 42.15152400000001], [-71.162198, 42.145279], [-71.163542, 42.141456999999996], [-71.149166, 42.13861199999999], [-71.150078, 42.13656499999998], [-71.150165, 42.13585299999998], [-71.149757, 42.133631], [-71.148542, 42.131160999999985], [-71.14845600000001, 42.12874900000001], [-71.148205, 42.128117000000024], [-71.147209, 42.12655600000001], [-71.146017, 42.125368999999985], [-71.142058, 42.12264000000001], [-71.139102, 42.120235], [-71.138604, 42.119546], [-71.136462, 42.11530600000002], [-71.135774, 42.113489999999985], [-71.133582, 42.11118], [-71.133021, 42.10936], [-71.132028, 42.10749999999999], [-71.131657, 42.10596900000001], [-71.13168, 42.10419], [-71.13114, 42.10198], [-71.13129, 42.10074], [-71.1324, 42.09893000000001], [-71.13312, 42.096810000000005], [-71.13377, 42.09579], [-71.13526, 42.09255999999999], [-71.13586, 42.09071999999999], [-71.13766, 42.08865000000001], [-71.13837, 42.086780000000005], [-71.139428, 42.08486999999999], [-71.13934, 42.08452], [-71.138728, 42.08368600000001], [-71.1388, 42.08311], [-71.139413, 42.08204400000002], [-71.139592, 42.08127799999998], [-71.13941, 42.07976000000002], [-71.139469, 42.07829399999999], [-71.139001, 42.07715], [-71.138462, 42.076560000000015], [-71.13902, 42.074831], [-71.138607, 42.072774999999986], [-71.16868100000002, 42.061161], [-71.159263, 42.01543300000001], [-71.15645, 42.001042000000034], [-71.10203, 41.993348], [-71.070345, 41.987840999999975], [-71.070699, 41.986438], [-71.070689, 41.985650000000014], [-71.069742, 41.98111099999999], [-71.069272, 41.98107799999999], [-71.068118, 41.97965500000001], [-71.066308, 41.978037000000015], [-71.061028, 41.978883], [-71.060407, 41.973718], [-71.063727, 41.97325399999998], [-71.063253, 41.972199], [-71.061703, 41.97042400000001], [-71.061668, 41.96822800000001], [-71.063656, 41.96815399999999], [-71.063596, 41.967105000000004], [-71.06344, 41.966946000000014], [-71.061598, 41.96701200000001], [-71.061447, 41.96440299999996], [-71.064474, 41.964090999999996], [-71.067907, 41.96319500000001], [-71.070324, 41.954069], [-71.073508, 41.954854000000005], [-71.073854, 41.94877700000001], [-71.074038, 41.948113], [-71.074523, 41.947474000000014], [-71.075073, 41.94698900000003], [-71.08549, 41.941743], [-71.0844, 41.94125499999999], [-71.080252, 41.93845699999999], [-71.07981, 41.93845499999999], [-71.074815, 41.945876000000005], [-71.07289400000002, 41.94899499999999], [-71.067299, 41.947095], [-71.064644, 41.94664099999999], [-71.060327, 41.94512300000001], [-71.056722, 41.943101999999996], [-71.053409, 41.940488999999985], [-71.052836, 41.93947], [-71.051243, 41.93510099999999], [-71.051081, 41.93382900000001], [-71.049999, 41.93374399999999], [-71.04718, 41.933929], [-71.046191, 41.93616200000002], [-71.040948, 41.93508100000001], [-71.037883, 41.933559999999986], [-71.037153, 41.93225799999998], [-71.036036, 41.933088999999995], [-71.034721, 41.932361], [-71.035648, 41.93121299999999], [-71.036854, 41.929131000000005], [-71.037534, 41.927528], [-71.038087, 41.92679000000001], [-71.035062, 41.92446999999999], [-71.035648, 41.923657], [-71.033381, 41.92305900000001], [-71.028278, 41.922536999999984], [-71.027171, 41.922662], [-71.02517, 41.92322599999999], [-71.021672, 41.923474000000006], [-71.018837, 41.924260000000004], [-71.016369, 41.920366], [-71.015685, 41.917722999999995], [-71.01334, 41.91323799999999], [-71.013459, 41.91082099999999], [-71.012449, 41.908567], [-71.011188, 41.90700099999997], [-71.01042600000001, 41.90720299999999], [-71.006978, 41.908953], [-71.005709, 41.90938], [-71.00478, 41.910262], [-71.004629, 41.91058300000001], [-71.004625, 41.911311], [-71.005437, 41.913693000000016], [-71.005368, 41.914753000000005], [-71.003484, 41.917363000000016], [-71.001003, 41.917673], [-71.001089, 41.91880599999999], [-71.000303, 41.91888600000001], [-70.999888, 41.918637], [-70.998995, 41.918693000000005], [-70.997494, 41.91844], [-70.997395, 41.917401999999996], [-70.997132, 41.916682000000016], [-70.996347, 41.915627000000015], [-70.995822, 41.91524000000001], [-70.994517, 41.91494], [-70.994367, 41.915065000000006], [-70.99431, 41.916002], [-70.993666, 41.916459], [-70.992849, 41.91632899999998], [-70.992033, 41.91575100000001], [-70.990984, 41.910059], [-70.99115, 41.909133], [-70.991584, 41.90807300000001], [-70.992307, 41.907059000000004], [-70.993152, 41.906445000000005], [-70.992933, 41.906228], [-70.992745, 41.9064], [-70.99241, 41.90624599999999], [-70.992289, 41.90636400000001], [-70.991849, 41.90608099999998], [-70.99134, 41.90655299999999], [-70.990591, 41.906689], [-70.989679, 41.906493000000005], [-70.989416, 41.90606], [-70.988902, 41.90580400000001], [-70.987837, 41.905677], [-70.987256, 41.905808], [-70.986745, 41.90636400000001], [-70.985761, 41.90689], [-70.985165, 41.907454], [-70.984874, 41.907451], [-70.984095, 41.906569000000005], [-70.983802, 41.906487000000006], [-70.983494, 41.906015000000004], [-70.982452, 41.905790999999994], [-70.981114, 41.90497], [-70.980102, 41.903608000000006], [-70.978737, 41.903892], [-70.978316, 41.90352899999999], [-70.978203, 41.903025], [-70.977982, 41.90288400000001], [-70.977862, 41.902534], [-70.9772, 41.902115], [-70.976661, 41.901382000000005], [-70.976379, 41.901339], [-70.976282, 41.90115099999999], [-70.976046, 41.90115], [-70.975803, 41.90137300000001], [-70.975369, 41.901379], [-70.97513, 41.90117900000001], [-70.974738, 41.90137], [-70.972505, 41.90133399999999], [-70.97221, 41.901456], [-70.972261, 41.901644000000005], [-70.971963, 41.90172900000002], [-70.970408, 41.90132000000001], [-70.967133, 41.90125400000001], [-70.964761, 41.899394], [-70.964219, 41.898187000000014], [-70.963492, 41.897118], [-70.963344, 41.89638599999999], [-70.919205, 41.87902299999999], [-70.916411, 41.87691699999999], [-70.916611, 41.87652900000001], [-70.916096, 41.874833], [-70.916327, 41.87257], [-70.91605800000002, 41.872350999999995], [-70.915066, 41.872316], [-70.914616, 41.872081], [-70.913035, 41.870596000000006], [-70.912968, 41.87024399999999], [-70.913182, 41.86993699999999], [-70.914624, 41.86904500000001], [-70.91492, 41.868431], [-70.916472, 41.86768299999998], [-70.916738, 41.86716700000001], [-70.915509, 41.86667299999999], [-70.915041, 41.866310999999996], [-70.915093, 41.866055999999986], [-70.915988, 41.865806000000006], [-70.915936, 41.86566900000002], [-70.914928, 41.86545599999999], [-70.914689, 41.86527500000001], [-70.915349, 41.86441399999999], [-70.913827, 41.86409999999999], [-70.913508, 41.86385900000001], [-70.91361, 41.86364900000001], [-70.914595, 41.86352], [-70.914447, 41.862132], [-70.914098, 41.861943000000004], [-70.913065, 41.86192999999999], [-70.912876, 41.861726999999995], [-70.913448, 41.860685], [-70.914321, 41.860587], [-70.914382, 41.86048300000001], [-70.914116, 41.86029399999999], [-70.914541, 41.859591], [-70.916262, 41.85992999999999], [-70.917748, 41.858715999999994], [-70.917709, 41.85852100000001], [-70.917181, 41.85814499999999], [-70.917264, 41.85780599999998], [-70.916899, 41.857502], [-70.916815, 41.85720000000001], [-70.917189, 41.856527000000014], [-70.917131, 41.85577700000002], [-70.918897, 41.852728000000006], [-70.91870500000002, 41.851943], [-70.893973, 41.828881], [-70.893454, 41.82790100000001], [-70.893777, 41.82659100000002], [-70.89864400000002, 41.81487700000002], [-70.8964, 41.794320000000006], [-70.921792, 41.79126399999999], [-70.907184, 41.76354299999999], [-70.926316, 41.75884500000001], [-70.926261, 41.758579999999995], [-70.926426, 41.758382], [-70.92624, 41.757977], [-70.926424, 41.75761700000002], [-70.926146, 41.757017000000005], [-70.92538, 41.75680200000001], [-70.925381, 41.756609999999995], [-70.924913, 41.756590000000024], [-70.92489, 41.75630300000002], [-70.924611, 41.75624799999999], [-70.92453, 41.75596299999999], [-70.924052, 41.75565499999999], [-70.923552, 41.755548], [-70.923444, 41.755719000000006], [-70.92322, 41.75565199999999], [-70.923055, 41.755314000000006], [-70.922696, 41.755358], [-70.922739, 41.75508300000001], [-70.922385, 41.755119000000015], [-70.922222, 41.754840999999985], [-70.943305, 41.74451499999999], [-71.06663, 41.68561900000002], [-71.105693, 41.69280400000001], [-71.114407, 41.69280400000001], [-71.118971, 41.68062899999999], [-71.132757, 41.636435000000006], [-71.133683, 41.63512200000001], [-71.13419, 41.633997000000015], [-71.134052, 41.63201899999999], [-71.133038, 41.630968], [-71.133062, 41.63071699999999], [-71.133334, 41.630348], [-71.133312, 41.629658], [-71.133918, 41.628783000000006], [-71.135399, 41.625648000000005], [-71.138346, 41.603676], [-71.140308, 41.60484999999999], [-71.141958, 41.612533], [-71.140185, 41.623869000000006], [-71.135307, 41.62848799999999], [-71.134354, 41.64404700000001], [-71.132557, 41.660363], [-71.17612, 41.668248], [-71.175784, 41.67149299999999], [-71.195479, 41.67508999999999], [-71.222471, 41.707679], [-71.226254, 41.71255300000001], [-71.261067, 41.752082], [-71.328472, 41.780694000000004], [-71.328787, 41.781352], [-71.329096, 41.782719000000014], [-71.329315, 41.782593], [-71.329418, 41.781884000000005], [-71.329582, 41.781836000000006], [-71.329803, 41.782038], [-71.329896, 41.78262600000001], [-71.329663, 41.783077000000006], [-71.329854, 41.783406], [-71.329869, 41.784315], [-71.330232, 41.78471799999999], [-71.330391, 41.785381000000015], [-71.329627, 41.78701800000002], [-71.329652, 41.78773799999999], [-71.329457, 41.788327], [-71.330415, 41.78865399999999], [-71.330235, 41.78888299999999], [-71.330514, 41.789115], [-71.331059, 41.789100000000005], [-71.331035, 41.789565], [-71.331534, 41.789319], [-71.331603, 41.78962400000001], [-71.332743, 41.79016000000001], [-71.332811, 41.790580999999996], [-71.33248, 41.790655000000015], [-71.332497, 41.79084400000001], [-71.332196, 41.790977000000005], [-71.333155, 41.792572], [-71.333112, 41.793044], [-71.333572, 41.793192], [-71.333442, 41.793366000000006], [-71.333917, 41.793568999999984], [-71.333678, 41.79378299999999], [-71.334154, 41.793938], [-71.334229, 41.794244], [-71.334112, 41.79438799999999], [-71.334421, 41.794449], [-71.334645, 41.794835], [-71.335304, 41.795028], [-71.33561, 41.795457999999996], [-71.336191, 41.795505], [-71.336463, 41.795731], [-71.336875, 41.795744], [-71.337223, 41.79548399999998], [-71.337887, 41.795572000000014], [-71.337913, 41.795725000000004], [-71.338838, 41.79593500000001], [-71.339157, 41.796338000000006], [-71.340097, 41.796633], [-71.340224, 41.796745], [-71.340103, 41.79709499999999], [-71.340481, 41.797033], [-71.34036, 41.797558], [-71.339842, 41.79774799999999], [-71.340043, 41.79821599999998], [-71.340777, 41.79840100000002], [-71.341201, 41.799774], [-71.340801, 41.80002300000001], [-71.340635, 41.80052599999999], [-71.340596, 41.80089900000001], [-71.340808, 41.801051000000015], [-71.340643, 41.801258000000004], [-71.340745, 41.801674], [-71.340339, 41.80238400000001], [-71.340597, 41.802606], [-71.340511, 41.80322599999999], [-71.340185, 41.80379899999999], [-71.33990700000001, 41.80390400000002], [-71.339231, 41.80516], [-71.339088, 41.805782999999984], [-71.339675, 41.80634], [-71.33942, 41.806732999999994], [-71.33942800000001, 41.807328000000005], [-71.33922, 41.80766900000002], [-71.339195, 41.80799], [-71.339379, 41.808077999999995], [-71.339332, 41.80852700000002], [-71.347545, 41.82324600000001], [-71.345198, 41.82767599999998], [-71.335417, 41.83564500000001], [-71.34255, 41.84465599999999], [-71.33404, 41.862604000000005], [-71.34089, 41.88180400000001], [-71.338787, 41.898592999999984], [-71.381463, 41.893545999999986], [-71.381299, 41.98508399999999], [-71.381505, 42.000021000000004], [-71.381401, 42.018798000000004], [-71.396578, 42.018747999999995], [-71.441298, 42.018098], [-71.4468, 42.017899], [-71.498259, 42.01727199999999], [-71.527576, 42.015099], [-71.5911, 42.013646], [-71.592748, 42.12164800000001]]]}}