{"type": "Feature", "properties": {"district_name": "9th Congressional District", "chamber": "us-house", "vintage": "2012-2020"}, "geometry": {"type": "Polygon", "coordinates": [[[-71.201162, 41.681909], [-71.19619, 41.68630200000001], [-71.18979, 41.691502], [-71.17419000000001, 41.70220199999999], [-71.168431, 41.708337], [-71.161377, 41.70435500000001], [-71.16266399999999, 41.70452800000002], [-71.163088, 41.70432199999999], [-71.164553, 41.70207599999999], [-71.165887, 41.70058799999999], [-71.16582300000002, 41.700365999999995], [-71.165308, 41.700567], [-71.163612, 41.700268], [-71.164632, 41.696636], [-71.162533, 41.69628199999996], [-71.16180899999999, 41.69893600000001], [-71.158898, 41.698471], [-71.1584, 41.698087], [-71.15659699999999, 41.697506000000004], [-71.152217, 41.69536699999997], [-71.14988, 41.696614000000004], [-71.15081099999999, 41.69735899999999], [-71.15328, 41.699868999999985], [-71.15302, 41.69999699999998], [-71.14689299999999, 41.698817], [-71.141668, 41.696372000000004], [-71.14169, 41.69712100000001], [-71.139622, 41.697072999999996], [-71.13788699999999, 41.69676200000001], [-71.13768499999999, 41.697435000000006], [-71.137123, 41.697339], [-71.137283, 41.696650999999996], [-71.13663199999999, 41.69644900000001], [-71.135598, 41.696421000000015], [-71.135695, 41.69785399999999], [-71.135466, 41.69827000000001], [-71.133157, 41.697834], [-71.133065, 41.69677799999998], [-71.13101999999999, 41.696870000000004], [-71.13103699999999, 41.697424], [-71.122907, 41.69592299999999], [-71.119266, 41.707956999999986], [-71.11900299999999, 41.70723699999998], [-71.118762, 41.707905999999994], [-71.118336, 41.70822299999999], [-71.110905, 41.707], [-71.109897, 41.709754000000004], [-71.109565, 41.712230999999996], [-71.10886099999999, 41.71256700000001], [-71.108554, 41.713044000000004], [-71.108263, 41.71537200000001], [-71.108395, 41.715844000000004], [-71.10881300000001, 41.716239], [-71.108696, 41.71701300000001], [-71.107452, 41.717979], [-71.107415, 41.71845099999999], [-71.107108, 41.71908199999999], [-71.10663199999999, 41.719516000000006], [-71.107036, 41.720366999999996], [-71.105798, 41.721114], [-71.105741, 41.722102], [-71.105301, 41.722558], [-71.105448, 41.72268899999999], [-71.105997, 41.72247499999999], [-71.106049, 41.72269999999999], [-71.10560199999999, 41.72310600000001], [-71.104708, 41.723194], [-71.103647, 41.72425400000001], [-71.104226, 41.724781], [-71.104578, 41.725516000000006], [-71.104571, 41.725719], [-71.10394099999999, 41.726487999999996], [-71.104191, 41.72726199999997], [-71.104558, 41.727683999999996], [-71.103606, 41.728502999999996], [-71.103174, 41.729182999999985], [-71.103504, 41.72977000000001], [-71.103593, 41.73082400000001], [-71.103044, 41.731747], [-71.102766, 41.732866], [-71.101998, 41.73391000000001], [-71.101697, 41.733833], [-71.101522, 41.735090000000014], [-71.10161699999999, 41.73606899999999], [-71.09978199999999, 41.73671], [-71.09799699999999, 41.736763], [-71.095646, 41.73621099999998], [-71.092581, 41.735822999999996], [-71.09020799999999, 41.73521500000001], [-71.09016199999999, 41.735586999999995], [-71.085909, 41.73896400000001], [-71.084791, 41.73919900000001], [-71.07848299999999, 41.73963899999999], [-71.077297, 41.740066000000006], [-71.075955, 41.741616999999984], [-71.075682, 41.74228599999999], [-71.075073, 41.744797999999996], [-71.074921, 41.748386], [-71.073829, 41.752019000000004], [-71.07285399999999, 41.754334], [-71.072032, 41.75749300000001], [-71.009537, 41.74619200000001], [-71.011896, 41.711777999999995], [-70.943305, 41.74451499999999], [-70.92232, 41.754799999999996], [-70.92249799999999, 41.755122], [-70.92273899999999, 41.75508300000001], [-70.922696, 41.755358], [-70.92308, 41.755355], [-70.92322, 41.75565199999999], [-70.923444, 41.755719000000006], [-70.923552, 41.755548], [-70.924052, 41.75565499999999], [-70.92455, 41.75602800000001], [-70.924611, 41.75624799999999], [-70.92488999999999, 41.756303], [-70.924913, 41.75658999999998], [-70.925292, 41.75659500000001], [-70.926146, 41.757017000000005], [-70.926424, 41.75761700000001], [-70.926309, 41.75843199999999], [-70.92605999999999, 41.758608], [-70.926104, 41.758907000000015], [-70.907184, 41.76354299999999], [-70.915095, 41.77874699999999], [-70.921708, 41.790853999999996], [-70.92158599999999, 41.79086999999999], [-70.921792, 41.79126399999999], [-70.896053, 41.79437500000002], [-70.89864399999999, 41.81487700000002], [-70.893777, 41.82659100000002], [-70.893454, 41.82790100000001], [-70.893973, 41.828881], [-70.910984, 41.844686], [-70.91511299999999, 41.848834999999994], [-70.918689, 41.85204200000001], [-70.9186, 41.853018], [-70.91716699999999, 41.855536], [-70.91710599999999, 41.85629400000002], [-70.916754, 41.85706100000001], [-70.916799, 41.85742500000001], [-70.917239, 41.85790399999999], [-70.917523, 41.858650999999995], [-70.9162, 41.859754], [-70.91427399999999, 41.859587999999995], [-70.914185, 41.86034199999998], [-70.91337399999999, 41.860575999999995], [-70.912908, 41.861543000000005], [-70.91300799999999, 41.86183800000001], [-70.914003, 41.861835000000006], [-70.91458999999999, 41.86222600000001], [-70.914737, 41.862745999999994], [-70.914687, 41.86333199999999], [-70.915043, 41.86393], [-70.91541500000001, 41.86417999999999], [-70.914896, 41.86497200000001], [-70.915139, 41.865171000000004], [-70.915829, 41.86529899999999], [-70.91601, 41.86552599999998], [-70.915306, 41.866046000000004], [-70.916544, 41.86672799999999], [-70.916769, 41.867039999999996], [-70.916758, 41.867305999999985], [-70.916523, 41.86757100000003], [-70.915205, 41.86819199999999], [-70.91492, 41.868431], [-70.914624, 41.86904500000001], [-70.913437, 41.86976900000002], [-70.913231, 41.87031], [-70.913352, 41.87060899999997], [-70.914258, 41.87126099999998], [-70.91492199999999, 41.872065000000006], [-70.91626099999999, 41.872294], [-70.91645199999999, 41.872471], [-70.916151, 41.875240999999995], [-70.916555, 41.876512999999996], [-70.91637399999999, 41.876852], [-70.91920499999999, 41.87902299999999], [-70.963275, 41.896377], [-70.963911, 41.898134000000006], [-70.964633, 41.899529], [-70.96602, 41.900411999999996], [-70.96838199999999, 41.90117300000001], [-70.971544, 41.901597], [-70.972779, 41.901256000000004], [-70.974396, 41.90110200000001], [-70.97483799999999, 41.901351], [-70.975146, 41.901188000000005], [-70.97577799999999, 41.901306999999996], [-70.976308, 41.90118600000002], [-70.976661, 41.901382000000005], [-70.976661, 41.90157999999999], [-70.977457, 41.90229199999999], [-70.977531, 41.902642], [-70.977825, 41.90271799999999], [-70.977797, 41.903046999999994], [-70.97843, 41.903684], [-70.978828, 41.903871], [-70.97964999999999, 41.903542], [-70.980121, 41.90359199999998], [-70.981301, 41.90517500000001], [-70.98183, 41.905314], [-70.98234599999999, 41.905750999999974], [-70.983494, 41.906015000000004], [-70.983671, 41.906399], [-70.984157, 41.906561999999994], [-70.984894, 41.90747300000001], [-70.985225, 41.907488999999984], [-70.985716, 41.90692199999999], [-70.987596, 41.90574600000001], [-70.98899399999999, 41.905843], [-70.989479, 41.906119], [-70.989745, 41.906555000000004], [-70.99001, 41.906609], [-70.990157, 41.90640400000001], [-70.99059799999999, 41.90673000000001], [-70.991289, 41.90658699999998], [-70.99148, 41.90631399999999], [-70.99195, 41.906094], [-70.992864, 41.906438], [-70.991602, 41.907365], [-70.9911, 41.90832899999998], [-70.99083999999999, 41.90930099999999], [-70.990826, 41.910873], [-70.991676, 41.91510000000001], [-70.992024, 41.915859999999995], [-70.993155, 41.916246], [-70.993578, 41.916202], [-70.99398, 41.915934], [-70.99423, 41.91496599999999], [-70.99499899999999, 41.91496599999999], [-70.99602999999999, 41.915448000000005], [-70.996912, 41.91635599999999], [-70.99727299999999, 41.91762800000001], [-70.997176, 41.919287000000004], [-70.996712, 41.92125800000001], [-70.99698099999999, 41.923094999999996], [-70.995683, 41.924437999999995], [-70.995638, 41.925509999999996], [-70.995961, 41.926333000000014], [-70.996804, 41.92740399999999], [-70.997489, 41.927769999999995], [-70.9992, 41.92830800000004], [-70.999785, 41.92882], [-70.999821, 41.92917500000001], [-70.999614, 41.929485], [-70.99970499999999, 41.929592], [-70.99931699999999, 41.92989499999999], [-70.99931699999999, 41.930223999999995], [-70.999039, 41.93068799999999], [-70.998671, 41.930600000000005], [-70.99905199999999, 41.930049000000004], [-70.99893399999999, 41.929853], [-70.998609, 41.92990800000001], [-70.998302, 41.93025999999998], [-70.99874799999999, 41.93211200000002], [-70.998237, 41.933804], [-70.99794399999999, 41.934102], [-70.997399, 41.934048000000004], [-70.996132, 41.933223999999996], [-70.995307, 41.932917999999994], [-70.992285, 41.932142000000006], [-70.99152099999999, 41.93162199999999], [-70.990037, 41.931674999999984], [-70.989546, 41.932007000000006], [-70.987902, 41.934198], [-70.987436, 41.935585999999994], [-70.98731099999999, 41.93737], [-70.987123, 41.937616], [-70.98665799999999, 41.93787300000001], [-70.984656, 41.938238], [-70.980312, 41.94022599999998], [-70.979435, 41.94039000000003], [-70.976316, 41.93934499999999], [-70.974665, 41.939170999999995], [-70.973972, 41.93932799999998], [-70.973547, 41.93966399999998], [-70.97351400000001, 41.93987099999999], [-70.97118499999999, 41.93892499999999], [-70.969171, 41.938622], [-70.968328, 41.938275999999995], [-70.96674399999999, 41.937038], [-70.966135, 41.93674600000001], [-70.963743, 41.93613400000002], [-70.96077400000001, 41.935815999999996], [-70.960317, 41.93560300000001], [-70.959334, 41.93475099999999], [-70.95694, 41.933908999999986], [-70.956222, 41.933876], [-70.954962, 41.93440699999999], [-70.954428, 41.93446999999999], [-70.95205, 41.934208000000005], [-70.950504, 41.93439699999999], [-70.949418, 41.934348], [-70.948069, 41.93388899999999], [-70.947509, 41.933304], [-70.947102, 41.93251399999999], [-70.94671699999999, 41.932426], [-70.94613, 41.932570999999996], [-70.94368399999999, 41.93471499999998], [-70.942686, 41.93633500000001], [-70.94248499999999, 41.937211999999995], [-70.94025599999999, 41.938714], [-70.938392, 41.94127599999999], [-70.938012, 41.94299799999998], [-70.93677600000001, 41.944950999999996], [-70.936364, 41.945983999999996], [-70.936353, 41.947199999999995], [-70.936927, 41.948600000000006], [-70.936953, 41.949184999999986], [-70.936238, 41.95157900000002], [-70.93606799999999, 41.953109], [-70.93586599999999, 41.95358099999999], [-70.934541, 41.954967], [-70.93414299999999, 41.956010000000006], [-70.933964, 41.95703499999999], [-70.933706, 41.957526], [-70.932997, 41.95825399999999], [-70.931399, 41.95934799999999], [-70.92939799999999, 41.960061999999986], [-70.926115, 41.959697999999996], [-70.924512, 41.95891900000001], [-70.92357299999999, 41.958934000000006], [-70.923186, 41.959148], [-70.922778, 41.95966699999999], [-70.92268299999999, 41.960859000000006], [-70.92178899999999, 41.962478], [-70.92067999999999, 41.96309300000001], [-70.92000999999999, 41.962975], [-70.920147, 41.96216200000001], [-70.91982, 41.961911], [-70.917171, 41.96168000000001], [-70.915398, 41.960927], [-70.913901, 41.96094299999999], [-70.91350299999999, 41.96114299999999], [-70.913434, 41.96155900000001], [-70.914439, 41.961667999999996], [-70.91483199999999, 41.962005000000005], [-70.914153, 41.96297599999999], [-70.91343499999999, 41.96335799999999], [-70.91301299999999, 41.96300599999999], [-70.91253, 41.96301400000001], [-70.90999699999999, 41.963921], [-70.909902, 41.964530999999994], [-70.91052599999999, 41.96512399999999], [-70.910799, 41.965795], [-70.910578, 41.96594199999999], [-70.90952, 41.965969], [-70.908857, 41.966173999999974], [-70.908148, 41.96651899999999], [-70.90750899999999, 41.967115], [-70.90714200000001, 41.96758], [-70.907118, 41.970107], [-70.907625, 41.970968000000006], [-70.908592, 41.971933], [-70.90862899999999, 41.97247300000001], [-70.908318, 41.97357199999999], [-70.908384, 41.97401699999998], [-70.910139, 41.975954], [-70.911726, 41.97700699999998], [-70.91211899999999, 41.977692000000005], [-70.912091, 41.978558], [-70.911492, 41.97938699999998], [-70.911369, 41.98022900000001], [-70.901399, 41.982980999999995], [-70.89977499999999, 41.988284], [-70.899185, 41.99632100000001], [-70.899571, 42.002975], [-70.897744, 42.01644900000001], [-70.89689299999999, 42.019419], [-70.896618, 42.02328499999998], [-70.89764900000002, 42.024224000000004], [-70.897418, 42.024941], [-70.899729, 42.02529899999999], [-70.90693399999999, 42.056687], [-70.907549, 42.058795], [-70.90845999999999, 42.062885000000016], [-70.909395, 42.068182], [-70.912962, 42.084417], [-70.90238699999999, 42.08590100000001], [-70.93148699999999, 42.116549], [-70.936723, 42.13619500000001], [-70.939888, 42.13610000000002], [-70.94238899999999, 42.1426], [-70.94539, 42.142401], [-70.94896299999999, 42.14815600000001], [-70.89351599999999, 42.16981399999999], [-70.887603, 42.173334999999994], [-70.870733, 42.18223], [-70.852165, 42.19046199999999], [-70.838864, 42.19480600000001], [-70.813502, 42.195372], [-70.77786400000001, 42.183854], [-70.752394, 42.163937], [-70.749816, 42.165015000000025], [-70.748801, 42.16490799999999], [-70.747605, 42.163928], [-70.746815, 42.162504], [-70.74627300000002, 42.162001999999994], [-70.744875, 42.161380000000015], [-70.742572, 42.161080999999996], [-70.74126, 42.161156], [-70.736694, 42.162519], [-70.736296, 42.16244499999999], [-70.734111, 42.160932999999986], [-70.732953, 42.160681999999994], [-70.732225, 42.160875], [-70.73184499999999, 42.16122], [-70.731335, 42.162046999999994], [-70.73092799999999, 42.16328], [-70.730155, 42.164452000000004], [-70.729261, 42.16510699999999], [-70.728647, 42.165343], [-70.726885, 42.16555699999999], [-70.719684, 42.164868999999996], [-70.71992399999999, 42.164592000000006], [-70.719685, 42.16432299999999], [-70.71843799999999, 42.163607999999996], [-70.716988, 42.162356999999986], [-70.71452699999999, 42.16135500000001], [-70.713281, 42.16120499999998], [-70.712437, 42.160208999999995], [-70.712398, 42.15949399999998], [-70.711468, 42.158404000000004], [-70.711489, 42.15657099999999], [-70.710438, 42.153883999999984], [-70.708896, 42.15227300000001], [-70.707275, 42.151501], [-70.70531799999999, 42.150936], [-70.70433500000001, 42.15135500000001], [-70.703664, 42.151306000000005], [-70.70342, 42.151007000000014], [-70.702631, 42.15072199999999], [-70.702458, 42.150980999999994], [-70.702094, 42.151073000000004], [-70.702112, 42.150088], [-70.702264, 42.14996499999999], [-70.701504, 42.14896399999998], [-70.70176099999999, 42.146654999999996], [-70.701677, 42.146026000000006], [-70.70134399999999, 42.14527499999999], [-70.69998199999999, 42.143964999999994], [-70.697187, 42.14229900000001], [-70.693979, 42.13923700000001], [-70.693497, 42.138526999999975], [-70.692059, 42.13531299999998], [-70.690867, 42.134367], [-70.689128, 42.133568999999994], [-70.688311, 42.132966999999994], [-70.687292, 42.130748999999994], [-70.685923, 42.129146], [-70.68397399999999, 42.127404000000006], [-70.68308499999999, 42.12596399999999], [-70.682974, 42.125250999999984], [-70.680049, 42.12634200000002], [-70.6799, 42.12611999999999], [-70.66957099999999, 42.12939499999999], [-70.665784, 42.12510000000001], [-70.624483, 42.125107], [-70.624482, 42.15722500000002], [-70.62258, 42.154424], [-70.608381, 42.13847900000001], [-70.499477, 42.130739000000005], [-70.41480299999999, 42.125097999999994], [-70.41145399999999, 42.125099], [-70.37447399999999, 42.12155], [-70.32252199999999, 42.11791499999998], [-70.27743, 42.114344999999986], [-70.253194, 42.125102999999996], [-70.249472, 42.126926000000005], [-70.229175, 42.131189], [-70.215587, 42.132785000000005], [-70.206221, 42.13305399999999], [-70.1954, 42.13154900000001], [-70.184474, 42.13383700000001], [-70.17254199999999, 42.13451500000001], [-70.15067599999999, 42.131465], [-70.135694, 42.127348999999995], [-70.130377, 42.126929000000004], [-70.124471, 42.12604100000001], [-70.120691, 42.12510099999998], [-70.067098, 42.10532699999998], [-70.040302, 42.09163400000001], [-70.011591, 42.073378], [-69.996279, 42.059687], [-69.969482, 42.029253999999995], [-69.954169, 42.00795500000001], [-69.94821, 42.00010599999999], [-69.940645, 41.992345], [-69.929109, 41.97847599999998], [-69.92302699999999, 41.967760999999996], [-69.917706, 41.95924699999999], [-69.909178, 41.94206200000001], [-69.902402, 41.922145999999984], [-69.89530500000001, 41.90675299999999], [-69.88001799999999, 41.86197800000001], [-69.877762, 41.85284599999999], [-69.876263, 41.84896999999999], [-69.874498, 41.842448000000005], [-69.87315, 41.838648000000006], [-69.872379, 41.831586], [-69.86949899999999, 41.826626999999995], [-69.866525, 41.81701100000002], [-69.86557499999999, 41.80767099999999], [-69.865779, 41.795636], [-69.865595, 41.790980000000005], [-69.862511, 41.773522], [-69.862366, 41.76631799999999], [-69.860058, 41.758503000000005], [-69.85984599999999, 41.75011000000002], [-69.85913000000001, 41.73649999999999], [-69.85886099999999, 41.720383], [-69.85895, 41.706916], [-69.86054, 41.69232599999999], [-69.862098, 41.68497099999998], [-69.862876, 41.67315300000002], [-69.86812499999999, 41.65679100000001], [-69.87106399999999, 41.65256699999999], [-69.874459, 41.645026000000016], [-69.884485, 41.630303000000005], [-69.889012, 41.625195999999995], [-69.888835, 41.625113], [-69.88942, 41.622694], [-69.891662, 41.617186000000004], [-69.898562, 41.60609599999999], [-69.907546, 41.596033000000006], [-69.915399, 41.58924300000001], [-69.916197, 41.58428899999998], [-69.919766, 41.574033], [-69.921517, 41.57090000000001], [-69.921345, 41.562281999999996], [-69.924632, 41.54464599999999], [-69.928994, 41.53215200000001], [-69.936401, 41.52193600000001], [-69.946613, 41.512152], [-69.958172, 41.50466], [-69.96743, 41.50011599999999], [-69.968606, 41.50011599999999], [-69.971289, 41.49887200000001], [-69.979776, 41.496567], [-69.988306, 41.49449599999999], [-69.994377, 41.493663], [-69.99816899999999, 41.493399], [-69.99945799999999, 41.49111800000001], [-69.99945799999999, 41.490527], [-70.013862, 41.47743899999999], [-70.02367699999999, 41.471948], [-70.040313, 41.46596], [-70.055437, 41.46410999999999], [-70.073742, 41.465019999999996], [-70.084904, 41.467493], [-70.101508, 41.474444], [-70.11439399999999, 41.484083000000005], [-70.12259499999999, 41.494499000000005], [-70.124461, 41.498521], [-70.124924, 41.500115], [-70.126677, 41.50369799999999], [-70.127962, 41.509674], [-70.128764, 41.51769199999999], [-70.128554, 41.52473200000001], [-70.126792, 41.530878000000016], [-70.122559, 41.537833], [-70.116719, 41.54499300000001], [-70.10952, 41.551482], [-70.102029, 41.556352000000004], [-70.086572, 41.562447999999996], [-70.080316, 41.564454], [-70.073586, 41.57770800000001], [-70.068572, 41.58522], [-70.063352, 41.59017299999999], [-70.06469899999999, 41.59323000000001], [-70.068046, 41.602954000000004], [-70.068569, 41.61069699999999], [-70.077934, 41.61252799999999], [-70.093772, 41.608323999999996], [-70.109368, 41.605591], [-70.124462, 41.600849], [-70.12695200000002, 41.600203], [-70.138491, 41.59869200000001], [-70.148926, 41.599133], [-70.16035699999999, 41.59937], [-70.163439, 41.597952], [-70.170602, 41.595588000000006], [-70.1815, 41.593547000000015], [-70.189375, 41.59049600000001], [-70.19823699999999, 41.58734200000001], [-70.20804, 41.584149999999994], [-70.220282, 41.57233699999998], [-70.22555799999999, 41.568560999999995], [-70.23194699999999, 41.56559500000001], [-70.241092, 41.56210999999999], [-70.24946299999999, 41.560146], [-70.255691, 41.559146], [-70.26742899999999, 41.558372999999996], [-70.278898, 41.559315999999995], [-70.289965, 41.561639], [-70.299331, 41.565916999999985], [-70.31125399999999, 41.57106200000001], [-70.32021399999999, 41.568946000000004], [-70.331549, 41.567898], [-70.34633699999999, 41.56845300000001], [-70.351936, 41.566649000000005], [-70.364206, 41.562196000000014], [-70.387281, 41.55768099999999], [-70.395164, 41.556722], [-70.397122, 41.55440199999998], [-70.405051, 41.546195000000004], [-70.411202, 41.540744], [-70.417304, 41.534822000000005], [-70.423896, 41.528732], [-70.432904, 41.52206300000001], [-70.440131, 41.517479], [-70.448567, 41.513093000000005], [-70.457634, 41.50934100000001], [-70.466436, 41.50616000000001], [-70.478689, 41.50350299999999], [-70.48396699999999, 41.502545999999995], [-70.48974, 41.501856], [-70.498209, 41.502565], [-70.502832, 41.500635], [-70.50860300000001, 41.498965], [-70.504182, 41.494858], [-70.499472, 41.488233], [-70.494942, 41.479631999999995], [-70.49165800000002, 41.47100900000001], [-70.489689, 41.462976999999995], [-70.485385, 41.463802999999984], [-70.475994, 41.46614099999998], [-70.46395, 41.468], [-70.44800699999999, 41.469355], [-70.436449, 41.46891900000001], [-70.421087, 41.46441600000002], [-70.405928, 41.457012999999996], [-70.392892, 41.44547999999999], [-70.385874, 41.43372099999999], [-70.38080699999999, 41.411995999999995], [-70.380693, 41.385361], [-70.38216299999999, 41.375117999999986], [-70.383449, 41.369933], [-70.37011199999999, 41.36876899999999], [-70.36769799999999, 41.37142700000001], [-70.362641, 41.375117999999986], [-70.353085, 41.381454999999995], [-70.338289, 41.38854999999999], [-70.323593, 41.391607], [-70.308734, 41.390693000000006], [-70.302438, 41.389624999999995], [-70.294179, 41.39144599999999], [-70.283214, 41.39288499999999], [-70.26728299999999, 41.393426000000005], [-70.258549, 41.39210699999999], [-70.24946299999999, 41.390049], [-70.247689, 41.38989099999999], [-70.238142, 41.38620499999999], [-70.233576, 41.38263999999998], [-70.224936, 41.37511999999999], [-70.221622, 41.371769], [-70.21733400000001, 41.364996999999995], [-70.215115, 41.360274999999994], [-70.208297, 41.35802499999999], [-70.19838299999999, 41.359024999999995], [-70.187287, 41.358380000000004], [-70.174906, 41.357290000000006], [-70.159992, 41.35224200000002], [-70.148699, 41.345215999999986], [-70.13794, 41.346371000000005], [-70.13223099999999, 41.348731], [-70.124461, 41.35132699999998], [-70.11933499999999, 41.352638000000006], [-70.110095, 41.353592], [-70.101618, 41.35344999999999], [-70.09784400000001, 41.353584000000005], [-70.103251, 41.359705], [-70.107199, 41.365213000000004], [-70.111328, 41.37038899999998], [-70.11644, 41.38616500000001], [-70.116541, 41.39513199999999], [-70.112734, 41.408126], [-70.105819, 41.419866], [-70.09441199999999, 41.43081], [-70.078847, 41.438015], [-70.06517400000001, 41.442687], [-70.04427199999999, 41.44380099999999], [-70.025902, 41.44107899999998], [-70.006467, 41.43389800000001], [-69.99945799999999, 41.42843199999999], [-69.98922700000001, 41.421225], [-69.98177500000001, 41.41520800000001], [-69.974592, 41.40892200000001], [-69.969634, 41.403510999999995], [-69.957745, 41.38725], [-69.943801, 41.36671700000001], [-69.938456, 41.357645000000005], [-69.92983699999999, 41.34532299999999], [-69.92644, 41.33879399999998], [-69.921579, 41.332398], [-69.91494999999999, 41.324194999999996], [-69.910093, 41.317263], [-69.902948, 41.30520699999999], [-69.898321, 41.29700299999999], [-69.894885, 41.29037199999999], [-69.893789, 41.286925000000004], [-69.89295899999999, 41.28364299999999], [-69.89244500000001, 41.27909000000001], [-69.8925, 41.27621099999998], [-69.892209, 41.271323], [-69.894472, 41.25923999999999], [-69.896044, 41.254119], [-69.89774299999999, 41.250122000000005], [-69.89900999999999, 41.24553799999998], [-69.902992, 41.238416], [-69.910319, 41.226849], [-69.915842, 41.220939], [-69.922911, 41.21583999999999], [-69.930953, 41.21054300000001], [-69.942008, 41.204519999999995], [-69.953586, 41.19967199999999], [-69.973182, 41.193545000000015], [-69.98315099999999, 41.191403], [-69.999457, 41.188305], [-70.012483, 41.18705299999999], [-70.025702, 41.187102], [-70.039705, 41.18819200000001], [-70.051647, 41.190908], [-70.072666, 41.19163400000001], [-70.109684, 41.189803000000005], [-70.12446, 41.19242200000001], [-70.13585499999999, 41.194649], [-70.16117, 41.20068999999998], [-70.178851, 41.204530999999996], [-70.217017, 41.21817599999999], [-70.227997, 41.222664], [-70.239982, 41.228463], [-70.285736, 41.242346000000005], [-70.294484, 41.246499000000014], [-70.314298, 41.260532000000005], [-70.33509000000001, 41.272779], [-70.344083, 41.27614600000001], [-70.357554, 41.27259600000002], [-70.374466, 41.26945800000001], [-70.38667099999999, 41.27128199999999], [-70.396777, 41.273013999999996], [-70.408733, 41.277294000000005], [-70.414493, 41.273953], [-70.429075, 41.268651000000006], [-70.444758, 41.265513000000006], [-70.459851, 41.26525300000001], [-70.475635, 41.270219999999995], [-70.493308, 41.279975], [-70.49946899999999, 41.28574100000001], [-70.512199, 41.298313], [-70.530599, 41.299198999999994], [-70.54521000000001, 41.299672000000015], [-70.571848, 41.30009399999999], [-70.593135, 41.299843999999986], [-70.606672, 41.29940999999999], [-70.62447, 41.298382], [-70.655087, 41.29616499999999], [-70.68502, 41.29317599999998], [-70.686615, 41.292058999999995], [-70.689055, 41.290937000000014], [-70.692874, 41.28963900000001], [-70.700169, 41.289058000000004], [-70.70310599999999, 41.28904], [-70.704591, 41.28483399999999], [-70.707362, 41.280218], [-70.711063, 41.27485699999999], [-70.716499, 41.26945200000001], [-70.721634, 41.265861], [-70.726731, 41.26311000000002], [-70.734843, 41.25923100000001], [-70.734065, 41.256147999999996], [-70.734045, 41.253327000000006], [-70.733667, 41.25011600000003], [-70.73475300000001, 41.24625999999999], [-70.738908, 41.236427], [-70.74430699999999, 41.22603000000001], [-70.749473, 41.22017299999998], [-70.754188, 41.216091], [-70.767837, 41.20648999999999], [-70.783582, 41.20121899999999], [-70.80595, 41.19874200000001], [-70.823645, 41.20064899999999], [-70.847746, 41.20581399999999], [-70.866343, 41.21539699999999], [-70.87447399999999, 41.221380999999994], [-70.877327, 41.224143999999995], [-70.884973, 41.23378399999999], [-70.890541, 41.24309099999999], [-70.89245700000001, 41.25011200000001], [-70.89420299999999, 41.25943899999999], [-70.89359499999999, 41.267993999999995], [-70.890337, 41.27736199999999], [-70.885683, 41.28506600000001], [-70.878182, 41.29214699999999], [-70.874475, 41.29496799999998], [-70.870027, 41.29706799999999], [-70.87447399999999, 41.30134999999999], [-70.877963, 41.30370800000001], [-70.884472, 41.31016199999997], [-70.891363, 41.318817999999986], [-70.897722, 41.327411000000005], [-70.901005, 41.334613], [-70.903815, 41.346727], [-70.903739, 41.35508000000001], [-70.901866, 41.36177], [-70.896017, 41.37014800000001], [-70.902603, 41.36761300000002], [-70.918399, 41.363033], [-70.938664, 41.353986000000006], [-70.95575199999999, 41.35016100000001], [-70.97052099999999, 41.34918700000001], [-70.979229, 41.349643999999984], [-70.990748, 41.351288999999994], [-70.99947999999999, 41.354103], [-71.006315, 41.357319], [-71.014799, 41.362019999999994], [-71.020472, 41.366723], [-71.02610299999999, 41.37169300000001], [-71.032701, 41.38027300000001], [-71.037211, 41.388908000000015], [-71.039918, 41.398259], [-71.038114, 41.405453], [-71.033604, 41.41408500000001], [-71.053451, 41.41695899999999], [-71.07240399999999, 41.42557], [-71.085038, 41.433467], [-71.088571, 41.431315], [-71.116404, 41.484567999999996], [-71.121116, 41.492787000000014], [-71.119874, 41.49460399999998], [-71.120617, 41.497901000000006], [-71.122495, 41.52213899999998], [-71.125329, 41.54357699999999], [-71.126199, 41.551514999999995], [-71.126868, 41.55486099999999], [-71.12657999999999, 41.55570700000001], [-71.126989, 41.55579499999999], [-71.127862, 41.562781], [-71.12803199999999, 41.565512999999996], [-71.128222, 41.56565700000001], [-71.131727, 41.593762000000005], [-71.138464, 41.603635000000004], [-71.138688, 41.603902000000005], [-71.140078, 41.604665000000004], [-71.140442, 41.605298000000005], [-71.141598, 41.611089], [-71.141415, 41.61136399999998], [-71.14156, 41.612154000000004], [-71.141875, 41.612544000000014], [-71.14027, 41.62379199999999], [-71.135514, 41.628294000000004], [-71.134464, 41.644012], [-71.132721, 41.65945599999998], [-71.13250699999999, 41.660356], [-71.176017, 41.668269], [-71.17587999999999, 41.671541999999995], [-71.195555, 41.67515199999999], [-71.201162, 41.681909]]]}}