{"type": "Feature", "properties": {"district_name": "1st Congressional District", "chamber": "us-house", "vintage": "2001-2010"}, "geometry": {"type": "MultiPolygon", "coordinates": [[[[-72.547397, 42.218388], [-72.547386, 42.21797199999999], [-72.547594, 42.218477], [-72.547397, 42.218388]]], [[[-73.416395, 42.33663500000002], [-73.375196, 42.447921], [-73.37449, 42.450202999999995], [-73.363312, 42.479923], [-73.362768, 42.481955], [-73.362064, 42.48323500000001], [-73.356894, 42.49836], [-73.356031, 42.500018], [-73.352527, 42.510002], [-73.347303, 42.52415399999999], [-73.343792, 42.533297999999995], [-73.309828, 42.625080999999994], [-73.293887, 42.66745200000001], [-73.264957, 42.74593999999998], [-73.249554, 42.74583], [-73.24522499999999, 42.745509999999996], [-73.142485, 42.743587999999995], [-73.119571, 42.74330699999999], [-73.08988099999999, 42.74241400000002], [-73.07301799999999, 42.742084000000006], [-73.07128, 42.742205999999996], [-73.048041, 42.741481], [-73.01864499999999, 42.74105899999999], [-72.923563, 42.73916399999999], [-72.809113, 42.736581000000015], [-72.721319, 42.734099], [-72.570932, 42.73014800000001], [-72.437778, 42.726282], [-72.285996, 42.72162599999998], [-72.124526, 42.717637], [-72.010693, 42.71415], [-72.000844, 42.714079999999996], [-71.98140200000002, 42.713295], [-71.936076, 42.712436000000004], [-71.85977, 42.71048700000002], [-71.745815, 42.70728699999997], [-71.726812, 42.706984], [-71.642015, 42.70489], [-71.63181399999999, 42.704788], [-71.622214, 42.70428800000001], [-71.62014599999999, 42.70439400000001], [-71.597413, 42.703787999999996], [-71.542411, 42.70268899999999], [-71.54344100000002, 42.701153999999995], [-71.54399, 42.69920100000001], [-71.544616, 42.69853], [-71.547241, 42.696569000000004], [-71.54843199999999, 42.69518799999999], [-71.54979, 42.694127], [-71.550873, 42.693608999999995], [-71.552262, 42.69332600000001], [-71.553101, 42.692646999999994], [-71.55422999999999, 42.691243], [-71.555512, 42.69045799999999], [-71.556443, 42.689321], [-71.55660999999999, 42.688581], [-71.556473, 42.684895999999995], [-71.556382, 42.68415600000001], [-71.555695, 42.682522999999996], [-71.55592399999999, 42.680242000000014], [-71.555512, 42.67868900000001], [-71.555813, 42.67771799999999], [-71.556103, 42.67729799999999], [-71.557112, 42.676489], [-71.538911, 42.674288999999995], [-71.532572, 42.669050999999996], [-71.53658, 42.663469000000006], [-71.53746799999999, 42.663306999999996], [-71.541788, 42.660650999999994], [-71.549842, 42.65928499999998], [-71.549363, 42.659145999999986], [-71.55609700000001, 42.657636], [-71.555035, 42.659582], [-71.556597, 42.65963400000002], [-71.55783699999999, 42.659261], [-71.570281, 42.65714299999999], [-71.57354099999999, 42.658674000000005], [-71.574602, 42.658812], [-71.576957, 42.65477800000001], [-71.578887, 42.65441399999999], [-71.579436, 42.65415000000001], [-71.57910000000001, 42.65138500000001], [-71.57992899999999, 42.649289], [-71.57985, 42.64791099999999], [-71.580432, 42.646800000000006], [-71.58163499999999, 42.64563500000001], [-71.582081, 42.64434399999999], [-71.58261999999999, 42.644037000000004], [-71.582961, 42.64413799999999], [-71.58321300000001, 42.644525], [-71.583568, 42.645756999999996], [-71.584473, 42.64641999999999], [-71.585694, 42.646589], [-71.58664, 42.64629099999999], [-71.586914, 42.64604699999999], [-71.58717399999999, 42.64542900000001], [-71.58706699999999, 42.644994000000004], [-71.586212, 42.644330000000004], [-71.58606, 42.643902999999995], [-71.586914, 42.64226300000001], [-71.58701099999999, 42.640741], [-71.58728599999999, 42.63956900000001], [-71.58819600000001, 42.637783999999996], [-71.588425, 42.63743300000001], [-71.588852, 42.63719699999999], [-71.589508, 42.63712800000001], [-71.591431, 42.637454999999996], [-71.592134, 42.63721700000001], [-71.59236299999999, 42.636964000000006], [-71.592426, 42.636567], [-71.592298, 42.636397], [-71.591555, 42.635985], [-71.591262, 42.63572800000001], [-71.591248, 42.635501999999995], [-71.591478, 42.635183000000005], [-71.592832, 42.63434000000001], [-71.593087, 42.63383], [-71.59311199999999, 42.63336699999999], [-71.592958, 42.63312199999999], [-71.59234599999999, 42.632836000000005], [-71.590195, 42.632963], [-71.589128, 42.63286399999999], [-71.588653, 42.632451], [-71.588483, 42.631965], [-71.588043, 42.631626999999995], [-71.587874, 42.63115299999999], [-71.587919, 42.630832999999974], [-71.58847, 42.630438000000005], [-71.591601, 42.629926000000005], [-71.59320799999999, 42.62905399999999], [-71.593628, 42.628478], [-71.593704, 42.628034999999976], [-71.59308, 42.62668999999999], [-71.593366, 42.626642000000025], [-71.593308, 42.62631700000001], [-71.593623, 42.626247000000006], [-71.59598799999999, 42.62633699999999], [-71.59715299999999, 42.62601999999999], [-71.59915, 42.625813], [-71.600309, 42.625972], [-71.60091, 42.62625400000001], [-71.60161599999999, 42.626981], [-71.603562, 42.629864], [-71.604828, 42.63081899999999], [-71.605621, 42.631025999999984], [-71.60657599999999, 42.63079400000001], [-71.607123, 42.630468], [-71.607502, 42.628333000000005], [-71.610425, 42.628659], [-71.611931, 42.628237], [-71.614165, 42.62840300000001], [-71.616346, 42.62965399999999], [-71.618325, 42.63024600000001], [-71.619585, 42.631178], [-71.624748, 42.63297999999998], [-71.640953, 42.639212], [-71.642455, 42.64078200000001], [-71.647021, 42.644113000000004], [-71.648257, 42.64389499999999], [-71.650362, 42.64461399999998], [-71.651978, 42.64540799999999], [-71.65378, 42.64667800000001], [-71.656511, 42.649744], [-71.657714, 42.64998900000001], [-71.657913, 42.649648], [-71.660414, 42.63508900000001], [-71.663167, 42.628819], [-71.661807, 42.625623999999995], [-71.66184600000001, 42.62518499999999], [-71.66362500000001, 42.61723], [-71.670937, 42.577158999999995], [-71.674438, 42.55742000000002], [-71.674301, 42.557361], [-71.674714, 42.55459], [-71.675314, 42.552189999999996], [-71.675414, 42.54979], [-71.676417, 42.545275], [-71.677015, 42.541751000000005], [-71.67773, 42.539397], [-71.67898, 42.53035099999999], [-71.687214, 42.53169000000001], [-71.702315, 42.53380399999999], [-71.711021, 42.523017], [-71.711187, 42.52251], [-71.71194, 42.52159699999999], [-71.712542, 42.52109199999999], [-71.71667599999999, 42.518937], [-71.719033, 42.507590999999984], [-71.72232799999999, 42.493845], [-71.722713, 42.49048099999998], [-71.72343599999999, 42.488048], [-71.72391999999999, 42.48553700000001], [-71.727648, 42.474699], [-71.71785899999999, 42.473231], [-71.718868, 42.462084], [-71.718743, 42.43540599999999], [-71.71824699999999, 42.42593000000001], [-71.71811799999999, 42.41047499999999], [-71.718362, 42.410263999999984], [-71.72137, 42.409276000000006], [-71.72572199999999, 42.3903], [-71.74151499999999, 42.386792], [-71.741918, 42.392651999999984], [-71.750872, 42.396133999999996], [-71.764022, 42.400446], [-71.769727, 42.400603999999994], [-71.770268, 42.40047800000001], [-71.777695, 42.400315], [-71.78651599999999, 42.398691], [-71.787616, 42.399191], [-71.796954, 42.400590000000015], [-71.804897, 42.39836900000001], [-71.801631, 42.401182], [-71.801678, 42.40132800000001], [-71.81731599999999, 42.403890999999994], [-71.826579, 42.42101600000001], [-71.831773, 42.43161100000001], [-71.821561, 42.438914999999994], [-71.81599899999999, 42.44235], [-71.812572, 42.444891], [-71.81298699999999, 42.44498799999999], [-71.813465, 42.44561299999999], [-71.815095, 42.445584], [-71.81689899999999, 42.44619499999999], [-71.81748999999999, 42.446244000000014], [-71.818176, 42.446595], [-71.8186, 42.446909000000005], [-71.819299, 42.448108], [-71.81945600000002, 42.44869699999999], [-71.819262, 42.449435], [-71.819514, 42.45002600000001], [-71.821012, 42.450453], [-71.821193, 42.45065100000001], [-71.82118299999999, 42.450979000000004], [-71.820511, 42.45154000000001], [-71.820396, 42.452178999999994], [-71.821935, 42.45382399999999], [-71.822216, 42.454651999999996], [-71.822109, 42.45638499999999], [-71.82369, 42.458121999999996], [-71.823972, 42.458956000000015], [-71.82393499999999, 42.461037000000005], [-71.82409899999999, 42.461526], [-71.82482499999999, 42.46194499999999], [-71.825834, 42.463077999999975], [-71.826998, 42.463744], [-71.827317, 42.464990000000014], [-71.827815, 42.465826000000014], [-71.82791399999999, 42.466967000000004], [-71.82807799999999, 42.46716899999999], [-71.82790500000002, 42.467309], [-71.827904, 42.468328], [-71.828295, 42.469170999999996], [-71.827826, 42.470826], [-71.828008, 42.47184599999999], [-71.833615, 42.479869999999984], [-71.83566499999999, 42.483511], [-71.82981699999999, 42.49189], [-71.82211699999999, 42.504190000000015], [-71.84221699999999, 42.51258999999999], [-71.841775, 42.51464299999999], [-71.844869, 42.514393], [-71.84658, 42.51463400000001], [-71.847066, 42.51451699999999], [-71.847037, 42.515002], [-71.847549, 42.514987], [-71.849357, 42.51781600000001], [-71.85661499999999, 42.51908499999998], [-71.86071799999999, 42.51648999999999], [-71.86451799999999, 42.51679], [-71.879918, 42.50539], [-71.884596, 42.502505], [-71.909711, 42.48439499999999], [-71.91981899999999, 42.49099000000001], [-71.928719, 42.48538999999998], [-71.931985, 42.48296500000001], [-71.931344, 42.482785], [-71.91984099999999, 42.47482499999998], [-71.93191999999999, 42.467209999999994], [-71.93712, 42.464174], [-71.94494999999999, 42.45914500000001], [-71.952111, 42.454893000000006], [-71.96300699999999, 42.44797500000003], [-71.981256, 42.43686699999999], [-71.98140099999999, 42.436344999999996], [-71.980848, 42.43235], [-71.99271999999999, 42.42989], [-72.007189, 42.421172], [-72.007628, 42.42076799999999], [-72.035336, 42.403797000000004], [-72.03132000000001, 42.395768], [-72.02059799999999, 42.37535200000001], [-72.019294, 42.37172000000001], [-72.013227, 42.35870100000001], [-72.012205, 42.356897000000004], [-71.996524, 42.324681999999996], [-71.99378, 42.31933599999999], [-71.989503, 42.310154999999995], [-71.994298, 42.310047999999995], [-71.996708, 42.30983499999999], [-71.998933, 42.309915000000004], [-72.00049, 42.315727], [-72.007143, 42.309092], [-72.041777, 42.30820499999998], [-72.118293, 42.302045], [-72.124522, 42.295276000000015], [-72.12929799999999, 42.290421], [-72.135066, 42.28076499999998], [-72.123602, 42.27961599999999], [-72.117649, 42.278609], [-72.12100699999999, 42.271739999999994], [-72.124521, 42.263964], [-72.119289, 42.257793000000014], [-72.113475, 42.252375], [-72.11722700000001, 42.24294599999998], [-72.115488, 42.241405], [-72.111283, 42.238538999999996], [-72.112742, 42.233199], [-72.11868799999999, 42.230985999999994], [-72.119038, 42.21849999999999], [-72.119767, 42.21381499999999], [-72.121909, 42.214658], [-72.123674, 42.21563], [-72.127691, 42.219213], [-72.129826, 42.22087000000002], [-72.142257, 42.197452], [-72.139642, 42.179534], [-72.147261, 42.18139600000001], [-72.153807, 42.207052999999995], [-72.169979, 42.232369999999996], [-72.170808, 42.233101000000005], [-72.171054, 42.234266], [-72.173383, 42.235239000000014], [-72.17506800000001, 42.236607000000014], [-72.17693100000001, 42.23698599999999], [-72.177388, 42.237233999999994], [-72.17822699999999, 42.239414000000004], [-72.178839, 42.24277399999999], [-72.17963999999999, 42.245657000000016], [-72.179912, 42.246255999999995], [-72.181184, 42.246051], [-72.181788, 42.24757100000001], [-72.182002, 42.24779099999999], [-72.18234400000001, 42.251253000000005], [-72.211167, 42.251123], [-72.211095, 42.250091999999974], [-72.210695, 42.248748], [-72.21046, 42.24720499999999], [-72.21439099999999, 42.247556], [-72.2145, 42.24907399999999], [-72.218068, 42.248605], [-72.221296, 42.24518899999999], [-72.247013, 42.242094], [-72.257476, 42.229852], [-72.268196, 42.22924399999999], [-72.27045199999999, 42.236812], [-72.271396, 42.23612399999999], [-72.273772, 42.235847], [-72.27767, 42.233103], [-72.281295, 42.235019999999984], [-72.335056, 42.22039799999998], [-72.335638, 42.220155999999996], [-72.336086, 42.219547999999996], [-72.336854, 42.21910000000002], [-72.338326, 42.21893999999998], [-72.340134, 42.219036], [-72.34237399999999, 42.218604], [-72.343558, 42.21798], [-72.34567, 42.21631599999999], [-72.345974, 42.21583600000001], [-72.345942, 42.214844], [-72.34541399999999, 42.212635999999996], [-72.345574, 42.211772], [-72.34631, 42.210652], [-72.34711, 42.21002799999999], [-72.348118, 42.210075999999994], [-72.349238, 42.209915999999986], [-72.34957399999999, 42.20900399999999], [-72.35135, 42.20732400000001], [-72.352374, 42.20690799999998], [-72.35347800000001, 42.206956], [-72.35386199999999, 42.207291999999995], [-72.354775, 42.208732000000005], [-72.355943, 42.20902000000001], [-72.357079, 42.20866799999998], [-72.359127, 42.206076], [-72.359831, 42.205484999999996], [-72.360519, 42.20521299999999], [-72.360935, 42.20521299999999], [-72.36170299999999, 42.20564499999999], [-72.36282299999999, 42.205980000000004], [-72.36282299999999, 42.206363999999986], [-72.361783, 42.20693999999998], [-72.362071, 42.20725999999999], [-72.362871, 42.20746799999998], [-72.363575, 42.207404000000004], [-72.36413499999999, 42.20716399999999], [-72.364583, 42.206748], [-72.36474299999999, 42.20606000000001], [-72.36445499999999, 42.20289300000001], [-72.36312699999999, 42.201629], [-72.36242299999999, 42.199453000000005], [-72.36231099999999, 42.19839699999997], [-72.362775, 42.197917000000004], [-72.363559, 42.197532999999986], [-72.363495, 42.19719699999999], [-72.363079, 42.196909000000005], [-72.361719, 42.197037], [-72.36071100000001, 42.196909000000005], [-72.359943, 42.19639699999998], [-72.359479, 42.195309], [-72.358871, 42.19438100000001], [-72.35925499999999, 42.19409299999999], [-72.361175, 42.194349], [-72.361495, 42.193965], [-72.36131900000001, 42.19298900000001], [-72.360423, 42.19023699999999], [-72.35821899999999, 42.18980199999999], [-72.390304, 42.186254], [-72.39549199999999, 42.185811999999984], [-72.403947, 42.231847], [-72.418888, 42.230427999999996], [-72.427229, 42.22929200000001], [-72.44714499999999, 42.22734], [-72.46443, 42.225392000000014], [-72.47843, 42.223592000000025], [-72.48062999999999, 42.22349200000001], [-72.546356, 42.216489], [-72.54767, 42.22074500000001], [-72.548406, 42.220454], [-72.548807, 42.22191299999999], [-72.54959, 42.22350399999999], [-72.54969799999999, 42.224847999999994], [-72.549346, 42.22614900000001], [-72.555365, 42.24617099999998], [-72.558542, 42.280438000000004], [-72.546987, 42.285073000000004], [-72.543306, 42.28580500000001], [-72.54114899999999, 42.286576999999994], [-72.5407, 42.287147000000004], [-72.54046, 42.288667000000004], [-72.53991599999999, 42.289754999999985], [-72.540156, 42.29156300000001], [-72.539788, 42.292763], [-72.53854, 42.293722999999986], [-72.53812400000001, 42.29423399999999], [-72.536524, 42.29466699999999], [-72.535052, 42.295418999999995], [-72.53320699999999, 42.29740799999999], [-72.53209799999999, 42.297869], [-72.531252, 42.29795800000001], [-72.527919, 42.299881000000006], [-72.52790999999999, 42.301607999999995], [-72.531228, 42.30355999999998], [-72.534956, 42.30408899999999], [-72.537928, 42.320122999999995], [-72.540819, 42.319595], [-72.535916, 42.359960999999984], [-72.536924, 42.35997699999999], [-72.53646599999999, 42.36487900000001], [-72.53643799999999, 42.365085000000015], [-72.535636, 42.36546599999998], [-72.535451, 42.366845], [-72.535304, 42.366834], [-72.532584, 42.389683000000005], [-72.532253, 42.395491], [-72.532055, 42.395765999999995], [-72.53146699999999, 42.40160100000001], [-72.53596999999999, 42.401368000000005], [-72.546787, 42.39996800000001], [-72.544062, 42.42710000000001], [-72.581106, 42.422504], [-72.579261, 42.41831199999998], [-72.578334, 42.41526999999999], [-72.577314, 42.412845999999995], [-72.57650799999999, 42.411604], [-72.575222, 42.408242], [-72.574825, 42.406012], [-72.574833, 42.403811], [-72.575319, 42.40081], [-72.57598899999999, 42.399398999999995], [-72.57724999999999, 42.39829500000001], [-72.578879, 42.39749800000001], [-72.580591, 42.39727800000001], [-72.584479, 42.398925000000006], [-72.58626799999999, 42.39910500000001], [-72.587994, 42.39905400000001], [-72.589548, 42.398004], [-72.590244, 42.39698700000002], [-72.59034199999999, 42.395954999999994], [-72.587266, 42.39168199999999], [-72.586598, 42.39064199999999], [-72.586185, 42.38961499999999], [-72.586389, 42.38889999999999], [-72.587453, 42.38750799999998], [-72.59041100000002, 42.380319], [-72.591974, 42.375088999999996], [-72.592029, 42.373464999999996], [-72.591917, 42.372313], [-72.591053, 42.369832999999986], [-72.58913299999999, 42.365801], [-72.588285, 42.364433999999996], [-72.587453, 42.36117199999999], [-72.58746900000001, 42.359593], [-72.58802899999999, 42.356553000000005], [-72.589175, 42.354397999999996], [-72.590701, 42.352752], [-72.59300499999999, 42.35120899999999], [-72.598349, 42.34984899999999], [-72.599661, 42.349593000000006], [-72.602093, 42.349433], [-72.611581, 42.34984899999999], [-72.616589, 42.35026500000001], [-72.621278, 42.350744999999996], [-72.62668599999999, 42.35168900000001], [-72.63104799999999, 42.351474999999986], [-72.634254, 42.351113000000005], [-72.6344, 42.35258099999999], [-72.634843, 42.35315100000001], [-72.636156, 42.35566000000001], [-72.63503399999999, 42.355889000000005], [-72.636495, 42.36056299999999], [-72.63793299999999, 42.36688599999999], [-72.640286, 42.375087], [-72.640511, 42.37535200000001], [-72.647725, 42.374579000000004], [-72.703535, 42.367188000000006], [-72.741264, 42.36256799999998], [-72.741259, 42.36033599999999], [-72.740163, 42.34790800000001], [-72.739355, 42.33444399999999], [-72.737689, 42.300288000000016], [-72.736772, 42.288709999999995], [-72.73662999999999, 42.283829], [-72.734663, 42.284285], [-72.694469, 42.28903499999999], [-72.684314, 42.29048], [-72.6722, 42.29168399999999], [-72.672141, 42.29030199999998], [-72.660136, 42.28929], [-72.660237, 42.288689999999995], [-72.656086, 42.289941999999996], [-72.65383299999999, 42.290389999999995], [-72.648652, 42.29176100000001], [-72.646048, 42.290339999999986], [-72.643832, 42.28851900000001], [-72.64207999999999, 42.288174000000005], [-72.640537, 42.284187], [-72.63743699999999, 42.28739], [-72.634849, 42.28538800000001], [-72.62952899999999, 42.28520599999999], [-72.62795299999999, 42.28622399999999], [-72.62768299999999, 42.286545], [-72.62523999999999, 42.287977], [-72.623807, 42.287724999999995], [-72.622799, 42.288092], [-72.622186, 42.288907], [-72.61823199999999, 42.29018800000001], [-72.615534, 42.290189999999996], [-72.613034, 42.28619], [-72.605633, 42.28479000000001], [-72.60133300000001, 42.281290000000006], [-72.598933, 42.26809], [-72.600133, 42.26538999999999], [-72.607918, 42.26017], [-72.61802999999999, 42.24807500000001], [-72.620189, 42.243576], [-72.62393399999999, 42.233691], [-72.62093399999999, 42.22929100000001], [-72.612934, 42.22499100000001], [-72.61023399999999, 42.218491000000014], [-72.607933, 42.216291000000005], [-72.602233, 42.213291000000005], [-72.60073299999999, 42.212790999999974], [-72.596633, 42.21189100000001], [-72.59343299999999, 42.211691], [-72.591781, 42.209829], [-72.590533, 42.20709199999998], [-72.590216, 42.20507799999999], [-72.590312, 42.20368099999998], [-72.591335, 42.20155599999998], [-72.593436, 42.199707000000004], [-72.594771, 42.19878299999999], [-72.60133100000002, 42.195095], [-72.60575299999999, 42.19172499999997], [-72.609696, 42.18984800000001], [-72.622434, 42.185392], [-72.626834, 42.178992], [-72.628534, 42.16829200000001], [-72.627634, 42.161992], [-72.62785199999999, 42.15463299999999], [-72.62703599999999, 42.15133499999999], [-72.626024, 42.14996799999999], [-72.622534, 42.14679299999998], [-72.618634, 42.143793], [-72.615634, 42.13859299999999], [-72.615566, 42.13573399999999], [-72.615841, 42.133791], [-72.62133399999999, 42.123393000000014], [-72.621534, 42.11839299999999], [-72.615883, 42.110833], [-72.614113, 42.10877000000001], [-72.60393300000001, 42.10339400000001], [-72.599432, 42.101425000000006], [-72.595202, 42.098894], [-72.591433, 42.095794000000005], [-72.588633, 42.092893999999994], [-72.59050500000001, 42.092220000000005], [-72.592612, 42.092588], [-72.595533, 42.09349399999999], [-72.59863299999999, 42.092893999999994], [-72.599633, 42.090194], [-72.59873300000001, 42.09029399999999], [-72.598533, 42.089893999999994], [-72.60033299999999, 42.088794], [-72.600511, 42.087799], [-72.600374, 42.08732499999998], [-72.60043399999999, 42.086439], [-72.601081, 42.085996], [-72.601686, 42.086101], [-72.604545, 42.08733399999999], [-72.607017, 42.08812099999999], [-72.610068, 42.08856100000001], [-72.613494, 42.087547], [-72.62029, 42.087684999999986], [-72.626808, 42.089884], [-72.629813, 42.092085999999995], [-72.630819, 42.094587000000004], [-72.63062, 42.09548699999999], [-72.62962399999999, 42.09748899999999], [-72.63112799999999, 42.099889999999995], [-72.633132, 42.10039], [-72.635393, 42.09985199999999], [-72.637259, 42.099062], [-72.638235, 42.09889300000001], [-72.641239, 42.09930000000002], [-72.645952, 42.099386999999986], [-72.651735, 42.097693], [-72.654766, 42.0973], [-72.656933, 42.09663000000001], [-72.658335, 42.09549399999999], [-72.66043499999999, 42.092194000000006], [-72.660477, 42.090876999999985], [-72.66089199999999, 42.08959199999999], [-72.660635, 42.08589399999999], [-72.662035, 42.08429400000001], [-72.663833, 42.08509500000002], [-72.666527, 42.087408999999994], [-72.668016, 42.09123], [-72.670284, 42.093334999999996], [-72.672716, 42.094762], [-72.673782, 42.09636500000002], [-72.675193, 42.097875], [-72.676385, 42.10048999999999], [-72.68117699999999, 42.100809000000005], [-72.681635, 42.101201], [-72.682959, 42.107042], [-72.683758, 42.10734600000001], [-72.686042, 42.10696699999999], [-72.688142, 42.106336], [-72.689667, 42.106365], [-72.694375, 42.10553199999999], [-72.695021, 42.10557], [-72.695461, 42.104741999999995], [-72.69568199999999, 42.10312], [-72.69630699999999, 42.102349999999994], [-72.699428, 42.095657], [-72.701664, 42.091546], [-72.701098, 42.091541000000014], [-72.705536, 42.08059400000001], [-72.706004, 42.080674], [-72.70672499999999, 42.073835], [-72.706144, 42.073516], [-72.708078, 42.06448399999999], [-72.707774, 42.060905999999996], [-72.709555, 42.052075], [-72.71097499999999, 42.049806000000004], [-72.711596, 42.048126999999994], [-72.712619, 42.043941000000004], [-72.712535, 42.042488000000006], [-72.712854, 42.039525000000005], [-72.71311899999999, 42.038908], [-72.714246, 42.03734899999999], [-72.714137, 42.03689499999999], [-72.714337, 42.03659499999999], [-72.755994, 42.036185999999994], [-72.756008, 42.035116000000016], [-72.75679099999999, 42.03417900000001], [-72.757175, 42.03334499999999], [-72.75511999999999, 42.032732], [-72.75370199999999, 42.032062999999994], [-72.75204, 42.03064400000001], [-72.75176499999999, 42.029792], [-72.75253300000001, 42.02824300000002], [-72.753776, 42.02720300000001], [-72.75452899999999, 42.025717], [-72.755703, 42.02478600000001], [-72.755965, 42.023958999999984], [-72.756671, 42.022757000000006], [-72.75642599999999, 42.021927999999996], [-72.757071, 42.02112200000001], [-72.75805199999999, 42.020865999999984], [-72.758934, 42.02096299999999], [-72.75910999999999, 42.021077999999996], [-72.759202, 42.02168400000001], [-72.759585, 42.02225500000001], [-72.76098000000002, 42.022753000000016], [-72.761555, 42.022594], [-72.762337, 42.02187900000003], [-72.763542, 42.021148000000004], [-72.76366399999999, 42.021159999999995], [-72.76393999999999, 42.021937000000015], [-72.765036, 42.022452], [-72.76522, 42.022281], [-72.765159, 42.021829], [-72.764622, 42.02167999999999], [-72.76444599999999, 42.021371], [-72.764608, 42.02070799999999], [-72.765275, 42.020400000000016], [-72.765569, 42.01989999999999], [-72.76553799999999, 42.01964700000001], [-72.76529099999999, 42.01961000000001], [-72.764439, 42.02005100000002], [-72.762807, 42.01974200000001], [-72.762309, 42.018117999999994], [-72.761933, 42.01770599999999], [-72.760998, 42.017294], [-72.76009499999999, 42.01748800000001], [-72.75988, 42.01739099999999], [-72.75971899999999, 42.017029999999984], [-72.75985899999999, 42.01656799999999], [-72.76079399999999, 42.01541899999999], [-72.760978, 42.014813000000004], [-72.76155399999999, 42.014281], [-72.762689, 42.013693], [-72.76321899999999, 42.01271599999999], [-72.76307299999999, 42.01207600000001], [-72.76241499999999, 42.011343], [-72.76194799999999, 42.010217], [-72.761366, 42.00988000000001], [-72.761473, 42.00930800000001], [-72.76177299999999, 42.008981999999996], [-72.76255499999999, 42.00860000000001], [-72.765238, 42.008326000000004], [-72.76613900000001, 42.00787299999998], [-72.766738, 42.002995], [-72.816741, 41.997595], [-72.813541, 42.036494000000005], [-72.84714199999999, 42.036894000000004], [-72.86184899999999, 42.037694], [-72.87477, 42.037651999999994], [-72.94005299999999, 42.038181], [-72.944321, 42.03870399999999], [-72.96628199999999, 42.03838], [-72.999549, 42.03865299999998], [-73.030063, 42.03919699999997], [-73.067663, 42.04014700000001], [-73.08705499999999, 42.04087999999997], [-73.148173, 42.04269699999999], [-73.229798, 42.044877], [-73.25546, 42.045795], [-73.293386, 42.046789999999994], [-73.29589299999999, 42.047025999999995], [-73.32674399999999, 42.047931999999996], [-73.42616799999999, 42.05048399999998], [-73.432812, 42.05058699999999], [-73.489524, 42.04960599999999], [-73.49687899999999, 42.04967499999999], [-73.507965, 42.085007000000004], [-73.50814199999999, 42.08625699999999], [-73.499563, 42.10999], [-73.49708799999999, 42.11628299999999], [-73.493119, 42.127666], [-73.48341599999999, 42.154448], [-73.416395, 42.33663500000002]]]]}}