{"type": "Feature", "properties": {"district_name": "1st Congressional District", "chamber": "us-house", "vintage": "2012-2020"}, "geometry": {"type": "Polygon", "coordinates": [[[-73.50814199999999, 42.08625699999999], [-73.499563, 42.10999], [-73.49708799999999, 42.11628299999999], [-73.493119, 42.127666], [-73.48341599999999, 42.154448], [-73.450974, 42.242779000000006], [-73.405626, 42.365933000000005], [-73.375196, 42.447921], [-73.374551, 42.450038000000006], [-73.363312, 42.479923], [-73.362768, 42.481955], [-73.362064, 42.48323500000001], [-73.356894, 42.49836], [-73.356031, 42.500018], [-73.352527, 42.510002], [-73.347303, 42.52415399999999], [-73.343792, 42.533297999999995], [-73.309828, 42.625080999999994], [-73.293887, 42.66745200000001], [-73.264957, 42.74593999999998], [-73.249554, 42.74583], [-73.24522499999999, 42.745509999999996], [-73.142485, 42.743587999999995], [-73.119571, 42.74330699999999], [-73.08988099999999, 42.74241400000002], [-73.07301799999999, 42.742084000000006], [-73.07128, 42.742205999999996], [-73.048041, 42.741481], [-73.01864499999999, 42.74105899999999], [-72.923563, 42.73916399999999], [-72.809113, 42.736581000000015], [-72.721319, 42.734099], [-72.598638, 42.73092399999999], [-72.516774, 42.72853099999999], [-72.49663699999999, 42.67936], [-72.489473, 42.66242499999999], [-72.540215, 42.656369000000005], [-72.540527, 42.656327000000005], [-72.540576, 42.65568699999999], [-72.543829, 42.65529299999998], [-72.54406999999999, 42.65526500000001], [-72.543649, 42.655860000000004], [-72.632942, 42.645362999999996], [-72.649929, 42.576874], [-72.636821, 42.57798499999999], [-72.638879, 42.570018], [-72.651974, 42.56863], [-72.655344, 42.555234999999996], [-72.67545199999999, 42.55301800000001], [-72.67469899999999, 42.552532], [-72.673, 42.55186500000001], [-72.66924399999999, 42.551452999999995], [-72.667366, 42.550427], [-72.66470000000001, 42.54941999999999], [-72.663652, 42.548802999999985], [-72.662249, 42.54671], [-72.661018, 42.544187000000015], [-72.65969799999999, 42.543123999999985], [-72.656279, 42.540979], [-72.65565, 42.540412], [-72.652227, 42.53382400000001], [-72.648708, 42.52935999999996], [-72.660911, 42.480247999999996], [-72.662769, 42.469262000000015], [-72.65623, 42.470014000000006], [-72.65737399999999, 42.466009000000014], [-72.655716, 42.46125100000001], [-72.65732799999999, 42.45837899999999], [-72.700959, 42.452909999999996], [-72.702377, 42.430358000000005], [-72.704345, 42.405536000000005], [-72.66919299999999, 42.40965799999999], [-72.67212599999999, 42.37135299999999], [-72.74121699999999, 42.36272999999999], [-72.736726, 42.284241], [-72.672091, 42.29188699999999], [-72.672169, 42.290962000000015], [-72.672035, 42.290192999999995], [-72.660216, 42.28925399999998], [-72.660488, 42.28862799999999], [-72.656086, 42.289941999999996], [-72.65383299999999, 42.290389999999995], [-72.648652, 42.29176100000001], [-72.646048, 42.290339999999986], [-72.643832, 42.28851900000001], [-72.64207999999999, 42.288174000000005], [-72.640677, 42.284137000000015], [-72.63743699999999, 42.28739], [-72.636196, 42.286113], [-72.634849, 42.28538800000001], [-72.633669, 42.285122], [-72.630232, 42.28492899999999], [-72.629022, 42.28526699999998], [-72.627927, 42.28592299999999], [-72.627382, 42.28649199999999], [-72.624521, 42.28814800000001], [-72.622159, 42.28902599999997], [-72.61823199999999, 42.29018800000001], [-72.614701, 42.29019900000001], [-72.614921, 42.288658000000005], [-72.614449, 42.287506999999984], [-72.613641, 42.286628000000015], [-72.613034, 42.28619], [-72.609202, 42.28547699999999], [-72.602124, 42.288045], [-72.595326, 42.29443100000001], [-72.58796099999999, 42.30035799999998], [-72.577285, 42.302981], [-72.57001199999999, 42.304441999999995], [-72.56902, 42.304522000000006], [-72.564951, 42.30383299999999], [-72.55730799999999, 42.304666000000005], [-72.555674, 42.304680000000005], [-72.544658, 42.305683], [-72.539903, 42.304127], [-72.53515, 42.304252], [-72.531212, 42.303624], [-72.52790999999999, 42.30143700000001], [-72.52467299999999, 42.303155], [-72.521421, 42.302182], [-72.51019099999999, 42.305569], [-72.506737, 42.306374999999996], [-72.504151, 42.30547100000002], [-72.500745, 42.305166], [-72.499117, 42.306263], [-72.49803399999999, 42.30511899999998], [-72.493586, 42.302268], [-72.49060899999999, 42.30363200000001], [-72.487709, 42.30471499999999], [-72.483099, 42.30531800000001], [-72.47924100000002, 42.30701899999999], [-72.464186, 42.308011], [-72.44714499999999, 42.22734], [-72.427229, 42.22929200000001], [-72.403947, 42.231847], [-72.39549199999999, 42.185811999999984], [-72.390304, 42.186254], [-72.35821899999999, 42.18980199999999], [-72.360423, 42.19023699999999], [-72.36131900000001, 42.19298900000001], [-72.361495, 42.193965], [-72.361175, 42.194349], [-72.35925499999999, 42.19409299999999], [-72.358871, 42.19438100000001], [-72.359479, 42.195309], [-72.359943, 42.19639699999998], [-72.36071100000001, 42.196909000000005], [-72.361719, 42.197037], [-72.363079, 42.196909000000005], [-72.363495, 42.19719699999999], [-72.363559, 42.197532999999986], [-72.362775, 42.197917000000004], [-72.36231099999999, 42.19839699999997], [-72.36242299999999, 42.199453000000005], [-72.36312699999999, 42.201629], [-72.36445499999999, 42.20289300000001], [-72.36474299999999, 42.20606000000001], [-72.364583, 42.206748], [-72.36413499999999, 42.20716399999999], [-72.363575, 42.207404000000004], [-72.362871, 42.20746799999998], [-72.362071, 42.20725999999999], [-72.361783, 42.20693999999998], [-72.36282299999999, 42.206363999999986], [-72.36282299999999, 42.205980000000004], [-72.36170299999999, 42.20564499999999], [-72.360935, 42.20521299999999], [-72.360519, 42.20521299999999], [-72.359831, 42.205484999999996], [-72.359127, 42.206076], [-72.357079, 42.20866799999998], [-72.355943, 42.20902000000001], [-72.354775, 42.208732000000005], [-72.35386199999999, 42.207291999999995], [-72.35347800000001, 42.206956], [-72.352374, 42.20690799999998], [-72.35135, 42.20732400000001], [-72.34957399999999, 42.20900399999999], [-72.349238, 42.209915999999986], [-72.348118, 42.210075999999994], [-72.34711, 42.21002799999999], [-72.34631, 42.210652], [-72.345574, 42.211772], [-72.34541399999999, 42.212635999999996], [-72.345942, 42.214844], [-72.345974, 42.21583600000001], [-72.34567, 42.21631599999999], [-72.343558, 42.21798], [-72.34237399999999, 42.218604], [-72.340134, 42.219036], [-72.337094, 42.219036], [-72.336086, 42.219547999999996], [-72.335649, 42.220240000000004], [-72.33387499999999, 42.22071899999999], [-72.333539, 42.21995], [-72.333257, 42.218462], [-72.332156, 42.217242999999996], [-72.331909, 42.21559600000002], [-72.335526, 42.212917], [-72.334642, 42.209551], [-72.334045, 42.20862], [-72.335792, 42.20821000000001], [-72.33664399999999, 42.208169], [-72.333709, 42.207212000000006], [-72.326269, 42.203934000000004], [-72.324883, 42.203821999999995], [-72.32377, 42.20397699999998], [-72.322599, 42.20443200000001], [-72.321635, 42.205161], [-72.319267, 42.204843], [-72.317099, 42.20822299999999], [-72.316733, 42.212390000000006], [-72.31363999999999, 42.21252199999999], [-72.31334799999999, 42.212966], [-72.313147, 42.21241], [-72.313193, 42.21176699999998], [-72.314332, 42.21018199999998], [-72.314464, 42.20979199999999], [-72.314286, 42.209549], [-72.31345, 42.20927799999999], [-72.312023, 42.209721], [-72.30899699999999, 42.210267], [-72.305926, 42.21049299999999], [-72.302188, 42.21126000000001], [-72.301839, 42.212516999999984], [-72.30031500000001, 42.214465], [-72.299978, 42.21511], [-72.29963599999999, 42.21679400000001], [-72.299531, 42.219424], [-72.298216, 42.223866], [-72.296334, 42.226155], [-72.294026, 42.227553999999984], [-72.29330999999999, 42.228264], [-72.292929, 42.22883], [-72.292486, 42.230785000000004], [-72.291567, 42.232220999999996], [-72.281295, 42.235019999999984], [-72.27767, 42.233103], [-72.273772, 42.235847], [-72.271396, 42.23612399999999], [-72.27045199999999, 42.236812], [-72.268211, 42.22931800000001], [-72.257614, 42.229873999999995], [-72.247013, 42.242094], [-72.221218, 42.245252000000015], [-72.218068, 42.248605], [-72.214821, 42.24904099999999], [-72.214584, 42.24757100000001], [-72.21046, 42.24720499999999], [-72.211079, 42.251262], [-72.182506, 42.25138700000002], [-72.182161, 42.247971], [-72.18112599999999, 42.24607400000001], [-72.179912, 42.246255999999995], [-72.17963999999999, 42.245657000000016], [-72.178839, 42.24277399999999], [-72.17822699999999, 42.239414000000004], [-72.177388, 42.237233999999994], [-72.17693100000001, 42.23698599999999], [-72.17506800000001, 42.236607000000014], [-72.173383, 42.235239000000014], [-72.171054, 42.234266], [-72.167371, 42.228249000000005], [-72.153807, 42.207052999999995], [-72.147261, 42.18139600000001], [-72.139642, 42.179534], [-72.142257, 42.197452], [-72.129843, 42.22123699999998], [-72.123988, 42.215854], [-72.121909, 42.214658], [-72.119873, 42.213944000000005], [-72.118793, 42.23094600000001], [-72.112742, 42.233199], [-72.111267, 42.238594000000006], [-72.099244, 42.23076500000001], [-72.078574, 42.23106200000001], [-72.075375, 42.232036], [-72.073692, 42.232253], [-72.070144, 42.23126900000001], [-72.045498, 42.230017000000004], [-72.038558, 42.244455999999985], [-72.030322, 42.245206], [-72.019886, 42.18376199999999], [-71.939356, 42.189237999999996], [-71.916979, 42.190908], [-71.899489, 42.10411399999998], [-71.911895, 42.101317], [-71.909235, 42.091260999999996], [-71.895113, 42.094247999999986], [-71.891139, 42.072731999999995], [-71.881509, 42.075893000000015], [-71.879083, 42.06817600000001], [-71.878978, 42.06775800000002], [-71.879098, 42.06695], [-71.878827, 42.066158], [-71.879609, 42.06389499999999], [-71.880217, 42.063467], [-71.880611, 42.063444000000004], [-71.882001, 42.062722999999984], [-71.882296, 42.06218500000001], [-71.88179699999999, 42.060041], [-71.882443, 42.059289], [-71.882477, 42.05867500000001], [-71.882145, 42.05840999999998], [-71.88165, 42.058479], [-71.88051, 42.05805600000001], [-71.880144, 42.05750299999999], [-71.880478, 42.056293999999994], [-71.880719, 42.056035999999985], [-71.88026099999999, 42.053924], [-71.880813, 42.052354999999984], [-71.880667, 42.0516], [-71.881219, 42.051103], [-71.882972, 42.05100700000001], [-71.883986, 42.05060700000001], [-71.886699, 42.050908], [-71.887174, 42.050720999999996], [-71.88756699999999, 42.05033799999999], [-71.8875, 42.046952999999995], [-71.887298, 42.046645999999996], [-71.886653, 42.04629799999999], [-71.88642, 42.04586800000002], [-71.88715599999999, 42.044759], [-71.88713299999999, 42.044348000000014], [-71.887434, 42.043716999999994], [-71.887385, 42.04282299999999], [-71.887636, 42.04177], [-71.888173, 42.040154000000015], [-71.888899, 42.038925000000006], [-71.889477, 42.036006999999984], [-71.88885599999999, 42.033952], [-71.888116, 42.032771999999994], [-71.887675, 42.032408999999994], [-71.887677, 42.031942], [-71.887976, 42.031463], [-71.887957, 42.031205], [-71.88751599999999, 42.030415], [-71.887002, 42.03007100000001], [-71.88690799999999, 42.02954999999999], [-71.886985, 42.02904800000001], [-71.88734699999999, 42.028815], [-71.88723399999999, 42.02824899999999], [-71.885628, 42.025642], [-71.885088, 42.025014], [-71.884512, 42.02491999999999], [-71.88330599999999, 42.024308999999995], [-71.89077999999999, 42.024367999999996], [-71.936925, 42.02550399999999], [-71.98768, 42.02688399999999], [-72.023744, 42.027002], [-72.042479, 42.027369], [-72.063496, 42.027347], [-72.07342600000001, 42.02756199999998], [-72.118567, 42.029622999999994], [-72.126127, 42.029810000000005], [-72.144798, 42.03062099999999], [-72.148664, 42.030530000000006], [-72.241292, 42.03137400000001], [-72.248813, 42.031450000000014], [-72.249523, 42.03162599999999], [-72.299638, 42.031791], [-72.338926, 42.032116], [-72.34840799999999, 42.03240599999999], [-72.43786399999999, 42.033598999999995], [-72.458185, 42.03406300000002], [-72.479856, 42.03389800000001], [-72.509192, 42.03414099999999], [-72.51733, 42.034395], [-72.52814599999999, 42.034293999999996], [-72.55323, 42.03219499999999], [-72.573235, 42.03013999999998], [-72.582332, 42.02469500000001], [-72.590232, 42.02469500000001], [-72.598333, 42.02499499999999], [-72.606933, 42.02499499999999], [-72.607933, 42.030795], [-72.610833, 42.03099499999998], [-72.618134, 42.03109500000001], [-72.64165, 42.032295999999995], [-72.678434, 42.035594999999994], [-72.696388, 42.036801000000004], [-72.714137, 42.03689499999999], [-72.714337, 42.03659499999999], [-72.715637, 42.03649499999999], [-72.718937, 42.03659499999999], [-72.75134, 42.036195], [-72.75393799999999, 42.036295], [-72.755994, 42.036185999999994], [-72.756008, 42.035116000000016], [-72.75679099999999, 42.03417900000001], [-72.757175, 42.03334499999999], [-72.75511999999999, 42.032732], [-72.75370199999999, 42.032062999999994], [-72.75204, 42.03064400000001], [-72.75176499999999, 42.029792], [-72.75253300000001, 42.02824300000002], [-72.753776, 42.02720300000001], [-72.75452899999999, 42.025717], [-72.755703, 42.02478600000001], [-72.755965, 42.023958999999984], [-72.75663999999999, 42.022877], [-72.75638800000002, 42.022076999999996], [-72.756871, 42.021305], [-72.757694, 42.02090600000001], [-72.758727, 42.02087700000001], [-72.75910999999999, 42.021077999999996], [-72.759202, 42.02168400000001], [-72.759585, 42.02225500000001], [-72.76098000000002, 42.022753000000016], [-72.761555, 42.022594], [-72.762337, 42.02187900000003], [-72.763542, 42.021148000000004], [-72.76366399999999, 42.021159999999995], [-72.76393999999999, 42.021937000000015], [-72.765036, 42.022452], [-72.76522, 42.022281], [-72.765159, 42.021829], [-72.764622, 42.02167999999999], [-72.76444599999999, 42.021371], [-72.764608, 42.02070799999999], [-72.765275, 42.020400000000016], [-72.765569, 42.01989999999999], [-72.76553799999999, 42.01964700000001], [-72.76529099999999, 42.01961000000001], [-72.764439, 42.02005100000002], [-72.762807, 42.01974200000001], [-72.762309, 42.018117999999994], [-72.761933, 42.01770599999999], [-72.760998, 42.017294], [-72.76009499999999, 42.01748800000001], [-72.75988, 42.01739099999999], [-72.75971899999999, 42.017029999999984], [-72.75985899999999, 42.01656799999999], [-72.76079399999999, 42.01541899999999], [-72.760978, 42.014813000000004], [-72.76155399999999, 42.014281], [-72.762689, 42.013693], [-72.76321899999999, 42.01271599999999], [-72.76307299999999, 42.01207600000001], [-72.76241499999999, 42.011343], [-72.76194799999999, 42.010217], [-72.761366, 42.00988000000001], [-72.761473, 42.00930800000001], [-72.76177299999999, 42.008981999999996], [-72.76255499999999, 42.00860000000001], [-72.765238, 42.008326000000004], [-72.76613900000001, 42.00787299999998], [-72.766738, 42.002995], [-72.816741, 41.997595], [-72.813541, 42.036494000000005], [-72.84714199999999, 42.036894000000004], [-72.86184899999999, 42.037694], [-72.87477, 42.037651999999994], [-72.94005299999999, 42.038181], [-72.944321, 42.03870399999999], [-72.96628199999999, 42.03838], [-72.999549, 42.03865299999998], [-73.030063, 42.03919699999997], [-73.067663, 42.04014700000001], [-73.08705499999999, 42.04087999999997], [-73.148173, 42.04269699999999], [-73.229798, 42.044877], [-73.25546, 42.045795], [-73.293386, 42.046789999999994], [-73.29589299999999, 42.047025999999995], [-73.32674399999999, 42.047931999999996], [-73.42616799999999, 42.05048399999998], [-73.432812, 42.05058699999999], [-73.489524, 42.04960599999999], [-73.49687899999999, 42.04967499999999], [-73.507965, 42.085007000000004], [-73.50814199999999, 42.08625699999999]]]}}