{"type": "Feature", "properties": {"district_name": "2nd Congressional District", "chamber": "us-house", "vintage": "2001-2010"}, "geometry": {"type": "Polygon", "coordinates": [[[-71.89077999999999, 42.024367999999996], [-71.98768, 42.02688399999999], [-72.023744, 42.027002], [-72.042479, 42.027369], [-72.063496, 42.027347], [-72.07342600000001, 42.02756199999998], [-72.118567, 42.029622999999994], [-72.126127, 42.029810000000005], [-72.144798, 42.03062099999999], [-72.148664, 42.030530000000006], [-72.241292, 42.03137400000001], [-72.248813, 42.031450000000014], [-72.249523, 42.03162599999999], [-72.299638, 42.031791], [-72.338926, 42.032116], [-72.34840799999999, 42.03240599999999], [-72.43786399999999, 42.033598999999995], [-72.458185, 42.03406300000002], [-72.479856, 42.03389800000001], [-72.509192, 42.03414099999999], [-72.51733, 42.034395], [-72.52814599999999, 42.034293999999996], [-72.55323, 42.03219499999999], [-72.573235, 42.03013999999998], [-72.582332, 42.02469500000001], [-72.590232, 42.02469500000001], [-72.598333, 42.02499499999999], [-72.606933, 42.02499499999999], [-72.607933, 42.030795], [-72.610833, 42.03099499999998], [-72.618134, 42.03109500000001], [-72.64165, 42.032295999999995], [-72.678434, 42.035594999999994], [-72.696388, 42.036801000000004], [-72.714137, 42.03689499999999], [-72.714246, 42.03734899999999], [-72.71311899999999, 42.038908], [-72.712854, 42.039525000000005], [-72.712535, 42.042488000000006], [-72.712619, 42.043941000000004], [-72.711596, 42.048126999999994], [-72.71097499999999, 42.049806000000004], [-72.709555, 42.052075], [-72.707774, 42.060905999999996], [-72.708078, 42.06448399999999], [-72.706144, 42.073516], [-72.70672499999999, 42.073835], [-72.706004, 42.080674], [-72.705536, 42.08059400000001], [-72.701098, 42.091541000000014], [-72.701664, 42.091546], [-72.699428, 42.095657], [-72.69630699999999, 42.102349999999994], [-72.69568199999999, 42.10312], [-72.695461, 42.104741999999995], [-72.695021, 42.10557], [-72.694375, 42.10553199999999], [-72.689667, 42.106365], [-72.688142, 42.106336], [-72.686042, 42.10696699999999], [-72.683758, 42.10734600000001], [-72.682959, 42.107042], [-72.681635, 42.101201], [-72.68117699999999, 42.100809000000005], [-72.676385, 42.10048999999999], [-72.675193, 42.097875], [-72.673782, 42.09636500000002], [-72.672716, 42.094762], [-72.670284, 42.093334999999996], [-72.668016, 42.09123], [-72.666527, 42.087408999999994], [-72.663833, 42.08509500000002], [-72.662035, 42.08429400000001], [-72.660635, 42.08589399999999], [-72.66089199999999, 42.08959199999999], [-72.660477, 42.090876999999985], [-72.66043499999999, 42.092194000000006], [-72.658335, 42.09549399999999], [-72.656933, 42.09663000000001], [-72.654766, 42.0973], [-72.651735, 42.097693], [-72.645952, 42.099386999999986], [-72.641239, 42.09930000000002], [-72.638235, 42.09889300000001], [-72.637259, 42.099062], [-72.635393, 42.09985199999999], [-72.633132, 42.10039], [-72.63112799999999, 42.099889999999995], [-72.62962399999999, 42.09748899999999], [-72.63062, 42.09548699999999], [-72.630819, 42.094587000000004], [-72.629813, 42.092085999999995], [-72.626808, 42.089884], [-72.62029, 42.087684999999986], [-72.613494, 42.087547], [-72.610068, 42.08856100000001], [-72.607017, 42.08812099999999], [-72.604545, 42.08733399999999], [-72.601686, 42.086101], [-72.601081, 42.085996], [-72.60043399999999, 42.086439], [-72.600374, 42.08732499999998], [-72.600511, 42.087799], [-72.60033299999999, 42.088794], [-72.598533, 42.089893999999994], [-72.59873300000001, 42.09029399999999], [-72.599633, 42.090194], [-72.59863299999999, 42.092893999999994], [-72.595533, 42.09349399999999], [-72.592612, 42.092588], [-72.59050500000001, 42.092220000000005], [-72.588633, 42.092893999999994], [-72.591433, 42.095794000000005], [-72.595202, 42.098894], [-72.599432, 42.101425000000006], [-72.60393300000001, 42.10339400000001], [-72.614113, 42.10877000000001], [-72.615883, 42.110833], [-72.621534, 42.11839299999999], [-72.62133399999999, 42.123393000000014], [-72.615841, 42.133791], [-72.615566, 42.13573399999999], [-72.615634, 42.13859299999999], [-72.618634, 42.143793], [-72.62393399999999, 42.14804200000001], [-72.626024, 42.14996799999999], [-72.62703599999999, 42.15133499999999], [-72.62785199999999, 42.15463299999999], [-72.627634, 42.161992], [-72.628534, 42.16829200000001], [-72.626834, 42.178992], [-72.622434, 42.185392], [-72.609696, 42.18984800000001], [-72.60575299999999, 42.19172499999997], [-72.60133100000002, 42.195095], [-72.594771, 42.19878299999999], [-72.592216, 42.200677000000006], [-72.591335, 42.20155599999998], [-72.590533, 42.20309000000002], [-72.59023499999999, 42.204129], [-72.590216, 42.20507799999999], [-72.590533, 42.20709199999998], [-72.59090499999999, 42.20768299999998], [-72.59138999999999, 42.20911399999999], [-72.591781, 42.209829], [-72.59343299999999, 42.211691], [-72.596633, 42.21189100000001], [-72.60073299999999, 42.212790999999974], [-72.602233, 42.213291000000005], [-72.607933, 42.216291000000005], [-72.61023399999999, 42.218491000000014], [-72.612934, 42.22499100000001], [-72.62093399999999, 42.22929100000001], [-72.62393399999999, 42.233691], [-72.620189, 42.243576], [-72.61802999999999, 42.24807500000001], [-72.607918, 42.26017], [-72.600133, 42.26538999999999], [-72.598933, 42.26809], [-72.60133300000001, 42.281290000000006], [-72.605633, 42.28479000000001], [-72.613034, 42.28619], [-72.615534, 42.290189999999996], [-72.61823199999999, 42.29018800000001], [-72.622186, 42.288907], [-72.622799, 42.288092], [-72.623807, 42.287724999999995], [-72.62523999999999, 42.287977], [-72.62768299999999, 42.286545], [-72.62795299999999, 42.28622399999999], [-72.62952899999999, 42.28520599999999], [-72.634849, 42.28538800000001], [-72.63743699999999, 42.28739], [-72.640537, 42.284187], [-72.64207999999999, 42.288174000000005], [-72.643832, 42.28851900000001], [-72.646048, 42.290339999999986], [-72.648652, 42.29176100000001], [-72.65383299999999, 42.290389999999995], [-72.656086, 42.289941999999996], [-72.660237, 42.288689999999995], [-72.660136, 42.28929], [-72.672141, 42.29030199999998], [-72.6722, 42.29168399999999], [-72.684314, 42.29048], [-72.694469, 42.28903499999999], [-72.734663, 42.284285], [-72.73662999999999, 42.283829], [-72.736772, 42.288709999999995], [-72.737689, 42.300288000000016], [-72.739355, 42.33444399999999], [-72.740163, 42.34790800000001], [-72.741259, 42.36033599999999], [-72.741264, 42.36256799999998], [-72.703535, 42.367188000000006], [-72.647725, 42.374579000000004], [-72.640511, 42.37535200000001], [-72.640286, 42.375087], [-72.63793299999999, 42.36688599999999], [-72.636495, 42.36056299999999], [-72.63503399999999, 42.355889000000005], [-72.636156, 42.35566000000001], [-72.634843, 42.35315100000001], [-72.6344, 42.35258099999999], [-72.634254, 42.351113000000005], [-72.63104799999999, 42.351474999999986], [-72.62668599999999, 42.35168900000001], [-72.621278, 42.350744999999996], [-72.616589, 42.35026500000001], [-72.611581, 42.34984899999999], [-72.602093, 42.349433], [-72.599661, 42.349593000000006], [-72.598349, 42.34984899999999], [-72.59300499999999, 42.35120899999999], [-72.590701, 42.352752], [-72.589175, 42.354397999999996], [-72.58802899999999, 42.356553000000005], [-72.58746900000001, 42.359593], [-72.587453, 42.36117199999999], [-72.588285, 42.364433999999996], [-72.58913299999999, 42.365801], [-72.591053, 42.369832999999986], [-72.591917, 42.372313], [-72.592029, 42.373464999999996], [-72.591974, 42.375088999999996], [-72.59041100000002, 42.380319], [-72.587453, 42.38750799999998], [-72.586389, 42.38889999999999], [-72.586185, 42.38961499999999], [-72.586598, 42.39064199999999], [-72.587266, 42.39168199999999], [-72.59034199999999, 42.395954999999994], [-72.590244, 42.39698700000002], [-72.589548, 42.398004], [-72.587994, 42.39905400000001], [-72.58626799999999, 42.39910500000001], [-72.584479, 42.398925000000006], [-72.580591, 42.39727800000001], [-72.578879, 42.39749800000001], [-72.57724999999999, 42.39829500000001], [-72.57598899999999, 42.399398999999995], [-72.575319, 42.40081], [-72.574833, 42.403811], [-72.574825, 42.406012], [-72.575222, 42.408242], [-72.57650799999999, 42.411604], [-72.577314, 42.412845999999995], [-72.578334, 42.41526999999999], [-72.579261, 42.41831199999998], [-72.581106, 42.422504], [-72.544062, 42.42710000000001], [-72.546787, 42.39996800000001], [-72.53596999999999, 42.401368000000005], [-72.53146699999999, 42.40160100000001], [-72.532055, 42.395765999999995], [-72.532253, 42.395491], [-72.532584, 42.389683000000005], [-72.535304, 42.366834], [-72.535451, 42.366845], [-72.535636, 42.36546599999998], [-72.53643799999999, 42.365085000000015], [-72.53646599999999, 42.36487900000001], [-72.536924, 42.35997699999999], [-72.535916, 42.359960999999984], [-72.540819, 42.319595], [-72.537928, 42.320122999999995], [-72.534956, 42.30408899999999], [-72.531228, 42.30355999999998], [-72.52790999999999, 42.301607999999995], [-72.527919, 42.299881000000006], [-72.531252, 42.29795800000001], [-72.53209799999999, 42.297869], [-72.53320699999999, 42.29740799999999], [-72.535052, 42.295418999999995], [-72.536524, 42.29466699999999], [-72.53812400000001, 42.29423399999999], [-72.53854, 42.293722999999986], [-72.539788, 42.292763], [-72.540156, 42.29156300000001], [-72.53991599999999, 42.289754999999985], [-72.54046, 42.288667000000004], [-72.5407, 42.287147000000004], [-72.54114899999999, 42.286576999999994], [-72.543306, 42.28580500000001], [-72.546987, 42.285073000000004], [-72.558542, 42.280438000000004], [-72.555365, 42.24617099999998], [-72.549346, 42.22614900000001], [-72.54969799999999, 42.224847999999994], [-72.54959, 42.22350399999999], [-72.548807, 42.22191299999999], [-72.548406, 42.220454], [-72.54767, 42.22074500000001], [-72.546356, 42.216489], [-72.48062999999999, 42.22349200000001], [-72.47843, 42.223592000000025], [-72.46443, 42.225392000000014], [-72.44714499999999, 42.22734], [-72.427229, 42.22929200000001], [-72.418888, 42.230427999999996], [-72.403947, 42.231847], [-72.39549199999999, 42.185811999999984], [-72.390304, 42.186254], [-72.35821899999999, 42.18980199999999], [-72.360423, 42.19023699999999], [-72.36131900000001, 42.19298900000001], [-72.361495, 42.193965], [-72.361175, 42.194349], [-72.35925499999999, 42.19409299999999], [-72.358871, 42.19438100000001], [-72.359479, 42.195309], [-72.359943, 42.19639699999998], [-72.36071100000001, 42.196909000000005], [-72.361719, 42.197037], [-72.363079, 42.196909000000005], [-72.363495, 42.19719699999999], [-72.363559, 42.197532999999986], [-72.362775, 42.197917000000004], [-72.36231099999999, 42.19839699999997], [-72.36242299999999, 42.199453000000005], [-72.36312699999999, 42.201629], [-72.36445499999999, 42.20289300000001], [-72.36474299999999, 42.20606000000001], [-72.364583, 42.206748], [-72.36413499999999, 42.20716399999999], [-72.363575, 42.207404000000004], [-72.362871, 42.20746799999998], [-72.362071, 42.20725999999999], [-72.361783, 42.20693999999998], [-72.36282299999999, 42.206363999999986], [-72.36282299999999, 42.205980000000004], [-72.36170299999999, 42.20564499999999], [-72.360935, 42.20521299999999], [-72.360519, 42.20521299999999], [-72.359831, 42.205484999999996], [-72.359127, 42.206076], [-72.357079, 42.20866799999998], [-72.355943, 42.20902000000001], [-72.354775, 42.208732000000005], [-72.35386199999999, 42.207291999999995], [-72.35347800000001, 42.206956], [-72.352374, 42.20690799999998], [-72.35135, 42.20732400000001], [-72.34957399999999, 42.20900399999999], [-72.349238, 42.209915999999986], [-72.348118, 42.210075999999994], [-72.34711, 42.21002799999999], [-72.34631, 42.210652], [-72.345574, 42.211772], [-72.34541399999999, 42.212635999999996], [-72.345942, 42.214844], [-72.345974, 42.21583600000001], [-72.34567, 42.21631599999999], [-72.343558, 42.21798], [-72.34237399999999, 42.218604], [-72.340134, 42.219036], [-72.338326, 42.21893999999998], [-72.336854, 42.21910000000002], [-72.336086, 42.219547999999996], [-72.335638, 42.220155999999996], [-72.335056, 42.22039799999998], [-72.281295, 42.235019999999984], [-72.27767, 42.233103], [-72.273772, 42.235847], [-72.271396, 42.23612399999999], [-72.27045199999999, 42.236812], [-72.268196, 42.22924399999999], [-72.257476, 42.229852], [-72.247013, 42.242094], [-72.221296, 42.24518899999999], [-72.218068, 42.248605], [-72.2145, 42.24907399999999], [-72.21439099999999, 42.247556], [-72.21046, 42.24720499999999], [-72.210695, 42.248748], [-72.211095, 42.250091999999974], [-72.211167, 42.251123], [-72.182814, 42.251275], [-72.18234400000001, 42.251253000000005], [-72.182002, 42.24779099999999], [-72.181788, 42.24757100000001], [-72.181184, 42.246051], [-72.179912, 42.246255999999995], [-72.17963999999999, 42.245657000000016], [-72.178839, 42.24277399999999], [-72.17822699999999, 42.239414000000004], [-72.177388, 42.237233999999994], [-72.17693100000001, 42.23698599999999], [-72.17506800000001, 42.236607000000014], [-72.173383, 42.235239000000014], [-72.171054, 42.234266], [-72.170808, 42.233101000000005], [-72.169979, 42.232369999999996], [-72.153807, 42.207052999999995], [-72.147261, 42.18139600000001], [-72.139642, 42.179534], [-72.142257, 42.197452], [-72.129826, 42.22087000000002], [-72.127691, 42.219213], [-72.123674, 42.21563], [-72.121909, 42.214658], [-72.119767, 42.21381499999999], [-72.119038, 42.21849999999999], [-72.11868799999999, 42.230985999999994], [-72.112742, 42.233199], [-72.111283, 42.238538999999996], [-72.115488, 42.241405], [-72.11722700000001, 42.24294599999998], [-72.113475, 42.252375], [-72.119289, 42.257793000000014], [-72.124521, 42.263964], [-72.12100699999999, 42.271739999999994], [-72.117649, 42.278609], [-72.123602, 42.27961599999999], [-72.135066, 42.28076499999998], [-72.12929799999999, 42.290421], [-72.124522, 42.295276000000015], [-72.118293, 42.302045], [-72.041777, 42.30820499999998], [-72.007143, 42.309092], [-72.00049, 42.315727], [-71.998933, 42.309915000000004], [-71.996708, 42.30983499999999], [-71.994298, 42.310047999999995], [-71.967231, 42.310683], [-71.96406, 42.297183], [-71.96067, 42.281563], [-71.95577399999999, 42.281669999999984], [-71.942646, 42.28240799999999], [-71.94093, 42.28220000000001], [-71.908647, 42.283499], [-71.90819499999999, 42.283622000000015], [-71.889742, 42.28432900000001], [-71.88942999999999, 42.2845], [-71.886152, 42.28105200000002], [-71.884691, 42.28305100000001], [-71.884677, 42.28163199999998], [-71.884101, 42.28136099999999], [-71.883941, 42.28144300000001], [-71.88404899999999, 42.281266], [-71.882638, 42.278040000000004], [-71.875317, 42.26399199999998], [-71.866633, 42.246685], [-71.866505, 42.24666], [-71.864549, 42.242503], [-71.86325699999999, 42.240269999999995], [-71.858819, 42.23092], [-71.856543, 42.226648], [-71.858547, 42.22735900000001], [-71.861594, 42.227284], [-71.86200199999999, 42.22598300000003], [-71.863956, 42.226391], [-71.866236, 42.226007999999986], [-71.86930199999999, 42.22291799999998], [-71.869593, 42.22211999999999], [-71.879836, 42.21049299999999], [-71.893582, 42.19236600000001], [-71.893211, 42.190796999999996], [-71.895017, 42.19229300000001], [-71.89041499999999, 42.18719000000001], [-71.890025, 42.18649800000001], [-71.887644, 42.183757], [-71.878909, 42.175359], [-71.87872899999999, 42.17349499999998], [-71.875646, 42.170241999999995], [-71.868079, 42.165987], [-71.864395, 42.164783], [-71.857778, 42.16087599999998], [-71.84934799999999, 42.160721], [-71.842236, 42.16019499999999], [-71.837644, 42.160132999999995], [-71.83491599999999, 42.159891999999985], [-71.83138, 42.163564999999984], [-71.825392, 42.17169200000001], [-71.817285, 42.181737999999996], [-71.81009499999999, 42.191312], [-71.804322, 42.198535], [-71.798587, 42.20604699999999], [-71.798084, 42.206458000000005], [-71.798238, 42.20666800000002], [-71.79678299999999, 42.208091], [-71.79663099999999, 42.209127], [-71.796832, 42.20969100000001], [-71.79473899999999, 42.210719000000005], [-71.793216, 42.211062000000005], [-71.78549, 42.21451000000001], [-71.779814, 42.217466], [-71.774751, 42.219365], [-71.761509, 42.2252], [-71.74530899999999, 42.232710999999995], [-71.742541, 42.23391], [-71.73424, 42.236858000000005], [-71.732967, 42.238314], [-71.73155899999999, 42.24131000000001], [-71.72895500000001, 42.24164300000002], [-71.724516, 42.24306099999997], [-71.723715, 42.242742000000014], [-71.72267699999999, 42.243348000000005], [-71.722585, 42.24357099999998], [-71.72236099999999, 42.243449999999996], [-71.712276, 42.245178], [-71.710896, 42.24504100000001], [-71.710141, 42.245203], [-71.70574599999999, 42.247907000000005], [-71.684781, 42.25111000000001], [-71.676712, 42.25189400000001], [-71.674621, 42.24823], [-71.67133799999999, 42.24432600000001], [-71.662612, 42.245894], [-71.651066, 42.247406000000005], [-71.64910800000001, 42.245325], [-71.645061, 42.22773399999999], [-71.644403, 42.22646299999998], [-71.621066, 42.23059500000001], [-71.599518, 42.225437], [-71.602221, 42.218101], [-71.589216, 42.202906000000006], [-71.589422, 42.201913000000005], [-71.58359899999999, 42.195175000000006], [-71.580572, 42.19485], [-71.578225, 42.19520200000001], [-71.57154799999999, 42.19465299999999], [-71.572129, 42.19349], [-71.57233800000002, 42.192228000000014], [-71.556204, 42.191857000000006], [-71.556029, 42.191438999999995], [-71.556029, 42.190447999999996], [-71.555752, 42.190018], [-71.55582900000002, 42.18898500000001], [-71.55618199999999, 42.18871599999999], [-71.556067, 42.188497999999996], [-71.556167, 42.188329], [-71.556544, 42.18810400000001], [-71.556136, 42.187892999999995], [-71.556382, 42.187252], [-71.55635099999999, 42.186816000000015], [-71.556698, 42.18651600000001], [-71.556951, 42.185938000000014], [-71.55578299999999, 42.185748000000004], [-71.555475, 42.18543599999999], [-71.55561399999999, 42.184968999999995], [-71.555414, 42.184852], [-71.55512999999999, 42.184961], [-71.555522, 42.183453000000014], [-71.555898, 42.18280999999999], [-71.555491, 42.182381999999976], [-71.555798, 42.182159], [-71.5423, 42.18805300000001], [-71.542154, 42.188552], [-71.539498, 42.189733999999994], [-71.51538, 42.18913799999999], [-71.515119, 42.18900199999998], [-71.506674, 42.18877600000001], [-71.50500699999999, 42.189786999999995], [-71.504761, 42.190170999999985], [-71.50262599999999, 42.191416], [-71.497378, 42.166643000000015], [-71.492429, 42.16608600000001], [-71.477743, 42.16573399999999], [-71.477994, 42.14338400000001], [-71.477855, 42.135698000000005], [-71.477963, 42.13186400000001], [-71.457745, 42.134499999999996], [-71.44803999999999, 42.13551999999999], [-71.44698, 42.135459999999995], [-71.443013, 42.13587000000001], [-71.44111699999999, 42.134994], [-71.44242, 42.13458300000001], [-71.44275999999999, 42.134085000000006], [-71.44203399999999, 42.133525], [-71.442252, 42.133136], [-71.44206799999999, 42.132747], [-71.442314, 42.132216000000014], [-71.441761, 42.13188199999998], [-71.442315, 42.13167399999999], [-71.44236200000002, 42.13140100000002], [-71.442739, 42.12655999999999], [-71.44341899999999, 42.12225100000002], [-71.443493, 42.11785800000001], [-71.446258, 42.10291300000001], [-71.447227, 42.098617999999995], [-71.44912599999999, 42.093093], [-71.451649, 42.084201], [-71.453176, 42.074462000000004], [-71.453553, 42.073573], [-71.453459, 42.074186], [-71.454844, 42.074383999999995], [-71.455518, 42.06458500000001], [-71.45496399999999, 42.064575], [-71.45483, 42.060970000000005], [-71.45452, 42.06069900000001], [-71.454223, 42.047587], [-71.456923, 42.02494800000001], [-71.45810399999999, 42.017797999999985], [-71.499908, 42.01719899999999], [-71.50645899999999, 42.016683], [-71.51690599999999, 42.015598], [-71.52760599999999, 42.01499800000001], [-71.547707, 42.014697999999996], [-71.577344, 42.013922], [-71.58281, 42.013996999999996], [-71.58550799999999, 42.013798], [-71.614516, 42.013183000000005], [-71.67614999999999, 42.011538000000016], [-71.710968, 42.010960999999995], [-71.71370399999999, 42.01078500000001], [-71.740938, 42.010177], [-71.76601, 42.009744999999995], [-71.790218, 42.008736999999996], [-71.79924199999999, 42.008064999999995], [-71.799898, 42.015505], [-71.80028, 42.02197300000002], [-71.80064899999999, 42.023568999999995], [-71.86598, 42.02411299999999], [-71.87297199999999, 42.02435299999999], [-71.87443900000001, 42.02423499999999], [-71.89077999999999, 42.024367999999996]], [[-72.547386, 42.21797199999999], [-72.547397, 42.218388], [-72.547594, 42.218477], [-72.547386, 42.21797199999999]]]}}