{"type": "Feature", "properties": {"district_name": "2nd Congressional District", "chamber": "us-house", "vintage": "2012-2020"}, "geometry": {"type": "Polygon", "coordinates": [[[-72.74121699999999, 42.36272999999999], [-72.67212599999999, 42.37135299999999], [-72.66919299999999, 42.40965799999999], [-72.704345, 42.405536000000005], [-72.702377, 42.430358000000005], [-72.700959, 42.452909999999996], [-72.65732799999999, 42.45837899999999], [-72.655716, 42.46125100000001], [-72.65737399999999, 42.466009000000014], [-72.65623, 42.470014000000006], [-72.662769, 42.469262000000015], [-72.660911, 42.480247999999996], [-72.648708, 42.52935999999996], [-72.652227, 42.53382400000001], [-72.65565, 42.540412], [-72.656279, 42.540979], [-72.65969799999999, 42.543123999999985], [-72.661018, 42.544187000000015], [-72.662249, 42.54671], [-72.663652, 42.548802999999985], [-72.66470000000001, 42.54941999999999], [-72.667366, 42.550427], [-72.66924399999999, 42.551452999999995], [-72.673, 42.55186500000001], [-72.67469899999999, 42.552532], [-72.67545199999999, 42.55301800000001], [-72.655344, 42.555234999999996], [-72.651974, 42.56863], [-72.638879, 42.570018], [-72.636821, 42.57798499999999], [-72.649929, 42.576874], [-72.632942, 42.645362999999996], [-72.543649, 42.655860000000004], [-72.54406999999999, 42.65526500000001], [-72.543829, 42.65529299999998], [-72.540576, 42.65568699999999], [-72.540527, 42.656327000000005], [-72.540215, 42.656369000000005], [-72.489473, 42.66242499999999], [-72.49663699999999, 42.67936], [-72.516774, 42.72853099999999], [-72.437778, 42.726282], [-72.285996, 42.72162599999998], [-72.124526, 42.717637], [-72.08138699999999, 42.71632999999999], [-72.078878, 42.71404], [-72.076922, 42.712941999999984], [-72.07646799999999, 42.71359899999998], [-72.07584, 42.713543], [-72.07560000000001, 42.713410999999994], [-72.075198, 42.71273399999999], [-72.074663, 42.712342], [-72.073694, 42.712236], [-72.07292699999999, 42.711918999999995], [-72.072671, 42.711597999999995], [-72.072183, 42.71147699999999], [-72.072137, 42.71112900000001], [-72.071609, 42.711291], [-72.07112099999999, 42.710922999999994], [-72.070556, 42.71100299999999], [-72.07025399999999, 42.71082500000001], [-72.070129, 42.71019100000002], [-72.070804, 42.709565], [-72.07017499999999, 42.708837], [-72.06941599999999, 42.708672999999976], [-72.068889, 42.70814199999999], [-72.069075, 42.70762], [-72.06875000000001, 42.70744500000001], [-72.067263, 42.70731699999998], [-72.066386, 42.707547], [-72.065634, 42.708629], [-72.06318499999999, 42.70585499999998], [-72.063537, 42.705466000000015], [-72.063312, 42.704004999999995], [-72.062122, 42.70118900000001], [-72.061495, 42.698785000000015], [-72.061223, 42.69649299999998], [-72.06027499999999, 42.693388999999996], [-72.057417, 42.688371], [-72.056805, 42.68691400000001], [-72.056062, 42.687110000000004], [-72.05584, 42.687524], [-72.05581699999999, 42.688226], [-72.052392, 42.688021000000006], [-72.052583, 42.685942000000004], [-72.05458300000001, 42.68603], [-72.056313, 42.68585], [-72.055964, 42.68477600000001], [-72.055846, 42.684571999999996], [-72.05516899999999, 42.684669], [-72.052701, 42.684540999999996], [-72.05280200000001, 42.68351200000001], [-72.051788, 42.68345399999999], [-72.052097, 42.68174100000001], [-72.055127, 42.680677], [-72.05699899999999, 42.67918999999999], [-72.05779100000001, 42.67895199999998], [-72.060614, 42.67861999999999], [-72.061553, 42.67791899999999], [-72.06284699999999, 42.677524999999996], [-72.06393899999999, 42.676662], [-72.064388, 42.676493], [-72.065046, 42.676446999999996], [-72.066463, 42.676722], [-72.067238, 42.67661599999998], [-72.06765, 42.676169], [-72.06734999999999, 42.67570500000001], [-72.067371, 42.675387], [-72.06780599999999, 42.67549599999998], [-72.06804199999999, 42.67536599999998], [-72.073335, 42.671732], [-72.07675499999999, 42.67011699999999], [-72.07827, 42.66889599999999], [-72.078903, 42.668072], [-72.079291, 42.667136], [-72.079358, 42.6662], [-72.078019, 42.65925099999999], [-72.07794799999999, 42.658089999999994], [-72.078109, 42.65683599999999], [-72.0808, 42.64838099999999], [-72.081175, 42.64669200000001], [-72.080958, 42.639639], [-72.080548, 42.63729600000002], [-72.07992399999999, 42.63570000000001], [-72.07449799999999, 42.624247999999994], [-72.03604, 42.593871000000014], [-72.041853, 42.59196499999998], [-72.041939, 42.59177799999998], [-72.042007, 42.590026], [-72.042227, 42.589378999999994], [-72.04123299999999, 42.58836799999999], [-72.039986, 42.587838999999995], [-72.039562, 42.58681099999999], [-72.038974, 42.586591999999996], [-72.038876, 42.586338000000005], [-72.039541, 42.58544400000002], [-72.040312, 42.585350999999996], [-72.040705, 42.585069000000004], [-72.04151399999999, 42.584872999999995], [-72.042283, 42.58396600000001], [-72.042237, 42.58362499999999], [-72.041626, 42.583245], [-72.04151399999999, 42.582894], [-72.042025, 42.582108], [-72.041646, 42.580890000000004], [-72.042183, 42.58030199999999], [-72.042076, 42.57981899999999], [-72.041338, 42.57942999999999], [-72.040385, 42.578581999999976], [-72.039526, 42.57864799999999], [-72.03783, 42.57832399999998], [-72.037595, 42.577871], [-72.038217, 42.57733000000001], [-72.038207, 42.57715700000001], [-72.03799699999999, 42.577070000000006], [-72.03707399999999, 42.57748599999999], [-72.03580099999999, 42.57891499999999], [-72.03558799999999, 42.57995700000001], [-72.03514899999999, 42.58008], [-72.034402, 42.579904], [-72.03282899999999, 42.578765999999995], [-72.031729, 42.57833599999999], [-72.032243, 42.577231999999995], [-72.032933, 42.576799], [-72.033029, 42.57635900000001], [-72.03289699999999, 42.57611199999997], [-72.032377, 42.575881999999986], [-72.031142, 42.575934999999994], [-72.031426, 42.57460599999999], [-72.031311, 42.57421500000001], [-72.030476, 42.573977000000006], [-72.02967000000001, 42.574242000000005], [-72.02862, 42.573999000000015], [-72.027833, 42.57403600000001], [-72.026928, 42.573301], [-72.023687, 42.573664], [-72.023375, 42.573808000000014], [-72.023338, 42.574166000000005], [-72.023123, 42.574386000000004], [-72.020038, 42.57551799999999], [-72.019769, 42.57582000000001], [-72.019539, 42.57664899999998], [-72.018869, 42.57666700000001], [-72.018273, 42.57645999999998], [-72.017191, 42.575371], [-72.01702999999999, 42.574434999999994], [-72.016317, 42.57395900000001], [-72.016243, 42.573695999999984], [-72.01696799999999, 42.572979999999994], [-72.017459, 42.572073999999986], [-72.019526, 42.571029], [-72.019641, 42.57073599999999], [-72.018669, 42.570229999999995], [-72.016926, 42.56989600000001], [-72.015053, 42.567879], [-72.02700999999999, 42.563240999999984], [-71.979721, 42.53238899999999], [-71.909649, 42.484492], [-71.864531, 42.516932999999995], [-71.86104, 42.51637400000001], [-71.856837, 42.51908299999999], [-71.849357, 42.51781600000001], [-71.84737, 42.514704999999985], [-71.844954, 42.51443899999999], [-71.842004, 42.514679000000015], [-71.83712299999999, 42.548551], [-71.832831, 42.54900200000001], [-71.83088, 42.54901800000001], [-71.829067, 42.548641999999994], [-71.82292799999999, 42.546794], [-71.821281, 42.546539], [-71.81924699999999, 42.54659899999999], [-71.81421399999999, 42.54725300000001], [-71.8079, 42.54716399999999], [-71.806546, 42.54747200000001], [-71.80466299999999, 42.548261999999994], [-71.803752, 42.548897], [-71.80012599999999, 42.552110000000006], [-71.798699, 42.552594000000006], [-71.797118, 42.552551000000015], [-71.78936999999999, 42.550931], [-71.786023, 42.551047000000004], [-71.77134199999999, 42.559248], [-71.76917999999999, 42.558142000000004], [-71.764287, 42.55505600000001], [-71.761588, 42.55190399999999], [-71.761951, 42.549808000000006], [-71.760362, 42.54762200000001], [-71.757766, 42.548567999999996], [-71.754166, 42.54605199999999], [-71.749679, 42.54520199999998], [-71.749149, 42.54905000000001], [-71.74986899999999, 42.54975900000001], [-71.74776899999999, 42.549935], [-71.75045, 42.553461999999996], [-71.75409599999999, 42.559456], [-71.755875, 42.56117000000001], [-71.75724699999999, 42.562068], [-71.76295, 42.56392400000001], [-71.74506199999999, 42.573901000000006], [-71.74108300000002, 42.570263000000004], [-71.720349, 42.552195000000005], [-71.711231, 42.535354000000005], [-71.702236, 42.53389499999997], [-71.712384, 42.52132899999999], [-71.71674, 42.518971], [-71.728385, 42.475128000000005], [-71.718699, 42.473373999999986], [-71.718362, 42.410263999999984], [-71.721578, 42.409239000000014], [-71.725984, 42.39023999999998], [-71.70090499999999, 42.395772], [-71.67055100000002, 42.38666500000001], [-71.677794, 42.365154000000025], [-71.634038, 42.35841199999999], [-71.624702, 42.35046500000001], [-71.62582499999999, 42.34972399999999], [-71.62065799999999, 42.345248999999995], [-71.619131, 42.343348999999996], [-71.617978, 42.34234299999999], [-71.617299, 42.341993], [-71.617353, 42.341863], [-71.61645899999999, 42.341591], [-71.61157299999999, 42.339008000000014], [-71.604663, 42.336746000000005], [-71.60409899999999, 42.33676800000001], [-71.603591, 42.33167600000001], [-71.605158, 42.33025899999999], [-71.603734, 42.32858899999999], [-71.601885, 42.32697099999999], [-71.59734999999999, 42.321149000000005], [-71.596566, 42.32044499999999], [-71.592502, 42.317901], [-71.59146299999999, 42.31702399999998], [-71.542879, 42.26979899999998], [-71.542937, 42.26718], [-71.55011499999999, 42.266023], [-71.550755, 42.26625500000001], [-71.551729, 42.26632599999999], [-71.55222599999999, 42.267312999999994], [-71.553173, 42.26764300000001], [-71.554596, 42.267805], [-71.55545099999999, 42.267587999999996], [-71.555605, 42.267855], [-71.55666699999999, 42.26807899999999], [-71.556967, 42.26806300000001], [-71.557113, 42.26780300000002], [-71.55800599999999, 42.26741], [-71.558506, 42.26749699999999], [-71.55872099999999, 42.267803000000036], [-71.559483, 42.267754999999994], [-71.55983499999999, 42.267582999999995], [-71.56058399999999, 42.267864], [-71.56219399999999, 42.267651], [-71.564917, 42.26689400000001], [-71.586759, 42.25954500000002], [-71.602221, 42.218101], [-71.58291000000001, 42.195558999999996], [-71.57154799999999, 42.19465299999999], [-71.572129, 42.19349], [-71.57233800000002, 42.192228000000014], [-71.556204, 42.191857000000006], [-71.556029, 42.191438999999995], [-71.55605200000001, 42.19055999999999], [-71.555752, 42.190018], [-71.55582900000002, 42.18898500000001], [-71.55618199999999, 42.18871599999999], [-71.556067, 42.188497999999996], [-71.556167, 42.188329], [-71.556544, 42.18810400000001], [-71.556136, 42.187892999999995], [-71.556382, 42.187252], [-71.55635099999999, 42.186816000000015], [-71.556698, 42.18651600000001], [-71.556951, 42.185938000000014], [-71.55578299999999, 42.185748000000004], [-71.555475, 42.18543599999999], [-71.55561399999999, 42.184968999999995], [-71.555414, 42.184852], [-71.55512999999999, 42.184961], [-71.555522, 42.183453000000014], [-71.555898, 42.18280999999999], [-71.555491, 42.182381999999976], [-71.555798, 42.182159], [-71.554177, 42.18181700000001], [-71.553846, 42.18195999999999], [-71.55353099999999, 42.181502999999985], [-71.55284000000002, 42.18122100000001], [-71.552671, 42.18091400000001], [-71.552594, 42.17987999999999], [-71.55178699999999, 42.17949799999998], [-71.551626, 42.17930700000001], [-71.551626, 42.17884800000001], [-71.552125, 42.178193000000014], [-71.55233299999999, 42.177603000000005], [-71.552556, 42.177472000000016], [-71.553462, 42.178132000000005], [-71.553923, 42.178284], [-71.554853, 42.17806000000001], [-71.555376, 42.177391], [-71.556044, 42.17742099999999], [-71.557166, 42.17843199999999], [-71.558043, 42.17845800000001], [-71.558649, 42.179100999999996], [-71.55964900000001, 42.178858000000005], [-71.560417, 42.17899], [-71.561332, 42.178914999999996], [-71.561946, 42.17849600000001], [-71.561992, 42.17826099999999], [-71.561593, 42.177135000000014], [-71.561914, 42.176466], [-71.561677, 42.17457599999998], [-71.56183899999999, 42.17436500000001], [-71.562384, 42.174164], [-71.562422, 42.172790000000006], [-71.563022, 42.17242999999999], [-71.563114, 42.172219999999996], [-71.56215399999999, 42.17104399999999], [-71.561362, 42.170499000000014], [-71.56082599999999, 42.16901599999999], [-71.560499, 42.168695], [-71.560937, 42.167888], [-71.56220400000001, 42.168133999999995], [-71.56268, 42.168051999999996], [-71.56363300000001, 42.167179000000004], [-71.564193, 42.166338], [-71.56440599999999, 42.16437500000001], [-71.564135, 42.164069999999995], [-71.563728, 42.16399399999999], [-71.56350499999999, 42.16329200000001], [-71.56349, 42.16277900000003], [-71.56388199999999, 42.16239600000001], [-71.56356699999999, 42.161588], [-71.56384299999999, 42.161303], [-71.563498, 42.16053199999999], [-71.563113, 42.16047299999999], [-71.562906, 42.160194], [-71.562322, 42.160081], [-71.562376, 42.159696999999994], [-71.561999, 42.15948], [-71.561877, 42.159015], [-71.56110799999999, 42.158640000000005], [-71.56103100000001, 42.15833999999996], [-71.57140199999999, 42.151844999999994], [-71.571591, 42.14236699999999], [-71.569338, 42.142637], [-71.561021, 42.133048], [-71.559674, 42.132142000000016], [-71.557896, 42.130084000000004], [-71.55601899999999, 42.12862600000001], [-71.55464599999999, 42.12792100000001], [-71.553902, 42.12773199999999], [-71.55228799999999, 42.126028999999996], [-71.550816, 42.123507], [-71.550044, 42.12267999999999], [-71.548627, 42.12200200000001], [-71.54465499999999, 42.120549000000004], [-71.54459899999999, 42.12028300000001], [-71.541827, 42.118424999999995], [-71.539746, 42.11634900000001], [-71.536521, 42.112570000000005], [-71.53549, 42.110806000000004], [-71.533463, 42.108906000000005], [-71.531635, 42.10650599999998], [-71.529443, 42.10463999999999], [-71.529254, 42.10400100000001], [-71.528549, 42.10354499999998], [-71.52416600000001, 42.101775], [-71.52287, 42.10065300000001], [-71.521759, 42.100062], [-71.51863, 42.099312999999995], [-71.516555, 42.09956700000001], [-71.507307, 42.10247799999999], [-71.499575, 42.103508], [-71.49929000000002, 42.10305299999999], [-71.498796, 42.102771], [-71.497826, 42.102405], [-71.496766, 42.10222999999999], [-71.496749, 42.10205899999998], [-71.497209, 42.10192800000001], [-71.497284, 42.101768], [-71.496438, 42.101499], [-71.496573, 42.101122], [-71.49595599999999, 42.10073500000003], [-71.496015, 42.10032400000001], [-71.49539800000001, 42.09991400000002], [-71.49609000000001, 42.098070999999976], [-71.496549, 42.097854], [-71.496591, 42.09719999999999], [-71.497355, 42.09644899999999], [-71.497543, 42.095762000000015], [-71.497469, 42.095411], [-71.497877, 42.09481], [-71.497691, 42.094224000000004], [-71.49816299999999, 42.093427999999996], [-71.497987, 42.092776], [-71.49824, 42.091412], [-71.49826, 42.03159], [-71.487911, 42.03674399999999], [-71.480724, 42.04188], [-71.480611, 42.041257], [-71.47950999999999, 42.041889999999995], [-71.47767, 42.04171], [-71.47910499999999, 42.03986199999999], [-71.47707, 42.03914999999999], [-71.47769, 42.03853], [-71.47962, 42.03919], [-71.482001, 42.035900000000005], [-71.48201399999999, 42.035592999999984], [-71.481676, 42.035045], [-71.479792, 42.03584500000001], [-71.47878, 42.03601], [-71.475556, 42.035708], [-71.472287, 42.035979000000005], [-71.46659, 42.03586], [-71.46522999999999, 42.045519999999996], [-71.46518, 42.04718999999999], [-71.463027, 42.04636399999999], [-71.461533, 42.04613899999999], [-71.461109, 42.04541400000002], [-71.45996099999999, 42.04562299999999], [-71.45932599999999, 42.046112000000015], [-71.45941599999999, 42.047917999999996], [-71.459595, 42.04833399999999], [-71.46053599999999, 42.04880899999999], [-71.461951, 42.05031099999999], [-71.463037, 42.050549], [-71.462003, 42.055317], [-71.459354, 42.057241999999995], [-71.45771599999999, 42.058195], [-71.45647199999999, 42.058698], [-71.45485699999999, 42.059008], [-71.45468699999999, 42.052223999999995], [-71.454754, 42.04411699999999], [-71.45810399999999, 42.017797999999985], [-71.499908, 42.01719899999999], [-71.50645899999999, 42.016683], [-71.51690599999999, 42.015598], [-71.52760599999999, 42.01499800000001], [-71.547707, 42.014697999999996], [-71.577344, 42.013922], [-71.58281, 42.013996999999996], [-71.58550799999999, 42.013798], [-71.614516, 42.013183000000005], [-71.67614999999999, 42.011538000000016], [-71.710968, 42.010960999999995], [-71.71370399999999, 42.01078500000001], [-71.740938, 42.010177], [-71.76601, 42.009744999999995], [-71.790218, 42.008736999999996], [-71.79924199999999, 42.008064999999995], [-71.799898, 42.015505], [-71.800281, 42.021984], [-71.80064899999999, 42.023568999999995], [-71.86598, 42.02411299999999], [-71.87297199999999, 42.02435299999999], [-71.87443900000001, 42.02423499999999], [-71.88330599999999, 42.024308999999995], [-71.884512, 42.02491999999999], [-71.885088, 42.025014], [-71.885628, 42.025642], [-71.88723399999999, 42.02824899999999], [-71.88734699999999, 42.028815], [-71.886985, 42.02904800000001], [-71.88690799999999, 42.02954999999999], [-71.887002, 42.03007100000001], [-71.88751599999999, 42.030415], [-71.887957, 42.031205], [-71.887976, 42.031463], [-71.887677, 42.031942], [-71.887675, 42.032408999999994], [-71.888116, 42.032771999999994], [-71.88885599999999, 42.033952], [-71.889477, 42.036006999999984], [-71.888899, 42.038925000000006], [-71.888173, 42.040154000000015], [-71.887636, 42.04177], [-71.887385, 42.04282299999999], [-71.887434, 42.043716999999994], [-71.88713299999999, 42.044348000000014], [-71.88715599999999, 42.044759], [-71.88642, 42.04586800000002], [-71.886653, 42.04629799999999], [-71.887298, 42.046645999999996], [-71.8875, 42.046952999999995], [-71.88756699999999, 42.05033799999999], [-71.887174, 42.050720999999996], [-71.886699, 42.050908], [-71.883986, 42.05060700000001], [-71.882972, 42.05100700000001], [-71.881219, 42.051103], [-71.880667, 42.0516], [-71.880813, 42.052354999999984], [-71.88026099999999, 42.053924], [-71.880719, 42.056035999999985], [-71.880478, 42.056293999999994], [-71.880144, 42.05750299999999], [-71.88051, 42.05805600000001], [-71.88165, 42.058479], [-71.882145, 42.05840999999998], [-71.882477, 42.05867500000001], [-71.882443, 42.059289], [-71.88179699999999, 42.060041], [-71.882296, 42.06218500000001], [-71.882001, 42.062722999999984], [-71.880611, 42.063444000000004], [-71.880217, 42.063467], [-71.879609, 42.06389499999999], [-71.87884, 42.06601800000001], [-71.879098, 42.06695], [-71.878978, 42.06775800000002], [-71.881509, 42.075893000000015], [-71.891139, 42.072731999999995], [-71.895113, 42.094247999999986], [-71.909235, 42.091260999999996], [-71.911895, 42.101317], [-71.899489, 42.10411399999998], [-71.916979, 42.190908], [-71.939356, 42.189237999999996], [-72.019886, 42.18376199999999], [-72.030322, 42.245206], [-72.038558, 42.244455999999985], [-72.045498, 42.230017000000004], [-72.070144, 42.23126900000001], [-72.073692, 42.232253], [-72.075375, 42.232036], [-72.078574, 42.23106200000001], [-72.099244, 42.23076500000001], [-72.111267, 42.238594000000006], [-72.112742, 42.233199], [-72.118793, 42.23094600000001], [-72.119873, 42.213944000000005], [-72.121909, 42.214658], [-72.123988, 42.215854], [-72.129843, 42.22123699999998], [-72.142257, 42.197452], [-72.139642, 42.179534], [-72.147261, 42.18139600000001], [-72.153807, 42.207052999999995], [-72.167371, 42.228249000000005], [-72.171054, 42.234266], [-72.173383, 42.235239000000014], [-72.17506800000001, 42.236607000000014], [-72.17693100000001, 42.23698599999999], [-72.177388, 42.237233999999994], [-72.17822699999999, 42.239414000000004], [-72.178839, 42.24277399999999], [-72.17963999999999, 42.245657000000016], [-72.179912, 42.246255999999995], [-72.18112599999999, 42.24607400000001], [-72.182161, 42.247971], [-72.182506, 42.25138700000002], [-72.211079, 42.251262], [-72.21046, 42.24720499999999], [-72.214584, 42.24757100000001], [-72.214821, 42.24904099999999], [-72.218068, 42.248605], [-72.221218, 42.245252000000015], [-72.247013, 42.242094], [-72.257614, 42.229873999999995], [-72.268211, 42.22931800000001], [-72.27045199999999, 42.236812], [-72.271396, 42.23612399999999], [-72.273772, 42.235847], [-72.27767, 42.233103], [-72.281295, 42.235019999999984], [-72.291567, 42.232220999999996], [-72.292486, 42.230785000000004], [-72.292929, 42.22883], [-72.29330999999999, 42.228264], [-72.294026, 42.227553999999984], [-72.296334, 42.226155], [-72.298216, 42.223866], [-72.299531, 42.219424], [-72.29963599999999, 42.21679400000001], [-72.299978, 42.21511], [-72.30031500000001, 42.214465], [-72.301839, 42.212516999999984], [-72.302188, 42.21126000000001], [-72.305926, 42.21049299999999], [-72.30899699999999, 42.210267], [-72.312023, 42.209721], [-72.31345, 42.20927799999999], [-72.314286, 42.209549], [-72.314464, 42.20979199999999], [-72.314332, 42.21018199999998], [-72.313193, 42.21176699999998], [-72.313147, 42.21241], [-72.31334799999999, 42.212966], [-72.31363999999999, 42.21252199999999], [-72.316733, 42.212390000000006], [-72.317099, 42.20822299999999], [-72.319267, 42.204843], [-72.321635, 42.205161], [-72.322599, 42.20443200000001], [-72.32377, 42.20397699999998], [-72.324883, 42.203821999999995], [-72.326269, 42.203934000000004], [-72.333709, 42.207212000000006], [-72.33664399999999, 42.208169], [-72.335792, 42.20821000000001], [-72.334045, 42.20862], [-72.334642, 42.209551], [-72.335526, 42.212917], [-72.331909, 42.21559600000002], [-72.332156, 42.217242999999996], [-72.333257, 42.218462], [-72.333539, 42.21995], [-72.33387499999999, 42.22071899999999], [-72.335649, 42.220240000000004], [-72.336086, 42.219547999999996], [-72.337094, 42.219036], [-72.340134, 42.219036], [-72.34237399999999, 42.218604], [-72.343558, 42.21798], [-72.34567, 42.21631599999999], [-72.345974, 42.21583600000001], [-72.345942, 42.214844], [-72.34541399999999, 42.212635999999996], [-72.345574, 42.211772], [-72.34631, 42.210652], [-72.34711, 42.21002799999999], [-72.348118, 42.210075999999994], [-72.349238, 42.209915999999986], [-72.34957399999999, 42.20900399999999], [-72.35135, 42.20732400000001], [-72.352374, 42.20690799999998], [-72.35347800000001, 42.206956], [-72.35386199999999, 42.207291999999995], [-72.354775, 42.208732000000005], [-72.355943, 42.20902000000001], [-72.357079, 42.20866799999998], [-72.359127, 42.206076], [-72.359831, 42.205484999999996], [-72.360519, 42.20521299999999], [-72.360935, 42.20521299999999], [-72.36170299999999, 42.20564499999999], [-72.36282299999999, 42.205980000000004], [-72.36282299999999, 42.206363999999986], [-72.361783, 42.20693999999998], [-72.362071, 42.20725999999999], [-72.362871, 42.20746799999998], [-72.363575, 42.207404000000004], [-72.36413499999999, 42.20716399999999], [-72.364583, 42.206748], [-72.36474299999999, 42.20606000000001], [-72.36445499999999, 42.20289300000001], [-72.36312699999999, 42.201629], [-72.36242299999999, 42.199453000000005], [-72.36231099999999, 42.19839699999997], [-72.362775, 42.197917000000004], [-72.363559, 42.197532999999986], [-72.363495, 42.19719699999999], [-72.363079, 42.196909000000005], [-72.361719, 42.197037], [-72.36071100000001, 42.196909000000005], [-72.359943, 42.19639699999998], [-72.359479, 42.195309], [-72.358871, 42.19438100000001], [-72.35925499999999, 42.19409299999999], [-72.361175, 42.194349], [-72.361495, 42.193965], [-72.36131900000001, 42.19298900000001], [-72.360423, 42.19023699999999], [-72.35821899999999, 42.18980199999999], [-72.390304, 42.186254], [-72.39549199999999, 42.185811999999984], [-72.403947, 42.231847], [-72.427229, 42.22929200000001], [-72.44714499999999, 42.22734], [-72.464186, 42.308011], [-72.47924100000002, 42.30701899999999], [-72.483099, 42.30531800000001], [-72.487709, 42.30471499999999], [-72.49060899999999, 42.30363200000001], [-72.493586, 42.302268], [-72.49803399999999, 42.30511899999998], [-72.499117, 42.306263], [-72.500745, 42.305166], [-72.504151, 42.30547100000002], [-72.506737, 42.306374999999996], [-72.51019099999999, 42.305569], [-72.521421, 42.302182], [-72.52467299999999, 42.303155], [-72.52790999999999, 42.30143700000001], [-72.531212, 42.303624], [-72.53515, 42.304252], [-72.539903, 42.304127], [-72.544658, 42.305683], [-72.555674, 42.304680000000005], [-72.55730799999999, 42.304666000000005], [-72.564951, 42.30383299999999], [-72.56902, 42.304522000000006], [-72.57001199999999, 42.304441999999995], [-72.577285, 42.302981], [-72.58796099999999, 42.30035799999998], [-72.595326, 42.29443100000001], [-72.602124, 42.288045], [-72.609202, 42.28547699999999], [-72.613034, 42.28619], [-72.613641, 42.286628000000015], [-72.614449, 42.287506999999984], [-72.614921, 42.288658000000005], [-72.614701, 42.29019900000001], [-72.61823199999999, 42.29018800000001], [-72.622159, 42.28902599999997], [-72.624521, 42.28814800000001], [-72.627382, 42.28649199999999], [-72.627927, 42.28592299999999], [-72.629022, 42.28526699999998], [-72.630232, 42.28492899999999], [-72.633669, 42.285122], [-72.634849, 42.28538800000001], [-72.636196, 42.286113], [-72.63743699999999, 42.28739], [-72.640677, 42.284137000000015], [-72.64207999999999, 42.288174000000005], [-72.643832, 42.28851900000001], [-72.646048, 42.290339999999986], [-72.648652, 42.29176100000001], [-72.65383299999999, 42.290389999999995], [-72.656086, 42.289941999999996], [-72.660488, 42.28862799999999], [-72.660216, 42.28925399999998], [-72.672035, 42.290192999999995], [-72.672169, 42.290962000000015], [-72.672091, 42.29188699999999], [-72.736726, 42.284241], [-72.74121699999999, 42.36272999999999]]]}}