{"type": "Feature", "properties": {"district_name": "7th Congressional District", "chamber": "us-house", "vintage": "2012-2020"}, "geometry": {"type": "Polygon", "coordinates": [[[-71.17479800000001, 42.350428], [-71.17479800000001, 42.35079599999998], [-71.173997, 42.353195], [-71.172798, 42.35469599999999], [-71.17119799999999, 42.356396], [-71.16999899999999, 42.357397000000006], [-71.167625, 42.360073000000014], [-71.16624399999999, 42.35960399999999], [-71.163716, 42.358248999999994], [-71.161878, 42.35914099999999], [-71.159598, 42.359996], [-71.155303, 42.359898], [-71.14856499999999, 42.361174000000005], [-71.14679699999999, 42.36229599999999], [-71.14509799999999, 42.36449199999999], [-71.14379699999999, 42.364996], [-71.139997, 42.36449599999999], [-71.131997, 42.369696], [-71.132997, 42.371697], [-71.133197, 42.372596], [-71.13266, 42.37318099999999], [-71.131518, 42.37372599999999], [-71.129627, 42.373757], [-71.128338, 42.37342400000002], [-71.12749699999999, 42.372996], [-71.123297, 42.368996], [-71.11849699999999, 42.36839699999999], [-71.11719699999999, 42.36719699999999], [-71.117193, 42.36422899999999], [-71.113901, 42.364478], [-71.11356099999999, 42.366012], [-71.113512, 42.36856400000001], [-71.111094, 42.367772999999985], [-71.11074599999999, 42.36830599999999], [-71.109905, 42.36800000000001], [-71.109438, 42.36777899999999], [-71.110411, 42.36681600000002], [-71.109214, 42.366169], [-71.108841, 42.363845999999995], [-71.10824099999999, 42.36404999999999], [-71.106707, 42.363053000000015], [-71.103146, 42.36634400000002], [-71.10175, 42.36830199999999], [-71.10122299999999, 42.368115], [-71.10053800000001, 42.36913], [-71.09996199999999, 42.368902999999996], [-71.098849, 42.37048499999999], [-71.099925, 42.370872999999996], [-71.098979, 42.37219], [-71.09811200000001, 42.371495], [-71.097119, 42.37325099999999], [-71.096229, 42.373132000000005], [-71.097529, 42.371021], [-71.096875, 42.370475], [-71.095322, 42.37301500000001], [-71.094488, 42.37291299999998], [-71.093745, 42.374251], [-71.09746299999999, 42.374431], [-71.103172, 42.374297000000006], [-71.108457, 42.379112000000006], [-71.107855, 42.379374], [-71.110643, 42.38163999999999], [-71.111656, 42.38174900000002], [-71.115584, 42.385158], [-71.11819299999999, 42.388009], [-71.11739399999999, 42.38841499999999], [-71.117966, 42.389126000000005], [-71.117085, 42.389580999999986], [-71.120214, 42.392641000000005], [-71.12097399999999, 42.39370599999999], [-71.122838, 42.39224199999999], [-71.12436799999999, 42.39365299999999], [-71.125284, 42.393061999999986], [-71.12487399999999, 42.39269600000001], [-71.125266, 42.392586], [-71.125751, 42.391636000000005], [-71.12684899999999, 42.390342000000004], [-71.12764299999999, 42.39037799999999], [-71.127685, 42.38985100000001], [-71.12900599999999, 42.39007200000002], [-71.127558, 42.387402], [-71.12961899999999, 42.38665800000002], [-71.12906699999999, 42.38617099999998], [-71.13172999999999, 42.385185], [-71.132215, 42.385532], [-71.134087, 42.383840000000006], [-71.141637, 42.387190000000004], [-71.14164, 42.387051], [-71.143683, 42.38825], [-71.144134, 42.388679999999994], [-71.143436, 42.38871199999999], [-71.143097, 42.38903], [-71.141699, 42.390658], [-71.141121, 42.392092000000005], [-71.145248, 42.392878], [-71.150115, 42.394932999999995], [-71.15316899999999, 42.39564300000001], [-71.156302, 42.395852], [-71.152057, 42.40104], [-71.143593, 42.39741199999999], [-71.14267, 42.39789100000001], [-71.140412, 42.399719999999995], [-71.13933399999999, 42.400148], [-71.13747099999999, 42.40043100000001], [-71.136391, 42.40096499999999], [-71.134742, 42.40291799999999], [-71.134379, 42.406063], [-71.132415, 42.409009999999995], [-71.132273, 42.410126999999996], [-71.132762, 42.41162699999999], [-71.132317, 42.415215999999994], [-71.131939, 42.41527900000001], [-71.131653, 42.415594999999975], [-71.131467, 42.416765999999996], [-71.13116, 42.417043000000035], [-71.130087, 42.417503], [-71.127601, 42.418071], [-71.125818, 42.418088], [-71.12987199999999, 42.41338400000001], [-71.12709699999999, 42.41224400000001], [-71.128101, 42.410720000000005], [-71.126179, 42.409227], [-71.12570099999999, 42.409963000000005], [-71.123389, 42.40914699999998], [-71.12399599999999, 42.408268000000014], [-71.121556, 42.407433999999995], [-71.121752, 42.407116], [-71.119456, 42.406327], [-71.119328, 42.40652499999999], [-71.115541, 42.40514499999999], [-71.115346, 42.40272799999999], [-71.11401, 42.400987999999984], [-71.112374, 42.400226], [-71.100334, 42.39615], [-71.096688, 42.400453999999996], [-71.091993, 42.39889999999999], [-71.085687, 42.400650999999996], [-71.083423, 42.40001299999999], [-71.077152, 42.39677799999999], [-71.075996, 42.39639599999999], [-71.076419, 42.39777299999999], [-71.075988, 42.399705999999995], [-71.073448, 42.402665000000006], [-71.071297, 42.40692200000001], [-71.072692, 42.408237], [-71.07365899999999, 42.40851899999999], [-71.07374399999999, 42.40867900000001], [-71.073801, 42.409056], [-71.073624, 42.40930300000001], [-71.072161, 42.41036299999999], [-71.071873, 42.411099000000014], [-71.071907, 42.411672], [-71.07211099999999, 42.412081000000015], [-71.073196, 42.41299599999999], [-71.073296, 42.414796], [-71.06450699999999, 42.41524099999999], [-71.064559, 42.41533399999999], [-71.061584, 42.41561000000001], [-71.060441, 42.416007], [-71.05685, 42.418671], [-71.054735, 42.42003799999999], [-71.05442, 42.420044999999995], [-71.050324, 42.42299500000001], [-71.028065, 42.42415499999999], [-71.031275, 42.418433000000014], [-71.032493, 42.415506000000015], [-71.033095, 42.414696000000006], [-71.033203, 42.41422599999999], [-71.02924, 42.41056799999998], [-71.027115, 42.40778199999998], [-71.026898, 42.40733199999999], [-71.026888, 42.40655000000001], [-71.026237, 42.40592499999999], [-71.025753, 42.405756999999994], [-71.024901, 42.40590000000002], [-71.023847, 42.40532400000001], [-71.02327799999999, 42.40554399999999], [-71.02285499999999, 42.40512499999999], [-71.022443, 42.40548700000001], [-71.02191599999999, 42.405287], [-71.020444, 42.40511699999999], [-71.020436, 42.40477500000001], [-71.021198, 42.404284], [-71.021157, 42.403842000000004], [-71.020853, 42.403511], [-71.018878, 42.403718], [-71.01808799999999, 42.40335699999999], [-71.017826, 42.402883], [-71.01703499999999, 42.40271499999999], [-71.013772, 42.402964], [-71.011555, 42.401907], [-71.010892, 42.40179499999999], [-71.009396, 42.401183], [-71.009445, 42.400475], [-71.009629, 42.400166999999996], [-71.013395, 42.39739799999999], [-71.01127199999999, 42.396589000000006], [-71.01192999999999, 42.395751999999995], [-71.009894, 42.395475000000005], [-71.008945, 42.39519200000001], [-71.005861, 42.393892], [-71.001407, 42.39674000000001], [-70.998768, 42.396973], [-70.998158, 42.39688700000001], [-70.996475, 42.396308000000005], [-70.995361, 42.393813], [-70.99381799999999, 42.392924], [-70.98977099999999, 42.393240000000006], [-70.987442, 42.39274200000001], [-70.987133, 42.392123], [-70.98719899999999, 42.391462999999995], [-70.987571, 42.390581999999995], [-70.987511, 42.38922900000001], [-70.98728899999999, 42.388734], [-70.986053, 42.388116000000004], [-70.986731, 42.387007], [-70.98778, 42.38694299999998], [-70.988281, 42.38710700000001], [-70.994239, 42.384647000000015], [-70.994681, 42.38270899999999], [-70.994648, 42.38114999999999], [-70.99669399999999, 42.37874100000001], [-70.99931099999999, 42.37779299999999], [-70.999347, 42.37766500000001], [-71.00020599999999, 42.37775400000002], [-71.006123, 42.376052], [-71.010449, 42.36503399999999], [-71.000695, 42.36464], [-71.000736, 42.364818], [-70.986597, 42.36457199999999], [-70.985593, 42.356796999999986], [-70.972893, 42.35359699999999], [-70.968935, 42.35592500000001], [-70.96882, 42.35586600000001], [-70.967257, 42.357069], [-70.96704799999999, 42.356953999999995], [-70.917892, 42.385997], [-70.901292, 42.384098000000016], [-70.85143599999999, 42.393209000000006], [-70.749487, 42.400819999999996], [-70.748802, 42.400211999999996], [-70.748847, 42.373751999999996], [-70.749488, 42.37333999999999], [-70.851191, 42.372499], [-70.894292, 42.372398999999994], [-70.905692, 42.316998999999996], [-70.917091, 42.314198000000005], [-70.927191, 42.310097999999996], [-70.937091, 42.311097999999994], [-70.94899099999999, 42.301298], [-70.96019199999999, 42.29949800000001], [-70.97599199999999, 42.300097999999984], [-70.981781, 42.30838199999999], [-70.988693, 42.31359800000001], [-70.998593, 42.311997999999996], [-71.002093, 42.308697999999985], [-71.00979099999999, 42.305198999999995], [-71.015393, 42.30669799999998], [-71.022093, 42.305597999999975], [-71.028395, 42.30879899999999], [-71.028195, 42.324599], [-71.028294, 42.32872999999999], [-70.992516, 42.32870700000001], [-70.986615, 42.329105], [-70.978394, 42.32889900000001], [-70.975094, 42.34349900000001], [-70.988173, 42.34344700000002], [-71.010994, 42.34269800000001], [-71.026895, 42.353097999999996], [-71.042596, 42.363797999999996], [-71.049095, 42.371196999999995], [-71.050895, 42.370697], [-71.05499499999999, 42.370697], [-71.057141, 42.369982], [-71.059795, 42.368767], [-71.062994, 42.368391], [-71.063921, 42.369015999999995], [-71.065827, 42.36909700000001], [-71.065731, 42.368961000000006], [-71.066039, 42.368901], [-71.066195, 42.36909700000001], [-71.069795, 42.36909700000001], [-71.070797, 42.367897000000006], [-71.07157099999999, 42.36723399999999], [-71.075795, 42.361596999999996], [-71.077095, 42.35869699999999], [-71.075692, 42.356065], [-71.07504899999999, 42.355325], [-71.073302, 42.355812], [-71.073021, 42.355309999999996], [-71.072564, 42.355439], [-71.072357, 42.35528200000001], [-71.070655, 42.351853999999996], [-71.067533, 42.352513], [-71.064562, 42.352382999999996], [-71.063419, 42.355059999999966], [-71.062257, 42.35626799999999], [-71.06048, 42.355499], [-71.057475, 42.35336599999999], [-71.05488199999999, 42.35242099999999], [-71.05218800000002, 42.351121], [-71.05218599999999, 42.350922], [-71.054771, 42.347253], [-71.054788, 42.34687100000001], [-71.054469, 42.34677800000001], [-71.05825, 42.345506], [-71.059394, 42.343759000000006], [-71.059782, 42.34298499999998], [-71.059983, 42.34207099999999], [-71.060001, 42.340054999999985], [-71.059697, 42.336801], [-71.060042, 42.33656399999998], [-71.06058399999999, 42.335446], [-71.066431, 42.326256], [-71.067077, 42.324774999999995], [-71.06750699999999, 42.32329699999998], [-71.066088, 42.321646], [-71.065596, 42.32129400000001], [-71.063332, 42.321014], [-71.061865, 42.32047699999999], [-71.061481, 42.32050000000001], [-71.060846, 42.319911000000005], [-71.061674, 42.31838], [-71.05988099999999, 42.31797200000001], [-71.059596, 42.31886899999999], [-71.05883399999999, 42.3186], [-71.058965, 42.318121], [-71.056715, 42.31772400000002], [-71.056709, 42.317553], [-71.052588, 42.316898000000016], [-71.05257700000001, 42.31911499999999], [-71.052746, 42.319302999999984], [-71.05257, 42.319363], [-71.05221499999999, 42.318881999999995], [-71.052172, 42.31902399999999], [-71.051981, 42.31497499999998], [-71.053769, 42.315264], [-71.054411, 42.31331900000001], [-71.05560299999999, 42.310973], [-71.054095, 42.31062300000001], [-71.053878, 42.311095999999985], [-71.053321, 42.310914], [-71.05447099999999, 42.308], [-71.055651, 42.303393], [-71.055801, 42.301670000000016], [-71.05628399999999, 42.301004000000006], [-71.05704200000001, 42.300582000000006], [-71.05904199999999, 42.300333], [-71.05681899999999, 42.297917], [-71.05623299999999, 42.295623000000006], [-71.056251, 42.29502600000001], [-71.057247, 42.293332000000014], [-71.057352, 42.291864], [-71.057195, 42.291425999999994], [-71.056472, 42.29055799999999], [-71.055773, 42.28935], [-71.055459, 42.28844200000001], [-71.054654, 42.28733500000001], [-71.05451, 42.2868], [-71.05578700000001, 42.283205], [-71.056536, 42.282583], [-71.055731, 42.282622], [-71.053865, 42.27820000000001], [-71.053117, 42.27729999999999], [-71.055494, 42.27569799999999], [-71.053395, 42.272296999999995], [-71.061593, 42.267299], [-71.063893, 42.26799800000002], [-71.064308, 42.268860000000004], [-71.064679, 42.269107999999996], [-71.06465399999999, 42.269582], [-71.065297, 42.27078700000001], [-71.065904, 42.27115900000001], [-71.067453, 42.271463], [-71.06778, 42.271421], [-71.06841399999999, 42.270806], [-71.069011, 42.27066199999998], [-71.070415, 42.27061300000001], [-71.071742, 42.270812], [-71.0724, 42.270686000000005], [-71.073042, 42.270331], [-71.07592199999999, 42.27033199999998], [-71.076972, 42.269973000000014], [-71.07976, 42.269529999999996], [-71.080809, 42.26897400000001], [-71.082323, 42.268744999999996], [-71.082968, 42.268496000000006], [-71.08551899999999, 42.269007999999985], [-71.085948, 42.26929199999999], [-71.08915, 42.26974200000001], [-71.089704, 42.26962799999999], [-71.09022999999999, 42.269141000000005], [-71.090201, 42.268417000000014], [-71.08986399999999, 42.267728000000005], [-71.090424, 42.266466000000015], [-71.092553, 42.26668999999998], [-71.09373699999999, 42.26710700000001], [-71.093791, 42.26458800000002], [-71.093499, 42.26330300000001], [-71.09347, 42.26241999999999], [-71.09315, 42.26249000000002], [-71.09248, 42.26232000000003], [-71.09164, 42.260790000000014], [-71.09348, 42.2604], [-71.093509, 42.245439], [-71.09298, 42.24458999999998], [-71.09291000000002, 42.24405000000001], [-71.09358999999999, 42.24128000000001], [-71.09337, 42.24014], [-71.09335, 42.23875999999999], [-71.09268999999999, 42.23779999999999], [-71.09188999999999, 42.23702000000002], [-71.090308, 42.236635], [-71.08958, 42.236160000000005], [-71.08700999999999, 42.23244], [-71.08482, 42.22962000000001], [-71.07906, 42.22490000000003], [-71.08024, 42.224030000000006], [-71.07664, 42.22111999999999], [-71.07867, 42.220229999999994], [-71.080163, 42.21885899999997], [-71.09329900000002, 42.213981000000004], [-71.082707, 42.204269000000004], [-71.082056, 42.204353999999995], [-71.081458, 42.20484699999999], [-71.081043, 42.204927], [-71.07918, 42.20468100000001], [-71.078011, 42.204788], [-71.077195, 42.20464099999999], [-71.075149, 42.204848999999975], [-71.074716, 42.204361000000006], [-71.07440799999999, 42.204289999999986], [-71.07170099999999, 42.204379999999986], [-71.071574, 42.20425600000001], [-71.069501, 42.20448700000001], [-71.064398, 42.205677999999985], [-71.060324, 42.20630499999999], [-71.059445, 42.20597900000003], [-71.058292, 42.206116000000016], [-71.057368, 42.20593499999999], [-71.05489, 42.205825999999995], [-71.052921, 42.205982999999996], [-71.05223, 42.206315], [-71.051476, 42.20623399999999], [-71.049548, 42.206768000000004], [-71.047271, 42.194592], [-71.02964, 42.19151], [-71.01912999999999, 42.186851000000004], [-71.019582, 42.185802999999986], [-71.019594, 42.18519099999999], [-71.019423, 42.184626], [-71.018985, 42.183997999999995], [-71.01938299999999, 42.183671999999994], [-71.019224, 42.18353199999999], [-71.019279, 42.183313999999996], [-71.019845, 42.18257899999998], [-71.019796, 42.18207600000001], [-71.019964, 42.181721], [-71.01983899999999, 42.18125500000001], [-71.02019899999999, 42.18095199999998], [-71.019987, 42.18003200000001], [-71.020124, 42.17953000000001], [-71.019753, 42.17903700000002], [-71.01970399999999, 42.178546999999995], [-71.01999599999999, 42.178398], [-71.019993, 42.17782599999999], [-71.020637, 42.17743299999999], [-71.020574, 42.176565], [-71.02116099999999, 42.17617500000001], [-71.020859, 42.17502699999999], [-71.02153899999999, 42.17409699999999], [-71.02122, 42.173477], [-71.022346, 42.17065600000001], [-71.021606, 42.17030000000001], [-71.021833, 42.169431], [-71.021656, 42.16898699999999], [-71.02199399999999, 42.16900499999999], [-71.027565, 42.15632099999999], [-71.035093, 42.135633999999996], [-71.04012, 42.137194], [-71.11479899999999, 42.21265299999999], [-71.13069200000001, 42.227799], [-71.142681, 42.235997999999995], [-71.14453499999999, 42.24510699999999], [-71.144396, 42.24529799999998], [-71.146642, 42.25575500000001], [-71.152312, 42.258336], [-71.155958, 42.256484999999984], [-71.156707, 42.259954999999984], [-71.157761, 42.263738], [-71.157381, 42.26374299999999], [-71.15578599999999, 42.262454], [-71.14847499999999, 42.269017], [-71.14030799999999, 42.275428999999995], [-71.13553499999999, 42.27954899999999], [-71.12737299999999, 42.28710000000001], [-71.12581399999999, 42.288615], [-71.125928, 42.288763], [-71.125742, 42.28985699999999], [-71.124278, 42.291234], [-71.123921, 42.291936], [-71.122855, 42.293185000000015], [-71.12281, 42.293527999999995], [-71.123077, 42.293735], [-71.122498, 42.294287], [-71.120113, 42.29598399999998], [-71.115434, 42.298903], [-71.11583499999999, 42.298290000000016], [-71.115436, 42.29820600000001], [-71.106293, 42.31232899999999], [-71.104475, 42.31702200000001], [-71.102944, 42.319298], [-71.103985, 42.31997700000001], [-71.105131, 42.31927799999999], [-71.105289, 42.319365], [-71.106788, 42.321155999999995], [-71.108452, 42.32238899999999], [-71.110644, 42.321834999999986], [-71.116321, 42.32101199999999], [-71.117824, 42.32113400000002], [-71.11925699999999, 42.32147799999999], [-71.11947500000001, 42.321712999999974], [-71.119586, 42.322685], [-71.11887, 42.322858], [-71.118507, 42.323357999999985], [-71.11736499999999, 42.32359500000001], [-71.116608, 42.32394999999998], [-71.115597, 42.326859999999996], [-71.115304, 42.32723999999998], [-71.115303, 42.32785700000004], [-71.11501299999999, 42.32815899999999], [-71.115116, 42.328427999999995], [-71.114992, 42.32861900000001], [-71.114869, 42.328472999999995], [-71.11471499999999, 42.32856100000001], [-71.114775, 42.328987999999995], [-71.113784, 42.33059600000001], [-71.113162, 42.33257499999999], [-71.112219, 42.333911999999984], [-71.11072300000001, 42.33525599999999], [-71.11076800000001, 42.335436], [-71.11145599999999, 42.335898], [-71.11165199999999, 42.336696], [-71.111378, 42.33688300000001], [-71.111584, 42.33764800000001], [-71.110637, 42.34041000000001], [-71.108412, 42.341888], [-71.105697, 42.343994999999985], [-71.107185, 42.34701099999997], [-71.10656999999999, 42.349912], [-71.12242599999999, 42.35180999999997], [-71.123434, 42.35144899999999], [-71.12421599999999, 42.35152499999999], [-71.126854, 42.35008799999999], [-71.12858299999999, 42.349833000000004], [-71.12928099999999, 42.34906699999999], [-71.133381, 42.347122000000006], [-71.135278, 42.345940999999996], [-71.141302, 42.341072999999994], [-71.141939, 42.340008], [-71.14421200000001, 42.34002199999999], [-71.146597, 42.33849699999999], [-71.146197, 42.33739800000001], [-71.148769, 42.336777000000005], [-71.148398, 42.33579800000002], [-71.15006, 42.335386], [-71.150498, 42.334996], [-71.14999, 42.33449599999999], [-71.14979699999999, 42.334497000000006], [-71.15683299999999, 42.33018899999999], [-71.159325, 42.332767999999994], [-71.161295, 42.33378299999999], [-71.16273199999999, 42.33396099999999], [-71.167565, 42.333441], [-71.168191, 42.33479100000001], [-71.16857, 42.335143], [-71.168886, 42.33582599999999], [-71.169217, 42.33806800000001], [-71.168633, 42.338629], [-71.166808, 42.33928999999997], [-71.16668299999999, 42.340104000000004], [-71.17426499999999, 42.349584], [-71.17479800000001, 42.350428]]]}}