{"type": "Feature", "properties": {"district_name": "8th Congressional District", "chamber": "us-house", "vintage": "2022-present"}, "geometry": {"type": "Polygon", "coordinates": [[[-71.303566, 42.148693], [-71.303751, 42.14949999999999], [-71.275025, 42.148622999999986], [-71.275671, 42.18166700000001], [-71.269569, 42.20049899999999], [-71.267523, 42.200938999999984], [-71.263711, 42.203328000000006], [-71.26105500000001, 42.204096], [-71.259791, 42.204115000000016], [-71.258263, 42.20391000000001], [-71.258194, 42.204071], [-71.256403, 42.203672000000005], [-71.254124, 42.2028], [-71.251416, 42.202613], [-71.232237, 42.256898], [-71.232285, 42.258424999999995], [-71.230347, 42.261361999999984], [-71.229688, 42.263417], [-71.229333, 42.26403999999999], [-71.228685, 42.264309], [-71.227284, 42.263909000000005], [-71.22565600000001, 42.26413300000001], [-71.22429, 42.26318100000001], [-71.223188, 42.262696999999996], [-71.222488, 42.262881], [-71.221567, 42.26342700000001], [-71.219875, 42.263532000000005], [-71.218675, 42.265387000000004], [-71.218123, 42.267665], [-71.218311, 42.268458], [-71.217973, 42.268678], [-71.217005, 42.26852299999999], [-71.214565, 42.26770199999999], [-71.21093, 42.267302], [-71.209262, 42.267514000000006], [-71.208049, 42.26785100000001], [-71.205727, 42.26757], [-71.205024, 42.267058999999996], [-71.199786, 42.26770199999999], [-71.199208, 42.26796700000001], [-71.198791, 42.268431], [-71.197125, 42.26895300000001], [-71.196694, 42.269223999999994], [-71.188212, 42.280438000000004], [-71.190753, 42.28184000000002], [-71.191131, 42.282363999999994], [-71.191247, 42.28299200000001], [-71.178636, 42.29459500000001], [-71.164702, 42.30382999999999], [-71.152113, 42.29458799999998], [-71.146883, 42.29728], [-71.140096, 42.302173000000025], [-71.13650200000001, 42.306204], [-71.13186300000001, 42.31317800000001], [-71.124269, 42.321856], [-71.123711, 42.32271600000002], [-71.12336700000002, 42.322571], [-71.121528, 42.323882], [-71.120112, 42.32283499999998], [-71.119539, 42.322745], [-71.119438, 42.321605], [-71.118506, 42.32125700000001], [-71.117117, 42.32105500000001], [-71.115599, 42.321065999999995], [-71.110644, 42.321834999999986], [-71.108452, 42.32238899999999], [-71.106788, 42.321155999999995], [-71.105289, 42.319365], [-71.105131, 42.31927799999999], [-71.103985, 42.31997700000001], [-71.102944, 42.319298], [-71.104475, 42.31702200000001], [-71.105791, 42.313443000000014], [-71.10661, 42.31174000000001], [-71.113384, 42.301492], [-71.118415, 42.29340899999999], [-71.119916, 42.294166999999995], [-71.119786, 42.294287], [-71.121294, 42.295199000000004], [-71.122172, 42.29455600000001], [-71.124217, 42.29258099999999], [-71.126229, 42.29002899999999], [-71.127139, 42.28916099999999], [-71.125965, 42.28848200000001], [-71.127373, 42.28710000000001], [-71.135535, 42.279548999999996], [-71.140308, 42.275428999999995], [-71.146811, 42.27039], [-71.151124, 42.26666600000001], [-71.154063, 42.269009], [-71.154676, 42.269296999999995], [-71.158643, 42.26956600000001], [-71.160005, 42.26702300000001], [-71.160424, 42.26682300000002], [-71.15846100000002, 42.265308000000005], [-71.157609, 42.263433000000006], [-71.156937, 42.26082499999998], [-71.156027, 42.26079899999999], [-71.15568, 42.261007000000006], [-71.15504200000001, 42.261847], [-71.151623, 42.259059000000015], [-71.151082, 42.25933200000002], [-71.152506, 42.26047500000002], [-71.151956, 42.260807], [-71.150473, 42.25964900000002], [-71.150276, 42.259733], [-71.150015, 42.259454000000005], [-71.152118, 42.258247], [-71.146642, 42.25575500000001], [-71.142681, 42.235998000000016], [-71.130771, 42.227926000000004], [-71.114799, 42.21265300000001], [-71.04012, 42.137194], [-71.035093, 42.13563400000001], [-71.027565, 42.15632099999999], [-71.021994, 42.16900499999999], [-71.021984, 42.16941700000001], [-71.02162, 42.170166], [-71.021695, 42.170418], [-71.022428, 42.170546], [-71.021298, 42.17340999999999], [-71.021614, 42.17409899999999], [-71.021034, 42.17460299999999], [-71.020816, 42.175015000000016], [-71.021134, 42.17589799999999], [-71.021054, 42.176210999999995], [-71.020574, 42.176565], [-71.020628, 42.17757], [-71.019878, 42.177938000000005], [-71.019994, 42.178514], [-71.019665, 42.178529], [-71.019549, 42.17879400000002], [-71.019751, 42.179013999999995], [-71.019746, 42.179326], [-71.020167, 42.179622], [-71.019898, 42.18029399999999], [-71.020164, 42.180970999999985], [-71.019691, 42.18125899999999], [-71.019646, 42.18147999999999], [-71.019941, 42.181895999999995], [-71.019456, 42.183246], [-71.019229, 42.18351100000001], [-71.019459, 42.18378900000001], [-71.018988, 42.184057], [-71.019411, 42.18425999999999], [-71.019312, 42.184435000000015], [-71.019468, 42.184650999999995], [-71.019273, 42.184988], [-71.019345, 42.185189999999984], [-71.01909, 42.18535399999999], [-71.019517, 42.185947999999996], [-71.01913, 42.186851000000004], [-71.029591, 42.19153], [-71.047271, 42.194592], [-71.04949, 42.206669000000005], [-71.051896, 42.20618100000001], [-71.052152, 42.205922], [-71.05305600000001, 42.20569200000003], [-71.055194, 42.205981999999985], [-71.055591, 42.205868], [-71.055926, 42.205974], [-71.056191, 42.20583], [-71.056889, 42.205980000000004], [-71.057306, 42.205904000000004], [-71.058126, 42.206193999999996], [-71.059422, 42.20595600000001], [-71.060388, 42.20631400000001], [-71.067968, 42.20498899999998], [-71.069679, 42.20450799999998], [-71.073314, 42.20422000000001], [-71.074471, 42.204224], [-71.075143, 42.20473899999998], [-71.076997, 42.20452000000001], [-71.07776, 42.204789], [-71.079186, 42.20461399999999], [-71.080747, 42.204948], [-71.081612, 42.20466], [-71.082244, 42.20474900000001], [-71.082475, 42.20437400000001], [-71.08272700000002, 42.204289999999986], [-71.093189, 42.21393600000002], [-71.080163, 42.21885899999999], [-71.07867, 42.220229999999994], [-71.07664, 42.22111999999999], [-71.08024, 42.224030000000006], [-71.07906, 42.22490000000002], [-71.08482, 42.22962000000001], [-71.08701, 42.23244], [-71.08958, 42.236160000000005], [-71.090308, 42.236635], [-71.09189, 42.23702000000001], [-71.093312, 42.23867000000001], [-71.09359, 42.24128000000001], [-71.09291000000002, 42.24405000000001], [-71.09298, 42.24459], [-71.093532, 42.24557099999999], [-71.09351, 42.25692000000001], [-71.08819, 42.25802999999999], [-71.08747, 42.25838], [-71.08698, 42.257960000000004], [-71.08434, 42.25925000000001], [-71.08297, 42.25873000000001], [-71.0812, 42.25836999999999], [-71.08057, 42.26068], [-71.07894, 42.26357], [-71.076195, 42.267160999999994], [-71.073296, 42.26923899999999], [-71.0731, 42.269641], [-71.073264, 42.27031699999998], [-71.072044, 42.270817], [-71.069784, 42.270604999999996], [-71.068502, 42.27077500000001], [-71.06814, 42.270999999999994], [-71.068018, 42.272216], [-71.069526, 42.272572999999994], [-71.070088, 42.273703000000005], [-71.072199, 42.27500100000001], [-71.07207700000001, 42.27566600000001], [-71.070858, 42.27590799999999], [-71.069601, 42.275753], [-71.069436, 42.276289], [-71.067892, 42.276433999999995], [-71.067517, 42.27770100000001], [-71.066503, 42.277904], [-71.064303, 42.285699], [-71.06188, 42.28651399999999], [-71.058146, 42.28735], [-71.055347, 42.288242], [-71.055773, 42.28935], [-71.057295, 42.29164699999999], [-71.057296, 42.29312500000002], [-71.056917, 42.29397999999999], [-71.058817, 42.29352999999999], [-71.059172, 42.29440099999999], [-71.058323, 42.29464], [-71.058875, 42.29568300000001], [-71.056457, 42.29637], [-71.05681900000002, 42.297917], [-71.059042, 42.30033300000001], [-71.05704200000001, 42.300582000000006], [-71.056482, 42.300853999999994], [-71.055954, 42.301374], [-71.055756, 42.301817], [-71.055558, 42.30382300000001], [-71.054471, 42.308], [-71.053506, 42.310493000000015], [-71.055603, 42.310973], [-71.054983, 42.31233099999999], [-71.056021, 42.312864000000005], [-71.057207, 42.31296], [-71.058881, 42.31277100000001], [-71.059379, 42.31103899999998], [-71.061182, 42.31152100000001], [-71.062327, 42.31213200000003], [-71.062386, 42.312280000000015], [-71.062113, 42.31259699999999], [-71.063482, 42.31317400000001], [-71.063259, 42.31368799999999], [-71.062372, 42.31333200000001], [-71.060885, 42.31512600000001], [-71.060018, 42.31473799999998], [-71.058834, 42.3186], [-71.059596, 42.31886899999999], [-71.059881, 42.31797200000001], [-71.061674, 42.31838], [-71.062718, 42.316006], [-71.068747, 42.318594000000004], [-71.067341, 42.32391100000001], [-71.066655, 42.32584500000003], [-71.061009, 42.33478199999999], [-71.061586, 42.338575999999996], [-71.060497, 42.340219999999995], [-71.060264, 42.34239900000001], [-71.059952, 42.342320000000015], [-71.059394, 42.343759000000006], [-71.058143, 42.34564699999999], [-71.054469, 42.34677800000001], [-71.054788, 42.34687100000001], [-71.054771, 42.347253], [-71.052186, 42.350922], [-71.05218800000002, 42.351121], [-71.049595, 42.354496999999995], [-71.05106, 42.355130999999986], [-71.051529, 42.35467200000001], [-71.054478, 42.35322900000002], [-71.055324, 42.352595000000015], [-71.056246, 42.352903], [-71.058009, 42.35235], [-71.060119, 42.35255800000001], [-71.062575, 42.35239899999999], [-71.062516, 42.353280000000005], [-71.064235, 42.353394000000016], [-71.064562, 42.35238300000001], [-71.067533, 42.352513], [-71.071057, 42.35180299999998], [-71.083749, 42.348380000000006], [-71.085733, 42.35245499999999], [-71.086259, 42.352959], [-71.087511, 42.355557000000005], [-71.077952, 42.35873500000001], [-71.077334, 42.35908399999999], [-71.076092, 42.36038], [-71.074792, 42.363773000000016], [-71.073721, 42.365056], [-71.069478, 42.36904599999999], [-71.063921, 42.369016000000016], [-71.062994, 42.36839100000001], [-71.059795, 42.368767], [-71.057141, 42.369982], [-71.054995, 42.370697], [-71.050895, 42.370697], [-71.049095, 42.371197], [-71.042596, 42.363798], [-71.045566, 42.359733], [-71.045564, 42.358246], [-71.045828, 42.357227], [-71.032422, 42.353091], [-71.02979500000001, 42.35178899999999], [-71.028363, 42.35409899999999], [-71.010994, 42.34269800000001], [-70.988173, 42.34344700000002], [-70.975094, 42.34349900000001], [-70.972893, 42.35359699999999], [-70.968935, 42.35592500000001], [-70.96882, 42.35586600000001], [-70.967257, 42.35706900000001], [-70.967048, 42.356954], [-70.917892, 42.38599700000002], [-70.901292, 42.384098000000016], [-70.851436, 42.393209000000006], [-70.749487, 42.400820000000024], [-70.648072, 42.40562799999999], [-70.652005, 42.39293899999999], [-70.658723, 42.375097999999994], [-70.690393, 42.27899900000001], [-70.689025, 42.27238999999998], [-70.688773, 42.268331], [-70.688704, 42.263468], [-70.68406100000001, 42.25383599999999], [-70.676029, 42.250102000000005], [-70.66281, 42.24485099999999], [-70.648622, 42.23736000000001], [-70.640113, 42.22837199999999], [-70.63633, 42.21638599999999], [-70.63633, 42.20290299999999], [-70.639165, 42.19091899999998], [-70.642946, 42.178185], [-70.624482, 42.15722500000002], [-70.624483, 42.125107], [-70.665784, 42.12510000000001], [-70.669571, 42.129395], [-70.675077, 42.13619899999999], [-70.678461, 42.14074799999999], [-70.684741, 42.151], [-70.691099, 42.163671], [-70.694278, 42.17105699999999], [-70.699515, 42.19117800000002], [-70.702351, 42.199456], [-70.732356, 42.25010099999999], [-70.749486, 42.291165], [-70.751049, 42.293114], [-70.749487, 42.29535600000001], [-70.67569, 42.375097999999994], [-70.729212, 42.373848], [-70.749488, 42.351777999999996], [-70.800346, 42.29311299999998], [-70.82571, 42.26477099999999], [-70.825638, 42.26463299999999], [-70.826986, 42.264368], [-70.83574000000002, 42.26479199999999], [-70.838644, 42.263498000000006], [-70.839003, 42.26313799999999], [-70.839611, 42.26188599999999], [-70.840627, 42.26098900000001], [-70.8424, 42.26055499999998], [-70.844627, 42.260426000000024], [-70.844781, 42.25969499999999], [-70.845324, 42.25901000000001], [-70.846477, 42.256097999999994], [-70.847015, 42.255264], [-70.84729, 42.254101000000006], [-70.84845, 42.253040000000006], [-70.848886, 42.252304], [-70.84892, 42.251769], [-70.848269, 42.250536], [-70.84822000000001, 42.24867100000002], [-70.848504, 42.24799800000002], [-70.849277, 42.24733100000002], [-70.841241, 42.24454599999999], [-70.841152, 42.24334600000001], [-70.85338, 42.239607000000014], [-70.8408, 42.213118], [-70.827015, 42.200785999999994], [-70.838864, 42.19480600000001], [-70.852165, 42.19046199999999], [-70.870248, 42.182471], [-70.887603, 42.173334999999994], [-70.893516, 42.169814], [-70.940768, 42.151365], [-70.931487, 42.116549], [-70.902412, 42.08589700000001], [-70.912962, 42.084417], [-70.909395, 42.068182], [-70.90846, 42.062885000000016], [-70.907549, 42.058795], [-70.906934, 42.056687], [-70.899729, 42.02529899999999], [-70.897418, 42.024941], [-70.89764900000002, 42.024224000000004], [-70.896618, 42.02328499999998], [-70.896893, 42.019419], [-70.897744, 42.01644900000001], [-70.899571, 42.002975], [-70.899187, 41.99637100000001], [-70.903366, 41.996627], [-70.908439, 41.996164], [-70.909652, 41.99641699999999], [-70.910681, 41.99692799999998], [-70.91112600000001, 41.99672799999999], [-70.912833, 41.997004999999994], [-70.913485, 41.997486], [-70.914077, 41.998452000000015], [-70.91409, 41.99882100000001], [-70.914498, 41.99933200000001], [-70.917343, 42.002263], [-70.917479, 42.00272999999999], [-70.917307, 42.00356], [-70.91739, 42.004636], [-70.918555, 42.005928], [-70.919516, 42.00666799999999], [-70.920672, 42.007259000000005], [-70.925364, 42.00890900000001], [-70.926923, 42.008873], [-70.930446, 42.007809], [-70.935392, 42.00782900000002], [-70.939364, 42.007281], [-70.942994, 42.006541000000006], [-70.95366400000002, 42.00585], [-70.979585, 42.010999], [-70.978786, 42.007394999999995], [-70.990607, 42.003908], [-71.002717, 41.998052999999985], [-71.054184, 41.98271600000002], [-71.054718, 41.985057000000005], [-71.055392, 41.985178000000005], [-71.10203, 41.993348], [-71.15645, 42.001042000000034], [-71.159263, 42.01543300000001], [-71.16868100000002, 42.061161], [-71.138607, 42.072774999999986], [-71.13902, 42.074831], [-71.138462, 42.076560000000015], [-71.139001, 42.07715], [-71.139469, 42.07829399999999], [-71.13941, 42.07976000000002], [-71.139592, 42.08127799999998], [-71.139413, 42.08204400000002], [-71.1388, 42.08311], [-71.138728, 42.08368600000001], [-71.13934, 42.08452], [-71.139428, 42.08486999999999], [-71.13837, 42.086780000000005], [-71.13766, 42.08865000000001], [-71.13666, 42.089649999999985], [-71.13581, 42.09082000000002], [-71.13526, 42.09255999999999], [-71.13377, 42.09579], [-71.13312, 42.096810000000005], [-71.1324, 42.09893000000001], [-71.131392, 42.10047800000002], [-71.13113, 42.10179000000001], [-71.13168, 42.10419], [-71.131596, 42.105500000000006], [-71.131739, 42.106548000000004], [-71.132028, 42.10749999999999], [-71.133021, 42.10936], [-71.133491, 42.110989000000004], [-71.133977, 42.111740999999995], [-71.135774, 42.113489999999985], [-71.136462, 42.11530600000002], [-71.138604, 42.119546], [-71.139102, 42.120235], [-71.140611, 42.121551999999994], [-71.146017, 42.125368999999985], [-71.147209, 42.12655600000001], [-71.148205, 42.128117000000024], [-71.14845600000001, 42.12874900000001], [-71.148542, 42.131160999999985], [-71.149757, 42.133631], [-71.150165, 42.13585299999998], [-71.150078, 42.13656499999998], [-71.149166, 42.13861199999999], [-71.163542, 42.141456999999996], [-71.162198, 42.145279], [-71.171993, 42.15152400000001], [-71.176368, 42.155360000000016], [-71.175763, 42.15559899999999], [-71.178013, 42.16396099999999], [-71.177853, 42.16413599999999], [-71.178135, 42.165045000000006], [-71.177899, 42.165567], [-71.178247, 42.16581299999998], [-71.179188, 42.16590299999999], [-71.17902, 42.16528299999999], [-71.179796, 42.164978000000005], [-71.180005, 42.165084], [-71.180182, 42.165496000000005], [-71.181313, 42.16552300000001], [-71.181753, 42.165141999999996], [-71.181712, 42.16475], [-71.182014, 42.16457199999999], [-71.182066, 42.164221999999995], [-71.182219, 42.164145999999995], [-71.182179, 42.163883], [-71.18253, 42.163722000000014], [-71.18280300000002, 42.16328699999999], [-71.183387, 42.16323800000002], [-71.183467, 42.163041], [-71.184323, 42.16249200000001], [-71.185032, 42.16245900000002], [-71.185833, 42.16216099999999], [-71.186607, 42.161486], [-71.187881, 42.161308000000005], [-71.188108, 42.16132499999998], [-71.188146, 42.16148900000001], [-71.188691, 42.161127000000015], [-71.186885, 42.153264000000014], [-71.22599, 42.13541000000001], [-71.22699, 42.134363000000015], [-71.227436, 42.13346000000001], [-71.227832, 42.13308000000001], [-71.229082, 42.132605000000005], [-71.230398, 42.13257400000001], [-71.230666, 42.13205900000001], [-71.231945, 42.13155899999999], [-71.232201, 42.13059400000001], [-71.233475, 42.128569], [-71.233307, 42.125958999999995], [-71.231098, 42.123298000000005], [-71.233168, 42.12300099999999], [-71.233293, 42.12341200000001], [-71.237955, 42.121614999999984], [-71.238117, 42.12135800000001], [-71.238681, 42.121358999999984], [-71.239073, 42.12096100000002], [-71.239898, 42.12083], [-71.239616, 42.12029400000001], [-71.239116, 42.120001], [-71.239148, 42.119688], [-71.238862, 42.119335], [-71.23913, 42.118826000000006], [-71.238927, 42.11882200000001], [-71.238979, 42.118551], [-71.23878100000002, 42.118478999999994], [-71.238764, 42.11807199999999], [-71.238449, 42.11775099999999], [-71.23884, 42.11714099999998], [-71.238736, 42.117042999999995], [-71.23903, 42.116797], [-71.23908, 42.11604799999998], [-71.239362, 42.11593400000001], [-71.239417, 42.115505999999996], [-71.239142, 42.11494299999999], [-71.238432, 42.114277000000016], [-71.237993, 42.11289600000002], [-71.238917, 42.112220000000015], [-71.238695, 42.10952999999999], [-71.238804, 42.106401], [-71.253302, 42.105343999999995], [-71.255347, 42.104131], [-71.271736, 42.09844499999999], [-71.280268, 42.088491999999995], [-71.295901, 42.116614], [-71.297154, 42.12050899999999], [-71.300223, 42.12591], [-71.29894, 42.1265], [-71.29991200000002, 42.129408999999995], [-71.30176, 42.136634], [-71.30212900000001, 42.13669900000001], [-71.302186, 42.136871], [-71.301655, 42.137224999999994], [-71.301379, 42.137194], [-71.301348, 42.13777300000002], [-71.300584, 42.138083], [-71.300665, 42.13830399999998], [-71.300347, 42.13847399999999], [-71.300323, 42.138658], [-71.299748, 42.138501000000005], [-71.299597, 42.13881700000001], [-71.29909300000001, 42.13886300000002], [-71.29921, 42.13986], [-71.298947, 42.140420000000006], [-71.299193, 42.140677999999994], [-71.299721, 42.140854], [-71.299724, 42.141226], [-71.299416, 42.14141399999998], [-71.299406, 42.141771000000006], [-71.300005, 42.14198699999999], [-71.300263, 42.14234799999999], [-71.300228, 42.14269500000001], [-71.300506, 42.142874], [-71.300443, 42.143138], [-71.29985, 42.14376199999999], [-71.299878, 42.144072999999985], [-71.300386, 42.14433799999999], [-71.300351, 42.14472099999999], [-71.300696, 42.14506799999997], [-71.300118, 42.14573100000001], [-71.300275, 42.146039], [-71.300678, 42.14625100000001], [-71.300302, 42.146582], [-71.300441, 42.14692900000001], [-71.300118, 42.147176], [-71.300562, 42.147506], [-71.300873, 42.14750299999999], [-71.300817, 42.14809099999997], [-71.301282, 42.148253000000004], [-71.301965, 42.148165999999996], [-71.301967, 42.148572], [-71.302202, 42.14865099999999], [-71.30234000000002, 42.149026], [-71.302603, 42.14897799999999], [-71.302813, 42.14848700000002], [-71.303139, 42.14842399999999], [-71.303227, 42.148669000000005], [-71.303566, 42.148693]]]}}