{"type": "Feature", "properties": {"district_name": "5th Congressional District", "chamber": "us-house", "vintage": "2012-2020"}, "geometry": {"type": "Polygon", "coordinates": [[[-71.585168, 42.310977], [-71.569085, 42.32037299999999], [-71.551126, 42.326395000000005], [-71.516527, 42.330336], [-71.50821599999999, 42.327928], [-71.486768, 42.330075], [-71.483682, 42.350107999999985], [-71.48340999999999, 42.35279], [-71.475505, 42.380632000000006], [-71.472689, 42.389984999999996], [-71.46945199999999, 42.40263099999999], [-71.442508, 42.40694199999999], [-71.43652399999999, 42.42174199999998], [-71.435507, 42.42203799999999], [-71.435662, 42.421079000000006], [-71.435417, 42.42046499999999], [-71.434867, 42.42010299999998], [-71.43329899999999, 42.41985999999999], [-71.433576, 42.41937299999999], [-71.433692, 42.418665999999995], [-71.434559, 42.4181], [-71.434832, 42.417532999999985], [-71.436121, 42.417682000000006], [-71.436628, 42.417441], [-71.436959, 42.41647599999999], [-71.438445, 42.41475400000001], [-71.438385, 42.414229], [-71.43794, 42.41389799999999], [-71.43654699999999, 42.41377800000001], [-71.436311, 42.41478999999999], [-71.43531899999999, 42.41544100000003], [-71.43473999999999, 42.414954], [-71.43328799999999, 42.414415999999996], [-71.43191999999999, 42.414408], [-71.43127299999999, 42.414232999999975], [-71.431609, 42.41384699999998], [-71.432232, 42.412529], [-71.433026, 42.411930000000005], [-71.43234, 42.41160599999999], [-71.430627, 42.411381], [-71.430443, 42.412309], [-71.430111, 42.41289], [-71.428598, 42.414013999999995], [-71.428282, 42.413854], [-71.427837, 42.41346999999998], [-71.42768199999999, 42.41300000000002], [-71.427848, 42.41240499999999], [-71.428688, 42.411127], [-71.428493, 42.410439], [-71.428594, 42.40971700000001], [-71.42846899999999, 42.409236], [-71.42728199999999, 42.408555999999976], [-71.42599899999999, 42.406677], [-71.425072, 42.40695900000001], [-71.42446, 42.407703999999995], [-71.42306599999999, 42.408235000000005], [-71.422747, 42.408575000000006], [-71.422625, 42.41019499999999], [-71.42397199999999, 42.412123], [-71.423355, 42.412189999999995], [-71.422719, 42.41267699999999], [-71.42205799999999, 42.41238999999998], [-71.42097, 42.41141499999999], [-71.419131, 42.411339999999996], [-71.417395, 42.40928600000001], [-71.41680000000001, 42.406563], [-71.414096, 42.40807099999999], [-71.412517, 42.4085], [-71.412216, 42.408879999999996], [-71.410156, 42.40932799999999], [-71.40972, 42.409622999999996], [-71.409711, 42.40995699999999], [-71.407617, 42.409383000000005], [-71.40645599999999, 42.409375], [-71.405186, 42.41176300000002], [-71.40662499999999, 42.41621799999999], [-71.40679, 42.417894], [-71.401799, 42.41755799999999], [-71.396264, 42.424020000000006], [-71.366326, 42.41271499999999], [-71.36554, 42.41303999999999], [-71.365212, 42.413352999999994], [-71.365038, 42.414553999999995], [-71.36381500000002, 42.41612000000001], [-71.364288, 42.417082000000015], [-71.36456299999999, 42.418238], [-71.364573, 42.420079], [-71.36441599999999, 42.42044099999999], [-71.36286299999999, 42.420943], [-71.360791, 42.42085900000002], [-71.357186, 42.41979], [-71.35640800000002, 42.420002000000004], [-71.35589000000002, 42.42082699999998], [-71.35528699999999, 42.421154999999985], [-71.354475, 42.421991999999996], [-71.35446100000001, 42.422816000000005], [-71.353107, 42.42615199999997], [-71.35256, 42.42692300000001], [-71.335379, 42.437775999999985], [-71.313592, 42.455011999999996], [-71.310931, 42.453594], [-71.309929, 42.453247999999995], [-71.30480899999999, 42.452759999999984], [-71.303207, 42.46134300000001], [-71.30208499999999, 42.46111700000001], [-71.30228199999999, 42.46201000000001], [-71.29518999999999, 42.46344600000001], [-71.29521, 42.463235000000005], [-71.28930199999999, 42.46455700000003], [-71.289676, 42.466182], [-71.28294, 42.461170999999986], [-71.28184, 42.45964], [-71.280851, 42.46016799999999], [-71.280711, 42.45999], [-71.28012100000001, 42.460059], [-71.279501, 42.459675999999995], [-71.277982, 42.46023499999999], [-71.277889, 42.460710000000006], [-71.272695, 42.459704], [-71.261515, 42.47624600000001], [-71.256553, 42.47855899999999], [-71.251986, 42.48501499999999], [-71.240983, 42.48988099999998], [-71.24089, 42.49003299999999], [-71.212245, 42.466349000000015], [-71.211855, 42.46652899999999], [-71.21091, 42.467415], [-71.210606, 42.468521], [-71.210289, 42.47091500000002], [-71.204291, 42.46587099999999], [-71.188279, 42.479696000000004], [-71.18739599999999, 42.479364000000004], [-71.18548, 42.47996699999999], [-71.186562, 42.480954], [-71.186452, 42.481023000000015], [-71.184641, 42.48173299999999], [-71.182944, 42.48212199999999], [-71.181375, 42.483386], [-71.181501, 42.483622], [-71.16892399999999, 42.487086999999995], [-71.17071899999999, 42.489754999999995], [-71.168914, 42.490547000000014], [-71.168444, 42.498299], [-71.16923299999999, 42.506519], [-71.169923, 42.506730999999995], [-71.169423, 42.50732299999999], [-71.16972, 42.507450999999996], [-71.169324, 42.507872], [-71.169473, 42.509487000000014], [-71.169876, 42.50972099999999], [-71.169566, 42.510203999999995], [-71.17025799999999, 42.51045200000001], [-71.169635, 42.51146199999998], [-71.170063, 42.51559700000001], [-71.154298, 42.522127], [-71.153052, 42.52251199999998], [-71.144193, 42.526427], [-71.13545599999999, 42.53000600000001], [-71.124492, 42.50891800000001], [-71.123865, 42.50761699999998], [-71.12417599999999, 42.507526], [-71.123463, 42.506174], [-71.122395, 42.504152999999995], [-71.12195899999999, 42.50427799999999], [-71.11976, 42.500291999999995], [-71.10072199999999, 42.50225799999998], [-71.090115, 42.501260999999985], [-71.08550199999999, 42.492258000000014], [-71.07524000000001, 42.488008], [-71.07652, 42.47819700000001], [-71.07668699999999, 42.47748599999999], [-71.077707, 42.47739099999998], [-71.077985, 42.473974999999996], [-71.06954, 42.471689], [-71.061269, 42.47265099999999], [-71.06132900000001, 42.474222999999995], [-71.053496, 42.475895000000016], [-71.04689499999999, 42.46869499999999], [-71.04479599999999, 42.466195000000006], [-71.044729, 42.465724000000016], [-71.043734, 42.464596], [-71.03726999999999, 42.457674000000004], [-71.025864, 42.44474300000001], [-71.024958, 42.44538899999999], [-71.023679, 42.44599500000001], [-71.02029499999999, 42.448896], [-71.018495, 42.45009599999999], [-71.018295, 42.44959599999998], [-71.016795, 42.44819599999999], [-71.012095, 42.442796], [-71.009495, 42.441196], [-71.011995, 42.439696000000005], [-71.010295, 42.43869600000001], [-71.01049499999999, 42.437396], [-71.011579, 42.436179], [-71.01074299999999, 42.435262], [-71.01088299999999, 42.43440699999999], [-71.010327, 42.434098999999996], [-71.01086699999999, 42.43389599999998], [-71.010954, 42.43366], [-71.01117599999999, 42.43377799999999], [-71.01171599999999, 42.433705], [-71.01191, 42.433319000000004], [-71.011534, 42.433335], [-71.011158, 42.43314300000001], [-71.010403, 42.433521], [-71.010742, 42.433767], [-71.010164, 42.433796], [-71.009864, 42.43398099999999], [-71.00972, 42.433862], [-71.00976, 42.43328899999999], [-71.009577, 42.433189000000006], [-71.009613, 42.43403], [-71.00937499999999, 42.433989], [-71.009277, 42.43427799999999], [-71.00862599999999, 42.434352999999994], [-71.007873, 42.433972], [-71.006974, 42.43383800000001], [-71.005875, 42.433029], [-71.004632, 42.43305500000001], [-71.00330199999999, 42.43270299999998], [-71.003219, 42.43243700000001], [-71.00334699999999, 42.43220900000001], [-71.004595, 42.431715], [-71.004595, 42.429814], [-71.003275, 42.429709999999986], [-71.001094, 42.431296], [-70.998475, 42.431296], [-70.99571399999999, 42.430855000000015], [-70.994849, 42.43115], [-70.992023, 42.43413499999999], [-70.99011999999999, 42.43487700000001], [-70.987805, 42.43399799999998], [-70.985754, 42.432556999999996], [-70.983708, 42.431663], [-70.982294, 42.431296], [-70.979648, 42.432631], [-70.975194, 42.436896000000004], [-70.971594, 42.442696], [-70.968594, 42.444396], [-70.966293, 42.44349700000001], [-70.95079299999999, 42.44429599999999], [-70.951393, 42.436996], [-70.95299299999999, 42.42939599999999], [-70.959093, 42.41859699999998], [-70.962093, 42.412397000000006], [-70.95949399999999, 42.407498000000004], [-70.924593, 42.386798], [-70.917892, 42.385997], [-70.96704799999999, 42.356953999999995], [-70.967257, 42.357069], [-70.96882, 42.35586600000001], [-70.968935, 42.35592500000001], [-70.972893, 42.35359699999999], [-70.985593, 42.356796999999986], [-70.986597, 42.36457199999999], [-71.000736, 42.364818], [-71.000695, 42.36464], [-71.010449, 42.36503399999999], [-71.006123, 42.376052], [-71.00020599999999, 42.37775400000002], [-70.999347, 42.37766500000001], [-70.99931099999999, 42.37779299999999], [-70.99669399999999, 42.37874100000001], [-70.994648, 42.38114999999999], [-70.994681, 42.38270899999999], [-70.994239, 42.384647000000015], [-70.988281, 42.38710700000001], [-70.98778, 42.38694299999998], [-70.986731, 42.387007], [-70.986053, 42.388116000000004], [-70.98728899999999, 42.388734], [-70.987511, 42.38922900000001], [-70.987571, 42.390581999999995], [-70.98719899999999, 42.391462999999995], [-70.987133, 42.392123], [-70.987442, 42.39274200000001], [-70.98977099999999, 42.393240000000006], [-70.99381799999999, 42.392924], [-70.995361, 42.393813], [-70.996475, 42.396308000000005], [-70.998158, 42.39688700000001], [-70.998768, 42.396973], [-71.001407, 42.39674000000001], [-71.005861, 42.393892], [-71.008945, 42.39519200000001], [-71.009894, 42.395475000000005], [-71.01192999999999, 42.395751999999995], [-71.01127199999999, 42.396589000000006], [-71.013395, 42.39739799999999], [-71.009629, 42.400166999999996], [-71.009445, 42.400475], [-71.009396, 42.401183], [-71.010892, 42.40179499999999], [-71.011555, 42.401907], [-71.013772, 42.402964], [-71.01703499999999, 42.40271499999999], [-71.017826, 42.402883], [-71.01808799999999, 42.40335699999999], [-71.018878, 42.403718], [-71.020853, 42.403511], [-71.021157, 42.403842000000004], [-71.021198, 42.404284], [-71.020436, 42.40477500000001], [-71.020444, 42.40511699999999], [-71.02191599999999, 42.405287], [-71.022443, 42.40548700000001], [-71.02285499999999, 42.40512499999999], [-71.02327799999999, 42.40554399999999], [-71.023847, 42.40532400000001], [-71.024901, 42.40590000000002], [-71.025753, 42.405756999999994], [-71.026237, 42.40592499999999], [-71.026888, 42.40655000000001], [-71.026898, 42.40733199999999], [-71.027115, 42.40778199999998], [-71.02924, 42.41056799999998], [-71.033203, 42.41422599999999], [-71.033095, 42.414696000000006], [-71.032493, 42.415506000000015], [-71.031275, 42.418433000000014], [-71.028065, 42.42415499999999], [-71.050324, 42.42299500000001], [-71.05442, 42.420044999999995], [-71.054735, 42.42003799999999], [-71.05685, 42.418671], [-71.060441, 42.416007], [-71.061584, 42.41561000000001], [-71.064559, 42.41533399999999], [-71.06450699999999, 42.41524099999999], [-71.073296, 42.414796], [-71.073196, 42.41299599999999], [-71.07211099999999, 42.412081000000015], [-71.071907, 42.411672], [-71.071873, 42.411099000000014], [-71.072161, 42.41036299999999], [-71.073624, 42.40930300000001], [-71.073801, 42.409056], [-71.07374399999999, 42.40867900000001], [-71.07365899999999, 42.40851899999999], [-71.072692, 42.408237], [-71.071297, 42.40692200000001], [-71.073448, 42.402665000000006], [-71.075988, 42.399705999999995], [-71.076419, 42.39777299999999], [-71.075996, 42.39639599999999], [-71.077152, 42.39677799999999], [-71.083423, 42.40001299999999], [-71.085687, 42.400650999999996], [-71.091993, 42.39889999999999], [-71.096688, 42.400453999999996], [-71.100334, 42.39615], [-71.112374, 42.400226], [-71.11401, 42.400987999999984], [-71.115346, 42.40272799999999], [-71.115541, 42.40514499999999], [-71.119328, 42.40652499999999], [-71.119456, 42.406327], [-71.121752, 42.407116], [-71.121556, 42.407433999999995], [-71.12399599999999, 42.408268000000014], [-71.123389, 42.40914699999998], [-71.12570099999999, 42.409963000000005], [-71.126179, 42.409227], [-71.128101, 42.410720000000005], [-71.12709699999999, 42.41224400000001], [-71.12987199999999, 42.41338400000001], [-71.125818, 42.418088], [-71.127601, 42.418071], [-71.13073399999999, 42.417243000000006], [-71.131467, 42.416765999999996], [-71.131653, 42.415594999999975], [-71.131939, 42.41527900000001], [-71.132317, 42.415215999999994], [-71.132398, 42.41489699999999], [-71.132762, 42.41162699999999], [-71.132273, 42.410126999999996], [-71.132415, 42.409009999999995], [-71.134379, 42.406063], [-71.134742, 42.40291799999999], [-71.136391, 42.40096499999999], [-71.13747099999999, 42.40043100000001], [-71.13933399999999, 42.400148], [-71.140412, 42.399719999999995], [-71.14267, 42.39789100000001], [-71.143593, 42.39741199999999], [-71.152057, 42.40104], [-71.156302, 42.395852], [-71.15316899999999, 42.39564300000001], [-71.150115, 42.394932999999995], [-71.145248, 42.392878], [-71.141121, 42.392092000000005], [-71.141699, 42.390658], [-71.143097, 42.38903], [-71.143436, 42.38871199999999], [-71.144134, 42.388679999999994], [-71.143683, 42.38825], [-71.14164, 42.387051], [-71.141637, 42.387190000000004], [-71.134087, 42.383840000000006], [-71.132215, 42.385532], [-71.13172999999999, 42.385185], [-71.12906699999999, 42.38617099999998], [-71.12961899999999, 42.38665800000002], [-71.127558, 42.387402], [-71.12900599999999, 42.39007200000002], [-71.127685, 42.38985100000001], [-71.12764299999999, 42.39037799999999], [-71.12684899999999, 42.390342000000004], [-71.125751, 42.391636000000005], [-71.125266, 42.392586], [-71.12487399999999, 42.39269600000001], [-71.125284, 42.393061999999986], [-71.12436799999999, 42.39365299999999], [-71.122838, 42.39224199999999], [-71.12097399999999, 42.39370599999999], [-71.120214, 42.392641000000005], [-71.117085, 42.389580999999986], [-71.117966, 42.389126000000005], [-71.11739399999999, 42.38841499999999], [-71.11819299999999, 42.388009], [-71.115584, 42.385158], [-71.111656, 42.38174900000002], [-71.110643, 42.38163999999999], [-71.107855, 42.379374], [-71.108457, 42.379112000000006], [-71.103172, 42.374297000000006], [-71.09746299999999, 42.374431], [-71.093745, 42.374251], [-71.094488, 42.37291299999998], [-71.095322, 42.37301500000001], [-71.096875, 42.370475], [-71.097529, 42.371021], [-71.096229, 42.373132000000005], [-71.097119, 42.37325099999999], [-71.09811200000001, 42.371495], [-71.098979, 42.37219], [-71.099925, 42.370872999999996], [-71.098849, 42.37048499999999], [-71.09996199999999, 42.368902999999996], [-71.10053800000001, 42.36913], [-71.10122299999999, 42.368115], [-71.10175, 42.36830199999999], [-71.103146, 42.36634400000002], [-71.106707, 42.363053000000015], [-71.10824099999999, 42.36404999999999], [-71.108841, 42.363845999999995], [-71.109214, 42.366169], [-71.110411, 42.36681600000002], [-71.109438, 42.36777899999999], [-71.109905, 42.36800000000001], [-71.11074599999999, 42.36830599999999], [-71.111094, 42.367772999999985], [-71.113512, 42.36856400000001], [-71.11356099999999, 42.366012], [-71.113901, 42.364478], [-71.117193, 42.36422899999999], [-71.11719699999999, 42.36719699999999], [-71.11849699999999, 42.36839699999999], [-71.123297, 42.368996], [-71.12749699999999, 42.372996], [-71.128338, 42.37342400000002], [-71.129627, 42.373757], [-71.131518, 42.37372599999999], [-71.13266, 42.37318099999999], [-71.133197, 42.372596], [-71.132997, 42.371697], [-71.131997, 42.369696], [-71.139997, 42.36449599999999], [-71.14379699999999, 42.364996], [-71.14509799999999, 42.36449199999999], [-71.14679699999999, 42.36229599999999], [-71.14856499999999, 42.361174000000005], [-71.155303, 42.359898], [-71.159598, 42.359996], [-71.161878, 42.35914099999999], [-71.163716, 42.358248999999994], [-71.16624399999999, 42.35960399999999], [-71.167766, 42.36012099999998], [-71.169506, 42.36019], [-71.17232899999999, 42.359414999999984], [-71.17485599999999, 42.35926799999999], [-71.178845, 42.35978], [-71.182042, 42.36080600000001], [-71.18368, 42.358829], [-71.196058, 42.361747], [-71.192101, 42.365505999999996], [-71.19348099999999, 42.36656], [-71.194865, 42.36715799999999], [-71.195061, 42.367702000000016], [-71.195301, 42.367872999999996], [-71.195821, 42.36782100000001], [-71.196805, 42.36711000000001], [-71.197234, 42.367123000000014], [-71.19789399999999, 42.367480000000015], [-71.198649, 42.36739299999999], [-71.20109599999999, 42.36613599999999], [-71.20302699999999, 42.36577299999999], [-71.205023, 42.36571500000001], [-71.206321, 42.36461299999999], [-71.207466, 42.364159999999984], [-71.207948, 42.364176000000015], [-71.208922, 42.364536], [-71.210318, 42.364149999999995], [-71.211362, 42.364297], [-71.213326, 42.364896], [-71.214368, 42.36558100000002], [-71.214973, 42.365697999999995], [-71.21553399999999, 42.365608], [-71.216445, 42.365913], [-71.21709299999999, 42.36661399999999], [-71.25113200000001, 42.35653099999998], [-71.253068, 42.35570399999998], [-71.25350999999999, 42.354873000000005], [-71.254103, 42.35472], [-71.25568299999999, 42.353836], [-71.256466, 42.354031], [-71.25645999999999, 42.354816], [-71.260385, 42.35363299999999], [-71.25914500000002, 42.35172399999999], [-71.258686, 42.349484], [-71.259065, 42.348803], [-71.25988199999999, 42.348659999999995], [-71.260515, 42.348222000000014], [-71.26055699999999, 42.347938], [-71.260251, 42.347079000000015], [-71.25979099999999, 42.34650300000001], [-71.25974599999999, 42.345898], [-71.25985299999999, 42.34551900000001], [-71.261344, 42.344373000000004], [-71.261407, 42.343594], [-71.261884, 42.34186900000001], [-71.261344, 42.341239], [-71.260645, 42.34091999999999], [-71.2586, 42.341206], [-71.257082, 42.34073400000001], [-71.255873, 42.33996599999999], [-71.25573899999999, 42.339538999999995], [-71.25583, 42.338995999999995], [-71.256952, 42.337980999999985], [-71.258901, 42.33678999999999], [-71.25920099999999, 42.335685], [-71.260075, 42.334844], [-71.26122, 42.334605], [-71.263278, 42.334983], [-71.264455, 42.334604000000006], [-71.264802, 42.33417399999999], [-71.264884, 42.33330899999999], [-71.265393, 42.33300900000001], [-71.26518899999999, 42.332497], [-71.265225, 42.33193], [-71.26570099999999, 42.33131799999999], [-71.268183, 42.33057900000001], [-71.269767, 42.33118100000001], [-71.270246, 42.33098], [-71.270279, 42.330522], [-71.269763, 42.32976399999999], [-71.27028000000001, 42.328731000000005], [-71.269919, 42.32809599999999], [-71.293666, 42.322152], [-71.300102, 42.32039700000001], [-71.31158599999999, 42.31779900000001], [-71.319101, 42.31559700000002], [-71.327327, 42.313745999999995], [-71.32974999999999, 42.312991000000004], [-71.323662, 42.297415], [-71.30848399999999, 42.270793999999995], [-71.302922, 42.24827400000001], [-71.33249599999999, 42.249075000000005], [-71.33267599999999, 42.248449999999984], [-71.33243399999999, 42.247729000000014], [-71.332025, 42.247620000000005], [-71.33153899999999, 42.247115], [-71.330176, 42.24637300000001], [-71.32921999999999, 42.24530800000001], [-71.329776, 42.242823], [-71.33058, 42.24182299999998], [-71.331124, 42.23880199999999], [-71.330992, 42.23667000000002], [-71.329897, 42.234885], [-71.329561, 42.233670000000004], [-71.329802, 42.233168], [-71.330991, 42.231966], [-71.33390399999999, 42.230180000000004], [-71.334538, 42.229381999999994], [-71.33655399999999, 42.227643], [-71.338225, 42.226727999999994], [-71.340679, 42.224788999999994], [-71.341559, 42.22268899999998], [-71.341635, 42.22180100000001], [-71.342693, 42.22148599999999], [-71.34302, 42.22123199999999], [-71.34298000000001, 42.220039], [-71.342126, 42.219519], [-71.341071, 42.218126000000005], [-71.33963299999999, 42.217562], [-71.338683, 42.216778], [-71.338369, 42.21580999999998], [-71.33845699999999, 42.21518299999999], [-71.33945, 42.214099000000004], [-71.340171, 42.21384899999999], [-71.34111899999999, 42.214246], [-71.346076, 42.21552400000003], [-71.34698, 42.21555499999999], [-71.349023, 42.21454299999999], [-71.350387, 42.213522], [-71.351591, 42.211044], [-71.351657, 42.209832999999996], [-71.351434, 42.208997999999994], [-71.352054, 42.20770099999998], [-71.35186999999999, 42.207049999999995], [-71.35086600000001, 42.20600799999999], [-71.349338, 42.20507499999999], [-71.34803099999999, 42.204682999999996], [-71.34658, 42.20476599999999], [-71.34653000000002, 42.20417500000001], [-71.346847, 42.20371399999999], [-71.34642, 42.202932], [-71.345772, 42.202196], [-71.34417599999999, 42.201287], [-71.34416999999999, 42.200703000000004], [-71.361986, 42.195761000000005], [-71.378391, 42.193472], [-71.384756, 42.19203300000001], [-71.385244, 42.19180500000001], [-71.404381, 42.188215], [-71.40222, 42.178797999999986], [-71.415047, 42.178483], [-71.423326, 42.17798200000002], [-71.423598, 42.179258], [-71.430174, 42.179386], [-71.44406699999999, 42.17488900000001], [-71.463957, 42.158239], [-71.47274399999999, 42.15687299999999], [-71.47811899999999, 42.156782], [-71.478028, 42.165743000000006], [-71.492429, 42.16608600000001], [-71.497378, 42.166643000000015], [-71.50262599999999, 42.191416], [-71.496335, 42.195058], [-71.482345, 42.204035000000005], [-71.46027099999999, 42.216251], [-71.463692, 42.22614700000001], [-71.464381, 42.22728200000001], [-71.46716099999999, 42.23078699999999], [-71.475359, 42.22948499999999], [-71.486297, 42.23124999999998], [-71.486001, 42.24696], [-71.522757, 42.255207], [-71.522184, 42.266444000000014], [-71.52259099999999, 42.26641199999999], [-71.52333, 42.265944999999995], [-71.524661, 42.265834999999996], [-71.525508, 42.265901999999976], [-71.52654, 42.266333], [-71.52797, 42.26642400000001], [-71.53197999999999, 42.266127999999995], [-71.53514299999999, 42.265058999999994], [-71.537052, 42.264643000000014], [-71.53790599999999, 42.264615], [-71.53839099999999, 42.264203], [-71.539061, 42.263180000000006], [-71.53963, 42.262780000000014], [-71.540054, 42.262716], [-71.541223, 42.263334], [-71.5417, 42.26398099999997], [-71.54251599999999, 42.26408500000001], [-71.542993, 42.263917000000006], [-71.543716, 42.26398599999998], [-71.54417, 42.264448999999985], [-71.544131, 42.264714999999995], [-71.54437, 42.26485000000001], [-71.544624, 42.264847999999986], [-71.544901, 42.264514], [-71.545678, 42.264694], [-71.546078, 42.264906], [-71.545917, 42.26521999999999], [-71.54635499999999, 42.265422000000015], [-71.546601, 42.26550700000001], [-71.546971, 42.26526], [-71.547186, 42.26563299999997], [-71.547748, 42.265661000000016], [-71.54814, 42.26603099999999], [-71.548841, 42.265957], [-71.54946600000001, 42.266124], [-71.542937, 42.26718], [-71.542879, 42.26979899999998], [-71.579711, 42.305511], [-71.585168, 42.310977]]]}}