{"type": "Feature", "properties": {"district_name": "9th Congressional District", "chamber": "us-house", "vintage": "2022-present"}, "geometry": {"type": "Polygon", "coordinates": [[[-71.138353, 41.603692], [-71.135399, 41.625648000000005], [-71.133918, 41.628783000000006], [-71.133312, 41.629658], [-71.133334, 41.630348], [-71.133062, 41.63071699999999], [-71.133038, 41.630968], [-71.134052, 41.63201899999999], [-71.13419, 41.633997000000015], [-71.133683, 41.63512200000001], [-71.132757, 41.636435000000006], [-71.118971, 41.68062899999999], [-71.114407, 41.69280400000001], [-71.105693, 41.69280400000001], [-71.06663, 41.68561900000002], [-70.943305, 41.74451499999999], [-70.922222, 41.754840999999985], [-70.922385, 41.755119000000015], [-70.922739, 41.75508300000001], [-70.922696, 41.755358], [-70.923055, 41.755314000000006], [-70.92322, 41.75565199999999], [-70.923444, 41.755719000000006], [-70.923552, 41.755548], [-70.924052, 41.75565499999999], [-70.92453, 41.75596299999999], [-70.924611, 41.75624799999999], [-70.92489, 41.75630300000002], [-70.924913, 41.756590000000024], [-70.925381, 41.756609999999995], [-70.92538, 41.75680200000001], [-70.926146, 41.757017000000005], [-70.926424, 41.75761700000002], [-70.92624, 41.757977], [-70.926426, 41.758382], [-70.926261, 41.758579999999995], [-70.926316, 41.75884500000001], [-70.907184, 41.76354299999999], [-70.921792, 41.79126399999999], [-70.8964, 41.794320000000006], [-70.89864400000002, 41.81487700000002], [-70.893777, 41.82659100000002], [-70.893454, 41.82790100000001], [-70.893973, 41.828881], [-70.91870500000002, 41.851943], [-70.918897, 41.852728000000006], [-70.917131, 41.85577700000002], [-70.917189, 41.856527000000014], [-70.916815, 41.85720000000001], [-70.916899, 41.857502], [-70.917264, 41.85780599999998], [-70.917181, 41.85814499999999], [-70.917709, 41.85852100000001], [-70.917748, 41.858715999999994], [-70.916262, 41.85992999999999], [-70.914541, 41.859591], [-70.914116, 41.86029399999999], [-70.914382, 41.86048300000001], [-70.914321, 41.860587], [-70.913448, 41.860685], [-70.912876, 41.861726999999995], [-70.913065, 41.86192999999999], [-70.914098, 41.861943000000004], [-70.914447, 41.862132], [-70.914595, 41.86352], [-70.91361, 41.86364900000001], [-70.913508, 41.86385900000001], [-70.913827, 41.86409999999999], [-70.915349, 41.86441399999999], [-70.914689, 41.86527500000001], [-70.914928, 41.86545599999999], [-70.915936, 41.86566900000002], [-70.915988, 41.865806000000006], [-70.915093, 41.866055999999986], [-70.915041, 41.866310999999996], [-70.915509, 41.86667299999999], [-70.916738, 41.86716700000001], [-70.916472, 41.86768299999998], [-70.91492, 41.868431], [-70.914624, 41.86904500000001], [-70.913182, 41.86993699999999], [-70.912968, 41.87024399999999], [-70.913035, 41.870596000000006], [-70.914616, 41.872081], [-70.915066, 41.872316], [-70.91605800000002, 41.872350999999995], [-70.916327, 41.87257], [-70.916096, 41.874833], [-70.916611, 41.87652900000001], [-70.916411, 41.87691699999999], [-70.919205, 41.87902299999999], [-70.963344, 41.89638599999999], [-70.963492, 41.897118], [-70.964219, 41.898187000000014], [-70.964761, 41.899394], [-70.967133, 41.90125400000001], [-70.970408, 41.90132000000001], [-70.971963, 41.90172900000002], [-70.972261, 41.901644000000005], [-70.97221, 41.901456], [-70.972505, 41.90133399999999], [-70.974738, 41.90137], [-70.97513, 41.90117900000001], [-70.975369, 41.901379], [-70.975803, 41.90137300000001], [-70.976046, 41.90115], [-70.976282, 41.90115099999999], [-70.976379, 41.901339], [-70.976661, 41.901382000000005], [-70.9772, 41.902115], [-70.977862, 41.902534], [-70.977982, 41.90288400000001], [-70.978203, 41.903025], [-70.978316, 41.90352899999999], [-70.978737, 41.903892], [-70.980102, 41.903608000000006], [-70.981114, 41.90497], [-70.982452, 41.905790999999994], [-70.983494, 41.906015000000004], [-70.983802, 41.906487000000006], [-70.984095, 41.906569000000005], [-70.984874, 41.907451], [-70.985165, 41.907454], [-70.985761, 41.90689], [-70.986745, 41.90636400000001], [-70.987256, 41.905808], [-70.987837, 41.905677], [-70.988902, 41.90580400000001], [-70.989416, 41.90606], [-70.989679, 41.906493000000005], [-70.990591, 41.906689], [-70.99134, 41.90655299999999], [-70.991849, 41.90608099999998], [-70.992289, 41.90636400000001], [-70.99241, 41.90624599999999], [-70.992745, 41.9064], [-70.992933, 41.906228], [-70.993152, 41.906445000000005], [-70.992307, 41.907059000000004], [-70.991584, 41.90807300000001], [-70.99115, 41.909133], [-70.990984, 41.910059], [-70.992033, 41.91575100000001], [-70.992849, 41.91632899999998], [-70.993666, 41.916459], [-70.99431, 41.916002], [-70.994367, 41.915065000000006], [-70.994517, 41.91494], [-70.995822, 41.91524000000001], [-70.996347, 41.915627000000015], [-70.997132, 41.916682000000016], [-70.997395, 41.917401999999996], [-70.997494, 41.91844], [-70.998995, 41.918693000000005], [-70.999888, 41.918637], [-71.000303, 41.91888600000001], [-71.001089, 41.91880599999999], [-71.001003, 41.917673], [-71.003484, 41.917363000000016], [-71.005368, 41.914753000000005], [-71.005437, 41.913693000000016], [-71.004625, 41.911311], [-71.004629, 41.91058300000001], [-71.00478, 41.910262], [-71.005709, 41.90938], [-71.006978, 41.908953], [-71.01042600000001, 41.90720299999999], [-71.011188, 41.90700099999997], [-71.012449, 41.908567], [-71.013459, 41.91082099999999], [-71.01334, 41.91323799999999], [-71.015685, 41.917722999999995], [-71.016369, 41.920366], [-71.018837, 41.924260000000004], [-71.021672, 41.923474000000006], [-71.02517, 41.92322599999999], [-71.027171, 41.922662], [-71.028278, 41.922536999999984], [-71.033381, 41.92305900000001], [-71.035648, 41.923657], [-71.035062, 41.92446999999999], [-71.038087, 41.92679000000001], [-71.037534, 41.927528], [-71.036854, 41.929131000000005], [-71.035648, 41.93121299999999], [-71.034721, 41.932361], [-71.036036, 41.933088999999995], [-71.037153, 41.93225799999998], [-71.037883, 41.933559999999986], [-71.040948, 41.93508100000001], [-71.046191, 41.93616200000002], [-71.04718, 41.933929], [-71.049999, 41.93374399999999], [-71.051081, 41.93382900000001], [-71.051243, 41.93510099999999], [-71.052836, 41.93947], [-71.053409, 41.940488999999985], [-71.056722, 41.943101999999996], [-71.060327, 41.94512300000001], [-71.064644, 41.94664099999999], [-71.067299, 41.947095], [-71.07289400000002, 41.94899499999999], [-71.074815, 41.945876000000005], [-71.07981, 41.93845499999999], [-71.080252, 41.93845699999999], [-71.0844, 41.94125499999999], [-71.08549, 41.941743], [-71.075073, 41.94698900000003], [-71.074523, 41.947474000000014], [-71.074038, 41.948113], [-71.073854, 41.94877700000001], [-71.073508, 41.954854000000005], [-71.070324, 41.954069], [-71.067907, 41.96319500000001], [-71.064474, 41.964090999999996], [-71.061447, 41.96440299999996], [-71.061598, 41.96701200000001], [-71.06344, 41.966946000000014], [-71.063596, 41.967105000000004], [-71.063656, 41.96815399999999], [-71.061668, 41.96822800000001], [-71.061703, 41.97042400000001], [-71.063253, 41.972199], [-71.063727, 41.97325399999998], [-71.060407, 41.973718], [-71.061028, 41.978883], [-71.066308, 41.978037000000015], [-71.068118, 41.97965500000001], [-71.069272, 41.98107799999999], [-71.069742, 41.98111099999999], [-71.070689, 41.985650000000014], [-71.070699, 41.986438], [-71.070345, 41.987840999999975], [-71.054718, 41.985057000000005], [-71.054184, 41.98271600000002], [-71.002717, 41.998052999999985], [-70.990607, 42.003908], [-70.978786, 42.007394999999995], [-70.979585, 42.010999], [-70.95366400000002, 42.00585], [-70.942994, 42.006541000000006], [-70.939364, 42.007281], [-70.935392, 42.00782900000002], [-70.930446, 42.007809], [-70.926923, 42.008873], [-70.925364, 42.00890900000001], [-70.920672, 42.007259000000005], [-70.919516, 42.00666799999999], [-70.918555, 42.005928], [-70.91739, 42.004636], [-70.917307, 42.00356], [-70.917479, 42.00272999999999], [-70.917343, 42.002263], [-70.914498, 41.99933200000001], [-70.91409, 41.99882100000001], [-70.914077, 41.998452000000015], [-70.913485, 41.997486], [-70.912833, 41.997004999999994], [-70.91112600000001, 41.99672799999999], [-70.910681, 41.99692799999998], [-70.909652, 41.99641699999999], [-70.908439, 41.996164], [-70.903366, 41.996627], [-70.899187, 41.99637100000001], [-70.899571, 42.002975], [-70.897744, 42.01644900000001], [-70.896893, 42.019419], [-70.896618, 42.02328499999998], [-70.89764900000002, 42.024224000000004], [-70.897418, 42.024941], [-70.899729, 42.02529899999999], [-70.906934, 42.056687], [-70.907549, 42.058795], [-70.90846, 42.062885000000016], [-70.909395, 42.068182], [-70.912962, 42.084417], [-70.902412, 42.08589700000001], [-70.931487, 42.116549], [-70.940768, 42.151365], [-70.893516, 42.169814], [-70.887603, 42.173334999999994], [-70.870248, 42.182471], [-70.852165, 42.19046199999999], [-70.838864, 42.19480600000001], [-70.827015, 42.200785999999994], [-70.8408, 42.213118], [-70.85338, 42.239607000000014], [-70.841152, 42.24334600000001], [-70.841241, 42.24454599999999], [-70.849277, 42.24733100000002], [-70.848504, 42.24799800000002], [-70.84822000000001, 42.24867100000002], [-70.848269, 42.250536], [-70.84892, 42.251769], [-70.848886, 42.252304], [-70.84845, 42.253040000000006], [-70.84729, 42.254101000000006], [-70.847015, 42.255264], [-70.846477, 42.256097999999994], [-70.845324, 42.25901000000001], [-70.844781, 42.25969499999999], [-70.844627, 42.260426000000024], [-70.8424, 42.26055499999998], [-70.840627, 42.26098900000001], [-70.839611, 42.26188599999999], [-70.839003, 42.26313799999999], [-70.838644, 42.263498000000006], [-70.83574000000002, 42.26479199999999], [-70.826986, 42.264368], [-70.825638, 42.26463299999999], [-70.82571, 42.26477099999999], [-70.800346, 42.29311299999998], [-70.749488, 42.351777999999996], [-70.729212, 42.373848], [-70.67569, 42.375097999999994], [-70.749487, 42.29535600000001], [-70.751049, 42.293114], [-70.749486, 42.291165], [-70.732356, 42.25010099999999], [-70.702351, 42.199456], [-70.699515, 42.19117800000002], [-70.694278, 42.17105699999999], [-70.691099, 42.163671], [-70.684741, 42.151], [-70.678461, 42.14074799999999], [-70.675077, 42.13619899999999], [-70.669571, 42.129395], [-70.665784, 42.12510000000001], [-70.624483, 42.125107], [-70.624482, 42.15722500000002], [-70.62258, 42.154424], [-70.608381, 42.13847900000001], [-70.499477, 42.130739000000005], [-70.414803, 42.125097999999994], [-70.411454, 42.125099], [-70.374474, 42.12155], [-70.322522, 42.11791500000001], [-70.27743, 42.114344999999986], [-70.253194, 42.125102999999996], [-70.249472, 42.126926000000005], [-70.229175, 42.131189], [-70.215587, 42.132785000000005], [-70.206221, 42.13305399999999], [-70.1954, 42.13154900000001], [-70.184474, 42.13383700000001], [-70.172542, 42.13451500000001], [-70.150676, 42.131465], [-70.135694, 42.12734900000001], [-70.130377, 42.126929000000004], [-70.124471, 42.12604100000001], [-70.120691, 42.12510099999998], [-70.067098, 42.105326999999996], [-70.040302, 42.09163400000001], [-70.011591, 42.073378], [-69.996279, 42.059687], [-69.969482, 42.029254], [-69.954169, 42.00795500000001], [-69.94821, 42.000105999999995], [-69.940645, 41.992345], [-69.929109, 41.97847599999998], [-69.923027, 41.967760999999996], [-69.917706, 41.95924699999999], [-69.909178, 41.94206200000001], [-69.902402, 41.922145999999984], [-69.89530500000001, 41.90675300000001], [-69.880018, 41.86197800000001], [-69.877762, 41.85284599999999], [-69.876263, 41.84896999999999], [-69.874498, 41.842448000000005], [-69.87315, 41.838648000000006], [-69.872379, 41.831586], [-69.869499, 41.82662700000001], [-69.866525, 41.81701100000002], [-69.86557500000002, 41.80767099999999], [-69.865779, 41.795636], [-69.865595, 41.790980000000005], [-69.862511, 41.773522], [-69.862366, 41.76631799999999], [-69.860058, 41.758503000000005], [-69.859846, 41.75011000000002], [-69.85913000000001, 41.73649999999999], [-69.858861, 41.720383], [-69.85895, 41.706916], [-69.86054, 41.69232599999999], [-69.862098, 41.68497099999998], [-69.862876, 41.67315300000002], [-69.868125, 41.65679100000001], [-69.871064, 41.65256699999999], [-69.874459, 41.645026000000016], [-69.884485, 41.630303000000005], [-69.889012, 41.625195999999995], [-69.888835, 41.625113], [-69.88942, 41.622694], [-69.891662, 41.617186000000004], [-69.898562, 41.60609599999999], [-69.907546, 41.596033000000006], [-69.915399, 41.58924300000001], [-69.916197, 41.58428899999998], [-69.919766, 41.574033], [-69.921517, 41.57090000000001], [-69.921345, 41.562282], [-69.924632, 41.54464599999999], [-69.928994, 41.53215200000001], [-69.936401, 41.52193600000001], [-69.946613, 41.512152], [-69.958172, 41.50466], [-69.96743, 41.50011599999999], [-69.968606, 41.50011599999999], [-69.971289, 41.49887200000001], [-69.979776, 41.496567], [-69.988306, 41.49449599999999], [-69.994377, 41.493663], [-69.998169, 41.493399], [-69.999458, 41.49111800000001], [-69.999458, 41.490527], [-70.013862, 41.47743899999999], [-70.023677, 41.471948], [-70.040313, 41.46596], [-70.055437, 41.46410999999999], [-70.073742, 41.465019999999996], [-70.084904, 41.467493], [-70.101508, 41.474444], [-70.114394, 41.484083000000005], [-70.122595, 41.494499000000005], [-70.124461, 41.498521], [-70.124924, 41.500115], [-70.126677, 41.50369799999999], [-70.127962, 41.509674], [-70.128764, 41.51769199999999], [-70.128554, 41.52473200000001], [-70.126792, 41.530878000000016], [-70.122559, 41.537833], [-70.116719, 41.54499300000001], [-70.10952, 41.551482], [-70.102029, 41.556352000000004], [-70.086572, 41.562447999999996], [-70.080316, 41.564454], [-70.073586, 41.57770800000001], [-70.068572, 41.58522], [-70.063352, 41.59017299999999], [-70.064699, 41.59323000000001], [-70.068046, 41.602954000000004], [-70.068569, 41.610697], [-70.077934, 41.61252799999999], [-70.093772, 41.60832400000001], [-70.109368, 41.605591], [-70.124462, 41.600849], [-70.12695200000002, 41.600203], [-70.138491, 41.59869200000001], [-70.148926, 41.599133], [-70.160357, 41.59937], [-70.163439, 41.597952], [-70.170602, 41.595588000000006], [-70.1815, 41.593547000000015], [-70.189375, 41.59049600000001], [-70.198237, 41.58734200000001], [-70.20804, 41.584149999999994], [-70.220282, 41.57233699999998], [-70.22555800000002, 41.56856100000001], [-70.231947, 41.56559500000001], [-70.241092, 41.56210999999999], [-70.249463, 41.560146], [-70.255691, 41.559146], [-70.267429, 41.558372999999996], [-70.278898, 41.559315999999995], [-70.289965, 41.561639], [-70.299331, 41.565916999999985], [-70.31125400000002, 41.57106200000001], [-70.320214, 41.568946000000004], [-70.331549, 41.567898], [-70.346337, 41.56845300000001], [-70.351936, 41.566649000000005], [-70.364206, 41.562196000000014], [-70.387281, 41.557681], [-70.395164, 41.556722], [-70.397122, 41.554401999999996], [-70.405051, 41.546195000000004], [-70.411202, 41.540744], [-70.417304, 41.534822000000005], [-70.423896, 41.528732], [-70.432904, 41.52206300000001], [-70.440131, 41.517479], [-70.448567, 41.513093000000005], [-70.457634, 41.50934100000001], [-70.466436, 41.50616000000001], [-70.478689, 41.50350299999999], [-70.483967, 41.502545999999995], [-70.48974, 41.501856], [-70.498209, 41.502565], [-70.502832, 41.500635], [-70.50860300000001, 41.498965], [-70.504182, 41.494858], [-70.499472, 41.488233], [-70.494942, 41.479631999999995], [-70.49165800000002, 41.47100900000001], [-70.489689, 41.462976999999995], [-70.485385, 41.463802999999984], [-70.475994, 41.46614099999998], [-70.46395, 41.468], [-70.448007, 41.469355], [-70.436449, 41.46891900000001], [-70.421087, 41.46441600000002], [-70.405928, 41.457012999999996], [-70.392892, 41.44548], [-70.385874, 41.43372099999999], [-70.380807, 41.411996], [-70.380693, 41.385361], [-70.382163, 41.375117999999986], [-70.383449, 41.369933], [-70.370112, 41.36876899999999], [-70.367698, 41.37142700000001], [-70.362641, 41.375117999999986], [-70.353085, 41.381454999999995], [-70.338289, 41.38854999999999], [-70.323593, 41.391607], [-70.308734, 41.390693000000006], [-70.302438, 41.38962500000001], [-70.294179, 41.39144600000001], [-70.283214, 41.39288499999999], [-70.267283, 41.393426000000005], [-70.258549, 41.392106999999996], [-70.249463, 41.390049], [-70.247689, 41.38989099999999], [-70.238142, 41.38620499999999], [-70.233576, 41.38263999999998], [-70.224936, 41.37512000000002], [-70.221622, 41.371769], [-70.21733400000001, 41.364996999999995], [-70.215115, 41.360274999999994], [-70.208297, 41.35802499999999], [-70.198383, 41.35902500000001], [-70.187287, 41.358380000000004], [-70.174906, 41.357290000000006], [-70.159992, 41.35224200000002], [-70.148699, 41.345215999999986], [-70.13794, 41.346371000000005], [-70.132231, 41.348731], [-70.124461, 41.35132699999998], [-70.119335, 41.352638000000006], [-70.110095, 41.353592], [-70.101618, 41.35345000000001], [-70.09784400000001, 41.353584000000005], [-70.103251, 41.359705], [-70.107199, 41.365213000000004], [-70.111328, 41.37038899999998], [-70.11644, 41.38616500000001], [-70.116541, 41.39513199999999], [-70.112734, 41.408126], [-70.105819, 41.419866], [-70.094412, 41.43081], [-70.078847, 41.438015], [-70.06517400000001, 41.442687], [-70.044272, 41.44380099999999], [-70.025902, 41.441079], [-70.006467, 41.43389800000001], [-69.999458, 41.42843199999999], [-69.98922700000001, 41.421225], [-69.98177500000001, 41.41520800000001], [-69.974592, 41.40892200000001], [-69.969634, 41.403510999999995], [-69.957745, 41.38725], [-69.943801, 41.36671700000001], [-69.938456, 41.357645000000005], [-69.929837, 41.34532299999999], [-69.92644, 41.33879399999998], [-69.921579, 41.332398], [-69.91495, 41.32419500000001], [-69.910093, 41.317263], [-69.902948, 41.30520699999999], [-69.898321, 41.29700299999999], [-69.894885, 41.29037199999999], [-69.893789, 41.286925000000004], [-69.89295900000002, 41.28364299999999], [-69.89244500000001, 41.27909000000001], [-69.8925, 41.27621099999999], [-69.892209, 41.271323], [-69.894472, 41.25923999999999], [-69.896044, 41.254119], [-69.897743, 41.25012199999999], [-69.89901, 41.24553800000001], [-69.902992, 41.238416], [-69.910319, 41.226849], [-69.915842, 41.220939], [-69.922911, 41.21583999999999], [-69.930953, 41.21054300000001], [-69.942008, 41.204519999999995], [-69.953586, 41.19967199999999], [-69.963739, 41.19639299999999], [-69.973182, 41.193545000000015], [-69.983151, 41.191403], [-69.999457, 41.188305], [-70.012483, 41.18705299999999], [-70.025702, 41.187102], [-70.039705, 41.18819200000001], [-70.051647, 41.190908], [-70.072666, 41.19163400000001], [-70.109684, 41.189803000000005], [-70.12446, 41.19242200000001], [-70.135855, 41.194649], [-70.16117, 41.20068999999998], [-70.178851, 41.204530999999996], [-70.217017, 41.21817599999999], [-70.227997, 41.22266400000001], [-70.239982, 41.228463], [-70.285736, 41.242346000000005], [-70.294484, 41.246499000000014], [-70.314298, 41.260532000000005], [-70.33509000000001, 41.272779], [-70.344083, 41.27614600000001], [-70.357554, 41.27259600000002], [-70.374466, 41.26945800000001], [-70.386671, 41.27128199999999], [-70.396777, 41.273013999999996], [-70.408733, 41.277294000000005], [-70.414493, 41.273953], [-70.429075, 41.268651000000006], [-70.444758, 41.265513000000006], [-70.459851, 41.26525300000001], [-70.475635, 41.270219999999995], [-70.493308, 41.279975], [-70.499469, 41.28574100000001], [-70.512199, 41.298313], [-70.530599, 41.299198999999994], [-70.54521000000001, 41.299672000000015], [-70.571848, 41.30009399999999], [-70.593135, 41.299843999999986], [-70.606672, 41.29940999999999], [-70.62447, 41.298382], [-70.655087, 41.29616499999999], [-70.68502, 41.293176], [-70.686615, 41.292058999999995], [-70.689055, 41.290937000000014], [-70.692874, 41.28963900000001], [-70.700169, 41.289058000000004], [-70.703106, 41.28904], [-70.704591, 41.28483399999999], [-70.707362, 41.280218], [-70.711063, 41.27485699999999], [-70.716499, 41.26945200000001], [-70.721634, 41.265861], [-70.726731, 41.26311000000002], [-70.734843, 41.25923100000001], [-70.734065, 41.256147999999996], [-70.734045, 41.253327000000006], [-70.733667, 41.25011600000003], [-70.73475300000001, 41.24625999999999], [-70.738908, 41.236427], [-70.744307, 41.22603000000001], [-70.749473, 41.22017299999998], [-70.754188, 41.216091], [-70.767837, 41.20648999999999], [-70.783582, 41.201219], [-70.80595, 41.19874200000001], [-70.823645, 41.20064899999999], [-70.847746, 41.20581399999999], [-70.866343, 41.215397], [-70.874474, 41.221380999999994], [-70.877327, 41.224143999999995], [-70.884973, 41.23378399999999], [-70.890541, 41.24309099999999], [-70.89245700000001, 41.25011200000001], [-70.894203, 41.25943899999999], [-70.893595, 41.267993999999995], [-70.890337, 41.27736199999999], [-70.885683, 41.28506600000001], [-70.878182, 41.29214699999999], [-70.874475, 41.29496799999998], [-70.870027, 41.29706799999999], [-70.874474, 41.30134999999999], [-70.877963, 41.30370800000001], [-70.884472, 41.31016199999997], [-70.891363, 41.318817999999986], [-70.897722, 41.327411000000005], [-70.901005, 41.334613], [-70.903815, 41.346727], [-70.903739, 41.35508000000001], [-70.901866, 41.36177], [-70.896017, 41.37014800000001], [-70.902603, 41.36761300000002], [-70.918399, 41.363033], [-70.938664, 41.353986000000006], [-70.955752, 41.35016100000001], [-70.970521, 41.34918700000001], [-70.979229, 41.349643999999984], [-70.990748, 41.351288999999994], [-70.99948, 41.354103], [-71.006315, 41.357319], [-71.014799, 41.362019999999994], [-71.020472, 41.366723], [-71.026103, 41.37169300000001], [-71.032701, 41.38027300000001], [-71.037211, 41.388908000000015], [-71.039918, 41.398259], [-71.038114, 41.405453], [-71.033604, 41.41408500000001], [-71.053451, 41.41695899999999], [-71.072404, 41.42557], [-71.085038, 41.433467], [-71.088571, 41.431315], [-71.116404, 41.484567999999996], [-71.121116, 41.492787000000014], [-71.119874, 41.49460400000001], [-71.120617, 41.497901000000006], [-71.122437, 41.522074999999994], [-71.126819, 41.554975], [-71.13162, 41.593716], [-71.138353, 41.603692]]]}}