{"type": "Feature", "properties": {"district_name": "6th Congressional District", "chamber": "us-house", "vintage": "2012-2020"}, "geometry": {"type": "Polygon", "coordinates": [[[-71.33309, 42.560115], [-71.294221, 42.605477999999984], [-71.295092, 42.606343999999986], [-71.295469, 42.606975000000006], [-71.295674, 42.60933399999998], [-71.29593899999999, 42.61034999999999], [-71.297006, 42.612296], [-71.297028, 42.613010999999986], [-71.29627099999999, 42.612674999999996], [-71.283427, 42.61529900000001], [-71.277791, 42.62084700000002], [-71.274709, 42.62885899999998], [-71.271271, 42.643918000000006], [-71.27146499999999, 42.64611100000001], [-71.271682, 42.646305], [-71.27170699999999, 42.64801799999999], [-71.272018, 42.64921600000001], [-71.275154, 42.656216], [-71.272607, 42.656664], [-71.26420399999999, 42.65769100000001], [-71.256103, 42.656690999999995], [-71.255074, 42.65631799999999], [-71.25453, 42.656332], [-71.24669399999999, 42.65248700000001], [-71.23880299999999, 42.64889100000001], [-71.2261, 42.642491], [-71.204518, 42.63209899999999], [-71.172108, 42.616751], [-71.171488, 42.61638399999999], [-71.17212099999999, 42.61630500000001], [-71.172558, 42.61599400000001], [-71.172602, 42.61524300000001], [-71.172917, 42.61490400000002], [-71.176599, 42.61430499999999], [-71.17706199999999, 42.613839000000006], [-71.17692699999999, 42.61310500000002], [-71.177987, 42.61304], [-71.17796100000001, 42.612814], [-71.177298, 42.612162], [-71.177573, 42.61157800000001], [-71.177424, 42.611214], [-71.178243, 42.611174], [-71.17851499999999, 42.610898000000006], [-71.17841299999999, 42.610599], [-71.177893, 42.610679000000005], [-71.17752399999999, 42.61054000000001], [-71.177514, 42.609857000000005], [-71.177975, 42.60970700000001], [-71.17809799999999, 42.60950099999998], [-71.177733, 42.60898799999999], [-71.177781, 42.608807999999996], [-71.178583, 42.608642], [-71.178643, 42.60884700000001], [-71.17838499999999, 42.60908699999999], [-71.178733, 42.609235], [-71.179523, 42.609275999999994], [-71.179576, 42.608852], [-71.180549, 42.609214], [-71.18068099999999, 42.60911699999999], [-71.180278, 42.60871900000001], [-71.18054599999999, 42.608554999999996], [-71.181101, 42.608681999999995], [-71.181167, 42.60824200000001], [-71.165015, 42.59795899999999], [-71.163664, 42.60212999999999], [-71.160667, 42.605318], [-71.159517, 42.60765900000001], [-71.15861699999999, 42.61294799999999], [-71.156564, 42.61497700000001], [-71.154336, 42.615277000000006], [-71.148613, 42.61324899999999], [-71.14656, 42.609979999999986], [-71.145864, 42.608522], [-71.14540000000001, 42.60926999999998], [-71.144835, 42.611469], [-71.144257, 42.611622], [-71.143569, 42.612342], [-71.141752, 42.612902000000005], [-71.141586, 42.61307000000001], [-71.141559, 42.613659], [-71.139811, 42.61475600000001], [-71.139062, 42.61496499999999], [-71.13893, 42.61412599999999], [-71.137872, 42.613413], [-71.137816, 42.611182], [-71.13740500000002, 42.61051100000001], [-71.137591, 42.61004899999999], [-71.137305, 42.60953799999999], [-71.136664, 42.610507], [-71.13635, 42.610661000000015], [-71.135875, 42.611817], [-71.133983, 42.612784000000005], [-71.13328299999999, 42.61214099999998], [-71.13242199999999, 42.611886000000005], [-71.12975399999999, 42.612529], [-71.128847, 42.613243], [-71.1271, 42.61260100000002], [-71.127369, 42.61432899999999], [-71.126898, 42.615140000000004], [-71.124057, 42.61477699999998], [-71.124402, 42.61645900000001], [-71.12549800000001, 42.61996500000001], [-71.12638199999999, 42.62524700000002], [-71.127749, 42.631562], [-71.131483, 42.642366999999986], [-71.131761, 42.642309999999995], [-71.132818, 42.641324000000004], [-71.133077, 42.64031699999998], [-71.133827, 42.639506999999995], [-71.138328, 42.63875300000001], [-71.13931, 42.63821699999999], [-71.14031000000001, 42.637316999999996], [-71.141644, 42.63517600000002], [-71.14345, 42.633343999999994], [-71.144468, 42.63313900000001], [-71.145073, 42.63281000000001], [-71.14601499999999, 42.63396], [-71.14498800000001, 42.634404999999994], [-71.144214, 42.63712700000001], [-71.14381, 42.636661], [-71.14299, 42.636761000000014], [-71.1433, 42.63764399999999], [-71.143112, 42.63770799999999], [-71.143256, 42.638133], [-71.143241, 42.638982999999996], [-71.143631, 42.639674000000014], [-71.144452, 42.640021999999995], [-71.144822, 42.64077099999998], [-71.144487, 42.642970999999996], [-71.144026, 42.644253], [-71.143194, 42.648245], [-71.144713, 42.649002999999986], [-71.144797, 42.64947600000001], [-71.143014, 42.652620000000006], [-71.142077, 42.654706000000004], [-71.139873, 42.65519700000001], [-71.13581599999999, 42.65647699999998], [-71.132702, 42.656774000000006], [-71.133347, 42.658832999999994], [-71.132458, 42.65896299999999], [-71.133715, 42.66146699999998], [-71.13500499999999, 42.662698], [-71.13400899999999, 42.663478], [-71.131118, 42.665198999999994], [-71.130268, 42.66593900000001], [-71.128423, 42.668861], [-71.127479, 42.67083299999999], [-71.12683500000001, 42.671814999999995], [-71.12882700000002, 42.67445], [-71.134529, 42.67683699999999], [-71.133686, 42.67953500000002], [-71.13927699999999, 42.68440699999999], [-71.137827, 42.684996000000005], [-71.138092, 42.68521300000001], [-71.13933, 42.685156], [-71.139478, 42.68545899999999], [-71.138824, 42.685732], [-71.138723, 42.685990999999994], [-71.137947, 42.686668000000026], [-71.13933999999999, 42.686717], [-71.139678, 42.68688200000001], [-71.139809, 42.68718599999999], [-71.139427, 42.687594999999995], [-71.13919299999999, 42.68773800000001], [-71.138977, 42.68760900000001], [-71.138627, 42.687695999999995], [-71.138603, 42.687842999999994], [-71.14005999999999, 42.688987999999995], [-71.140155, 42.68936299999999], [-71.139595, 42.69017599999999], [-71.139062, 42.690402000000006], [-71.138639, 42.690327999999994], [-71.13795499999999, 42.689662999999996], [-71.13761099999999, 42.68974999999999], [-71.13759499999999, 42.69045599999998], [-71.138234, 42.69133399999999], [-71.137981, 42.691942999999995], [-71.138172, 42.692488999999995], [-71.138442, 42.69271399999999], [-71.139312, 42.69257599999999], [-71.139439, 42.692704], [-71.139303, 42.69303199999998], [-71.139405, 42.69314699999999], [-71.140411, 42.69346], [-71.140947, 42.69391199999999], [-71.141669, 42.694084], [-71.14170299999999, 42.694316999999984], [-71.143163, 42.694199000000005], [-71.143395, 42.697028], [-71.144903, 42.697756999999996], [-71.145005, 42.697947], [-71.14546, 42.698062000000014], [-71.14544599999999, 42.698194999999984], [-71.145718, 42.698169000000014], [-71.14585699999999, 42.69848099999999], [-71.144438, 42.699274], [-71.14277799999999, 42.698923000000015], [-71.142372, 42.69938399999999], [-71.140909, 42.703278], [-71.13932299999999, 42.70340400000001], [-71.13708299999999, 42.70435299999997], [-71.137525, 42.704806], [-71.137563, 42.706661], [-71.136996, 42.706882], [-71.13565299999999, 42.707935000000006], [-71.134345, 42.70958400000001], [-71.133436, 42.711638], [-71.133361, 42.71221900000001], [-71.133707, 42.71422199999999], [-71.134833, 42.717493], [-71.135116, 42.718872000000005], [-71.135085, 42.719911], [-71.13454, 42.72095999999999], [-71.133461, 42.722162000000004], [-71.130706, 42.724451], [-71.12680999999999, 42.728357], [-71.126115, 42.72915099999997], [-71.124461, 42.731654], [-71.121623, 42.73384899999999], [-71.118606, 42.736622999999994], [-71.11644799999999, 42.739085999999986], [-71.11586799999999, 42.74013100000002], [-71.115603, 42.74119100000001], [-71.108632, 42.735281], [-71.09783399999999, 42.73521999999999], [-71.092467, 42.737000000000016], [-71.09007799999999, 42.73696899999999], [-71.088064, 42.73614399999999], [-71.08191, 42.736685], [-71.074, 42.73446600000001], [-71.07211099999999, 42.73266800000001], [-71.058883, 42.732462999999996], [-71.058116, 42.734209], [-71.052849, 42.739886999999996], [-71.048341, 42.746144999999984], [-71.044524, 42.74903400000002], [-71.044096, 42.753214000000014], [-71.042901, 42.753978], [-71.042847, 42.754335], [-71.04199799999999, 42.754416000000006], [-71.041774, 42.754654], [-71.042073, 42.755053999999994], [-71.04256699999999, 42.757041], [-71.04001699999999, 42.757721000000004], [-71.037965, 42.75894500000003], [-71.032443, 42.76622], [-71.02896400000002, 42.770427], [-71.025711, 42.77387699999999], [-71.02423499999999, 42.77576000000001], [-71.02190399999999, 42.779633], [-71.020381, 42.78429599999999], [-71.02019299999999, 42.78727], [-71.019757, 42.789525999999974], [-71.019301, 42.790701], [-71.018708, 42.79160500000001], [-71.01735099999999, 42.79301499999999], [-71.015575, 42.794535999999994], [-71.012312, 42.796542], [-71.00552499999999, 42.79979599999999], [-71.003435, 42.801100999999996], [-71.001711, 42.802800000000005], [-70.99983399999999, 42.80503999999999], [-70.99875, 42.806964999999984], [-70.99860199999999, 42.80753099999999], [-70.99877099999999, 42.80899900000001], [-70.999714, 42.81069100000002], [-71.00258500000001, 42.81171099999999], [-71.019413, 42.818890999999994], [-71.053601, 42.833088999999994], [-71.047501, 42.844089000000004], [-71.044394, 42.84879600000001], [-71.03930199999999, 42.852687], [-71.03793900000001, 42.85405999999999], [-71.031201, 42.859086999999995], [-71.017101, 42.86148900000001], [-70.992201, 42.865289000000004], [-70.986519, 42.86588899999999], [-70.974777, 42.867438], [-70.96940000000001, 42.86828899999998], [-70.9665, 42.868988999999985], [-70.949197, 42.876090000000005], [-70.930798, 42.884588], [-70.92757, 42.885330999999994], [-70.919699, 42.886189], [-70.913924, 42.88664500000001], [-70.905502, 42.88678999999999], [-70.9041, 42.886691], [-70.90021, 42.88599399999998], [-70.88561, 42.882496], [-70.875044, 42.876106], [-70.87305599999999, 42.875088], [-70.856754, 42.865424999999995], [-70.848625, 42.860939], [-70.83737599999999, 42.86499599999999], [-70.83289599999999, 42.867790000000014], [-70.830795, 42.868918], [-70.82594399999999, 42.87048599999999], [-70.82479599999999, 42.870989999999985], [-70.820894, 42.872075999999986], [-70.792495, 42.87329100000001], [-70.749494, 42.87469399999999], [-70.735005, 42.87468500000001], [-70.738642, 42.869254999999995], [-70.746282, 42.860842999999996], [-70.74883, 42.85883099999999], [-70.747134, 42.853712], [-70.746262, 42.850166000000016], [-70.746166, 42.84755500000001], [-70.745522, 42.844442999999984], [-70.743971, 42.843174000000005], [-70.74146, 42.839664000000006], [-70.739038, 42.83581799999999], [-70.737393, 42.83260699999999], [-70.736248, 42.82919400000001], [-70.735789, 42.82701900000001], [-70.73487399999999, 42.824477], [-70.734409, 42.818552999999994], [-70.734312, 42.81517300000001], [-70.734488, 42.81175800000001], [-70.733892, 42.808814], [-70.73388700000001, 42.806236], [-70.733655, 42.80365900000001], [-70.73414799999999, 42.79860500000001], [-70.73478, 42.795590999999995], [-70.737225, 42.787955999999994], [-70.731839, 42.77835699999999], [-70.73097, 42.77521200000001], [-70.73064699999999, 42.773338], [-70.728045, 42.767886999999995], [-70.726856, 42.764039000000004], [-70.725848, 42.75902000000001], [-70.721974, 42.754270999999996], [-70.720288, 42.75186299999997], [-70.71927, 42.75009499999998], [-70.71696, 42.74351699999999], [-70.71432399999999, 42.73191100000002], [-70.70258, 42.72416199999999], [-70.68293, 42.728829999999995], [-70.66131399999999, 42.73660999999999], [-70.64166399999999, 42.739723000000005], [-70.62594299999999, 42.739723999999995], [-70.590572, 42.73349999999999], [-70.549306, 42.72416399999999], [-70.52965499999999, 42.70704799999999], [-70.513934, 42.680594], [-70.506074, 42.65102999999999], [-70.502143, 42.63547099999999], [-70.502143, 42.624579], [-70.511968, 42.605907], [-70.521793, 42.593458999999996], [-70.531618, 42.584123], [-70.545374, 42.570119], [-70.56698899999999, 42.56078300000001], [-70.582709, 42.553004], [-70.596464, 42.540556], [-70.60629, 42.53121999999999], [-70.617339, 42.500099], [-70.640006, 42.43166], [-70.648072, 42.40562799999999], [-70.749487, 42.400819999999996], [-70.85143599999999, 42.393209000000006], [-70.901292, 42.384098000000016], [-70.924593, 42.386798], [-70.95949399999999, 42.407498000000004], [-70.962093, 42.412397000000006], [-70.959093, 42.41859699999998], [-70.95299299999999, 42.42939599999999], [-70.951393, 42.436996], [-70.95079299999999, 42.44429599999999], [-70.966293, 42.44349700000001], [-70.968594, 42.444396], [-70.971594, 42.442696], [-70.975194, 42.436896000000004], [-70.979648, 42.432631], [-70.982294, 42.431296], [-70.983708, 42.431663], [-70.985754, 42.432556999999996], [-70.987805, 42.43399799999998], [-70.99011999999999, 42.43487700000001], [-70.992023, 42.43413499999999], [-70.994849, 42.43115], [-70.99571399999999, 42.430855000000015], [-70.998475, 42.431296], [-71.001094, 42.431296], [-71.003275, 42.429709999999986], [-71.004595, 42.429814], [-71.004595, 42.431715], [-71.00334699999999, 42.43220900000001], [-71.003219, 42.43243700000001], [-71.00330199999999, 42.43270299999998], [-71.004632, 42.43305500000001], [-71.005875, 42.433029], [-71.006974, 42.43383800000001], [-71.007873, 42.433972], [-71.00862599999999, 42.434352999999994], [-71.009277, 42.43427799999999], [-71.00937499999999, 42.433989], [-71.009613, 42.43403], [-71.009577, 42.433189000000006], [-71.00976, 42.43328899999999], [-71.00972, 42.433862], [-71.009864, 42.43398099999999], [-71.010164, 42.433796], [-71.010742, 42.433767], [-71.010403, 42.433521], [-71.011158, 42.43314300000001], [-71.011534, 42.433335], [-71.01191, 42.433319000000004], [-71.01171599999999, 42.433705], [-71.01117599999999, 42.43377799999999], [-71.010954, 42.43366], [-71.01086699999999, 42.43389599999998], [-71.010327, 42.434098999999996], [-71.01088299999999, 42.43440699999999], [-71.01074299999999, 42.435262], [-71.011579, 42.436179], [-71.01049499999999, 42.437396], [-71.010295, 42.43869600000001], [-71.011995, 42.439696000000005], [-71.009495, 42.441196], [-71.012095, 42.442796], [-71.016795, 42.44819599999999], [-71.018295, 42.44959599999998], [-71.018495, 42.45009599999999], [-71.02029499999999, 42.448896], [-71.023679, 42.44599500000001], [-71.024958, 42.44538899999999], [-71.025864, 42.44474300000001], [-71.03726999999999, 42.457674000000004], [-71.043734, 42.464596], [-71.044729, 42.465724000000016], [-71.04479599999999, 42.466195000000006], [-71.04689499999999, 42.46869499999999], [-71.053496, 42.475895000000016], [-71.06132900000001, 42.474222999999995], [-71.061269, 42.47265099999999], [-71.06954, 42.471689], [-71.077985, 42.473974999999996], [-71.077707, 42.47739099999998], [-71.07668699999999, 42.47748599999999], [-71.07652, 42.47819700000001], [-71.07524000000001, 42.488008], [-71.08550199999999, 42.492258000000014], [-71.090115, 42.501260999999985], [-71.10072199999999, 42.50225799999998], [-71.11976, 42.500291999999995], [-71.12195899999999, 42.50427799999999], [-71.122395, 42.504152999999995], [-71.123463, 42.506174], [-71.12417599999999, 42.507526], [-71.123865, 42.50761699999998], [-71.124492, 42.50891800000001], [-71.13545599999999, 42.53000600000001], [-71.144193, 42.526427], [-71.153052, 42.52251199999998], [-71.154298, 42.522127], [-71.170063, 42.51559700000001], [-71.169635, 42.51146199999998], [-71.17025799999999, 42.51045200000001], [-71.169566, 42.510203999999995], [-71.169876, 42.50972099999999], [-71.169473, 42.509487000000014], [-71.169324, 42.507872], [-71.16972, 42.507450999999996], [-71.169423, 42.50732299999999], [-71.169923, 42.506730999999995], [-71.16923299999999, 42.506519], [-71.168444, 42.498299], [-71.168914, 42.490547000000014], [-71.17071899999999, 42.489754999999995], [-71.16892399999999, 42.487086999999995], [-71.181501, 42.483622], [-71.181375, 42.483386], [-71.182944, 42.48212199999999], [-71.184641, 42.48173299999999], [-71.186452, 42.481023000000015], [-71.186562, 42.480954], [-71.18548, 42.47996699999999], [-71.18739599999999, 42.479364000000004], [-71.188279, 42.479696000000004], [-71.204291, 42.46587099999999], [-71.210289, 42.47091500000002], [-71.210606, 42.468521], [-71.21091, 42.467415], [-71.211855, 42.46652899999999], [-71.212245, 42.466349000000015], [-71.24089, 42.49003299999999], [-71.240983, 42.48988099999998], [-71.251986, 42.48501499999999], [-71.256553, 42.47855899999999], [-71.261515, 42.47624600000001], [-71.272695, 42.459704], [-71.277889, 42.460710000000006], [-71.277982, 42.46023499999999], [-71.279501, 42.459675999999995], [-71.28012100000001, 42.460059], [-71.280711, 42.45999], [-71.280851, 42.46016799999999], [-71.28184, 42.45964], [-71.28294, 42.461170999999986], [-71.298763, 42.47286499999999], [-71.300893, 42.47358599999999], [-71.301903, 42.473254], [-71.304216, 42.474693], [-71.306552, 42.47442700000001], [-71.309465, 42.47640399999998], [-71.313768, 42.474182000000006], [-71.31703999999999, 42.476479000000005], [-71.316951, 42.47656800000001], [-71.318103, 42.47806299999998], [-71.32012399999999, 42.48033199999999], [-71.321268, 42.480515], [-71.32080599999999, 42.482184], [-71.318147, 42.482839], [-71.317161, 42.48356599999999], [-71.316987, 42.484181000000014], [-71.31739, 42.48490599999999], [-71.31930299999999, 42.486289000000006], [-71.319644, 42.486933], [-71.319138, 42.48806500000002], [-71.319026, 42.489677999999984], [-71.318585, 42.49115700000001], [-71.31836899999999, 42.497536], [-71.317464, 42.502193000000005], [-71.317835, 42.503817], [-71.317708, 42.504796], [-71.316968, 42.506463000000004], [-71.316093, 42.50763], [-71.314641, 42.50856200000001], [-71.31279599999999, 42.51028], [-71.311253, 42.511014], [-71.31015, 42.511860000000006], [-71.308758, 42.513374], [-71.308211, 42.513695], [-71.306653, 42.51405100000001], [-71.30623299999999, 42.514564], [-71.30619500000002, 42.515079], [-71.306918, 42.517081000000005], [-71.30654700000001, 42.519301999999996], [-71.30680500000001, 42.522386], [-71.306201, 42.524150999999996], [-71.30516, 42.52593599999999], [-71.30486499999999, 42.527283], [-71.304949, 42.52854000000001], [-71.30461, 42.529284999999994], [-71.307538, 42.52999899999999], [-71.30718499999999, 42.533221000000005], [-71.30874899999999, 42.53395999999999], [-71.30981, 42.534848], [-71.31836899999999, 42.54279199999998], [-71.314385, 42.54955400000001], [-71.31961799999999, 42.554069999999996], [-71.324801, 42.55605900000001], [-71.33309, 42.560115]]]}}