{"type": "Feature", "properties": {"district_name": "7th Congressional District", "chamber": "us-house", "vintage": "2001-2010"}, "geometry": {"type": "MultiPolygon", "coordinates": [[[[-71.35961, 42.317285], [-71.359431, 42.317356000000004], [-71.359399, 42.317308999999995], [-71.359456, 42.31730699999999], [-71.35961, 42.317285]]], [[[-71.166918, 42.359832999999995], [-71.167998, 42.36019599999999], [-71.168932, 42.359184], [-71.173385, 42.35871999999999], [-71.173952, 42.35928800000001], [-71.176453, 42.359428000000015], [-71.178845, 42.35978], [-71.18251000000001, 42.36093999999998], [-71.183998, 42.35889600000001], [-71.187308, 42.359846999999995], [-71.188404, 42.359838], [-71.195396, 42.36174400000003], [-71.196399, 42.362095999999994], [-71.193902, 42.364556], [-71.192734, 42.366001], [-71.19365499999999, 42.366659], [-71.19462399999999, 42.366980999999996], [-71.19528, 42.367923000000005], [-71.195681, 42.367972000000016], [-71.198649, 42.36739299999999], [-71.200957, 42.366169], [-71.202643, 42.36581499999999], [-71.205023, 42.36571500000001], [-71.206321, 42.36461299999999], [-71.207466, 42.364159999999984], [-71.207948, 42.364176000000015], [-71.208922, 42.364536], [-71.210318, 42.364149999999995], [-71.211362, 42.364297], [-71.213326, 42.364896], [-71.214368, 42.36558100000002], [-71.214973, 42.365697999999995], [-71.21553399999999, 42.365608], [-71.21646, 42.365916999999996], [-71.217409, 42.36668999999999], [-71.22397, 42.364436999999995], [-71.226362, 42.363994000000005], [-71.233695, 42.361633999999995], [-71.23463, 42.361519], [-71.23647199999999, 42.36076200000001], [-71.243051, 42.358851], [-71.244626, 42.35795400000001], [-71.244975, 42.357352], [-71.245952, 42.35741300000001], [-71.247452, 42.35676199999999], [-71.248057, 42.356671000000006], [-71.249455, 42.357074999999995], [-71.25113200000001, 42.35653099999998], [-71.253799, 42.355339000000015], [-71.255456, 42.35414000000001], [-71.256068, 42.354213000000016], [-71.256119, 42.354800999999995], [-71.25868299999999, 42.35486100000001], [-71.25970000000001, 42.353973], [-71.260899, 42.35371500000001], [-71.262445, 42.35420500000001], [-71.26078199999999, 42.353443], [-71.26033699999999, 42.352782], [-71.260184, 42.351168000000015], [-71.258921, 42.350682000000006], [-71.25868299999999, 42.349519], [-71.259847, 42.348513999999994], [-71.25984799999999, 42.34825399999999], [-71.261312, 42.34664599999999], [-71.261254, 42.34548899999999], [-71.2611, 42.345334], [-71.261639, 42.34439600000001], [-71.26152600000002, 42.343921], [-71.26137299999999, 42.343880999999996], [-71.261407, 42.343594], [-71.261851, 42.342247999999984], [-71.262073, 42.342240000000004], [-71.26218899999999, 42.341542], [-71.262588, 42.341457999999996], [-71.261764, 42.341415], [-71.260601, 42.34065199999999], [-71.259659, 42.34079699999999], [-71.259316, 42.34106899999999], [-71.25879499999999, 42.341201], [-71.25794599999999, 42.34106500000002], [-71.255994, 42.340089000000006], [-71.25608799999999, 42.339319], [-71.258186, 42.33731199999999], [-71.258815, 42.337065999999986], [-71.259269, 42.335652], [-71.260016, 42.334939999999996], [-71.261068, 42.334403], [-71.26213400000002, 42.33416499999999], [-71.26366399999999, 42.334482], [-71.26274, 42.33464000000001], [-71.262153, 42.33442600000001], [-71.261518, 42.33452399999998], [-71.26350000000001, 42.33483199999998], [-71.26409699999999, 42.334544999999984], [-71.264367, 42.334216000000005], [-71.264482, 42.33374499999999], [-71.264473, 42.332187], [-71.264704, 42.332060999999996], [-71.264771, 42.33252399999998], [-71.265089, 42.333003999999995], [-71.265118, 42.331715], [-71.265725, 42.331032], [-71.267923, 42.33053199999999], [-71.26881999999999, 42.3308], [-71.269228, 42.331092], [-71.270197, 42.33112899999998], [-71.270355, 42.33066400000001], [-71.26997, 42.33013700000001], [-71.269881, 42.329648], [-71.270282, 42.32914799999999], [-71.27033899999999, 42.328652], [-71.269817, 42.328019999999995], [-71.272004, 42.32739599999999], [-71.2817, 42.32519599999999], [-71.300102, 42.32039700000001], [-71.31158599999999, 42.31779900000001], [-71.319101, 42.31559700000002], [-71.327327, 42.313745999999995], [-71.32974999999999, 42.312991000000004], [-71.329464, 42.31269700000001], [-71.327344, 42.306834000000016], [-71.326945, 42.30637000000001], [-71.325203, 42.302395999999995], [-71.324703, 42.300793], [-71.323678, 42.298792999999996], [-71.322901, 42.296395000000004], [-71.32147499999999, 42.294231999999994], [-71.321208, 42.29359900000001], [-71.321375, 42.293399], [-71.314679, 42.281641], [-71.314391, 42.28158299999999], [-71.312776, 42.278754], [-71.312912, 42.278537], [-71.311779, 42.276548999999996], [-71.311393, 42.27636499999999], [-71.309803, 42.27330000000001], [-71.3082, 42.270894999999996], [-71.305902, 42.262494], [-71.305083, 42.25868699999999], [-71.305334, 42.258050999999995], [-71.302922, 42.24827400000001], [-71.30405999999999, 42.24810200000001], [-71.305803, 42.24835199999999], [-71.313937, 42.24857300000001], [-71.31451500000001, 42.248371], [-71.317956, 42.248408], [-71.31898699999999, 42.24871000000001], [-71.327435, 42.24894], [-71.328906, 42.248697], [-71.332458, 42.24870699999998], [-71.332168, 42.247867000000014], [-71.33158900000001, 42.247150999999995], [-71.33654, 42.24874099999998], [-71.342387, 42.250234999999996], [-71.341929, 42.25342599999999], [-71.349149, 42.255113000000016], [-71.35049099999999, 42.25568700000001], [-71.354359, 42.25784900000001], [-71.356409, 42.259733999999995], [-71.356526, 42.26128999999999], [-71.356939, 42.261780999999985], [-71.35646, 42.262632999999994], [-71.356893, 42.26320499999999], [-71.361288, 42.264767], [-71.378213, 42.269702], [-71.390475, 42.27178], [-71.397672, 42.261668], [-71.398595, 42.261574999999986], [-71.398476, 42.261377], [-71.408605, 42.259223000000006], [-71.41890599999999, 42.25729700000002], [-71.42109099999999, 42.25821700000002], [-71.460756, 42.279063], [-71.483764, 42.286098], [-71.497011, 42.28989500000001], [-71.493127, 42.296824000000015], [-71.492646, 42.29785199999999], [-71.49280399999999, 42.298007999999996], [-71.489708, 42.30349499999999], [-71.48688, 42.30898], [-71.486125, 42.310885000000006], [-71.485585, 42.314076], [-71.485007, 42.320994000000006], [-71.485187, 42.322061], [-71.485109, 42.323164], [-71.486768, 42.330075], [-71.48591499999999, 42.334691], [-71.48399700000002, 42.347155], [-71.484419, 42.35041899999999], [-71.484224, 42.35255699999998], [-71.470274, 42.351224999999985], [-71.469898, 42.35139300000002], [-71.46612499999999, 42.350640000000006], [-71.454994, 42.34900700000001], [-71.424708, 42.344823999999996], [-71.407304, 42.34262099999999], [-71.396704, 42.340883], [-71.39480499999999, 42.338995999999995], [-71.394718, 42.338652], [-71.392749, 42.338547], [-71.390142, 42.337906999999994], [-71.38906899999999, 42.337914], [-71.38692, 42.33838], [-71.38505099999999, 42.33813399999999], [-71.383139, 42.33887099999999], [-71.38162, 42.33917299999999], [-71.381141, 42.33911699999998], [-71.38004699999999, 42.33862300000001], [-71.37970299999999, 42.33911899999999], [-71.379435, 42.33921100000001], [-71.378176, 42.339034], [-71.37696199999999, 42.339316], [-71.37424, 42.339317], [-71.374006, 42.339109], [-71.374254, 42.33826000000001], [-71.37550999999999, 42.337079999999986], [-71.374472, 42.33670600000001], [-71.372918, 42.337728999999996], [-71.37231100000001, 42.33832199999999], [-71.37168799999999, 42.339829999999964], [-71.37118699999999, 42.34056], [-71.369321, 42.341795999999974], [-71.368166, 42.342766999999995], [-71.367505, 42.343151], [-71.364453, 42.344103], [-71.36087100000002, 42.34580299999999], [-71.359686, 42.347069999999995], [-71.359394, 42.34761999999999], [-71.359293, 42.348317000000016], [-71.358936, 42.348686], [-71.359025, 42.34679099999999], [-71.358764, 42.345364000000004], [-71.35857, 42.34208700000001], [-71.359293, 42.339921000000004], [-71.36053100000001, 42.338288], [-71.36057699999999, 42.33778300000001], [-71.360322, 42.33660700000001], [-71.360619, 42.33473499999999], [-71.361288, 42.333387], [-71.361494, 42.331837], [-71.362966, 42.329301000000015], [-71.364431, 42.325265], [-71.364452, 42.321348], [-71.365448, 42.321425], [-71.367235, 42.32206900000001], [-71.367784, 42.320150999999996], [-71.36787, 42.317011], [-71.367615, 42.316284], [-71.36708999999999, 42.315591000000005], [-71.371335, 42.31318299999999], [-71.372804, 42.31216499999999], [-71.372948, 42.31224299999999], [-71.372793, 42.31250999999999], [-71.374332, 42.311781], [-71.37515499999999, 42.311875999999984], [-71.374426, 42.31118300000001], [-71.373981, 42.310405999999986], [-71.37261699999999, 42.31007400000001], [-71.372271, 42.310067000000004], [-71.370944, 42.31072099999999], [-71.370425, 42.310848], [-71.36989799999999, 42.31077200000001], [-71.36932999999999, 42.31107200000001], [-71.369209, 42.31139300000001], [-71.365127, 42.31506199999999], [-71.364342, 42.316092000000005], [-71.363115, 42.315892000000005], [-71.35973299999999, 42.317236], [-71.35507199999999, 42.317253], [-71.353893, 42.31679599999999], [-71.350267, 42.315854], [-71.345998, 42.314803999999995], [-71.345888, 42.31492900000001], [-71.34553, 42.31485299999999], [-71.342332, 42.318815], [-71.339334, 42.32214199999999], [-71.33739299999999, 42.325174999999994], [-71.334403, 42.33062299999999], [-71.333603, 42.332395999999996], [-71.330795, 42.331883999999995], [-71.32860000000001, 42.331666000000006], [-71.33102199999999, 42.353530000000006], [-71.33153899999999, 42.35766299999999], [-71.332358, 42.362410999999994], [-71.332261, 42.363128999999994], [-71.332711, 42.36783899999999], [-71.334816, 42.386175000000016], [-71.335403, 42.393620999999996], [-71.332375, 42.399127], [-71.335869, 42.400793], [-71.338469, 42.401742], [-71.33936, 42.401838], [-71.353894, 42.407976000000005], [-71.366934, 42.412691], [-71.365425, 42.413509999999995], [-71.36532799999999, 42.41387199999999], [-71.36549099999999, 42.41450299999999], [-71.36413, 42.415932000000005], [-71.364224, 42.416484000000004], [-71.364813, 42.416903999999995], [-71.364706, 42.41725300000001], [-71.36488, 42.417860999999995], [-71.36487799999999, 42.41872999999999], [-71.364733, 42.419067], [-71.36479899999999, 42.420330000000014], [-71.363536, 42.420901], [-71.361935, 42.421113999999996], [-71.359805, 42.420857], [-71.357378, 42.42000600000001], [-71.356684, 42.420043], [-71.35623, 42.420885], [-71.35494, 42.421682], [-71.355013, 42.42184399999999], [-71.35446100000001, 42.422816000000005], [-71.354162, 42.42293799999999], [-71.354208, 42.42326199999997], [-71.353146, 42.425131], [-71.35292299999999, 42.42581000000001], [-71.352304, 42.426725000000005], [-71.351843, 42.427098], [-71.335937, 42.43692599999999], [-71.32929399999999, 42.442249000000004], [-71.324756, 42.446200999999995], [-71.32446, 42.44625200000001], [-71.322699, 42.447448], [-71.313285, 42.45488600000001], [-71.310931, 42.453594], [-71.309929, 42.453247999999995], [-71.304504, 42.45273200000001], [-71.303936, 42.45789699999999], [-71.303169, 42.45999700000001], [-71.302939, 42.461293999999995], [-71.30208499999999, 42.46111700000001], [-71.302003, 42.46192099999998], [-71.298827, 42.46264199999998], [-71.29700199999999, 42.461655], [-71.294367, 42.459713], [-71.29298299999999, 42.46188799999999], [-71.289929, 42.464202], [-71.28904899999999, 42.464384], [-71.289439, 42.465545000000006], [-71.287916, 42.464277], [-71.288083, 42.46486600000001], [-71.284414, 42.462105], [-71.281915, 42.459950000000006], [-71.279612, 42.460057999999975], [-71.276971, 42.460464999999985], [-71.27242, 42.45955600000001], [-71.271222, 42.461396], [-71.26925899999999, 42.46547899999998], [-71.265594, 42.470266], [-71.26464899999999, 42.47123699999999], [-71.261197, 42.476183000000006], [-71.25656, 42.478268], [-71.255504, 42.479395], [-71.253402, 42.482795], [-71.252102, 42.48449500000001], [-71.243634, 42.488257], [-71.242397, 42.48996700000001], [-71.240983, 42.48988099999998], [-71.223996, 42.475753999999995], [-71.222236, 42.47447899999999], [-71.212299, 42.466323], [-71.211855, 42.46652899999999], [-71.21091, 42.467415], [-71.210506, 42.46853599999999], [-71.210439, 42.469414000000015], [-71.21019799999999, 42.46977899999999], [-71.21029899999999, 42.47057199999999], [-71.20958399999999, 42.470076000000006], [-71.208546, 42.46787800000001], [-71.207959, 42.46751800000001], [-71.20611900000002, 42.46719299999998], [-71.2042, 42.46579600000001], [-71.18811099999999, 42.47968800000002], [-71.18738499999999, 42.479462000000005], [-71.18548, 42.47996699999999], [-71.186325, 42.48072499999998], [-71.184924, 42.48143299999999], [-71.183399, 42.48159400000001], [-71.181293, 42.482984], [-71.181375, 42.483386], [-71.181165, 42.483584], [-71.174618, 42.485171000000015], [-71.173268, 42.48560600000001], [-71.17280699999999, 42.48593099999999], [-71.170757, 42.48646999999999], [-71.169038, 42.487171000000004], [-71.17080299999999, 42.489802], [-71.168798, 42.490451], [-71.168789, 42.49490200000001], [-71.168638, 42.496021000000006], [-71.169176, 42.49779200000001], [-71.16890000000001, 42.50419499999998], [-71.16895199999999, 42.506539], [-71.169489, 42.5067], [-71.169032, 42.50715599999999], [-71.169217, 42.507235], [-71.16892899999999, 42.507532000000005], [-71.169093, 42.50955999999999], [-71.169523, 42.50971899999999], [-71.16923799999999, 42.510361], [-71.16975599999999, 42.510580999999995], [-71.169566, 42.510895000000005], [-71.170063, 42.51559700000001], [-71.168476, 42.51602599999999], [-71.158086, 42.520505000000014], [-71.157192, 42.52069900000001], [-71.149068, 42.524067], [-71.147811, 42.524864], [-71.147654, 42.52478899999999], [-71.143472, 42.526578999999984], [-71.143197, 42.526903999999995], [-71.138125, 42.529257], [-71.136138, 42.530007000000005], [-71.13535499999999, 42.52929100000001], [-71.13414999999999, 42.527324000000014], [-71.13269799999999, 42.524895999999984], [-71.129936, 42.519438], [-71.126266, 42.513098], [-71.123644, 42.508893999999984], [-71.123036, 42.50821799999999], [-71.124398, 42.507194], [-71.122101, 42.504188000000006], [-71.121207, 42.503687000000006], [-71.120162, 42.502379000000005], [-71.119593, 42.50079800000001], [-71.11967, 42.500645], [-71.109478, 42.50133700000001], [-71.10534, 42.501786], [-71.105304, 42.501641], [-71.101778, 42.50123199999999], [-71.101322, 42.50135100000001], [-71.10146999999999, 42.501852], [-71.101045, 42.502244000000005], [-71.09985499999999, 42.50230699999999], [-71.09441799999999, 42.502162999999996], [-71.090026, 42.501483000000015], [-71.089824, 42.50064900000001], [-71.089, 42.49879399999999], [-71.086562, 42.49398200000001], [-71.085465, 42.492427000000006], [-71.079982, 42.489732], [-71.074955, 42.48791300000001], [-71.076303, 42.48039399999998], [-71.07614699999999, 42.479499], [-71.076728, 42.47731599999998], [-71.077415, 42.47738699999999], [-71.07739699999999, 42.47530199999999], [-71.076351, 42.475042], [-71.077614, 42.47479099999999], [-71.077985, 42.473974999999996], [-71.076124, 42.47347899999998], [-71.07615899999999, 42.472929999999984], [-71.075406, 42.473276], [-71.072847, 42.472591], [-71.072538, 42.471427999999996], [-71.070386, 42.47169099999997], [-71.067515, 42.471725000000006], [-71.066893, 42.47199599999999], [-71.063846, 42.47211099999999], [-71.06164, 42.47258000000001], [-71.06147399999999, 42.472505], [-71.061269, 42.47265099999999], [-71.061328, 42.474202999999996], [-71.058118, 42.47466199999999], [-71.056658, 42.47520799999998], [-71.05523, 42.475531], [-71.053926, 42.47513], [-71.052889, 42.47522699999998], [-71.049984, 42.472090999999985], [-71.049806, 42.472169000000015], [-71.049579, 42.471905], [-71.049668, 42.47171299999999], [-71.04479599999999, 42.466195000000006], [-71.044729, 42.465724000000016], [-71.04021399999999, 42.46090199999999], [-71.039114, 42.45951300000002], [-71.03654, 42.456846999999996], [-71.036131, 42.45658900000002], [-71.035761, 42.455963000000004], [-71.027857, 42.44700099999999], [-71.02746499999999, 42.44696599999999], [-71.025449, 42.444938], [-71.024958, 42.44538899999999], [-71.023679, 42.44599500000001], [-71.02029499999999, 42.448896], [-71.018495, 42.45009599999999], [-71.018295, 42.44959599999998], [-71.016795, 42.44819599999999], [-71.012095, 42.442796], [-71.009495, 42.441196], [-71.011995, 42.439696000000005], [-71.010295, 42.43869600000001], [-71.01049499999999, 42.437396], [-71.011579, 42.436179], [-71.01074299999999, 42.435262], [-71.01088299999999, 42.43440699999999], [-71.010327, 42.434098999999996], [-71.01086699999999, 42.43389599999998], [-71.010954, 42.43366], [-71.01117599999999, 42.43377799999999], [-71.01171599999999, 42.433705], [-71.01191, 42.433319000000004], [-71.011534, 42.433335], [-71.011158, 42.43314300000001], [-71.010403, 42.433521], [-71.010742, 42.433767], [-71.010164, 42.433796], [-71.009864, 42.43398099999999], [-71.00972, 42.433862], [-71.00976, 42.43328899999999], [-71.009577, 42.433189000000006], [-71.009613, 42.43403], [-71.00937499999999, 42.433989], [-71.009277, 42.43427799999999], [-71.00862599999999, 42.434352999999994], [-71.007873, 42.433972], [-71.006974, 42.43383800000001], [-71.005875, 42.433029], [-71.004632, 42.43305500000001], [-71.00330199999999, 42.43270299999998], [-71.003219, 42.43243700000001], [-71.00334699999999, 42.43220900000001], [-71.004595, 42.431715], [-71.004595, 42.429814], [-71.003275, 42.429709999999986], [-71.001094, 42.431296], [-70.998475, 42.431296], [-70.99571399999999, 42.430855000000015], [-70.994849, 42.43115], [-70.992023, 42.43413499999999], [-70.99011999999999, 42.43487700000001], [-70.987805, 42.43399799999998], [-70.985754, 42.432556999999996], [-70.983708, 42.431663], [-70.982294, 42.431296], [-70.979648, 42.432631], [-70.975194, 42.436896000000004], [-70.971594, 42.442696], [-70.968594, 42.444396], [-70.966293, 42.44349700000001], [-70.95079299999999, 42.44429599999999], [-70.951393, 42.436996], [-70.95299299999999, 42.42939599999999], [-70.959093, 42.41859699999998], [-70.962093, 42.412397000000006], [-70.95949399999999, 42.407498000000004], [-70.924593, 42.386798], [-70.917892, 42.385997], [-70.972893, 42.35359699999999], [-70.985593, 42.356796999999986], [-70.986597, 42.36457199999999], [-71.001757, 42.364851], [-71.01024199999999, 42.365347], [-71.00665, 42.37474100000001], [-70.99669399999999, 42.37874100000001], [-70.994648, 42.38114999999999], [-70.994681, 42.38270899999999], [-70.994239, 42.384647000000015], [-70.988281, 42.38710700000001], [-70.986921, 42.386993], [-70.986053, 42.388116000000004], [-70.987993, 42.38895200000001], [-70.987201, 42.39201299999999], [-70.987442, 42.39274200000001], [-70.98977099999999, 42.393240000000006], [-70.99142599999999, 42.39301799999999], [-70.994731, 42.39288799999999], [-70.995065, 42.393494], [-70.996695, 42.39459499999999], [-70.998995, 42.398196999999996], [-71.001336, 42.398866999999996], [-71.003402, 42.39835900000001], [-71.007223, 42.396039000000016], [-71.009586, 42.39603], [-71.013395, 42.39739799999999], [-71.009629, 42.400166999999996], [-71.009445, 42.400475], [-71.009396, 42.401183], [-71.010892, 42.40179499999999], [-71.011555, 42.401907], [-71.013772, 42.402964], [-71.01703499999999, 42.40271499999999], [-71.017826, 42.402883], [-71.01808799999999, 42.40335699999999], [-71.018878, 42.403718], [-71.020785, 42.40359300000001], [-71.021289, 42.40438100000001], [-71.02058199999999, 42.404905], [-71.020839, 42.40519099999999], [-71.02191599999999, 42.405287], [-71.022443, 42.40548700000001], [-71.022621, 42.40536299999997], [-71.024553, 42.40557599999999], [-71.025193, 42.40592499999999], [-71.026089, 42.405954], [-71.026134, 42.406259999999996], [-71.026625, 42.40635], [-71.027174, 42.407503999999996], [-71.02728499999999, 42.408952000000006], [-71.02905, 42.41028], [-71.030147, 42.41181399999999], [-71.03244, 42.413729000000004], [-71.032904, 42.41431000000001], [-71.033051, 42.414773000000004], [-71.033442, 42.41338000000001], [-71.034832, 42.41100399999999], [-71.034784, 42.41072499999999], [-71.035992, 42.40916100000001], [-71.03659400000001, 42.407896], [-71.038394, 42.40499599999999], [-71.040195, 42.40269599999999], [-71.040596, 42.401796999999995], [-71.04139599999999, 42.40119700000001], [-71.041795, 42.40109600000001], [-71.044454, 42.399010999999994], [-71.044243, 42.398779999999995], [-71.044309, 42.398573999999996], [-71.04516, 42.398058999999996], [-71.046195, 42.39799599999998], [-71.048208, 42.396620999999996], [-71.049971, 42.39750600000001], [-71.050681, 42.39764699999999], [-71.051928, 42.397403000000004], [-71.05278, 42.39673699999999], [-71.052995, 42.396196], [-71.052095, 42.394895999999996], [-71.050395, 42.393996000000016], [-71.05000199999999, 42.39347099999999], [-71.05069499999999, 42.391996000000006], [-71.055295, 42.38709700000002], [-71.057395, 42.387297000000004], [-71.06569499999999, 42.38659599999998], [-71.07089599999999, 42.388996], [-71.07029600000001, 42.39019599999999], [-71.067095, 42.393996], [-71.067396, 42.394996], [-71.067996, 42.394996], [-71.069496, 42.393896], [-71.072696, 42.390796], [-71.074086, 42.392588], [-71.075996, 42.39639599999999], [-71.077152, 42.39677799999999], [-71.083423, 42.40001299999999], [-71.085687, 42.400650999999996], [-71.091893, 42.398928], [-71.093873, 42.39973099999999], [-71.096096, 42.401196], [-71.097416, 42.39985999999999], [-71.097749, 42.399276000000015], [-71.098343, 42.39882600000001], [-71.100621, 42.396103000000004], [-71.108809, 42.398889000000004], [-71.109009, 42.399125999999995], [-71.11401, 42.400987999999984], [-71.115346, 42.40272799999999], [-71.115129, 42.40280199999999], [-71.1152, 42.404689], [-71.11558099999999, 42.405198], [-71.116299, 42.40564299999999], [-71.116821, 42.40561400000001], [-71.119328, 42.40652499999999], [-71.119456, 42.406327], [-71.121668, 42.407088], [-71.12145699999999, 42.40740000000001], [-71.12399599999999, 42.408268000000014], [-71.123389, 42.40914699999998], [-71.12570099999999, 42.409963000000005], [-71.126179, 42.409227], [-71.128101, 42.410720000000005], [-71.12709699999999, 42.41224400000001], [-71.12987199999999, 42.41338400000001], [-71.126797, 42.41685100000001], [-71.127124, 42.417301000000016], [-71.126762, 42.418112], [-71.127601, 42.418071], [-71.130087, 42.417503], [-71.13116, 42.417043000000035], [-71.131467, 42.416765999999996], [-71.131653, 42.415594999999975], [-71.131939, 42.41527900000001], [-71.132317, 42.415215999999994], [-71.132762, 42.41162699999999], [-71.132273, 42.410126999999996], [-71.132415, 42.409009999999995], [-71.134379, 42.406063], [-71.134742, 42.40291799999999], [-71.136391, 42.40096499999999], [-71.13747099999999, 42.40043100000001], [-71.13933399999999, 42.400148], [-71.140412, 42.399719999999995], [-71.14174, 42.39857599999999], [-71.143424, 42.397489], [-71.150221, 42.40015100000001], [-71.152057, 42.40104], [-71.156302, 42.395852], [-71.156302, 42.395615], [-71.158374, 42.39454599999999], [-71.157118, 42.39056000000001], [-71.157091, 42.389894999999996], [-71.157688, 42.38753100000001], [-71.15798400000001, 42.387042999999984], [-71.158381, 42.386776], [-71.160332, 42.386444], [-71.16010399999999, 42.38585], [-71.158087, 42.382798], [-71.157935, 42.382256], [-71.15586100000002, 42.381609999999995], [-71.155881, 42.381088999999996], [-71.155672, 42.38054200000001], [-71.15575199999999, 42.380413000000004], [-71.156185, 42.380477000000006], [-71.155074, 42.378244], [-71.155254, 42.377721000000015], [-71.15472199999999, 42.376972], [-71.154496, 42.375172000000006], [-71.14968499999999, 42.374660999999996], [-71.14544599999999, 42.37531399999999], [-71.143577, 42.37537599999998], [-71.143897, 42.374095999999994], [-71.13989, 42.373568999999996], [-71.140069, 42.37162899999999], [-71.140395, 42.370283], [-71.142399, 42.36695200000002], [-71.143064, 42.36660200000001], [-71.144303, 42.366382000000016], [-71.143834, 42.365448], [-71.14379699999999, 42.364996], [-71.14509799999999, 42.36449199999999], [-71.14679699999999, 42.36229599999999], [-71.14856499999999, 42.361174000000005], [-71.155303, 42.359898], [-71.159598, 42.359996], [-71.161878, 42.35914099999999], [-71.163716, 42.358248999999994], [-71.166918, 42.359832999999995]], [[-71.376126, 42.31317899999999], [-71.375682, 42.31445], [-71.376058, 42.314609000000004], [-71.376991, 42.314572999999996], [-71.376126, 42.31317899999999]]]]}}