{"type": "Feature", "properties": {"district_name": "2nd Congressional District", "chamber": "us-house", "vintage": "2022-present"}, "geometry": {"type": "Polygon", "coordinates": [[[-72.90458, 42.430385], [-72.847905, 42.43649], [-72.855633, 42.48092000000001], [-72.871136, 42.484041], [-72.875155, 42.507249], [-72.87032, 42.52515], [-72.875461, 42.52589700000001], [-72.876658, 42.531732999999996], [-72.877026, 42.555425], [-72.848454, 42.559069], [-72.831748, 42.616626999999994], [-72.823661, 42.618624999999994], [-72.82248, 42.61879799999999], [-72.820266, 42.618424], [-72.816958, 42.617141], [-72.81565, 42.61680700000001], [-72.813681, 42.616669], [-72.809896, 42.616974], [-72.80311, 42.616625], [-72.797902, 42.617608], [-72.790831, 42.61967700000001], [-72.785293, 42.621014], [-72.783541, 42.62129600000001], [-72.778354, 42.621057000000015], [-72.772842, 42.620135], [-72.764282, 42.61942800000001], [-72.76198, 42.619767], [-72.759229, 42.61987400000001], [-72.75535, 42.620827], [-72.754099, 42.62097899999999], [-72.753537, 42.62085600000001], [-72.75218, 42.620059000000005], [-72.750142, 42.61823200000001], [-72.749595, 42.61805], [-72.748384, 42.618038000000006], [-72.74642800000001, 42.618852999999994], [-72.74528, 42.61967099999999], [-72.745582, 42.621503999999995], [-72.746593, 42.6223], [-72.746995, 42.62293900000001], [-72.746984, 42.62375599999999], [-72.746721, 42.624171], [-72.745912, 42.624781999999996], [-72.744536, 42.626399999999975], [-72.743953, 42.62681700000001], [-72.743095, 42.62711500000001], [-72.741553, 42.62730100000002], [-72.738969, 42.627272000000005], [-72.736889, 42.62702100000003], [-72.737015, 42.629043999999986], [-72.736186, 42.631745], [-72.735963, 42.632196], [-72.735114, 42.633108], [-72.76609200000001, 42.62926], [-72.772647, 42.658334], [-72.821506, 42.63687699999999], [-72.835707, 42.635070000000006], [-72.836201, 42.637789], [-72.842793, 42.63809799999999], [-72.842273, 42.64661400000001], [-72.851206, 42.64714500000001], [-72.854215, 42.66465199999997], [-72.855425, 42.66461499999998], [-72.857687, 42.67408999999999], [-72.859584, 42.68308699999999], [-72.854034, 42.68320700000001], [-72.864319, 42.73783800000001], [-72.809113, 42.736581000000015], [-72.721319, 42.734099], [-72.624535, 42.731634000000014], [-72.616493, 42.731289], [-72.598638, 42.73092399999999], [-72.458412, 42.726932999999995], [-72.41434300000002, 42.725377], [-72.345784, 42.72336300000001], [-72.302737, 42.722272000000004], [-72.250963, 42.720685], [-72.111059, 42.717206000000004], [-72.116631, 42.62660699999999], [-72.075749, 42.625235], [-72.035983, 42.593857], [-72.041811, 42.591978], [-72.041883, 42.59031699999999], [-72.042209, 42.589363999999996], [-72.040869, 42.58822499999999], [-72.039717, 42.587697], [-72.039444, 42.586849000000015], [-72.038802, 42.586481000000006], [-72.038829, 42.586220000000004], [-72.039315, 42.585564], [-72.041609, 42.584776], [-72.042293, 42.583909], [-72.042237, 42.58362499999999], [-72.041626, 42.583245], [-72.041514, 42.582894], [-72.042038, 42.582137], [-72.041546, 42.58086799999999], [-72.042183, 42.58030199999999], [-72.042024, 42.579794], [-72.041019, 42.57931399999999], [-72.040386, 42.57861400000001], [-72.039315, 42.578655], [-72.038852, 42.57847599999999], [-72.038263, 42.578639], [-72.037849, 42.578408], [-72.037492, 42.578097000000014], [-72.03751, 42.57786499999999], [-72.038217, 42.57733000000001], [-72.038207, 42.57715700000001], [-72.037997, 42.577070000000006], [-72.037054, 42.57740900000001], [-72.036323, 42.57819700000001], [-72.035723, 42.579038], [-72.035686, 42.57990999999999], [-72.035494, 42.580104], [-72.034599, 42.579992], [-72.032829, 42.578765999999995], [-72.031729, 42.57833599999999], [-72.032207, 42.577250000000014], [-72.032432, 42.576937], [-72.032792, 42.57681399999999], [-72.032926, 42.576324], [-72.032431, 42.575883], [-72.031114, 42.575948000000004], [-72.03135700000001, 42.57443599999999], [-72.031218, 42.574211000000005], [-72.03072, 42.57399099999999], [-72.029459, 42.574255], [-72.028502, 42.573904], [-72.027441, 42.573930000000004], [-72.026975, 42.573366], [-72.026699, 42.57326600000002], [-72.023419, 42.573673], [-72.023074, 42.574409999999986], [-72.020021, 42.57549999999999], [-72.019595, 42.57591299999999], [-72.019493, 42.576654], [-72.019366, 42.576706], [-72.018607, 42.576699999999995], [-72.017889, 42.57646499999999], [-72.017029, 42.575535000000016], [-72.01687, 42.57439999999998], [-72.016328, 42.574213], [-72.015999, 42.573655], [-72.016633, 42.57305699999999], [-72.017049, 42.572263], [-72.019242, 42.571222], [-72.019495, 42.57101], [-72.019454, 42.570778], [-72.018782, 42.570338], [-72.016577, 42.569883000000004], [-72.014999, 42.567943000000014], [-72.02701, 42.563240999999984], [-72.001447, 42.54665799999999], [-71.979686, 42.53231000000001], [-71.949793, 42.51188600000002], [-71.949603, 42.513122], [-71.949882, 42.513686], [-71.949778, 42.51408000000001], [-71.950128, 42.51594799999998], [-71.950913, 42.516807], [-71.951072, 42.517633], [-71.951318, 42.517904], [-71.951093, 42.51836], [-71.95017, 42.519144000000004], [-71.950235, 42.519707000000004], [-71.949875, 42.52055700000001], [-71.950129, 42.521885], [-71.949362, 42.523369], [-71.949314, 42.524045], [-71.94847, 42.524485000000006], [-71.945598, 42.525122], [-71.942943, 42.525342], [-71.940649, 42.52617900000001], [-71.937774, 42.526555], [-71.936505, 42.52665100000001], [-71.932808, 42.52636400000002], [-71.929694, 42.52894799999999], [-71.929081, 42.52505200000002], [-71.927179, 42.523488000000015], [-71.926256, 42.52320600000001], [-71.925279, 42.52440500000001], [-71.921756, 42.52802000000001], [-71.920466, 42.529876], [-71.92053, 42.52835], [-71.918559, 42.525772], [-71.916429, 42.524303], [-71.91431, 42.52328199999997], [-71.913481, 42.52379199999999], [-71.911638, 42.524342999999995], [-71.908493, 42.526557], [-71.907369, 42.52853900000001], [-71.906503, 42.52923099999998], [-71.905082, 42.531265000000005], [-71.904618, 42.533796], [-71.903796, 42.534684999999996], [-71.902439, 42.535679], [-71.902143, 42.53492200000001], [-71.900833, 42.53368799999999], [-71.898665, 42.532959], [-71.897248, 42.531929999999996], [-71.896422, 42.53175199999999], [-71.895599, 42.530162000000004], [-71.893621, 42.527642000000014], [-71.892932, 42.526251], [-71.892049, 42.522785999999996], [-71.892055, 42.521317], [-71.891834, 42.519978], [-71.890795, 42.517976], [-71.890166, 42.517720000000004], [-71.886937, 42.517309], [-71.88323600000001, 42.515357], [-71.880781, 42.51484900000001], [-71.88015, 42.51458199999999], [-71.878465, 42.51354899999998], [-71.87762, 42.51284100000001], [-71.877329, 42.512498000000015], [-71.876761, 42.51108200000001], [-71.874865, 42.509519999999995], [-71.864531, 42.51693300000001], [-71.86104, 42.51637400000001], [-71.856837, 42.51908299999999], [-71.849404, 42.517903000000004], [-71.84737, 42.514704999999985], [-71.844954, 42.51443900000001], [-71.842004, 42.514679000000015], [-71.837123, 42.548551], [-71.832831, 42.54900200000001], [-71.83088, 42.54901800000001], [-71.829067, 42.548641999999994], [-71.822928, 42.546794], [-71.821281, 42.546539], [-71.819247, 42.54659899999999], [-71.814214, 42.54725300000001], [-71.8079, 42.54716400000001], [-71.806546, 42.54747200000001], [-71.804663, 42.548261999999994], [-71.803752, 42.548897], [-71.800126, 42.552110000000006], [-71.798699, 42.552594000000006], [-71.797118, 42.552551000000015], [-71.78937, 42.550931], [-71.786023, 42.551047000000004], [-71.771342, 42.559248], [-71.76918, 42.558142000000004], [-71.764287, 42.55505600000001], [-71.761588, 42.55190399999999], [-71.761951, 42.549808000000006], [-71.760362, 42.54762200000001], [-71.757766, 42.548567999999996], [-71.754166, 42.54605199999999], [-71.749679, 42.54520199999998], [-71.749149, 42.54905000000001], [-71.749869, 42.54975900000001], [-71.747769, 42.549935], [-71.75045, 42.553461999999996], [-71.754096, 42.559456], [-71.755875, 42.56117000000001], [-71.757247, 42.562068], [-71.76295, 42.56392400000001], [-71.745072, 42.573859999999996], [-71.720417, 42.55232900000001], [-71.711231, 42.535354000000005], [-71.702236, 42.53389499999997], [-71.712384, 42.52132899999999], [-71.71674, 42.518971], [-71.728385, 42.475128000000005], [-71.718699, 42.473373999999986], [-71.718362, 42.410219999999995], [-71.721578, 42.409239000000014], [-71.725979, 42.39028900000002], [-71.701017, 42.39580800000002], [-71.67055100000002, 42.38666500000001], [-71.677794, 42.365154000000025], [-71.63394200000002, 42.35839800000001], [-71.624702, 42.35046500000001], [-71.625825, 42.34972399999999], [-71.620658, 42.345248999999995], [-71.619131, 42.343348999999996], [-71.61755, 42.341967999999994], [-71.616047, 42.341463999999995], [-71.611529, 42.338993], [-71.604663, 42.336746000000005], [-71.604099, 42.336769000000004], [-71.603591, 42.33167600000001], [-71.605266, 42.33016], [-71.60371, 42.328548000000005], [-71.601885, 42.32697099999999], [-71.597363, 42.321016000000014], [-71.592502, 42.317901], [-71.58521, 42.31095199999999], [-71.569085, 42.32037299999999], [-71.551126, 42.326395000000005], [-71.516527, 42.33033600000001], [-71.50821600000002, 42.327928], [-71.486797, 42.33018899999999], [-71.485109, 42.323164], [-71.485948, 42.31122800000001], [-71.497046, 42.289829000000005], [-71.460756, 42.279063], [-71.419298, 42.25728099999999], [-71.418303, 42.246504], [-71.420075, 42.23812300000001], [-71.4188, 42.238198000000004], [-71.417259, 42.23788799999998], [-71.416491, 42.23667799999999], [-71.414973, 42.235449000000024], [-71.413675, 42.23488900000001], [-71.413362, 42.234556999999995], [-71.41321, 42.233583], [-71.41339, 42.23256499999999], [-71.413044, 42.23215], [-71.412664, 42.23101400000001], [-71.413045, 42.229639000000006], [-71.412801, 42.229355], [-71.412538, 42.228171], [-71.412109, 42.227651000000016], [-71.411482, 42.227411999999994], [-71.411305, 42.22706500000001], [-71.410407, 42.226572000000004], [-71.410074, 42.226558], [-71.409605, 42.22593700000001], [-71.409586, 42.22560099999999], [-71.409323, 42.225342], [-71.409298, 42.224888000000014], [-71.409049, 42.224575], [-71.409088, 42.224340999999995], [-71.40968, 42.22401399999999], [-71.408953, 42.22295899999999], [-71.408966, 42.222387999999995], [-71.408758, 42.22219800000002], [-71.408615, 42.22111400000001], [-71.408829, 42.221092000000006], [-71.409118, 42.220425999999996], [-71.41009100000001, 42.219816], [-71.409893, 42.219198999999996], [-71.410022, 42.21874900000003], [-71.408256, 42.218444999999996], [-71.407961, 42.217656], [-71.407331, 42.218164], [-71.401953, 42.21542], [-71.403709, 42.214861000000006], [-71.403582, 42.21428699999999], [-71.402468, 42.213577], [-71.402227, 42.213131], [-71.402035, 42.213198999999996], [-71.40118, 42.212927000000015], [-71.40058, 42.212422999999994], [-71.400191, 42.211791000000005], [-71.399672, 42.211725], [-71.398603, 42.21120699999998], [-71.397529, 42.210302000000006], [-71.397333, 42.209842], [-71.397358, 42.209199000000005], [-71.39719, 42.20905900000001], [-71.397311, 42.20874299999999], [-71.397027, 42.20856799999999], [-71.397056, 42.20815100000001], [-71.397341, 42.207889], [-71.393923, 42.207089], [-71.391706, 42.20974200000001], [-71.388489, 42.20800499999999], [-71.388206, 42.20430300000001], [-71.380182, 42.201758999999996], [-71.384765, 42.19201399999999], [-71.404427, 42.18843300000001], [-71.40229500000001, 42.17879400000002], [-71.380366, 42.14316699999999], [-71.3793, 42.141639999999995], [-71.375618, 42.13545399999999], [-71.37679, 42.13561], [-71.378109, 42.13539200000001], [-71.378944, 42.135834], [-71.379584, 42.13576], [-71.379931, 42.135374000000006], [-71.380044, 42.134592], [-71.37939, 42.13385500000001], [-71.379218, 42.13344099999998], [-71.379326, 42.13324499999999], [-71.379911, 42.13297200000001], [-71.380188, 42.132925], [-71.380591, 42.13314299999998], [-71.381101, 42.13286600000002], [-71.38194, 42.13345799999999], [-71.38249, 42.133451], [-71.382716, 42.133145000000006], [-71.383345, 42.13357200000002], [-71.383132, 42.13381700000001], [-71.382499, 42.133668], [-71.382074, 42.13378199999999], [-71.38212, 42.13392199999999], [-71.382527, 42.133942], [-71.38292600000001, 42.134213], [-71.382803, 42.135031], [-71.382123, 42.13529499999999], [-71.381998, 42.135436999999996], [-71.382096, 42.13554700000001], [-71.383092, 42.135515], [-71.383494, 42.13519299999999], [-71.384991, 42.13527500000001], [-71.397103, 42.13732300000001], [-71.397083, 42.137447000000016], [-71.397519, 42.137614000000006], [-71.398106, 42.138173], [-71.39909, 42.138768999999996], [-71.402456, 42.139539], [-71.403259, 42.139134], [-71.404177, 42.13756000000001], [-71.405, 42.13679299999999], [-71.406237, 42.136309000000004], [-71.408816, 42.134213], [-71.410049, 42.13398500000001], [-71.411062, 42.13445299999999], [-71.411328, 42.134415000000004], [-71.41177600000002, 42.134255], [-71.41231, 42.13371800000001], [-71.412957, 42.133587000000006], [-71.413909, 42.13385299999998], [-71.414559, 42.13427299999999], [-71.415409, 42.134981999999994], [-71.415833, 42.13563400000001], [-71.41571500000002, 42.136077], [-71.415053, 42.13651100000001], [-71.414707, 42.13733900000001], [-71.414703, 42.137917], [-71.415098, 42.13825900000001], [-71.416624, 42.137555000000006], [-71.417735, 42.136731000000005], [-71.418845, 42.136402], [-71.419044, 42.136478999999994], [-71.419323, 42.13744599999998], [-71.419674, 42.13760199999999], [-71.41999, 42.137201999999995], [-71.420535, 42.137541000000006], [-71.420237, 42.13782700000002], [-71.419036, 42.13832099999999], [-71.418942, 42.138789], [-71.419221, 42.138968000000006], [-71.421829, 42.13872800000001], [-71.423191, 42.139115], [-71.424382, 42.13904500000001], [-71.425821, 42.138670000000005], [-71.427085, 42.138566], [-71.427852, 42.138108], [-71.42880100000002, 42.138288999999986], [-71.429514, 42.13897200000002], [-71.430229, 42.139012], [-71.43083, 42.138628000000004], [-71.43094, 42.138262], [-71.431847, 42.138025999999996], [-71.432788, 42.13714], [-71.433089, 42.13649499999999], [-71.433865, 42.13597100000002], [-71.433496, 42.135646], [-71.433797, 42.135161], [-71.434226, 42.135095], [-71.434299, 42.135612999999985], [-71.434745, 42.13559000000001], [-71.434926, 42.135314000000015], [-71.43482400000002, 42.13489700000001], [-71.434451, 42.134508000000004], [-71.434572, 42.134327], [-71.435529, 42.134208], [-71.436193, 42.134319], [-71.437063, 42.134814000000006], [-71.438625, 42.13518500000001], [-71.439259, 42.135029000000024], [-71.440248, 42.13526700000001], [-71.441426, 42.134829], [-71.441769, 42.13503000000001], [-71.441841, 42.135248000000004], [-71.442366, 42.135316], [-71.442451, 42.13545600000001], [-71.442279, 42.13557200000001], [-71.442693, 42.13578400000001], [-71.461441, 42.13364099999999], [-71.478522, 42.13137799999999], [-71.478027, 42.165871], [-71.49313600000002, 42.166209999999985], [-71.497378, 42.166643000000015], [-71.502626, 42.191416], [-71.506894, 42.188927], [-71.539498, 42.189733999999994], [-71.555738, 42.182503000000004], [-71.555497, 42.18234200000001], [-71.55557300000001, 42.182177999999986], [-71.555915, 42.18222499999999], [-71.555806, 42.182079], [-71.55431800000001, 42.18177099999999], [-71.55382, 42.18182500000001], [-71.553646, 42.18140600000001], [-71.552866, 42.18109799999999], [-71.552548, 42.180443], [-71.55259, 42.179984], [-71.552368, 42.180015], [-71.552008, 42.17977499999998], [-71.551666, 42.17857100000001], [-71.552525, 42.177408], [-71.553711, 42.178242999999995], [-71.554898, 42.17811300000002], [-71.555079, 42.17761], [-71.555367, 42.17752500000001], [-71.555382, 42.17732899999999], [-71.555819, 42.177402000000015], [-71.555944, 42.177251999999996], [-71.556468, 42.17763799999998], [-71.556382, 42.17778099999999], [-71.556969, 42.178049], [-71.557187, 42.178342000000015], [-71.557472, 42.178469000000014], [-71.557946, 42.178312000000005], [-71.558352, 42.17873000000001], [-71.558832, 42.17884199999999], [-71.55981500000001, 42.17893599999999], [-71.560263, 42.178805999999994], [-71.560888, 42.178976999999996], [-71.56146, 42.17887], [-71.561498, 42.178672999999996], [-71.562017, 42.178614000000024], [-71.561626, 42.17673799999998], [-71.561972, 42.176491000000006], [-71.562029, 42.17593699999999], [-71.561861, 42.17579499999998], [-71.561985, 42.175444000000006], [-71.561736, 42.174715000000006], [-71.561874, 42.174305000000004], [-71.562516, 42.17409799999998], [-71.562689, 42.173175], [-71.562578, 42.17269600000003], [-71.563197, 42.172366999999994], [-71.563269, 42.171969999999995], [-71.562327, 42.171448999999996], [-71.561759, 42.17034899999999], [-71.56055200000002, 42.16873800000001], [-71.560504, 42.16852200000002], [-71.561227, 42.167786], [-71.561056, 42.167598000000005], [-71.560765, 42.16764599999999], [-71.560462, 42.16804200000001], [-71.560155, 42.168027], [-71.559783, 42.167623], [-71.559809, 42.167108], [-71.562839, 42.167838999999994], [-71.564288, 42.165958], [-71.564463, 42.165096], [-71.564259, 42.16448599999998], [-71.564441, 42.164204], [-71.564029, 42.164054], [-71.563466, 42.163285], [-71.563522, 42.162384], [-71.56385, 42.162174000000014], [-71.563532, 42.16152999999999], [-71.563714, 42.161172999999984], [-71.56350400000001, 42.16068399999999], [-71.563003, 42.16051300000001], [-71.562817, 42.160155], [-71.562372, 42.159995], [-71.562295, 42.159512], [-71.561999, 42.159344999999995], [-71.561914, 42.15896299999999], [-71.560954, 42.158315], [-71.571402, 42.151844999999994], [-71.571591, 42.14236699999999], [-71.570005, 42.13918400000001], [-71.573414, 42.135790000000014], [-71.592748, 42.12164800000001], [-71.5911, 42.013646], [-71.771427, 42.009481000000015], [-71.799188, 42.008053], [-71.799709, 42.015629000000004], [-71.800671, 42.02351400000001], [-71.845712, 42.023994], [-71.846917, 42.02542400000001], [-71.851912, 42.029689999999995], [-71.853289, 42.03149100000001], [-71.854925, 42.032886], [-71.855877, 42.03392600000003], [-71.857163, 42.036750000000005], [-71.85816, 42.038025], [-71.859158, 42.038963], [-71.859199, 42.040098], [-71.859499, 42.041309000000005], [-71.86146, 42.04599199999998], [-71.863153, 42.045707], [-71.863985, 42.045819000000016], [-71.867865, 42.047392000000016], [-71.867192, 42.048356], [-71.867143, 42.0498], [-71.866173, 42.049808000000006], [-71.86616, 42.050356999999984], [-71.868945, 42.050177999999995], [-71.868863, 42.051593], [-71.873105, 42.05097499999999], [-71.874371, 42.055693], [-71.876719, 42.05483000000001], [-71.877582, 42.056354000000006], [-71.878334, 42.056202000000006], [-71.878408, 42.05525], [-71.880131, 42.055401], [-71.880387, 42.055507], [-71.879883, 42.057527000000015], [-71.879928, 42.05783399999999], [-71.880766, 42.058383000000006], [-71.882117, 42.058562000000016], [-71.88232500000001, 42.058768000000015], [-71.88224100000001, 42.059348], [-71.881616, 42.060041], [-71.88158, 42.06026900000001], [-71.882132, 42.061835999999985], [-71.882043, 42.06262000000002], [-71.881429, 42.063076999999986], [-71.879609, 42.06389499999999], [-71.878827, 42.066158], [-71.879098, 42.06695], [-71.878978, 42.06775800000002], [-71.879083, 42.06817600000001], [-71.881509, 42.075893000000015], [-71.811328, 42.098870999999995], [-71.809217, 42.09536299999999], [-71.797177, 42.09917200000001], [-71.817956, 42.13326399999999], [-71.82953, 42.129390999999984], [-71.831942, 42.14377500000001], [-71.829591, 42.14486], [-71.824853, 42.15533200000002], [-71.83048, 42.156082], [-71.834105, 42.154989999999984], [-71.834485, 42.157257], [-71.825488, 42.15992000000001], [-71.825959, 42.165820000000004], [-71.831504, 42.16425300000001], [-71.834924, 42.159829000000016], [-71.858096, 42.160706000000005], [-71.875802, 42.170120000000004], [-71.895135, 42.192425], [-71.939356, 42.189237999999996], [-71.967291, 42.310682000000014], [-71.989406, 42.31018799999999], [-72.041168, 42.30869700000001], [-72.123667, 42.36392999999999], [-72.124407, 42.363347], [-72.1243, 42.36276500000001], [-72.123912, 42.362146], [-72.123994, 42.361639999999994], [-72.126627, 42.359750000000005], [-72.127923, 42.359275000000004], [-72.130422, 42.358783], [-72.132074, 42.358932], [-72.133476, 42.358411000000004], [-72.13467, 42.35739599999997], [-72.135113, 42.356682], [-72.13558, 42.354787999999985], [-72.136692, 42.35382900000001], [-72.136986, 42.353118000000016], [-72.136964, 42.351358000000005], [-72.136282, 42.35004700000001], [-72.136388, 42.348709000000014], [-72.137178, 42.348001999999994], [-72.139216, 42.348524], [-72.140057, 42.34843600000001], [-72.140315, 42.34823300000001], [-72.14042, 42.347923], [-72.139913, 42.34644299999999], [-72.139817, 42.34546000000001], [-72.13992700000001, 42.345082999999995], [-72.140395, 42.344687], [-72.141425, 42.34425499999999], [-72.14265800000001, 42.34445299999999], [-72.144138, 42.34408999999999], [-72.146849, 42.345672000000015], [-72.149556, 42.345287000000006], [-72.152294, 42.34550500000001], [-72.153522, 42.34508499999999], [-72.154622, 42.343729999999994], [-72.1556, 42.34348800000001], [-72.156458, 42.34363100000001], [-72.157487, 42.343553], [-72.15851200000002, 42.34312500000001], [-72.158655, 42.342320000000015], [-72.159488, 42.341624], [-72.159621, 42.340823], [-72.159293, 42.339518], [-72.159608, 42.33857600000001], [-72.160673, 42.33768400000001], [-72.162077, 42.33697699999998], [-72.163193, 42.33678700000002], [-72.163627, 42.336361], [-72.163895, 42.335468], [-72.163738, 42.33489200000001], [-72.16338, 42.334514000000006], [-72.162696, 42.334368999999995], [-72.162393, 42.33389200000001], [-72.163649, 42.33330199999999], [-72.163691, 42.332643000000004], [-72.163933, 42.33244400000001], [-72.165241, 42.33211899999999], [-72.166279, 42.33146000000001], [-72.167533, 42.331093], [-72.168327, 42.32936700000002], [-72.169449, 42.328726], [-72.17057, 42.327814999999994], [-72.170897, 42.327411000000005], [-72.171281, 42.326363], [-72.172434, 42.325806], [-72.172689, 42.325260999999976], [-72.172677, 42.324160000000006], [-72.172486, 42.32356200000001], [-72.172065, 42.32316199999999], [-72.172109, 42.322744000000014], [-72.175174, 42.320547000000005], [-72.175676, 42.32036300000001], [-72.176904, 42.319194], [-72.177074, 42.31808899999999], [-72.17682, 42.31693100000001], [-72.176979, 42.31656400000001], [-72.177555, 42.316230999999995], [-72.178346, 42.31623900000002], [-72.178891, 42.31603], [-72.179336, 42.314621], [-72.179878, 42.313934], [-72.180856, 42.313398], [-72.181906, 42.31333899999999], [-72.183032, 42.312766], [-72.185221, 42.31035199999999], [-72.185423, 42.309711], [-72.184782, 42.30884700000001], [-72.184758, 42.30859], [-72.18509, 42.30821], [-72.185829, 42.308000999999976], [-72.184147, 42.30715900000001], [-72.183785, 42.306747000000016], [-72.18396, 42.30642000000001], [-72.187294, 42.30471100000002], [-72.190678, 42.304599], [-72.192231, 42.304874999999996], [-72.19305, 42.30511099999999], [-72.193912, 42.30570899999999], [-72.194226, 42.306121000000005], [-72.194185, 42.30685299999999], [-72.193453, 42.308009999999996], [-72.193366, 42.308527], [-72.193645, 42.308955], [-72.194626, 42.30948800000001], [-72.197423, 42.310700999999995], [-72.197933, 42.310746], [-72.199716, 42.311375000000005], [-72.202672, 42.31120399999999], [-72.203669, 42.310792000000006], [-72.205328, 42.31135999999999], [-72.207183, 42.311522000000004], [-72.20499, 42.30623700000002], [-72.205391, 42.305869], [-72.213973, 42.294257000000016], [-72.216745, 42.294056000000005], [-72.216499, 42.29532600000001], [-72.216778, 42.296195000000004], [-72.216461, 42.297253000000005], [-72.216305, 42.299134999999985], [-72.21556, 42.300097000000015], [-72.21340100000002, 42.30106800000001], [-72.212775, 42.30151400000001], [-72.212421, 42.30198199999999], [-72.212228, 42.302565], [-72.212297, 42.302816], [-72.213067, 42.30380899999998], [-72.212611, 42.306635], [-72.212854, 42.307737], [-72.212144, 42.310218], [-72.211378, 42.311022000000015], [-72.210795, 42.31137999999999], [-72.261545, 42.303331000000014], [-72.261922, 42.30525799999999], [-72.274639, 42.301963000000015], [-72.280003, 42.329091], [-72.277079, 42.329404999999994], [-72.278491, 42.336465000000004], [-72.281382, 42.336127000000005], [-72.284231, 42.35200999999999], [-72.288559, 42.35207799999999], [-72.289166, 42.351913], [-72.290288, 42.35210900000001], [-72.290516, 42.352012000000016], [-72.290288, 42.351645], [-72.290384, 42.351319000000025], [-72.290716, 42.35104999999998], [-72.291001, 42.35103299999999], [-72.291264, 42.351119], [-72.291333, 42.35173600000001], [-72.291981, 42.35182699999999], [-72.292677, 42.351287], [-72.295389, 42.35056899999999], [-72.296709, 42.34936900000001], [-72.297904, 42.34914500000001], [-72.298744, 42.349322000000015], [-72.301127, 42.348434999999995], [-72.301397, 42.348229], [-72.301737, 42.347469], [-72.302925, 42.34667999999999], [-72.303753, 42.345757], [-72.304652, 42.345307], [-72.3053, 42.34530600000001], [-72.305331, 42.34552299999999], [-72.30483, 42.34565400000002], [-72.30473, 42.345821000000015], [-72.305724, 42.346089], [-72.306382, 42.346053], [-72.30646500000002, 42.345950999999985], [-72.306241, 42.34557399999999], [-72.30711200000002, 42.345035], [-72.306537, 42.344812000000005], [-72.306411, 42.344619], [-72.306804, 42.344282], [-72.30802300000002, 42.344297000000005], [-72.308803, 42.34410199999999], [-72.308859, 42.34436100000001], [-72.308354, 42.344634000000006], [-72.308788, 42.344891], [-72.309331, 42.344549], [-72.30949900000002, 42.344226000000006], [-72.309409, 42.34376100000001], [-72.309763, 42.343638], [-72.310151, 42.343729], [-72.310797, 42.34311700000001], [-72.31149300000001, 42.34316799999999], [-72.312176, 42.342802000000006], [-72.312784, 42.343048999999986], [-72.313382, 42.34301199999999], [-72.31396, 42.343702], [-72.314778, 42.34349600000001], [-72.314893, 42.34216400000001], [-72.314606, 42.340934], [-72.314933, 42.33954299999998], [-72.315464, 42.33935999999999], [-72.316621, 42.33978700000002], [-72.317631, 42.33962600000001], [-72.320336, 42.33646], [-72.321878, 42.335249000000005], [-72.322861, 42.33416], [-72.32318, 42.333278], [-72.323075, 42.33297700000001], [-72.322563, 42.33263300000001], [-72.322386, 42.332283999999994], [-72.322584, 42.331168999999996], [-72.323064, 42.330943000000005], [-72.324559, 42.33095300000001], [-72.324865, 42.330819999999996], [-72.325334, 42.33006599999998], [-72.326085, 42.32824399999999], [-72.326007, 42.327946999999995], [-72.324673, 42.326765999999985], [-72.324535, 42.326297], [-72.3252, 42.32555800000001], [-72.326214, 42.325158], [-72.32643, 42.325449], [-72.326538, 42.326449], [-72.326762, 42.326814], [-72.32761, 42.32675699999999], [-72.32818, 42.326058999999994], [-72.328219, 42.325248], [-72.3274, 42.323477], [-72.327211, 42.320917000000016], [-72.327546, 42.31954], [-72.328117, 42.318745999999976], [-72.328333, 42.31855800000001], [-72.328863, 42.318645], [-72.328834, 42.31942000000001], [-72.329118, 42.319686999999995], [-72.329489, 42.319755], [-72.331377, 42.319604], [-72.333073, 42.319122], [-72.334715, 42.317618], [-72.334699, 42.31670299999998], [-72.335045, 42.31602199999998], [-72.334914, 42.31554200000001], [-72.335246, 42.315142], [-72.336364, 42.315009], [-72.338244, 42.31444599999999], [-72.341559, 42.31443600000001], [-72.342287, 42.314242], [-72.342584, 42.313942999999995], [-72.343597, 42.31188699999999], [-72.344895, 42.31105099999999], [-72.345889, 42.309969], [-72.346259, 42.30977399999999], [-72.348656, 42.30917600000003], [-72.34918, 42.309405000000005], [-72.350159, 42.310312], [-72.351169, 42.31034000000001], [-72.351459, 42.30999299999999], [-72.350937, 42.30907100000002], [-72.350391, 42.308772999999995], [-72.349794, 42.30879299999999], [-72.349557, 42.308643], [-72.349596, 42.30844300000001], [-72.349889, 42.308042999999984], [-72.352278, 42.30793800000001], [-72.352771, 42.30768], [-72.35277800000001, 42.307451000000015], [-72.351992, 42.307166], [-72.350959, 42.307475999999994], [-72.350659, 42.30739], [-72.34996500000001, 42.30676799999999], [-72.349556, 42.306031], [-72.349517, 42.305552000000006], [-72.349555, 42.30514599999999], [-72.349894, 42.30451600000001], [-72.350996, 42.30391], [-72.351558, 42.304041], [-72.351689, 42.30426200000001], [-72.3516, 42.30591499999999], [-72.351891, 42.306412000000016], [-72.3522, 42.30642300000001], [-72.35421, 42.305684000000014], [-72.355189, 42.30463200000001], [-72.356018, 42.30328300000001], [-72.356675, 42.303428999999994], [-72.357277, 42.30448000000001], [-72.357215, 42.304903], [-72.357678, 42.305188], [-72.357864, 42.30579299999999], [-72.358558, 42.305638999999985], [-72.358797, 42.305747], [-72.359098, 42.30666100000001], [-72.359923, 42.30733400000001], [-72.360632, 42.307654], [-72.36010100000001, 42.307837000000006], [-72.360594, 42.308414], [-72.360478, 42.30869999999999], [-72.358895, 42.308697999999985], [-72.358655, 42.30902300000002], [-72.358884, 42.309239], [-72.359013, 42.309849], [-72.358599, 42.30988500000001], [-72.358275, 42.31034900000001], [-72.357328, 42.310389999999984], [-72.356935, 42.310946000000015], [-72.35638, 42.311009000000006], [-72.356326, 42.31123800000001], [-72.35689, 42.311207], [-72.356946, 42.311347], [-72.35645, 42.31216400000001], [-72.35645, 42.312439000000005], [-72.35699, 42.312856], [-72.356928, 42.31303299999999], [-72.356096, 42.31351400000002], [-72.356157, 42.314373999999994], [-72.35494, 42.31489300000001], [-72.354527, 42.315837], [-72.354556, 42.316049000000014], [-72.35521, 42.316527999999984], [-72.354695, 42.317484], [-72.354917, 42.31801800000001], [-72.355227, 42.318197999999995], [-72.35455700000001, 42.31887799999998], [-72.35458, 42.319055999999996], [-72.354873, 42.31912400000001], [-72.355097, 42.31899800000001], [-72.355266, 42.31911199999999], [-72.355204, 42.31933100000001], [-72.355105, 42.31954700000001], [-72.354419, 42.31963899999999], [-72.353741, 42.32069000000001], [-72.353002, 42.321252], [-72.353317, 42.32157200000001], [-72.353342, 42.321828], [-72.353997, 42.322152], [-72.353527, 42.322347], [-72.353658, 42.32273499999998], [-72.353586, 42.32319499999999], [-72.354302, 42.32368299999998], [-72.354273, 42.323856000000006], [-72.353598, 42.32430599999999], [-72.352827, 42.32426], [-72.352101, 42.324743], [-72.351178, 42.324884000000004], [-72.351255, 42.32506099999999], [-72.35188, 42.325341], [-72.351842, 42.325694000000006], [-72.352435, 42.32575700000002], [-72.352945, 42.326298], [-72.352329, 42.32653999999999], [-72.352669, 42.327425], [-72.353594, 42.327692000000006], [-72.352233, 42.328725], [-72.352901, 42.329092999999986], [-72.352487, 42.32965500000001], [-72.352128, 42.329425], [-72.351899, 42.32978499999999], [-72.351128, 42.329563], [-72.351961, 42.33080300000001], [-72.352532, 42.331134999999996], [-72.352763, 42.331815], [-72.352524, 42.332438], [-72.35204, 42.33294800000001], [-72.352201, 42.333325], [-72.351946, 42.33337699999999], [-72.35169900000001, 42.3332], [-72.351491, 42.333628000000004], [-72.35099, 42.33364099999999], [-72.35156800000001, 42.33419399999999], [-72.350975, 42.33471500000001], [-72.351045, 42.335165999999994], [-72.351174, 42.335335999999984], [-72.351638, 42.335417], [-72.351778, 42.33567900000001], [-72.351555, 42.33574900000001], [-72.352087, 42.336284], [-72.352272, 42.336176000000016], [-72.352332, 42.33583400000001], [-72.352927, 42.336276999999995], [-72.353183, 42.33697300000001], [-72.352666, 42.337157000000005], [-72.3535, 42.337585], [-72.352948, 42.337877], [-72.352884, 42.33817400000001], [-72.353663, 42.33851600000001], [-72.353648, 42.338727], [-72.353401, 42.33891], [-72.353455, 42.33913900000001], [-72.353935, 42.339093], [-72.354157, 42.33922400000001], [-72.353988, 42.340068000000024], [-72.354767, 42.33980799999999], [-72.354972, 42.339911], [-72.355045, 42.340379], [-72.355396, 42.34067800000002], [-72.380368, 42.340613999999995], [-72.393708, 42.339296], [-72.39347, 42.338168999999986], [-72.405455, 42.336437], [-72.409417, 42.358762], [-72.472287, 42.35145800000001], [-72.464195, 42.308053], [-72.479694, 42.306902000000015], [-72.4831, 42.30531900000001], [-72.487764, 42.304708000000005], [-72.490609, 42.30363200000001], [-72.493586, 42.302268], [-72.498034, 42.30511899999998], [-72.499117, 42.306263], [-72.500745, 42.305166], [-72.504151, 42.30547100000002], [-72.506665, 42.306388000000005], [-72.510191, 42.305569], [-72.521421, 42.302182], [-72.524673, 42.303155], [-72.526843, 42.301903000000024], [-72.527961, 42.30145799999999], [-72.531212, 42.303624], [-72.535151, 42.30425199999999], [-72.539903, 42.304127], [-72.544658, 42.30568300000001], [-72.564951, 42.30383299999999], [-72.569306, 42.30448900000001], [-72.577285, 42.302981], [-72.587961, 42.300358], [-72.595326, 42.294431000000024], [-72.602124, 42.288045], [-72.609948, 42.285224], [-72.612007, 42.285573], [-72.612978, 42.286073999999985], [-72.613641, 42.286628000000015], [-72.614449, 42.287506999999984], [-72.614921, 42.288658000000005], [-72.614701, 42.29019900000001], [-72.619303, 42.290067], [-72.621085, 42.28962], [-72.622198, 42.289012], [-72.624521, 42.28814800000001], [-72.627382, 42.286492], [-72.627927, 42.28592299999999], [-72.629022, 42.28526699999998], [-72.630232, 42.28492899999999], [-72.633669, 42.285122], [-72.634849, 42.28538800000001], [-72.636196, 42.286113], [-72.637441, 42.287406], [-72.640677, 42.284137000000015], [-72.64208, 42.288174000000005], [-72.643832, 42.28851900000001], [-72.646138, 42.290468], [-72.648766, 42.291824000000005], [-72.660468, 42.288695999999995], [-72.660216, 42.28925399999998], [-72.672035, 42.290192999999995], [-72.672169, 42.290962000000015], [-72.672091, 42.29188700000002], [-72.736726, 42.284241], [-72.735758, 42.266518], [-72.81440500000001, 42.25681900000002], [-72.821122, 42.33862999999999], [-72.822012, 42.33936199999999], [-72.823175, 42.339102999999994], [-72.823956, 42.339428], [-72.824724, 42.340447000000005], [-72.826184, 42.341149000000016], [-72.825838, 42.34194000000001], [-72.826388, 42.34236299999999], [-72.827246, 42.342506], [-72.828722, 42.34223600000001], [-72.830911, 42.342278], [-72.833483, 42.341748], [-72.835737, 42.34325400000001], [-72.837686, 42.34275399999998], [-72.839222, 42.34294500000001], [-72.839842, 42.34336299999999], [-72.840032, 42.34464199999999], [-72.840376, 42.345076999999996], [-72.843723, 42.344653], [-72.844985, 42.34340799999999], [-72.846128, 42.34072199999999], [-72.846437, 42.340467000000004], [-72.846673, 42.340597], [-72.847088, 42.341845000000006], [-72.847496, 42.342311], [-72.84884600000001, 42.34251800000001], [-72.852001, 42.34217600000001], [-72.85364, 42.342535], [-72.854244, 42.343405000000004], [-72.885635, 42.340035999999984], [-72.90458, 42.430385]]]}}