{"type": "Feature", "properties": {"district_name": "5th Congressional District", "chamber": "us-house", "vintage": "2022-present"}, "geometry": {"type": "Polygon", "coordinates": [[[-71.497011, 42.28989500000001], [-71.485948, 42.31122800000001], [-71.485109, 42.323164], [-71.486804, 42.33021699999999], [-71.483298, 42.353129999999986], [-71.475505, 42.380632000000006], [-71.472689, 42.389984999999996], [-71.46944300000001, 42.40259300000001], [-71.478382, 42.437104], [-71.464349, 42.45030000000003], [-71.430389, 42.436937], [-71.36634, 42.41272], [-71.365212, 42.413352999999994], [-71.365141, 42.414182999999994], [-71.363928, 42.416022000000005], [-71.363933, 42.416558], [-71.364581, 42.41813799999999], [-71.364573, 42.420079], [-71.364416, 42.42044099999999], [-71.362562, 42.421056], [-71.361458, 42.42112199999998], [-71.359152, 42.42066599999999], [-71.357084, 42.41982599999999], [-71.356578, 42.419923], [-71.355868, 42.42092600000001], [-71.354626, 42.421782999999984], [-71.353626, 42.42470300000001], [-71.35256, 42.42692300000001], [-71.335379, 42.437775999999985], [-71.313618, 42.455023], [-71.310931, 42.453594], [-71.309929, 42.453248], [-71.304804, 42.452759999999984], [-71.303191, 42.461254], [-71.302155, 42.461116000000025], [-71.302282, 42.46201000000001], [-71.29519, 42.46344600000001], [-71.29521, 42.463235000000005], [-71.289302, 42.46455700000003], [-71.289676, 42.466182], [-71.28294, 42.461170999999986], [-71.28184, 42.45964], [-71.280851, 42.460168], [-71.280711, 42.45999], [-71.28012100000001, 42.460059], [-71.279501, 42.459675999999995], [-71.277982, 42.46023499999999], [-71.277889, 42.460710000000006], [-71.272695, 42.459704], [-71.261515, 42.47624600000001], [-71.256693, 42.47845600000001], [-71.256935, 42.47872100000001], [-71.259171, 42.477681000000004], [-71.259727, 42.477744], [-71.260262, 42.479767], [-71.25927, 42.480526999999995], [-71.260128, 42.481377999999985], [-71.260174, 42.48159599999999], [-71.259605, 42.484041], [-71.261219, 42.485898], [-71.261849, 42.48626099999999], [-71.261719, 42.486226000000016], [-71.261082, 42.48816900000001], [-71.258193, 42.489358], [-71.257061, 42.49044200000001], [-71.256391, 42.49160599999998], [-71.256662, 42.492925], [-71.254112, 42.493311], [-71.253198, 42.493238], [-71.251688, 42.49240699999999], [-71.249483, 42.490615], [-71.246031, 42.48899599999999], [-71.244177, 42.48853900000001], [-71.240906, 42.490013], [-71.212116, 42.46624400000002], [-71.211807, 42.466388999999985], [-71.211807, 42.466567999999995], [-71.211528, 42.46658500000001], [-71.211348, 42.46689799999999], [-71.210999, 42.466983], [-71.210594, 42.46759899999999], [-71.210479, 42.468118000000004], [-71.210609, 42.46850700000001], [-71.210223, 42.470727000000004], [-71.204317, 42.465845], [-71.188279, 42.479696000000004], [-71.187396, 42.479364000000004], [-71.18548, 42.47996700000001], [-71.186506, 42.480979999999995], [-71.184641, 42.48173299999999], [-71.182944, 42.48212199999999], [-71.181375, 42.483386], [-71.181501, 42.483622], [-71.168924, 42.487087], [-71.170719, 42.48975500000001], [-71.168914, 42.490547000000014], [-71.168444, 42.498299], [-71.169199, 42.506508000000004], [-71.169923, 42.506730999999995], [-71.169395, 42.507311], [-71.16972, 42.507451], [-71.169324, 42.507872], [-71.169473, 42.509487000000014], [-71.169876, 42.50972099999999], [-71.16954, 42.510242], [-71.170258, 42.51045200000001], [-71.169635, 42.511461999999995], [-71.170033, 42.515537], [-71.135454, 42.53000099999998], [-71.123988, 42.50801400000002], [-71.123798, 42.50763399999999], [-71.124176, 42.507526], [-71.123463, 42.506174], [-71.122395, 42.504153], [-71.121959, 42.50427799999999], [-71.11976, 42.500291999999995], [-71.100727, 42.502242], [-71.090115, 42.501260999999985], [-71.085502, 42.492258000000014], [-71.07524000000001, 42.488008], [-71.076599, 42.47749200000003], [-71.077707, 42.47739099999998], [-71.078152, 42.47402], [-71.069305, 42.471636999999994], [-71.061269, 42.47265099999999], [-71.061323, 42.474196], [-71.053365, 42.475925], [-71.025836, 42.44470900000001], [-71.018757, 42.45011800000001], [-71.011924, 42.442164], [-71.009503, 42.440963999999994], [-71.011826, 42.439944000000004], [-71.011897, 42.439748000000016], [-71.012365, 42.439741000000005], [-71.011802, 42.438997], [-71.011141, 42.43906399999998], [-71.01093, 42.438597000000016], [-71.01067, 42.438739000000005], [-71.010536, 42.43844500000001], [-71.010099, 42.438301], [-71.01013, 42.43817599999999], [-71.010625, 42.438102], [-71.010736, 42.43776400000001], [-71.010425, 42.437583999999994], [-71.010677, 42.437347], [-71.010639, 42.43719599999999], [-71.010927, 42.437083], [-71.01109, 42.436795], [-71.011442, 42.436693000000005], [-71.010994, 42.43654200000001], [-71.01144, 42.436225000000015], [-71.011416, 42.435990999999994], [-71.010802, 42.435397999999985], [-71.010777, 42.43456799999998], [-71.009277, 42.43427799999999], [-71.00858, 42.434346], [-71.007873, 42.433972], [-71.006974, 42.43383800000001], [-71.006532, 42.43339399999999], [-71.005691, 42.432981], [-71.004632, 42.43305500000001], [-71.003302, 42.43270299999998], [-71.002994, 42.432837], [-71.00215, 42.43260800000001], [-70.999857, 42.431296], [-70.998475, 42.431296], [-70.995714, 42.430855000000015], [-70.994779, 42.43119600000001], [-70.992023, 42.43413499999999], [-70.99012, 42.43487700000001], [-70.987805, 42.43399799999998], [-70.985754, 42.432557], [-70.983708, 42.431663], [-70.982294, 42.431296], [-70.979894, 42.432396000000004], [-70.979454, 42.432815], [-70.975194, 42.436896000000004], [-70.971594, 42.442696], [-70.968594, 42.444396], [-70.966293, 42.44349700000001], [-70.950793, 42.44429599999999], [-70.951393, 42.436996], [-70.952993, 42.42939599999999], [-70.959093, 42.41859699999998], [-70.962093, 42.412397000000006], [-70.959494, 42.407498000000004], [-70.924593, 42.386798], [-70.917892, 42.38599700000002], [-70.967048, 42.356954], [-70.967257, 42.35706900000001], [-70.96882, 42.35586600000001], [-70.968935, 42.35592500000001], [-70.972893, 42.35359699999999], [-70.985593, 42.356796999999986], [-70.986597, 42.364572], [-71.000736, 42.364818], [-71.000695, 42.36464], [-71.010363, 42.365031], [-71.006123, 42.376052], [-71.000206, 42.37775400000002], [-70.999326, 42.377737999999994], [-70.996694, 42.37874100000001], [-70.994648, 42.38114999999999], [-70.994634, 42.38271099999997], [-70.994239, 42.384647000000015], [-70.988281, 42.38710700000001], [-70.98778, 42.386942999999995], [-70.986731, 42.387007], [-70.986053, 42.388116000000004], [-70.987289, 42.388734], [-70.987511, 42.38922900000001], [-70.987571, 42.390582], [-70.987199, 42.39146300000001], [-70.987133, 42.392123], [-70.987442, 42.39274200000001], [-70.989771, 42.393240000000006], [-70.993818, 42.392924], [-70.995361, 42.393813], [-70.996475, 42.396308000000005], [-70.998306, 42.396929], [-70.999146, 42.39697799999999], [-71.001407, 42.39674000000001], [-71.005861, 42.393892], [-71.008945, 42.39519200000001], [-71.009894, 42.395475000000005], [-71.01193, 42.39575200000001], [-71.011272, 42.396589000000006], [-71.013395, 42.39739799999999], [-71.009629, 42.40016700000001], [-71.009445, 42.400475], [-71.009396, 42.401183], [-71.010861, 42.401689000000005], [-71.013007, 42.402864], [-71.013772, 42.402964], [-71.01563, 42.402704000000014], [-71.017035, 42.40271499999999], [-71.017826, 42.402883], [-71.018088, 42.40335699999999], [-71.018715, 42.403709000000006], [-71.019981, 42.40372300000001], [-71.020828, 42.403513000000004], [-71.021169, 42.40392400000001], [-71.021191, 42.40423299999999], [-71.020305, 42.404829], [-71.020442, 42.405114], [-71.02148, 42.405164000000006], [-71.022442, 42.405474], [-71.022855, 42.40512499999999], [-71.023278, 42.40554399999999], [-71.023847, 42.40532400000001], [-71.024901, 42.40590000000002], [-71.025753, 42.405756999999994], [-71.026237, 42.40592500000002], [-71.026888, 42.40655000000001], [-71.026898, 42.40733199999999], [-71.027115, 42.40778199999998], [-71.02797, 42.40872699999999], [-71.029036, 42.410354000000005], [-71.033181, 42.41420599999999], [-71.031275, 42.418433000000014], [-71.02962, 42.42129899999999], [-71.02822700000002, 42.424202], [-71.050472, 42.42288700000001], [-71.054383, 42.420027], [-71.054735, 42.42003799999999], [-71.05685, 42.41867100000002], [-71.060441, 42.416007], [-71.061584, 42.41561000000001], [-71.064559, 42.41533399999999], [-71.064507, 42.41524099999999], [-71.073296, 42.41479600000002], [-71.073196, 42.41299599999999], [-71.072111, 42.412081000000015], [-71.071907, 42.41167200000001], [-71.071873, 42.411099000000014], [-71.072161, 42.41036299999999], [-71.073624, 42.40930300000001], [-71.073801, 42.409056], [-71.073744, 42.40867900000001], [-71.073659, 42.40851899999999], [-71.072692, 42.408237], [-71.071297, 42.40692200000001], [-71.073448, 42.402665000000006], [-71.075988, 42.399706000000016], [-71.076419, 42.39777299999999], [-71.075996, 42.39639600000001], [-71.077152, 42.39677799999999], [-71.083423, 42.40001299999999], [-71.085687, 42.400651], [-71.091993, 42.39889999999997], [-71.093883, 42.39963199999999], [-71.096689, 42.400454999999994], [-71.100394, 42.39622399999999], [-71.112374, 42.400226], [-71.113868, 42.400985000000006], [-71.115489, 42.402905000000004], [-71.115541, 42.40514499999999], [-71.119328, 42.40652499999999], [-71.119456, 42.406327], [-71.121752, 42.407116], [-71.121556, 42.407433999999995], [-71.123996, 42.408268000000014], [-71.12336, 42.40919100000001], [-71.125687, 42.40998399999999], [-71.12615, 42.40926900000001], [-71.128101, 42.410720000000005], [-71.12704, 42.41232800000001], [-71.129922, 42.41332700000001], [-71.125809, 42.417999], [-71.127435, 42.418135], [-71.130405, 42.417424], [-71.13155800000001, 42.416839], [-71.131614, 42.41551100000001], [-71.131872, 42.415291], [-71.132435, 42.415215999999994], [-71.132887, 42.41197299999998], [-71.132247, 42.41017800000001], [-71.132223, 42.40952300000001], [-71.132569, 42.40869599999999], [-71.134286, 42.406403999999995], [-71.134595, 42.405445000000014], [-71.134635, 42.404258999999996], [-71.13130000000001, 42.401579999999996], [-71.12736100000001, 42.39709599999998], [-71.128824, 42.39620399999999], [-71.128654, 42.39605699999999], [-71.128744, 42.396010000000004], [-71.129463, 42.396626999999995], [-71.130854, 42.39578500000002], [-71.132153, 42.395762], [-71.13221300000001, 42.39727600000001], [-71.136932, 42.397572], [-71.13713, 42.39698300000001], [-71.13835, 42.3968], [-71.138359, 42.39564500000001], [-71.139396, 42.39596999999998], [-71.140745, 42.39588600000001], [-71.140607, 42.394679999999994], [-71.144297, 42.394676000000004], [-71.14413, 42.395261000000005], [-71.143241, 42.39656399999998], [-71.14355700000002, 42.397428000000005], [-71.152057, 42.40104], [-71.156362, 42.395852], [-71.153169, 42.39564300000001], [-71.150115, 42.39493300000001], [-71.145248, 42.392878], [-71.141121, 42.392092000000005], [-71.141699, 42.390658], [-71.143097, 42.38903], [-71.143436, 42.38871199999999], [-71.144134, 42.388679999999994], [-71.143724, 42.388284], [-71.14164, 42.387051], [-71.141637, 42.387190000000004], [-71.141017, 42.386907], [-71.140993, 42.387097], [-71.140809, 42.38714199999999], [-71.138372, 42.38743999999999], [-71.136535, 42.38618200000001], [-71.13475800000002, 42.38557200000001], [-71.135211, 42.385301], [-71.135794, 42.3846], [-71.132855, 42.38327600000001], [-71.132419, 42.383821000000005], [-71.13041, 42.38291799999998], [-71.12977700000002, 42.38346099999999], [-71.131146, 42.38400099999999], [-71.130792, 42.384484], [-71.13173, 42.385185], [-71.129067, 42.38617099999998], [-71.129619, 42.38665800000002], [-71.127558, 42.387402], [-71.129006, 42.390072000000025], [-71.127685, 42.38985100000001], [-71.127643, 42.39037799999999], [-71.126849, 42.390342000000004], [-71.125751, 42.391636000000005], [-71.125266, 42.392586], [-71.124874, 42.39269600000001], [-71.125284, 42.393061999999986], [-71.124368, 42.39365299999999], [-71.122838, 42.392242], [-71.120974, 42.393706000000016], [-71.120214, 42.392641000000005], [-71.117085, 42.389580999999986], [-71.118007, 42.38910400000002], [-71.117452, 42.388386000000004], [-71.118193, 42.388009], [-71.115584, 42.385158], [-71.111656, 42.38174900000002], [-71.113059, 42.380932], [-71.112683, 42.38056100000002], [-71.112147, 42.38089800000001], [-71.111861, 42.38057599999999], [-71.111664, 42.38072100000001], [-71.111464, 42.38049700000001], [-71.111526, 42.38022099999999], [-71.111327, 42.379779999999975], [-71.110504, 42.380019000000004], [-71.110397, 42.37967199999999], [-71.10961, 42.37967499999999], [-71.109204, 42.379370999999985], [-71.108765, 42.379628999999994], [-71.108614, 42.37955199999999], [-71.108514, 42.379481999999996], [-71.108952, 42.379164], [-71.108674, 42.378944], [-71.108457, 42.379112000000006], [-71.107272, 42.378086999999994], [-71.103077, 42.374205999999994], [-71.10305, 42.374018], [-71.102062, 42.37389699999999], [-71.104647, 42.37089900000002], [-71.105859, 42.369749999999996], [-71.10175, 42.36830199999999], [-71.103146, 42.36634400000002], [-71.105104, 42.364520999999996], [-71.106159, 42.36515000000001], [-71.109016, 42.36490800000001], [-71.109214, 42.366169], [-71.110411, 42.36681600000002], [-71.10998400000001, 42.367273999999995], [-71.113512, 42.36856400000001], [-71.113561, 42.366012], [-71.113901, 42.364478], [-71.116921, 42.364246], [-71.116968, 42.36665099999999], [-71.11723, 42.36736700000001], [-71.117934, 42.368385], [-71.11955, 42.36883799999999], [-71.122044, 42.368703], [-71.123827, 42.369156999999994], [-71.124582, 42.369636000000014], [-71.126024, 42.37194799999999], [-71.12701, 42.372839000000006], [-71.128628, 42.373741], [-71.129625, 42.37394400000001], [-71.130685, 42.373922], [-71.131525, 42.373802], [-71.132457, 42.373382], [-71.132962, 42.372940000000014], [-71.13315, 42.37256299999998], [-71.133091, 42.371976], [-71.132182, 42.37090100000001], [-71.131788, 42.370065000000004], [-71.13179, 42.36968600000002], [-71.132117, 42.36914600000001], [-71.133803, 42.367942000000006], [-71.135719, 42.367273999999995], [-71.136658, 42.36675199999997], [-71.139147, 42.36470300000001], [-71.140408, 42.364400999999994], [-71.142909, 42.365026000000015], [-71.144065, 42.365004], [-71.144492, 42.36482199999999], [-71.14524, 42.364150000000016], [-71.146336, 42.362475], [-71.147297, 42.36163599999999], [-71.148084, 42.36120499999999], [-71.152476, 42.360678000000014], [-71.155246, 42.35989500000001], [-71.159278, 42.359902], [-71.160518, 42.359497], [-71.161878, 42.35873600000001], [-71.162601, 42.35850899999999], [-71.163423, 42.35846500000001], [-71.16421800000002, 42.35863100000001], [-71.165691, 42.359707000000014], [-71.166824, 42.360036000000015], [-71.168921, 42.360183000000006], [-71.172754, 42.35933100000001], [-71.175272, 42.359272], [-71.17824, 42.359565999999994], [-71.182126, 42.360681], [-71.18368, 42.358829], [-71.196298, 42.361802000000004], [-71.192215, 42.36542399999999], [-71.19476500000002, 42.366871], [-71.195206, 42.36773399999999], [-71.19542200000001, 42.367825], [-71.19585400000001, 42.367694], [-71.196485, 42.367024000000015], [-71.19708, 42.36693900000001], [-71.197744, 42.36733999999999], [-71.198323, 42.367402000000006], [-71.200515, 42.366271999999995], [-71.202029, 42.36582], [-71.202866, 42.365686999999994], [-71.205098, 42.365749], [-71.206321, 42.36461299999999], [-71.20745800000002, 42.36409999999999], [-71.208812, 42.364577999999995], [-71.209942, 42.364132], [-71.211259, 42.36428499999996], [-71.21373, 42.36512400000001], [-71.21451, 42.36568200000001], [-71.215534, 42.365608], [-71.21634100000001, 42.36584799999999], [-71.217061, 42.366569], [-71.253146, 42.355897000000006], [-71.254034, 42.35477], [-71.255217, 42.353928], [-71.255731, 42.353754], [-71.256356, 42.354012000000004], [-71.256465, 42.354905], [-71.260358, 42.35365800000002], [-71.260099, 42.353016], [-71.25914500000002, 42.35172399999999], [-71.25863100000001, 42.350052], [-71.258624, 42.349360999999995], [-71.258747, 42.349107999999994], [-71.259963, 42.34855700000001], [-71.260306, 42.348194], [-71.260432, 42.34761200000001], [-71.259793, 42.34661000000002], [-71.259759, 42.346111], [-71.261236, 42.34428200000001], [-71.261884, 42.34186900000001], [-71.261596, 42.341353999999995], [-71.261042, 42.341002], [-71.26037, 42.34089900000001], [-71.258248, 42.341190000000005], [-71.256864, 42.340648], [-71.255885, 42.340111], [-71.255689, 42.339290999999996], [-71.256746, 42.338040000000014], [-71.258964, 42.336579], [-71.25893400000001, 42.336019], [-71.259204, 42.33541899999999], [-71.259933, 42.334825000000016], [-71.26122, 42.334605], [-71.263138, 42.334903000000004], [-71.264415, 42.334472999999996], [-71.264726, 42.333944], [-71.26513, 42.33182999999999], [-71.265666, 42.33127300000001], [-71.26801, 42.33056], [-71.269767, 42.33118100000001], [-71.270246, 42.33098], [-71.270279, 42.33052200000001], [-71.269763, 42.32976399999999], [-71.270249, 42.328929999999986], [-71.270255, 42.328555], [-71.269559, 42.327779], [-71.266097, 42.327391000000006], [-71.263536, 42.32601699999999], [-71.263092, 42.326052], [-71.262488, 42.326509], [-71.261952, 42.32664900000001], [-71.260249, 42.32679], [-71.259565, 42.326674], [-71.258999, 42.326340999999985], [-71.258398, 42.32493799999999], [-71.257818, 42.324506], [-71.256295, 42.324659000000004], [-71.254888, 42.32512600000001], [-71.25447, 42.325391999999994], [-71.254308, 42.326052], [-71.253838, 42.32662], [-71.253472, 42.32675699999999], [-71.252808, 42.32670999999999], [-71.251746, 42.326123], [-71.251245, 42.325271], [-71.250229, 42.324551], [-71.249938, 42.32386300000002], [-71.248756, 42.32344700000001], [-71.248307, 42.32252999999999], [-71.247352, 42.32137800000001], [-71.246799, 42.321061], [-71.246146, 42.321012999999994], [-71.245942, 42.32025999999999], [-71.246329, 42.319541], [-71.24636, 42.31907200000001], [-71.246699, 42.31891200000001], [-71.247023, 42.318270999999996], [-71.246777, 42.317645], [-71.247444, 42.317498000000015], [-71.246917, 42.31689100000002], [-71.24663000000001, 42.31573000000001], [-71.248799, 42.315557999999996], [-71.253327, 42.314824000000016], [-71.260518, 42.314110000000014], [-71.266215, 42.314781], [-71.271917, 42.31431100000002], [-71.273806, 42.313912], [-71.274648, 42.313445], [-71.275603, 42.312565000000006], [-71.27712, 42.31198], [-71.27615, 42.31064000000002], [-71.278588, 42.308308], [-71.27803, 42.30675999999999], [-71.275926, 42.30565800000002], [-71.27512, 42.305020000000006], [-71.27431, 42.305400000000006], [-71.27407, 42.30567], [-71.273, 42.30578999999997], [-71.27274, 42.305080000000004], [-71.272, 42.30469], [-71.27282, 42.30382999999999], [-71.27055, 42.30278], [-71.26899, 42.302600000000005], [-71.26835, 42.30237999999998], [-71.26437, 42.300180000000005], [-71.27579, 42.30022000000001], [-71.27663, 42.30001], [-71.277786, 42.299042000000014], [-71.279256, 42.29883999999999], [-71.276776, 42.29732700000001], [-71.276059, 42.296708], [-71.27526, 42.29473000000001], [-71.27845, 42.2924], [-71.27917, 42.29204999999999], [-71.28018, 42.29202999999999], [-71.28127, 42.29228], [-71.28411, 42.29379999999998], [-71.2869, 42.294700000000006], [-71.28797, 42.295978000000005], [-71.288317, 42.29582700000001], [-71.28951, 42.294654000000016], [-71.290587, 42.293917000000015], [-71.291174, 42.293203], [-71.29128900000002, 42.292794999999984], [-71.291202, 42.291882999999984], [-71.291722, 42.291148], [-71.291693, 42.289401000000005], [-71.29199100000001, 42.28901700000001], [-71.292847, 42.28846899999999], [-71.294222, 42.28553199999998], [-71.295115, 42.28506], [-71.296125, 42.28421499999999], [-71.297548, 42.283543], [-71.297681, 42.283263], [-71.297465, 42.28279200000001], [-71.297016, 42.282434], [-71.297109, 42.28197900000001], [-71.29822, 42.28176199999998], [-71.299949, 42.282911000000006], [-71.300315, 42.282897000000006], [-71.300997, 42.282361], [-71.302477, 42.28016], [-71.304636, 42.27835799999999], [-71.307341, 42.27710499999999], [-71.308875, 42.27667399999999], [-71.309302, 42.276378999999984], [-71.309496, 42.275704], [-71.309025, 42.27480799999999], [-71.309013, 42.27334200000002], [-71.308476, 42.27229400000001], [-71.308029, 42.27181099999999], [-71.308115, 42.271223], [-71.30846, 42.270709], [-71.302922, 42.24827400000001], [-71.332496, 42.249075000000005], [-71.332676, 42.248449999999984], [-71.332434, 42.247729000000014], [-71.332908, 42.24783800000001], [-71.342459, 42.25045499999999], [-71.341777, 42.253537], [-71.344932, 42.25384], [-71.348409, 42.254704000000004], [-71.350829, 42.25589599999999], [-71.351776, 42.255816], [-71.353372, 42.256874], [-71.353681, 42.25679299999999], [-71.354399, 42.257686], [-71.354493, 42.258039000000004], [-71.354267, 42.258361], [-71.354443, 42.25862699999999], [-71.355, 42.258662000000015], [-71.355453, 42.259001999999995], [-71.35623200000002, 42.25922500000001], [-71.356686, 42.259983999999996], [-71.356487, 42.261016], [-71.35671, 42.26134499999999], [-71.357098, 42.261435000000006], [-71.357141, 42.261882], [-71.356599, 42.262206], [-71.35645, 42.26248900000001], [-71.356656, 42.263314], [-71.356907, 42.263495], [-71.376833, 42.269489], [-71.390365, 42.27191600000001], [-71.397769, 42.261527999999984], [-71.419298, 42.25728099999999], [-71.460756, 42.279063], [-71.497011, 42.28989500000001]]]}}