{"type": "Feature", "properties": {"district_name": "10th Congressional District", "chamber": "us-house", "vintage": "2001-2010"}, "geometry": {"type": "Polygon", "coordinates": [[[-70.85415100000002, 42.04277099999998], [-70.85723200000001, 42.04607299999999], [-70.857918, 42.04792600000001], [-70.861511, 42.045219999999986], [-70.86055999999999, 42.051271], [-70.861705, 42.052317000000016], [-70.863723, 42.055537000000015], [-70.863647, 42.056261000000006], [-70.864986, 42.057700999999994], [-70.866286, 42.05800099999998], [-70.86548599999999, 42.05980099999999], [-70.866086, 42.06110100000001], [-70.865186, 42.06100100000001], [-70.864586, 42.06170100000002], [-70.864386, 42.06360100000001], [-70.864986, 42.063900999999994], [-70.864186, 42.06430100000001], [-70.865286, 42.06470100000001], [-70.864903, 42.06528], [-70.863294, 42.06982999999998], [-70.862492, 42.071215], [-70.86229, 42.072303], [-70.860986, 42.07450099999999], [-70.860186, 42.07690100000001], [-70.856978, 42.08037900000001], [-70.856287, 42.083271999999994], [-70.857001, 42.087263], [-70.856962, 42.08922599999999], [-70.85751599999999, 42.090698], [-70.856786, 42.091801], [-70.86220399999999, 42.08865399999999], [-70.86539499999999, 42.090348999999996], [-70.867193, 42.08893200000001], [-70.867386, 42.086000999999996], [-70.868286, 42.085601], [-70.86788600000001, 42.086200999999996], [-70.86938599999999, 42.086701000000005], [-70.868848, 42.08784], [-70.86978599999999, 42.08700099999999], [-70.87148599999999, 42.087101000000004], [-70.874686, 42.088201], [-70.87588699999999, 42.08930199999999], [-70.887588, 42.087701999999986], [-70.89439, 42.08658400000001], [-70.90238699999999, 42.08590100000001], [-70.915787, 42.10009999999998], [-70.94508600000002, 42.094698], [-70.946676, 42.09452299999998], [-70.965679, 42.089892], [-70.96755, 42.089586], [-70.97326699999999, 42.08803599999999], [-70.975306, 42.087684], [-70.975297, 42.088275], [-70.975966, 42.08955100000002], [-70.975284, 42.091364], [-70.97544599999999, 42.09259099999999], [-70.975224, 42.09308999999999], [-70.975355, 42.093844000000004], [-70.975002, 42.094466999999995], [-70.974964, 42.095237999999995], [-70.97541, 42.09620699999998], [-70.975672, 42.097598999999995], [-70.976817, 42.099813], [-70.976733, 42.100534999999994], [-70.97686399999999, 42.101212000000004], [-70.976259, 42.102204000000015], [-70.977727, 42.10487599999998], [-70.97761299999999, 42.106085], [-70.978004, 42.10655099999999], [-70.97792799999999, 42.107159999999986], [-70.97838899999999, 42.10765699999998], [-70.978612, 42.108360000000005], [-70.97977999999999, 42.10860100000001], [-70.980194, 42.108909000000004], [-70.980103, 42.109856], [-70.980702, 42.11048999999999], [-70.980603, 42.110973], [-70.979682, 42.111485], [-70.978531, 42.113076], [-70.97948, 42.11403699999998], [-70.987166, 42.11323900000001], [-70.99847, 42.11110099999999], [-71.000141, 42.11765700000001], [-71.001975, 42.12633799999998], [-71.002354, 42.127224], [-70.98092799999999, 42.135645], [-70.980583, 42.13758500000001], [-70.980976, 42.138068999999994], [-70.980306, 42.139306000000005], [-70.98029, 42.14060100000001], [-70.978072, 42.15370099999999], [-70.976691, 42.16560099999999], [-70.976492, 42.166205000000005], [-70.976591, 42.16820099999999], [-70.97520999999999, 42.17497999999999], [-70.97369, 42.17716999999999], [-70.974659, 42.178377999999974], [-70.97388699999999, 42.18411899999999], [-70.97396499999999, 42.18731100000001], [-70.971595, 42.199846], [-70.96989099999999, 42.21189900000001], [-70.969195, 42.214210999999985], [-70.969292, 42.21579799999999], [-70.96862999999999, 42.22001], [-70.967022, 42.223353], [-70.96665899999999, 42.223566999999996], [-70.96614400000001, 42.223576], [-70.964283, 42.224585], [-70.963728, 42.224694000000014], [-70.962891, 42.225499], [-70.960891, 42.226899], [-70.960596, 42.228539000000005], [-70.96038399999999, 42.22871499999999], [-70.960191, 42.23129899999999], [-70.96049099999999, 42.23509899999997], [-70.967991, 42.237998999999995], [-70.973018, 42.237098999999986], [-70.97236, 42.237058999999995], [-70.974082, 42.236976000000006], [-70.97570999999999, 42.237134000000005], [-70.977391, 42.238299000000005], [-70.97979099999999, 42.2362], [-70.979986, 42.235301], [-70.981183, 42.23583599999999], [-70.983687, 42.2353], [-70.98499, 42.23449900000001], [-70.98953399999999, 42.234053999999986], [-70.995817, 42.233118999999995], [-70.99920999999999, 42.232969999999995], [-71.002112, 42.23230799999999], [-71.003689, 42.231598000000005], [-71.007026, 42.230716999999984], [-71.00759699999999, 42.23049799999998], [-71.00819299999999, 42.2296], [-71.010606, 42.230053], [-71.01100000000001, 42.229789999999994], [-71.01908600000002, 42.228412000000006], [-71.020091, 42.228501], [-71.026392, 42.228010000000005], [-71.03108700000001, 42.228094], [-71.03326299999999, 42.227785000000004], [-71.03392699999999, 42.22663000000002], [-71.036194, 42.22470100000001], [-71.038496, 42.221802999999994], [-71.044499, 42.21550399999999], [-71.044938, 42.206572], [-71.04592199999999, 42.206342], [-71.046815, 42.20645299999999], [-71.04793699999999, 42.20635999999999], [-71.049509, 42.206778], [-71.051476, 42.20623399999999], [-71.05223, 42.206315], [-71.052921, 42.205982999999996], [-71.055521, 42.205837], [-71.058292, 42.206116000000016], [-71.059445, 42.20597900000003], [-71.06007699999999, 42.206087999999994], [-71.059975, 42.20659699999999], [-71.061507, 42.206063000000015], [-71.064398, 42.205677999999985], [-71.069501, 42.20448700000001], [-71.071574, 42.20425600000001], [-71.07170099999999, 42.204379999999986], [-71.07440799999999, 42.204289999999986], [-71.074716, 42.204361000000006], [-71.075149, 42.204848999999975], [-71.077195, 42.20464099999999], [-71.078011, 42.204788], [-71.07918, 42.20468100000001], [-71.081043, 42.204927], [-71.081458, 42.20484699999999], [-71.082056, 42.204353999999995], [-71.082489, 42.20428699999999], [-71.083561, 42.20547000000001], [-71.09329900000002, 42.213981000000004], [-71.07589, 42.22039799999998], [-71.073494, 42.22149900000001], [-71.053218, 42.229275], [-71.057102, 42.235702], [-71.057794, 42.237299], [-71.06110000000001, 42.24219600000001], [-71.04441, 42.251400000000004], [-71.044037, 42.25172699999998], [-71.043114, 42.25218200000001], [-71.04263, 42.25224], [-71.042116, 42.252865], [-71.04053100000002, 42.253461], [-71.03810899999999, 42.25529100000001], [-71.03719199999999, 42.255601000000006], [-71.033003, 42.2579], [-71.03190000000001, 42.25859], [-71.03148999999999, 42.259110000000014], [-71.031786, 42.25912699999999], [-71.03190000000001, 42.25959], [-71.032409, 42.260162], [-71.033061, 42.260476999999995], [-71.033748, 42.26106999999999], [-71.03533, 42.261505000000014], [-71.03560999999999, 42.26230999999999], [-71.03734299999999, 42.26307899999999], [-71.040127, 42.265130000000006], [-71.04142, 42.26623], [-71.04173, 42.266740000000006], [-71.04185, 42.267550000000014], [-71.04172, 42.268290000000015], [-71.04149699999999, 42.268480000000004], [-71.043039, 42.273181999999984], [-71.042631, 42.27625400000001], [-71.042794, 42.27699799999999], [-71.041594, 42.27809799999999], [-71.04049400000001, 42.281898000000005], [-71.039293, 42.28379899999999], [-71.03789400000001, 42.284898], [-71.03529400000001, 42.288798], [-71.041294, 42.300097999999984], [-71.04169399999999, 42.305298], [-71.028395, 42.30879899999999], [-71.022093, 42.305597999999975], [-71.015393, 42.30669799999998], [-71.00979099999999, 42.305198999999995], [-71.002093, 42.308697999999985], [-70.998593, 42.311997999999996], [-70.988693, 42.31359800000001], [-70.981781, 42.30838199999999], [-70.97599199999999, 42.300097999999984], [-70.96019199999999, 42.29949800000001], [-70.94899099999999, 42.301298], [-70.937091, 42.311097999999994], [-70.927191, 42.310097999999996], [-70.917091, 42.314198000000005], [-70.905692, 42.316998999999996], [-70.894292, 42.372398999999994], [-70.851191, 42.372499], [-70.74947, 42.37333999999999], [-70.67569, 42.375097999999994], [-70.658723, 42.375097999999994], [-70.690393, 42.27899900000001], [-70.689025, 42.27238999999998], [-70.688773, 42.268331], [-70.688704, 42.263468], [-70.68406100000001, 42.25383599999999], [-70.676029, 42.250102000000005], [-70.66281, 42.24485099999999], [-70.648622, 42.23736], [-70.640113, 42.22837199999999], [-70.63633, 42.21638599999999], [-70.63633, 42.20290299999999], [-70.63916499999999, 42.19091899999998], [-70.642946, 42.178185], [-70.624482, 42.15722500000002], [-70.62258, 42.154424], [-70.608381, 42.13847900000001], [-70.499477, 42.130739000000005], [-70.41480299999999, 42.125097999999994], [-70.41145399999999, 42.125099], [-70.37447399999999, 42.12155], [-70.32252199999999, 42.11791499999998], [-70.27743, 42.114344999999986], [-70.253194, 42.125102999999996], [-70.249472, 42.126926000000005], [-70.229175, 42.131189], [-70.215587, 42.132785000000005], [-70.206221, 42.13305399999999], [-70.1954, 42.13154900000001], [-70.184474, 42.13383700000001], [-70.17254199999999, 42.13451500000001], [-70.15067599999999, 42.131465], [-70.135694, 42.127348999999995], [-70.130377, 42.126929000000004], [-70.124471, 42.12604100000001], [-70.120691, 42.12510099999998], [-70.067098, 42.10532699999998], [-70.040302, 42.09163400000001], [-70.011591, 42.073378], [-69.996279, 42.059687], [-69.969482, 42.029253999999995], [-69.954169, 42.00795500000001], [-69.94821, 42.00010599999999], [-69.940645, 41.992345], [-69.929109, 41.97847599999998], [-69.92302699999999, 41.967760999999996], [-69.917706, 41.95924699999999], [-69.909178, 41.94206200000001], [-69.902402, 41.922145999999984], [-69.89530500000001, 41.90675299999999], [-69.88001799999999, 41.86197800000001], [-69.877762, 41.85284599999999], [-69.876263, 41.84896999999999], [-69.874498, 41.842448000000005], [-69.87315, 41.838648000000006], [-69.872379, 41.831586], [-69.86949899999999, 41.826626999999995], [-69.866525, 41.81701100000002], [-69.86557499999999, 41.80767099999999], [-69.865779, 41.795636], [-69.865595, 41.790980000000005], [-69.862511, 41.773522], [-69.862366, 41.76631799999999], [-69.860058, 41.758503000000005], [-69.85984599999999, 41.75011000000002], [-69.85913000000001, 41.73649999999999], [-69.85886099999999, 41.720383], [-69.85895, 41.706916], [-69.86054, 41.69232599999999], [-69.862098, 41.68497099999998], [-69.862876, 41.67315300000002], [-69.86812499999999, 41.65679100000001], [-69.87106399999999, 41.65256699999999], [-69.874459, 41.645026000000016], [-69.884485, 41.630303000000005], [-69.889012, 41.625195999999995], [-69.888835, 41.625113], [-69.88942, 41.622694], [-69.891662, 41.617186000000004], [-69.898562, 41.60609599999999], [-69.907546, 41.596033000000006], [-69.915399, 41.58924300000001], [-69.916197, 41.58428899999998], [-69.919766, 41.574033], [-69.921517, 41.57090000000001], [-69.921345, 41.562281999999996], [-69.924632, 41.54464599999999], [-69.928994, 41.53215200000001], [-69.936401, 41.52193600000001], [-69.946613, 41.512152], [-69.958172, 41.50466], [-69.96743, 41.50011599999999], [-69.968606, 41.50011599999999], [-69.971289, 41.49887200000001], [-69.979776, 41.496567], [-69.988306, 41.49449599999999], [-69.994377, 41.493663], [-69.99816899999999, 41.493399], [-69.99945799999999, 41.49111800000001], [-69.99945799999999, 41.490527], [-70.013862, 41.47743899999999], [-70.02367699999999, 41.471948], [-70.040313, 41.46596], [-70.055437, 41.46410999999999], [-70.073742, 41.465019999999996], [-70.084904, 41.467493], [-70.101508, 41.474444], [-70.11439399999999, 41.484083000000005], [-70.12259499999999, 41.494499000000005], [-70.124461, 41.498521], [-70.124924, 41.500115], [-70.126677, 41.50369799999999], [-70.127962, 41.509674], [-70.128764, 41.51769199999999], [-70.128554, 41.52473200000001], [-70.126792, 41.530878000000016], [-70.122559, 41.537833], [-70.116719, 41.54499300000001], [-70.10952, 41.551482], [-70.102029, 41.556352000000004], [-70.086572, 41.562447999999996], [-70.080316, 41.564454], [-70.073586, 41.57770800000001], [-70.068572, 41.58522], [-70.063352, 41.59017299999999], [-70.06469899999999, 41.59323000000001], [-70.068046, 41.602954000000004], [-70.068569, 41.61069699999999], [-70.077934, 41.61252799999999], [-70.093772, 41.608323999999996], [-70.109368, 41.605591], [-70.124462, 41.600849], [-70.12695200000002, 41.600203], [-70.138491, 41.59869200000001], [-70.148926, 41.599133], [-70.16035699999999, 41.59937], [-70.163439, 41.597952], [-70.170602, 41.595588000000006], [-70.1815, 41.593547000000015], [-70.189375, 41.59049600000001], [-70.19823699999999, 41.58734200000001], [-70.20804, 41.584149999999994], [-70.220282, 41.57233699999998], [-70.22555799999999, 41.568560999999995], [-70.23194699999999, 41.56559500000001], [-70.241092, 41.56210999999999], [-70.24946299999999, 41.560146], [-70.255691, 41.559146], [-70.26742899999999, 41.558372999999996], [-70.278898, 41.559315999999995], [-70.289965, 41.561639], [-70.299331, 41.565916999999985], [-70.31125399999999, 41.57106200000001], [-70.32021399999999, 41.568946000000004], [-70.331549, 41.567898], [-70.34633699999999, 41.56845300000001], [-70.351936, 41.566649000000005], [-70.364206, 41.562196000000014], [-70.387281, 41.55768099999999], [-70.395164, 41.556722], [-70.397122, 41.55440199999998], [-70.405051, 41.546195000000004], [-70.411202, 41.540744], [-70.417304, 41.534822000000005], [-70.423896, 41.528732], [-70.432904, 41.52206300000001], [-70.440131, 41.517479], [-70.448567, 41.513093000000005], [-70.457634, 41.50934100000001], [-70.466436, 41.50616000000001], [-70.478689, 41.50350299999999], [-70.48396699999999, 41.502545999999995], [-70.48974, 41.501856], [-70.498209, 41.502565], [-70.502832, 41.500635], [-70.50860300000001, 41.498965], [-70.504182, 41.494858], [-70.499472, 41.488233], [-70.494942, 41.479631999999995], [-70.49165800000002, 41.47100900000001], [-70.489689, 41.462976999999995], [-70.485385, 41.463802999999984], [-70.475994, 41.46614099999998], [-70.46395, 41.468], [-70.44800699999999, 41.469355], [-70.436449, 41.46891900000001], [-70.421087, 41.46441600000002], [-70.405928, 41.457012999999996], [-70.392892, 41.44547999999999], [-70.385874, 41.43372099999999], [-70.38080699999999, 41.411995999999995], [-70.380693, 41.385361], [-70.38216299999999, 41.375117999999986], [-70.383449, 41.369933], [-70.37011199999999, 41.36876899999999], [-70.36769799999999, 41.37142700000001], [-70.362641, 41.375117999999986], [-70.353085, 41.381454999999995], [-70.338289, 41.38854999999999], [-70.323593, 41.391607], [-70.308734, 41.390693000000006], [-70.302438, 41.389624999999995], [-70.294179, 41.39144599999999], [-70.283214, 41.39288499999999], [-70.26728299999999, 41.393426000000005], [-70.258549, 41.39210699999999], [-70.24946299999999, 41.390049], [-70.247689, 41.38989099999999], [-70.238142, 41.38620499999999], [-70.233576, 41.38263999999998], [-70.224936, 41.37511999999999], [-70.221622, 41.371769], [-70.21733400000001, 41.364996999999995], [-70.215115, 41.360274999999994], [-70.208297, 41.35802499999999], [-70.19838299999999, 41.359024999999995], [-70.187287, 41.358380000000004], [-70.174906, 41.357290000000006], [-70.159992, 41.35224200000002], [-70.148699, 41.345215999999986], [-70.13794, 41.346371000000005], [-70.13223099999999, 41.348731], [-70.124461, 41.35132699999998], [-70.11933499999999, 41.352638000000006], [-70.110095, 41.353592], [-70.101618, 41.35344999999999], [-70.09784400000001, 41.353584000000005], [-70.103251, 41.359705], [-70.107199, 41.365213000000004], [-70.111328, 41.37038899999998], [-70.11644, 41.38616500000001], [-70.116541, 41.39513199999999], [-70.112734, 41.408126], [-70.105819, 41.419866], [-70.09441199999999, 41.43081], [-70.078847, 41.438015], [-70.06517400000001, 41.442687], [-70.04427199999999, 41.44380099999999], [-70.025902, 41.44107899999998], [-70.006467, 41.43389800000001], [-69.99945799999999, 41.42843199999999], [-69.98922700000001, 41.421225], [-69.98177500000001, 41.41520800000001], [-69.974592, 41.40892200000001], [-69.969634, 41.403510999999995], [-69.957745, 41.38725], [-69.943801, 41.36671700000001], [-69.938456, 41.357645000000005], [-69.92983699999999, 41.34532299999999], [-69.92644, 41.33879399999998], [-69.921579, 41.332398], [-69.91494999999999, 41.324194999999996], [-69.910093, 41.317263], [-69.902948, 41.30520699999999], [-69.898321, 41.29700299999999], [-69.894885, 41.29037199999999], [-69.893789, 41.286925000000004], [-69.89295899999999, 41.28364299999999], [-69.89244500000001, 41.27909000000001], [-69.8925, 41.27621099999998], [-69.892209, 41.271323], [-69.894472, 41.25923999999999], [-69.896044, 41.254119], [-69.89774299999999, 41.250122000000005], [-69.89900999999999, 41.24553799999998], [-69.902992, 41.238416], [-69.910319, 41.226849], [-69.915842, 41.220939], [-69.922911, 41.21583999999999], [-69.930953, 41.21054300000001], [-69.942008, 41.204519999999995], [-69.953586, 41.19967199999999], [-69.973182, 41.193545000000015], [-69.98315099999999, 41.191403], [-69.999457, 41.188305], [-70.012483, 41.18705299999999], [-70.025702, 41.187102], [-70.039705, 41.18819200000001], [-70.051647, 41.190908], [-70.072666, 41.19163400000001], [-70.109684, 41.189803000000005], [-70.12446, 41.19242200000001], [-70.13585499999999, 41.194649], [-70.16117, 41.20068999999998], [-70.178851, 41.204530999999996], [-70.217017, 41.21817599999999], [-70.227997, 41.222664], [-70.239982, 41.228463], [-70.285736, 41.242346000000005], [-70.294484, 41.246499000000014], [-70.314298, 41.260532000000005], [-70.33509000000001, 41.272779], [-70.344083, 41.27614600000001], [-70.357554, 41.27259600000002], [-70.374466, 41.26945800000001], [-70.38667099999999, 41.27128199999999], [-70.396777, 41.273013999999996], [-70.408733, 41.277294000000005], [-70.414493, 41.273953], [-70.429075, 41.268651000000006], [-70.444758, 41.265513000000006], [-70.459851, 41.26525300000001], [-70.475635, 41.270219999999995], [-70.493308, 41.279975], [-70.49946899999999, 41.28574100000001], [-70.512199, 41.298313], [-70.530599, 41.299198999999994], [-70.54521000000001, 41.299672000000015], [-70.571848, 41.30009399999999], [-70.593135, 41.299843999999986], [-70.606672, 41.29940999999999], [-70.62447, 41.298382], [-70.655087, 41.29616499999999], [-70.68502, 41.29317599999998], [-70.686615, 41.292058999999995], [-70.689055, 41.290937000000014], [-70.692874, 41.28963900000001], [-70.700169, 41.289058000000004], [-70.70310599999999, 41.28904], [-70.704591, 41.28483399999999], [-70.707362, 41.280218], [-70.711063, 41.27485699999999], [-70.716499, 41.26945200000001], [-70.721634, 41.265861], [-70.726731, 41.26311000000002], [-70.734843, 41.25923100000001], [-70.734065, 41.256147999999996], [-70.734045, 41.253327000000006], [-70.733667, 41.25011600000003], [-70.73475300000001, 41.24625999999999], [-70.738908, 41.236427], [-70.74430699999999, 41.22603000000001], [-70.749473, 41.22017299999998], [-70.754188, 41.216091], [-70.767837, 41.20648999999999], [-70.783582, 41.20121899999999], [-70.80595, 41.19874200000001], [-70.823645, 41.20064899999999], [-70.847746, 41.20581399999999], [-70.866343, 41.21539699999999], [-70.87447399999999, 41.221380999999994], [-70.877327, 41.224143999999995], [-70.884973, 41.23378399999999], [-70.890541, 41.24309099999999], [-70.89245700000001, 41.25011200000001], [-70.89420299999999, 41.25943899999999], [-70.89359499999999, 41.267993999999995], [-70.890337, 41.27736199999999], [-70.885683, 41.28506600000001], [-70.878182, 41.29214699999999], [-70.874475, 41.29496799999998], [-70.870027, 41.29706799999999], [-70.87447399999999, 41.30134999999999], [-70.877963, 41.30370800000001], [-70.884472, 41.31016199999997], [-70.891363, 41.318817999999986], [-70.897722, 41.327411000000005], [-70.901005, 41.334613], [-70.903815, 41.346727], [-70.903739, 41.35508000000001], [-70.901866, 41.36177], [-70.896017, 41.37014800000001], [-70.902603, 41.36761300000002], [-70.918399, 41.363033], [-70.938664, 41.353986000000006], [-70.95575199999999, 41.35016100000001], [-70.97052099999999, 41.34918700000001], [-70.979229, 41.349643999999984], [-70.990748, 41.351288999999994], [-70.99947999999999, 41.354103], [-71.006315, 41.357319], [-71.014799, 41.362019999999994], [-71.020472, 41.366723], [-71.02610299999999, 41.37169300000001], [-71.032701, 41.38027300000001], [-71.037211, 41.388908000000015], [-71.039918, 41.398259], [-71.038114, 41.405453], [-71.033604, 41.41408500000001], [-71.053451, 41.41695899999999], [-71.07240399999999, 41.42557], [-71.085038, 41.433467], [-71.088571, 41.431315], [-71.116404, 41.484567999999996], [-71.041373, 41.48420000000001], [-71.041236, 41.480332000000004], [-71.033164, 41.480332000000004], [-71.033164, 41.484162000000005], [-71.00413, 41.48403099999999], [-70.97450900000001, 41.454138], [-70.95682099999999, 41.46247200000001], [-70.91481, 41.483092], [-70.879213, 41.50010599999999], [-70.864314, 41.507397000000005], [-70.896936, 41.556905000000015], [-70.911743, 41.58184], [-70.878749, 41.591791999999984], [-70.89728099999999, 41.61340400000001], [-70.90408099999999, 41.62100399999999], [-70.90600599999999, 41.623850000000026], [-70.90294899999999, 41.624576999999995], [-70.90281399999999, 41.624525000000006], [-70.90290999999999, 41.62404200000001], [-70.90254399999999, 41.623872], [-70.90027599999999, 41.62414], [-70.895828, 41.62413900000001], [-70.895828, 41.624281999999994], [-70.894928, 41.624430000000004], [-70.89334, 41.62510400000001], [-70.893643, 41.625301000000015], [-70.892662, 41.62611899999998], [-70.892735, 41.626239999999996], [-70.892223, 41.62653600000001], [-70.89173199999999, 41.627621999999995], [-70.89102199999999, 41.62820999999999], [-70.890699, 41.62899399999999], [-70.890018, 41.629724], [-70.889857, 41.63084399999999], [-70.88932199999999, 41.63141499999999], [-70.889307, 41.63217200000001], [-70.889563, 41.632655], [-70.890148, 41.63330299999999], [-70.891033, 41.633731999999995], [-70.89154400000001, 41.63430799999999], [-70.891325, 41.63428599999999], [-70.890857, 41.63374299999998], [-70.890126, 41.633501], [-70.88965, 41.633028], [-70.888919, 41.63279199999998], [-70.888561, 41.63235300000001], [-70.887844, 41.632352999999995], [-70.88752199999999, 41.63252799999999], [-70.887338, 41.632977999999994], [-70.88742599999999, 41.633351000000005], [-70.887177, 41.633944], [-70.88762299999999, 41.63408699999999], [-70.887089, 41.634191], [-70.886847, 41.634674], [-70.886554, 41.63471800000001], [-70.886935, 41.634361000000006], [-70.887016, 41.633905999999996], [-70.886167, 41.63318099999999], [-70.886299, 41.633092999999995], [-70.886928, 41.63367000000001], [-70.887148, 41.633417000000016], [-70.88716300000002, 41.633099], [-70.887097, 41.632709], [-70.886907, 41.632560999999995], [-70.885576, 41.63234599999999], [-70.884164, 41.631539000000004], [-70.883198, 41.631483], [-70.882862, 41.631125999999995], [-70.881794, 41.63110899999998], [-70.88101100000002, 41.63084600000001], [-70.879402, 41.63005400000001], [-70.879059, 41.629817999999965], [-70.87885399999999, 41.62925800000001], [-70.878181, 41.62898900000001], [-70.872965, 41.627607], [-70.87273800000001, 41.62719000000003], [-70.87205, 41.627092000000005], [-70.870432, 41.62587999999999], [-70.86942599999999, 41.62481699999998], [-70.86935199999999, 41.624274], [-70.86845799999999, 41.622726], [-70.868684, 41.621798], [-70.869393, 41.62124899999999], [-70.86909299999999, 41.620732999999994], [-70.868828, 41.61963600000001], [-70.869331, 41.61786800000001], [-70.86922799999999, 41.617440000000016], [-70.869367, 41.616962], [-70.86888300000001, 41.61596300000001], [-70.86889, 41.61572200000002], [-70.86913899999999, 41.615463999999996], [-70.869035, 41.61450299999998], [-70.86852999999999, 41.613762], [-70.867688, 41.613011000000014], [-70.867372, 41.611577999999994], [-70.866113, 41.610014], [-70.866266, 41.609268], [-70.865922, 41.60888399999999], [-70.86547399999999, 41.607775], [-70.864603, 41.60656200000002], [-70.864199, 41.604971000000006], [-70.863328, 41.60353899999999], [-70.863495, 41.602073000000004], [-70.863962, 41.601255], [-70.863581, 41.600832000000004], [-70.86323, 41.60083800000001], [-70.863267, 41.60102399999998], [-70.862887, 41.601095999999984], [-70.86278399999999, 41.600783], [-70.863061, 41.59983899999999], [-70.862951, 41.59867500000001], [-70.86278899999999, 41.598417000000005], [-70.861853, 41.597896000000006], [-70.862753, 41.597984000000004], [-70.863345, 41.59780799999999], [-70.863675, 41.599399], [-70.864231, 41.599557999999995], [-70.863997, 41.599893], [-70.86458999999999, 41.60064], [-70.864218, 41.601051000000005], [-70.86410099999999, 41.60161099999999], [-70.86434299999999, 41.601628000000005], [-70.866412, 41.600753999999995], [-70.86635199999999, 41.60021600000001], [-70.865855, 41.599629], [-70.86403299999999, 41.598300999999985], [-70.863944, 41.59700599999999], [-70.86365099999999, 41.59636900000002], [-70.86169, 41.595273], [-70.859839, 41.593632], [-70.859692, 41.593236999999995], [-70.859684, 41.592161000000004], [-70.859347, 41.591480999999995], [-70.85907499999999, 41.590147], [-70.858387, 41.588791], [-70.857816, 41.588346999999985], [-70.85751599999999, 41.587886], [-70.857339, 41.58593700000001], [-70.856994, 41.58430699999998], [-70.856723, 41.583709000000006], [-70.856036, 41.58291299999999], [-70.854361, 41.58207999999998], [-70.853447, 41.582195], [-70.852811, 41.58264599999999], [-70.853002, 41.583435999999985], [-70.852937, 41.584149999999994], [-70.853369, 41.585944000000026], [-70.853202, 41.58763500000002], [-70.853005, 41.588239], [-70.852508, 41.588563000000015], [-70.85217999999999, 41.589282], [-70.850974, 41.590337], [-70.85085, 41.591039], [-70.849959, 41.591961999999995], [-70.850566, 41.592577000000006], [-70.85023699999999, 41.593268], [-70.848841, 41.594097999999995], [-70.848461, 41.594575000000006], [-70.84764299999999, 41.594894], [-70.847628, 41.59514699999998], [-70.847292, 41.595476000000005], [-70.84539099999999, 41.595718], [-70.845098, 41.59569600000002], [-70.844498, 41.595115], [-70.842523, 41.593945999999995], [-70.842282, 41.593616999999995], [-70.842311, 41.59312799999999], [-70.842047, 41.592831999999994], [-70.842062, 41.593436000000004], [-70.842355, 41.594182], [-70.842801, 41.59440699999999], [-70.84299899999999, 41.594775], [-70.843285, 41.595379], [-70.843329, 41.596004], [-70.841735, 41.596334000000006], [-70.841777, 41.59651199999999], [-70.84157499999999, 41.596542000000014], [-70.841545, 41.596362000000006], [-70.838949, 41.59635699999999], [-70.837808, 41.595885], [-70.837639, 41.59559399999999], [-70.83764599999999, 41.59420000000001], [-70.837375, 41.59357999999998], [-70.83656300000001, 41.59289899999998], [-70.836383, 41.591984000000004], [-70.834968, 41.590692999999995], [-70.83371, 41.58884900000002], [-70.830967, 41.58583599999999], [-70.829124, 41.584233], [-70.82746399999999, 41.583365999999984], [-70.826726, 41.583327999999995], [-70.825205, 41.58290000000001], [-70.82334, 41.58274100000002], [-70.82226500000002, 41.582395], [-70.821842, 41.582471999999996], [-70.821615, 41.582912000000015], [-70.821783, 41.58475600000002], [-70.82168899999999, 41.58583200000001], [-70.820892, 41.587439999999994], [-70.819898, 41.58837900000002], [-70.81934199999999, 41.588654000000005], [-70.816951, 41.589279999999995], [-70.81641800000001, 41.59019599999999], [-70.816191, 41.591338], [-70.815818, 41.59178800000001], [-70.817039, 41.59163499999998], [-70.818254, 41.592351], [-70.820089, 41.596114000000014], [-70.823242, 41.59960400000001], [-70.824222, 41.599976999999996], [-70.824617, 41.600476999999984], [-70.824785, 41.601196], [-70.825458, 41.601498000000014], [-70.825846, 41.601414999999996], [-70.827097, 41.60204600000001], [-70.827696, 41.602156], [-70.828816, 41.60374200000001], [-70.829825, 41.60443399999998], [-70.83035199999999, 41.60547100000001], [-70.83085, 41.605844], [-70.831194, 41.60653], [-70.831581, 41.60651399999998], [-70.83183, 41.606223], [-70.831544, 41.60493299999999], [-70.831763, 41.603961000000005], [-70.831346, 41.60300599999998], [-70.831836, 41.60237500000001], [-70.831763, 41.601853000000006], [-70.832238, 41.601721999999995], [-70.832757, 41.602073000000004], [-70.83348099999999, 41.60180899999999], [-70.834103, 41.602000999999994], [-70.83428599999999, 41.60246199999998], [-70.834695, 41.602731000000006], [-70.834769, 41.60307099999999], [-70.83556600000001, 41.603449999999995], [-70.835332, 41.60387300000001], [-70.835639, 41.60387300000001], [-70.835588, 41.604175000000005], [-70.835852, 41.60433899999999], [-70.835837, 41.60467999999999], [-70.836137, 41.60497], [-70.836686, 41.60484900000001], [-70.840391, 41.605277], [-70.844428, 41.60628], [-70.847402, 41.60749599999999], [-70.84956, 41.60911699999997], [-70.849334, 41.610093000000006], [-70.85000000000001, 41.610312000000015], [-70.8512, 41.61106399999998], [-70.851705, 41.61192600000001], [-70.85237099999999, 41.61225499999999], [-70.853352, 41.613522], [-70.85398099999999, 41.613714], [-70.853887, 41.614148], [-70.854619, 41.616146000000015], [-70.854219, 41.618407999999995], [-70.854995, 41.618709], [-70.855119, 41.61912600000001], [-70.855105, 41.619806999999994], [-70.855442, 41.620651999999986], [-70.855194, 41.62198600000001], [-70.856416, 41.622297999999994], [-70.85681199999999, 41.622622], [-70.85732399999999, 41.62276499999999], [-70.85785899999999, 41.62366499999999], [-70.858195, 41.623835], [-70.85942399999999, 41.623785000000005], [-70.85942399999999, 41.62354299999998], [-70.859563, 41.623542999999984], [-70.86001, 41.62371799999999], [-70.860365, 41.624091], [-70.84931999999999, 41.624472000000004], [-70.842264, 41.624457], [-70.839175, 41.61476100000001], [-70.81327399999999, 41.607960000000006], [-70.804856, 41.612776000000004], [-70.801026, 41.61657300000001], [-70.800336, 41.61874100000001], [-70.80154399999999, 41.62116899999996], [-70.803891, 41.62506699999999], [-70.774624, 41.634933000000004], [-70.76294399999999, 41.639025000000004], [-70.75748, 41.64131999999999], [-70.756354, 41.642074999999984], [-70.755568, 41.64310400000001], [-70.75400599999999, 41.64579499999999], [-70.752498, 41.65038799999999], [-70.75186699999999, 41.660342000000014], [-70.750847, 41.669590999999976], [-70.749206, 41.668504999999996], [-70.699574, 41.643719000000004], [-70.686196, 41.669800999999985], [-70.67662899999999, 41.691129], [-70.67440400000001, 41.68960899999999], [-70.64370000000001, 41.717465000000004], [-70.64224399999999, 41.71922500000001], [-70.640276, 41.723609], [-70.640756, 41.72485700000001], [-70.639476, 41.726473000000006], [-70.639332, 41.729048999999996], [-70.63257999999999, 41.733656999999994], [-70.633268, 41.73546499999999], [-70.632676, 41.73788100000002], [-70.62598799999999, 41.74496899999999], [-70.623193, 41.745614999999994], [-70.62195, 41.746058999999995], [-70.620785, 41.747530000000005], [-70.621014, 41.74830300000001], [-70.621622, 41.748972], [-70.62515599999999, 41.75114399999999], [-70.62501200000001, 41.75404], [-70.629673, 41.760217000000004], [-70.630156, 41.761145000000006], [-70.631182, 41.76172199999999], [-70.631255, 41.76208399999998], [-70.63157, 41.76229800000001], [-70.63165, 41.762628], [-70.632274, 41.762623000000005], [-70.63255199999999, 41.762771000000015], [-70.632671, 41.76388199999999], [-70.634346, 41.76594800000001], [-70.63444, 41.766809999999985], [-70.635301, 41.768005999999986], [-70.63542699999999, 41.769009], [-70.63609699999999, 41.76999], [-70.636129, 41.770342], [-70.63584000000002, 41.770717000000005], [-70.63507, 41.771154], [-70.634252, 41.771359999999994], [-70.633547, 41.77189500000001], [-70.632825, 41.77305099999999], [-70.63296799999999, 41.77358], [-70.631637, 41.77449000000001], [-70.630915, 41.77469100000001], [-70.63060999999999, 41.775102], [-70.63033899999999, 41.775187], [-70.630162, 41.77562900000001], [-70.630065, 41.775980999999994], [-70.630256, 41.77619699999999], [-70.630031, 41.77655399999999], [-70.630256, 41.77710299999998], [-70.629341, 41.778794999999995], [-70.62942199999999, 41.779129999999995], [-70.629008, 41.779606], [-70.628963, 41.780374], [-70.6293, 41.780713999999996], [-70.630022, 41.780677], [-70.63050299999999, 41.780907], [-70.630505, 41.78133999999999], [-70.630763, 41.781853], [-70.630652, 41.782102999999985], [-70.63094099999999, 41.78243099999999], [-70.630686, 41.782484000000004], [-70.63078399999999, 41.78301299999998], [-70.630577, 41.78321700000001], [-70.630515, 41.783789], [-70.630788, 41.78393099999998], [-70.63058, 41.784184], [-70.630612, 41.78437599999999], [-70.630132, 41.78456799999999], [-70.630164, 41.78476], [-70.629828, 41.78503200000001], [-70.629908, 41.785591999999994], [-70.630516, 41.78604], [-70.630692, 41.786855999999986], [-70.630068, 41.787240000000004], [-70.62881999999999, 41.78707999999998], [-70.627284, 41.787351999999984], [-70.62678799999999, 41.78866400000002], [-70.624476, 41.792553000000005], [-70.616478, 41.80543900000001], [-70.632657, 41.806422], [-70.661493, 41.80476000000001], [-70.664875, 41.804375], [-70.678207, 41.803543999999995], [-70.681533, 41.80337900000001], [-70.683206, 41.803533], [-70.683903, 41.80349400000001], [-70.684449, 41.80317999999998], [-70.705759, 41.80212799999999], [-70.706937, 41.801737], [-70.707999, 41.802046999999995], [-70.74095200000001, 41.800371000000005], [-70.77013699999999, 41.825751], [-70.77160599999999, 41.82970999999999], [-70.77215699999999, 41.83039499999998], [-70.77192500000001, 41.831019], [-70.772397, 41.831705000000014], [-70.77365, 41.83187400000001], [-70.775093, 41.831607999999996], [-70.776535, 41.832218], [-70.777328, 41.83196299999998], [-70.778581, 41.831973], [-70.77891199999999, 41.831593999999996], [-70.779198, 41.83155699999999], [-70.779242, 41.831838000000005], [-70.779749, 41.832114], [-70.77961599999999, 41.83247299999998], [-70.779909, 41.83339400000001], [-70.780194, 41.83342], [-70.780063, 41.83314099999999], [-70.780317, 41.833023999999995], [-70.78083699999999, 41.833552], [-70.782361, 41.833639], [-70.783897, 41.83443900000001], [-70.784329, 41.834326], [-70.784441, 41.83389499999999], [-70.784649, 41.833845999999994], [-70.78508099999999, 41.834453999999994], [-70.785881, 41.835014], [-70.78629699999999, 41.83525400000001], [-70.78680899999999, 41.83525400000001], [-70.786745, 41.835893999999996], [-70.787802, 41.83613400000001], [-70.788378, 41.836454], [-70.788778, 41.83637400000001], [-70.789114, 41.836726], [-70.789322, 41.837141999999986], [-70.78913, 41.83800600000001], [-70.78864999999999, 41.83850200000001], [-70.78849, 41.839045999999996], [-70.787834, 41.839462000000005], [-70.787834, 41.839606], [-70.788426, 41.839830000000006], [-70.78817, 41.840390000000006], [-70.78815399999999, 41.840965999999995], [-70.788778, 41.841542], [-70.788986, 41.842710000000004], [-70.789258, 41.842741999999994], [-70.78967399999999, 41.843094], [-70.790234, 41.842918], [-70.790682, 41.84339800000001], [-70.790042, 41.843877999999975], [-70.789802, 41.844454000000006], [-70.789754, 41.845493999999995], [-70.790314, 41.846246], [-70.79151399999999, 41.846246], [-70.794426, 41.84923800000001], [-70.794781, 41.85090599999999], [-70.793662, 41.852926], [-70.79400799999999, 41.857262999999996], [-70.797197, 41.86103099999999], [-70.79894399999999, 41.860989999999994], [-70.801563, 41.86217200000001], [-70.80359800000001, 41.86411799999997], [-70.803488, 41.865162000000005], [-70.803302, 41.86540399999999], [-70.805852, 41.865984000000005], [-70.809146, 41.86866199999999], [-70.81164199999999, 41.873654], [-70.802415, 41.87531400000001], [-70.803686, 41.878729], [-70.815235, 41.91358899999999], [-70.823587, 41.92164499999999], [-70.824747, 41.92301399999998], [-70.827753, 41.925703], [-70.832263, 41.930460000000004], [-70.843516, 41.94079], [-70.84974, 41.94605899999999], [-70.859202, 41.953587000000006], [-70.86078400000001, 41.95540199999999], [-70.863044, 41.95687799999998], [-70.849184, 41.967402], [-70.822716, 41.98440099999999], [-70.81981499999999, 41.99284600000001], [-70.818727, 41.996564], [-70.806384, 42.010602], [-70.807484, 42.011501999999986], [-70.807284, 42.01300199999998], [-70.80798399999999, 42.013602], [-70.809484, 42.01540200000001], [-70.809484, 42.01670200000001], [-70.811184, 42.017502], [-70.812184, 42.01860200000001], [-70.81318399999999, 42.019202], [-70.812884, 42.022701999999995], [-70.814584, 42.024302], [-70.82135199999999, 42.02265], [-70.825683, 42.021350000000005], [-70.827022, 42.02153199999999], [-70.832083, 42.019864999999996], [-70.83347599999999, 42.01971299999999], [-70.83457899999999, 42.02160500000001], [-70.84011300000002, 42.03287000000001], [-70.844839, 42.042856], [-70.846156, 42.042629000000005], [-70.852501, 42.042627], [-70.85415100000002, 42.04277099999998]]]}}